{"type": "Feature","bbox": [23.7609,60.7411,25.2619,61.3227],"geometry": {"type": "MultiPolygon","coordinates": [[[[24.0537,60.8017,125.8032],[24.0628,60.8014,132.5794],[24.0617,60.7924,116.0],[24.0801,60.7919,116.0],[24.0795,60.7874,147.6261],[24.0979,60.7868,134.8092],[24.0996,60.8003,132.7521],[24.1088,60.8,131.2884],[24.1094,60.8045,135.2339],[24.1186,60.8042,134.1193],[24.1197,60.8132,130.4464],[24.1289,60.8129,137.6247],[24.1301,60.8218,154.2097],[24.1944,60.8199,123.4505],[24.1938,60.8154,116.5646],[24.2214,60.8145,137.6484],[24.2208,60.8101,118.9781],[24.23,60.8098,119.6019],[24.2288,60.8008,105.077],[24.238,60.8005,115.9385],[24.2374,60.796,119.7775],[24.2466,60.7957,108.3535],[24.246,60.7913,114.472],[24.2552,60.791,112.4181],[24.2546,60.7865,122.0525],[24.2638,60.7862,113.6786],[24.2644,60.7907,94.5568],[24.2736,60.7904,91.0],[24.2742,60.7949,91.0],[24.2834,60.7946,112.1554],[24.284,60.7991,92.571],[24.3023,60.7985,94.1051],[24.3017,60.794,101.6292],[24.3477,60.7925,105.2484],[24.3465,60.7836,113.8045],[24.3557,60.7833,117.0726],[24.355,60.7788,124.197],[24.3642,60.7785,128.5393],[24.3636,60.774,121.571],[24.3728,60.7737,121.0887],[24.3722,60.7692,126.7257],[24.3814,60.7689,124.6713],[24.3807,60.7645,123.5518],[24.3899,60.7642,122.8368],[24.3893,60.7597,131.8495],[24.3985,60.7594,128.2772],[24.3979,60.7549,155.8131],[24.4162,60.7543,136.6017],[24.4168,60.7588,152.9515],[24.4535,60.7576,123.2333],[24.4529,60.7531,121.6112],[24.4713,60.7525,133.6642],[24.4706,60.748,123.4586],[24.489,60.7474,145.6286],[24.4883,60.7429,130.4626],[24.4975,60.7426,133.351],[24.4988,60.7516,126.2097],[24.5171,60.751,90.5],[24.5165,60.7465,90.5],[24.5348,60.7459,108.8117],[24.5342,60.7414,149.763],[24.5434,60.7411,145.4638],[24.5459,60.759,93.2063],[24.5551,60.7587,103.0911],[24.5557,60.7632,92.8],[24.5924,60.7619,98.5741],[24.5918,60.7574,163.1562],[24.6285,60.7562,99.6532],[24.6298,60.7651,94.8102],[24.6206,60.7655,100.9901],[24.6225,60.7789,138.8738],[24.6317,60.7786,117.5952],[24.6311,60.7741,101.1736],[24.6494,60.7735,98.0485],[24.6488,60.769,107.3896],[24.6671,60.7683,98.6233],[24.6678,60.7728,101.1235],[24.6769,60.7725,117.7159],[24.6756,60.7636,100.3851],[24.6848,60.7633,97.8691],[24.6835,60.7543,93.6108],[24.7294,60.7527,104.2577],[24.73,60.7572,113.702],[24.7484,60.7565,108.0802],[24.7497,60.7655,85.3558],[24.7405,60.7658,87.6244],[24.7412,60.7703,85.5059],[24.732,60.7706,86.9783],[24.7333,60.7796,87.4671],[24.7242,60.7799,92.1977],[24.7255,60.7888,100.2748],[24.7163,60.7892,96.0838],[24.7196,60.8116,83.8158],[24.7288,60.8112,87.4895],[24.7321,60.8336,110.6761],[24.7413,60.8333,91.311],[24.7419,60.8378,83.1995],[24.7787,60.8365,94.7309],[24.7794,60.841,148.5724],[24.7978,60.8403,81.8729],[24.7985,60.8448,82.3907],[24.8076,60.8445,105.4683],[24.811,60.8669,107.3488],[24.8478,60.8656,83.8584],[24.8465,60.8566,85.0325],[24.8557,60.8563,88.2704],[24.855,60.8518,81.7172],[24.8642,60.8515,81.1771],[24.8635,60.847,88.1771],[24.8819,60.8463,80.976],[24.8812,60.8418,82.093],[24.8904,60.8415,86.0687],[24.8897,60.837,82.7835],[24.8989,60.8367,84.2269],[24.8996,60.8412,84.3529],[24.918,60.8405,92.5288],[24.9187,60.845,80.8958],[24.9371,60.8443,84.4796],[24.9378,60.8488,83.4419],[24.947,60.8485,99.7072],[24.9511,60.8753,86.8955],[24.9419,60.8757,86.6595],[24.9433,60.8846,101.9378],[24.9341,60.8849,91.9655],[24.9348,60.8894,106.3035],[24.944,60.8891,124.2795],[24.9716,60.8881,139.4462],[24.9709,60.8836,129.141],[25.017,60.8819,118.4947],[25.0162,60.8774,126.1068],[25.0347,60.8768,81.5],[25.0325,60.8633,85.8844],[25.0417,60.863,81.5],[25.041,60.8585,86.285],[25.087,60.8568,89.63],[25.0884,60.8657,93.6134],[25.1068,60.8651,90.7328],[25.109,60.8785,90.3272],[25.1097,60.8829,99.0973],[25.1005,60.8833,97.5046],[25.1041,60.9057,127.6819],[25.0949,60.906,101.9944],[25.097,60.9194,113.817],[25.0786,60.9201,118.8658],[25.0793,60.9246,93.7147],[25.0056,60.9274,113.4587],[25.0063,60.9318,113.2707],[25.0155,60.9315,103.5131],[25.0183,60.9494,128.7832],[25.0275,60.9491,139.2992],[25.0304,60.967,139.9093],[25.0396,60.9666,141.9922],[25.041,60.9756,123.0833],[25.0502,60.9753,118.6587],[25.051,60.9797,130.4479],[25.0602,60.9794,137.1123],[25.0616,60.9883,147.0795],[25.0524,60.9887,124.4282],[25.0538,60.9976,138.4935],[25.0446,60.998,137.4442],[25.0439,60.9935,142.0734],[25.0254,60.9942,142.9671],[25.0275,61.0076,143.2107],[25.0368,61.0073,149.6739],[25.0375,61.0117,156.2677],[25.0467,61.0114,154.9027],[25.0481,61.0204,131.7521],[25.0389,61.0207,141.1095],[25.0403,61.0297,153.2117],[25.0311,61.03,150.4811],[25.0318,61.0345,147.9879],[25.041,61.0341,144.8688],[25.0424,61.0431,155.9262],[25.0517,61.0428,152.951],[25.0524,61.0472,144.3042],[25.0617,61.0469,138.877],[25.0624,61.0514,102.0],[25.0809,61.0507,102.0],[25.0816,61.0551,102.0],[25.1094,61.0541,102.0],[25.1101,61.0586,102.0],[25.1378,61.0575,102.0],[25.1386,61.062,102.0],[25.1571,61.0613,102.0],[25.1585,61.0703,102.0],[25.1678,61.0699,102.0],[25.1685,61.0744,102.0],[25.1963,61.0733,102.0],[25.1978,61.0823,132.998],[25.207,61.0819,114.9182],[25.2107,61.1043,127.0143],[25.22,61.104,122.0659],[25.2207,61.1084,121.6439],[25.23,61.1081,150.2036],[25.2307,61.1126,135.5183],[25.24,61.1122,171.7167],[25.2415,61.1212,170.7699],[25.2508,61.1208,142.5688],[25.2523,61.1297,139.5083],[25.243,61.1301,129.3999],[25.2445,61.1391,134.3501],[25.2352,61.1394,135.3713],[25.2359,61.1439,140.5721],[25.2452,61.1435,137.1193],[25.246,61.148,140.9804],[25.2552,61.1477,133.9179],[25.259,61.17,139.175],[25.2497,61.1704,145.2136],[25.2504,61.1749,142.7852],[25.2512,61.1794,150.234],[25.2604,61.179,154.8263],[25.2619,61.1879,148.4886],[25.2527,61.1883,157.5009],[25.2534,61.1928,152.7166],[25.2441,61.1931,152.7532],[25.2449,61.1976,151.3877],[25.2356,61.198,156.4273],[25.2363,61.2024,177.9358],[25.227,61.2028,172.1018],[25.2277,61.2073,165.1009],[25.2185,61.2076,175.2123],[25.2192,61.2121,161.6701],[25.2099,61.2125,183.4841],[25.2114,61.2214,171.378],[25.2021,61.2218,166.7597],[25.205,61.2397,160.8362],[25.1678,61.2411,133.5],[25.1685,61.2456,159.3729],[25.1406,61.2466,167.8781],[25.1413,61.2511,168.2265],[25.1041,61.2525,154.2338],[25.1048,61.257,152.0136],[25.0955,61.2573,169.3952],[25.0948,61.2528,155.804],[25.0668,61.2539,177.8672],[25.0661,61.2494,180.0731],[25.0475,61.2501,158.588],[25.0468,61.2456,176.3438],[25.028199999999998,61.2463,122.5],[25.0303,61.2597,151.6084],[25.021,61.2601,153.34],[25.0231,61.2735,170.3126],[25.0138,61.2738,138.0465],[25.016,61.2873,106.5],[25.0066,61.2876,112.6989],[25.0059,61.2831,112.8095],[24.9966,61.2835,114.6594],[24.9959,61.279,103.1644],[24.9866,61.2793,101.9725],[24.9858,61.2749,93.0],[24.9672,61.2755,93.0],[24.9686,61.2845,94.1457],[24.9593,61.2848,93.0],[24.96,61.2893,105.5143],[24.9414,61.29,93.0],[24.9407,61.2855,113.7866],[24.922,61.2862,93.0],[24.9248,61.3041,102.7621],[24.9155,61.3044,112.8717],[24.9183,61.3223,99.2523],[24.909,61.3227,107.2477],[24.9076,61.3137,114.1556],[24.8982,61.314,122.64],[24.8968,61.3051,161.5541],[24.8875,61.3054,152.4663],[24.8854,61.292,110.0877],[24.8947,61.2917,100.6147],[24.894,61.2872,93.0],[24.8847,61.2875,113.866],[24.884,61.283,108.4145],[24.8654,61.2837,134.3885],[24.8647,61.2792,124.5425],[24.8367,61.2802,86.0],[24.836,61.2757,86.0],[24.8174,61.2764,89.8199],[24.8167,61.2719,112.6975],[24.7887,61.2729,125.0764],[24.7881,61.2684,125.0356],[24.7694,61.2691,125.3211],[24.7708,61.278,120.8328],[24.7615,61.2783,111.7853],[24.7628,61.2873,123.3594],[24.7535,61.2876,118.8456],[24.7548,61.2966,110.8282],[24.7455,61.2969,108.2115],[24.7469,61.3059,115.3938],[24.7375,61.3062,103.0019],[24.7389,61.3151,93.4535],[24.7295,61.3155,84.5],[24.7268,61.2976,84.5],[24.7175,61.2979,84.5],[24.7142,61.2755,86.0],[24.7048,61.2758,110.5755],[24.7042,61.2713,95.2201],[24.6762,61.2723,106.984],[24.6769,61.2767,86.0],[24.6489,61.2777,125.3477],[24.6496,61.2822,126.6834],[24.6216,61.2831,140.5568],[24.6222,61.2876,136.1452],[24.5943,61.2886,97.408],[24.5949,61.293,103.6232],[24.5856,61.2934,84.4472],[24.5862,61.2978,92.7067],[24.5769,61.2981,93.4973],[24.5776,61.3026,88.0],[24.5589,61.3032,117.035],[24.5583,61.2988,104.0406],[24.5489,61.2991,124.4418],[24.5483,61.2946,117.9049],[24.5296,61.2952,134.2489],[24.529,61.2907,124.5708],[24.5196,61.291,114.3417],[24.519,61.2866,106.6306],[24.5003,61.2872,111.9337],[24.4997,61.2827,125.4269],[24.4904,61.283,100.0154],[24.4897,61.2785,94.0303],[24.4804,61.2788,106.0583],[24.4798,61.2743,108.4226],[24.4704,61.2746,123.4074],[24.4698,61.2702,94.1937],[24.4605,61.2705,101.8108],[24.4598,61.266,108.1262],[24.4505,61.2663,116.64],[24.4499,61.2618,112.8533],[24.4406,61.2621,102.6361],[24.4399,61.2576,127.7929],[24.4306,61.2579,116.2081],[24.43,61.2534,122.4525],[24.4113,61.2541,106.5139],[24.4107,61.2496,83.0],[24.3921,61.2502,83.0],[24.3914,61.2457,83.0],[24.3635,61.2466,83.0],[24.3629,61.2421,119.4799],[24.3443,61.2427,134.4974],[24.3436,61.2382,127.4567],[24.325,61.2388,117.5423],[24.3244,61.2343,125.9597],[24.2871,61.2355,109.6261],[24.2877,61.24,95.0117],[24.2784,61.2403,95.4951],[24.2772,61.2313,89.3665],[24.2679,61.2316,86.6919],[24.2648,61.2092,78.5],[24.2742,61.2089,85.052],[24.2736,61.2044,78.5],[24.2829,61.2041,78.5],[24.2822,61.1996,78.5],[24.2915,61.1994,78.5],[24.2909,61.1949,78.5],[24.3002,61.1946,78.5],[24.2996,61.1901,78.5],[24.2903,61.1904,78.5],[24.2891,61.181399999999996,78.5],[24.2798,61.1817,93.5822],[24.2792,61.1772,78.5],[24.2699,61.1775,78.5],[24.2687,61.1686,78.5],[24.2594,61.1689,78.5],[24.2582,61.1599,78.5],[24.2489,61.1602,78.5],[24.2483,61.1557,78.5],[24.239,61.156,78.5],[24.2384,61.1515,78.5],[24.2198,61.1521,78.5],[24.2192,61.1476,78.5],[24.1914,61.1485,78.5],[24.1908,61.144,78.5],[24.1536,61.1451,78.5],[24.153,61.1406,78.5],[24.1344,61.1412,78.5],[24.1333,61.1322,130.1828],[24.1426,61.132,98.1546],[24.1414,61.123,110.0711],[24.1321,61.1233,113.2248],[24.1327,61.1278,119.2882],[24.0955,61.1289,109.4084],[24.095,61.1244,119.7359],[24.0671,61.1252,115.8197],[24.0665,61.1207,94.4532],[24.0294,61.1218,82.6371],[24.0288,61.1174,87.7844],[24.0103,61.1179,115.2297],[24.0097,61.1134,107.8559],[24.0004,61.1137,114.5358],[23.9999,61.1092,119.3904],[23.9813,61.1098,124.5263],[23.9807,61.1053,102.8879],[23.9622,61.1058,104.8068],[23.9616,61.1013,110.1658],[23.9523,61.1016,107.377],[23.9518,61.0971,105.902],[23.9332,61.0976,88.5287],[23.9327,61.0932,90.4313],[23.9234,61.0934,88.3595],[23.9228,61.089,91.9906],[23.9136,61.0892,106.9714],[23.913,61.0847,100.8797],[23.8945,61.0853,119.668],[23.8939,61.0808,119.1806],[23.8754,61.0813,121.3332],[23.8748,61.0768,127.127],[23.8563,61.0774,143.4674],[23.8557,61.0729,118.8859],[23.8464,61.0731,137.2908],[23.847,61.0776,140.412],[23.8284,61.0781,143.1438],[23.829,61.0826,132.5],[23.8197,61.0829,140.5347],[23.8192,61.0784,144.4557],[23.8006,61.0789,143.4872],[23.8001,61.0744,125.8043],[23.7908,61.0747,126.8055],[23.7903,61.0702,123.0154],[23.781,61.0705,155.081],[23.7805,61.066,140.4026],[23.7712,61.0662,142.9076],[23.7707,61.0617,145.6271],[23.7614,61.062,135.7029],[23.7609,61.0575,124.5],[23.7794,61.057,136.7349],[23.7789,61.0525,124.5],[23.8067,61.0518,130.5674],[23.8051,61.0383,160.8309],[23.7958,61.0386,162.517],[23.7942,61.0251,135.0045],[23.8127,61.0246,130.4732],[23.8133,61.0291,142.9034],[23.8318,61.0285,150.4748],[23.8323,61.0331,157.7409],[23.8508,61.0325,132.619],[23.8514,61.037,150.8175],[23.8699,61.0365,108.0],[23.8688,61.0275,109.1002],[23.878,61.0272,127.2853],[23.877,61.0183,109.2437],[23.8677,61.0186,123.6085],[23.8672,61.0141,116.8169],[23.8579,61.0143,112.8611],[23.8574,61.0098,115.716],[23.8481,61.0101,114.4573],[23.8476,61.0056,128.3182],[23.8291,61.0061,109.0],[23.8285,61.0017,109.0],[23.8193,61.0019,116.1304],[23.8187,60.9974,128.7098],[23.828,60.9972,129.9955],[23.8274,60.9927,113.9001],[23.8367,60.9924,120.834],[23.8361,60.9879,144.8824],[23.8454,60.9877,143.4166],[23.8448,60.9832,136.1713],[23.8541,60.983,156.9672],[23.853,60.974,143.0858],[23.8715,60.9735,158.5078],[23.8709,60.969,151.3529],[23.9172,60.9677,158.0779],[23.9166,60.9632,153.9518],[23.9536,60.9621,151.8824],[23.953,60.9576,147.9311],[23.9715,60.9571,150.6601],[23.9709,60.9526,149.3666],[23.9617,60.9529,150.3582],[23.9611,60.9484,147.4187],[23.9519,60.9487,145.3975],[23.9513,60.9442,148.1546],[23.9698,60.9436,156.274],[23.9692,60.9391,147.8624],[23.9969,60.9383,140.6521],[23.9964,60.9338,158.5743],[24.0148,60.9333,136.5],[24.0142,60.9288,136.5],[24.0235,60.9286,162.5492],[24.0224,60.9196,155.9069],[24.0131,60.9198,164.8298],[24.0109,60.9019,126.9018],[24.0017,60.9022,144.0979],[23.9994,60.8843,135.3389],[23.9902,60.8845,134.1717],[23.9891,60.8756,142.4831],[23.9983,60.8753,133.9338],[23.9977,60.8708,135.093],[24.0069,60.8705,143.9038],[24.0064,60.8661,140.3168],[24.0156,60.8658,138.2742],[24.015,60.8613,123.6385],[24.0242,60.861,142.4968],[24.0237,60.8566,128.1269],[24.0329,60.8563,133.4338],[24.0323,60.8518,143.6648],[24.0415,60.8515,133.9384],[24.0409,60.847,136.2586],[24.0501,60.8468,139.7906],[24.049,60.8378,131.1926],[24.0582,60.8375,135.8485],[24.0576,60.833,132.2964],[24.0571,60.8286,135.7684],[24.0479,60.8288,141.2289],[24.0456,60.8109,136.129],[24.0548,60.8106,124.2735],[24.0537,60.8017,125.8032]]]]}
,"properties": {"GID_3": "FIN.5.9.2_1","GID_0": "FIN","country": "Finland","GID_1": "FIN.5_1","province": "WesternFinland","NL_NAME_1": "NA","GID_2": "FIN.5.9_1","county": "TavastiaProper","NL_NAME_2": "NA","city": "Hämeenlinna","VARNAME_3": "NA","NL_NAME_3": "NA","TYPE_3": "Seutukunta|Ekonomiskregion","ENGTYPE_3": "Sub-Region","CC_3": "NA","HASC_3": "FI.ES.HM","name": "Hämeenlinna.city","area_km2": 3061.548,"hist_schema_id": "Elevation0-9000","hist_area_km2": {"75": 379.649,"100": 923.791,"125": 1029.052,"150": 631.958,"175": 96.148,"200": 0.95}}}