{"type":"Feature","properties":{"GID_3":"FIN.3.2.4_1","GID_0":"FIN","country":"Finland","GID_1":"FIN.3_1","province":"Oulu","NL_NAME_1":"NA","GID_2":"FIN.3.2_1","county":"NorthernOstrobothnia","NL_NAME_2":"NA","city":"Oulunkaari","VARNAME_3":"NA","NL_NAME_3":"NA","TYPE_3":"Seutukunta|Ekonomiskregion","ENGTYPE_3":"Sub-Region","CC_3":"NA","HASC_3":"NA","name":"Oulunkaari.city"},
"geometry":{"type": "MultiPolygon","coordinates": [[[[26.0176,65.1852,66.706],[26.0186,65.1897,68.851],[25.9973,65.1905,65.3564],[25.9963,65.186,65.3205],[25.9856,65.1864,67.0425],[25.9826,65.173,65.9181],[25.972,65.1734,66.2225],[25.971,65.169,64.1364],[25.9816,65.1686,61.9995],[25.9806,65.1641,63.0141],[25.9912,65.1637,63.5592],[25.9902,65.1592,63.6223],[26.0009,65.1588,66.7052],[25.9999,65.1543,63.0491],[26.0105,65.1539,69.0874],[26.0085,65.1449,61.8039],[26.0191,65.1445,64.8669],[26.0181,65.1401,65.7201],[26.05,65.1388,68.9588],[26.049,65.1343,70.338],[26.0596,65.1339,84.4822],[26.0576,65.125,66.948],[26.0682,65.1245,66.0934],[26.0672,65.1201,67.8322],[26.0778,65.1197,68.962],[26.0768,65.1152,79.0331],[26.0662,65.1156,75.9688],[26.0642,65.1067,79.7042],[26.0536,65.1071,74.3946],[26.0525,65.1026,78.3483],[26.0419,65.103,71.2778],[26.0409,65.0985,70.0628],[26.0303,65.099,69.9186],[26.0293,65.0945,70.1227],[26.0187,65.0949,70.7785],[26.0177,65.0904,74.7708],[26.0071,65.0908,68.217],[26.0041,65.0774,67.36],[25.9935,65.0778,65.5],[25.9905,65.0644,60.7644],[25.9799,65.0648,68.4268],[25.9769,65.0514,66.4291],[25.9027,65.0542,69.6814],[25.9007,65.0453,67.498],[25.8901,65.0457,64.6969],[25.8882,65.0367,62.6203],[25.8776,65.0371,56.4094],[25.8746,65.0237,72.0947],[25.864,65.0241,68.7879],[25.8631,65.0196,79.6962],[25.8842,65.0188,68.3333],[25.8833,65.0144,85.8655],[25.915,65.0132,66.8685],[25.914,65.0087,69.8003],[25.9352,65.0079,61.0518],[25.9342,65.0034,69.323],[25.9553,65.0026,62.6779],[25.9544,64.9981,58.7525],[25.9861,64.9969,78.7792],[25.9851,64.9924,62.1186],[26.0062,64.9915,70.1282],[26.0052,64.9871,62.8858],[26.0369,64.9858,70.6298],[26.0349,64.9769,73.1641],[26.0666,64.9756,65.2361],[26.0656,64.9712,70.4338],[26.2029,64.9657,89.1511],[26.1998,64.9523,69.6632],[26.2104,64.9518,69.5048],[26.2093,64.9474,69.501],[26.2199,64.9469,73.469],[26.2209,64.9514,91.3441],[26.2526,64.9501,76.956],[26.2515,64.9457,76.1157],[26.2621,64.9452,79.0333],[26.261,64.9408,77.2845],[26.2716,64.9403,77.7286],[26.2695,64.9314,73.1179],[26.259,64.9318,75.2018],[26.2579,64.9273,75.7187],[26.2474,64.9278,72.3787],[26.2464,64.9233,76.4174],[26.2358,64.9237,74.7113],[26.2337,64.9148,72.9625],[26.2654,64.9135,75.6204],[26.2643,64.909,80.0683],[26.2749,64.9086,74.1523],[26.2728,64.8996,76.4779],[26.2622,64.9001,79.0655],[26.2612,64.8956,76.8782],[26.2507,64.896,80.9832],[26.2476,64.8826,73.8812],[26.2686,64.8817,75.1739],[26.2676,64.8773,76.9302],[26.2781,64.8768,76.6994],[26.2771,64.8724,80.0909],[26.2981,64.8715,75.3179],[26.2971,64.867,77.3367],[26.3076,64.8666,77.526],[26.3065,64.8621,75.9032],[26.3276,64.8613,82.4738],[26.3265,64.8568,80.0245],[26.337,64.8564,81.5681],[26.3381,64.8608,81.2989],[26.3591,64.8599,86.1847],[26.3581,64.8555,84.7017],[26.3686,64.855,87.314],[26.3675,64.8506,85.3574],[26.3886,64.8497,89.3607],[26.3875,64.8452,87.3982],[26.398,64.8448,87.3872],[26.397,64.8403,86.5444],[26.418,64.8394,88.5015],[26.4169,64.835,85.8797],[26.4379,64.8341,91.109],[26.4369,64.8296,82.5],[26.4474,64.8292,82.5],[26.442,64.8068,81.7432],[26.4211,64.8077,80.8213],[26.42,64.8032,82.1203],[26.4095,64.8037,81.7752],[26.4084,64.7992,84.2602],[26.3875,64.8001,84.71],[26.3864,64.7956,84.2183],[26.3549,64.7969,79.1562],[26.356,64.8014,79.7856],[26.335,64.8023,80.5061],[26.3361,64.8067,80.8113],[26.3151,64.8076,84.3597],[26.3161,64.8121,83.3017],[26.2846,64.8134,76.9754],[26.2856,64.8178,77.5928],[26.2646,64.8187,77.1937],[26.2657,64.8232,81.0988],[26.2552,64.8236,80.3578],[26.2583,64.837,75.9786],[26.2478,64.8374,75.503],[26.2509,64.8509,75.5563],[26.2403,64.8513,74.9475],[26.2424,64.8602,73.6125],[26.2319,64.8607,73.321],[26.235,64.8741,71.9375],[26.2139,64.8749,77.7457],[26.2119,64.866,72.5829],[26.2224,64.8656,72.887],[26.2173,64.8432,75.6678],[26.2278,64.8428,76.0176],[26.2257,64.8338,73.7032],[26.2152,64.8343,70.0],[26.2163,64.8387,72.4622],[26.1952,64.8396,76.3241],[26.1932,64.8306,72.6317],[26.1827,64.8311,73.7717],[26.1796,64.8176,82.8129],[26.1901,64.8172,76.9467],[26.1891,64.8127,83.616],[26.1996,64.8123,78.7491],[26.1986,64.8078,81.2152],[26.2091,64.8074,78.1709],[26.208,64.8029,81.9122],[26.2185,64.8025,80.6884],[26.2175,64.798,83.829],[26.228,64.7976,81.2543],[26.227,64.7931,81.7697],[26.2375,64.7927,79.6207],[26.2364,64.7882,81.964],[26.2469,64.7878,78.8058],[26.2459,64.7833,80.2732],[26.2564,64.7829,78.7889],[26.2543,64.774,83.9134],[26.2648,64.7735,81.0618],[26.2638,64.7691,82.0177],[26.2743,64.7686,79.372],[26.2732,64.7642,84.2074],[26.2837,64.7637,78.3969],[26.2816,64.7548,81.9101],[26.2921,64.7543,78.8151],[26.29,64.7454,76.3177],[26.2796,64.7458,82.0601],[26.2785,64.7414,76.6484],[26.2681,64.7418,77.9962],[26.266,64.7328,77.2096],[26.2765,64.7324,83.1313],[26.2744,64.7235,79.6751],[26.2849,64.7231,81.3595],[26.2838,64.7186,86.0496],[26.2943,64.7181,87.7793],[26.2953,64.7226,84.4573],[26.3058,64.7222,86.5822],[26.3068,64.7267,78.348],[26.3278,64.7258,86.9936],[26.3288,64.7303,79.4517],[26.3393,64.7298,85.5252],[26.3382,64.7253,84.6271],[26.3487,64.7249,84.2352],[26.3466,64.716,84.862],[26.3571,64.7155,82.9271],[26.3539,64.7021,86.5301],[26.3435,64.7025,92.1122],[26.3404,64.6891,94.3724],[26.3508,64.6887,89.2315],[26.3498,64.6842,96.0511],[26.3602,64.6838,95.4446],[26.3592,64.6793,102.3424],[26.3696,64.6789,102.4771],[26.3675,64.6699,103.6692],[26.378,64.6695,105.7536],[26.3769,64.665,105.2738],[26.3874,64.6646,103.6707],[26.3832,64.6467,111.7233],[26.3727,64.6471,115.1856],[26.3686,64.6293,105.0375],[26.3582,64.6297,100.5653],[26.3602,64.6386,109.6922],[26.3498,64.6391,97.8196],[26.3508,64.6435,106.6417],[26.3404,64.644,96.2652],[26.3425,64.6529,109.2438],[26.3216,64.6538,98.7799],[26.3206,64.6493,94.2308],[26.2788,64.651,88.4221],[26.2778,64.6466,81.7632],[26.2361,64.6483,76.5701],[26.234,64.6394,79.6634],[26.2549,64.6385,80.9668],[26.2539,64.634,79.6591],[26.2747,64.6332,78.7164],[26.2737,64.6287,85.1161],[26.2841,64.6283,83.9416],[26.2831,64.6238,86.4495],[26.3039,64.6229,85.11],[26.3029,64.6185,88.1762],[26.3133,64.618,90.5187],[26.3123,64.6135,89.9428],[26.3227,64.6131,92.7246],[26.3217,64.6086,95.1991],[26.3113,64.6091,91.1751],[26.3102,64.6046,90.6587],[26.2998,64.605,88.6093],[26.2988,64.6006,87.967],[26.2884,64.601,89.308],[26.2873,64.5965,84.5727],[26.4123,64.5913,125.047],[26.4176,64.6136,117.1426],[26.4384,64.6128,124.9068],[26.4394,64.6172,118.2762],[26.4499,64.6168,121.1108],[26.4509,64.6213,117.1132],[26.4613,64.6208,118.0558],[26.4603,64.6163,121.7962],[26.4707,64.6159,123.5897],[26.4696,64.6114,143.8398],[26.4801,64.611,137.4774],[26.4779,64.6021,153.7602],[26.4884,64.6016,131.5],[26.4873,64.5971,153.7229],[26.4977,64.5967,156.4424],[26.4967,64.5922,151.7017],[26.5071,64.5918,156.5159],[26.506,64.5873,158.2468],[26.4956,64.5878,145.3382],[26.4945,64.5833,149.7817],[26.4737,64.5842,142.4553],[26.4727,64.5797,169.6821],[26.4623,64.5801,159.5583],[26.4612,64.5757,151.0652],[26.4508,64.5761,139.3283],[26.4497,64.5716,141.45],[26.4601,64.5712,137.4126],[26.4591,64.5667,148.3254],[26.4799,64.5658,162.1043],[26.4788,64.5614,144.7377],[26.5516,64.5582,165.3125],[26.5527,64.5627,168.1879],[26.5423,64.5632,177.4921],[26.5434,64.5676,163.7597],[26.533,64.5681,180.2384],[26.5351,64.577,130.5559],[26.5559,64.5761,122.408],[26.557,64.5806,126.5544],[26.5674,64.5801,119.3211],[26.5663,64.5757,123.0773],[26.5767,64.5752,121.0369],[26.5821,64.5976,117.1638],[26.5925,64.5971,113.4845],[26.5957,64.6105,106.1737],[26.6061,64.6101,110.4406],[26.6072,64.6145,106.8385],[26.6176,64.6141,106.1781],[26.6187,64.6186,108.1691],[26.6395,64.6177,112.1934],[26.6406,64.6221,107.9452],[26.6511,64.6217,108.1038],[26.6543,64.6351,108.7306],[26.6439,64.6355,108.9379],[26.6461,64.6445,106.0046],[26.6356,64.6449,102.0568],[26.6367,64.6494,100.9523],[26.6472,64.6489,105.2399],[26.6482,64.6534,105.2498],[26.6587,64.653,107.9047],[26.6576,64.6485,109.0354],[26.668,64.648,110.7232],[26.6669,64.6435,105.771],[26.6774,64.6431,108.0134],[26.6763,64.6386,110.0988],[26.7075,64.6373,123.5116],[26.7086,64.6417,120.4132],[26.7295,64.6408,122.8913],[26.7306,64.6453,125.7256],[26.741,64.6448,127.4748],[26.7421,64.6493,130.1252],[26.763,64.6484,127.5551],[26.7641,64.6528,129.0249],[26.7849,64.6519,135.0592],[26.786,64.6564,129.6831],[26.8069,64.6554,130.4775],[26.808,64.6599,129.4887],[26.8393,64.6585,130.8948],[26.8416,64.6674,132.2277],[26.852,64.667,137.9795],[26.8576,64.6893,136.4224],[26.8785,64.6883,136.7775],[26.8808,64.6973,140.1765],[26.9016,64.6963,142.6922],[26.9039,64.7053,144.3221],[26.8935,64.7057,137.5305],[26.898,64.7236,134.0345],[26.9084,64.7231,138.0403],[26.9107,64.7321,137.8482],[26.8898,64.733,136.984],[26.8921,64.742,136.0483],[26.9025,64.7415,136.8033],[26.9071,64.7594,136.1904],[26.9175,64.7589,134.0644],[26.9187,64.7634,135.314],[26.9292,64.7629,137.6145],[26.9303,64.7673,134.3715],[26.9408,64.7669,140.0506],[26.9419,64.7713,140.7436],[26.9524,64.7709,143.4568],[26.9535,64.7753,143.9281],[26.964,64.7748,148.4194],[26.9651,64.7793,141.7567],[26.9756,64.7788,143.5024],[26.9767,64.7833,142.7452],[26.9872,64.7828,142.7495],[26.9884,64.7873,148.7062],[26.9989,64.7868,147.0529],[27.0,64.7913,147.3737],[27.021,64.7903,148.6154],[27.0221,64.7948,147.5495],[27.0326,64.7943,151.2784],[27.0338,64.7988,150.7955],[27.0442,64.7983,152.3626],[27.0454,64.8028,151.531],[27.0559,64.8023,152.037],[27.057,64.8067,155.6844],[27.0675,64.8063,157.3413],[27.0687,64.8107,155.1408],[27.0792,64.8102,155.4223],[27.0803,64.8147,146.1725],[27.0908,64.8142,148.0417],[27.092,64.8187,150.2048],[27.1025,64.8182,149.7608],[27.1037,64.8227,145.9362],[27.1141,64.8222,151.8343],[27.1153,64.8266,147.9902],[27.1258,64.8261,156.1961],[27.127,64.8306,140.4174],[27.1375,64.8301,147.5771],[27.1387,64.8346,152.3964],[27.2016,64.8316,154.8002],[27.2004,64.8272,146.1576],[27.2738,64.8237,153.0743],[27.2726,64.8192,152.2046],[27.3355,64.8162,171.1944],[27.3343,64.8118,178.3153],[27.3553,64.8108,184.7119],[27.3565,64.8152,179.8558],[27.367,64.8147,179.5631],[27.3706,64.8281,168.1224],[27.3811,64.8276,175.9559],[27.3823,64.8321,160.4604],[27.3718,64.8326,160.8679],[27.3731,64.837,160.0046],[27.3626,64.8375,161.5022],[27.3638,64.842,160.6736],[27.3743,64.8415,160.5592],[27.3755,64.846,165.5503],[27.3965,64.8449,161.6301],[27.4014,64.8628,168.9975],[27.3909,64.8633,168.5913],[27.3933,64.8722,168.8815],[27.3828,64.8727,164.3604],[27.3853,64.8817,166.9395],[27.3748,64.8822,163.8664],[27.3796,64.9,164.1102],[27.3901,64.8995,161.7888],[27.395,64.9174,141.9383],[27.4056,64.9169,143.8371],[27.4092,64.9303,139.3319],[27.3987,64.9308,139.6301],[27.3999,64.9352,150.1278],[27.3894,64.9358,146.8663],[27.3906,64.9402,144.8534],[27.3801,64.9407,143.0759],[27.3813,64.9452,141.8622],[27.3919,64.9447,146.3528],[27.3943,64.9536,169.3999],[27.3838,64.9541,178.298],[27.3862,64.963,143.3595],[27.3757,64.9635,143.1878],[27.3769,64.968,142.7676],[27.3664,64.9685,141.1373],[27.3676,64.973,140.5271],[27.3571,64.9735,140.7519],[27.3583,64.978,138.4188],[27.3477,64.9784,141.0314],[27.349,64.9829,137.7483],[27.3384,64.9834,139.3913],[27.3396,64.9879,138.676],[27.3291,64.9884,137.8064],[27.3303,64.9929,136.7049],[27.3197,64.9934,138.0313],[27.321,64.9978,139.7443],[27.3104,64.9983,137.6534],[27.3116,65.0028,139.4623],[27.3011,65.0033,139.4379],[27.3023,65.0078,135.4427],[27.2917,65.0083,141.0388],[27.2929,65.0127,137.2581],[27.2824,65.0132,141.0372],[27.2836,65.0177,139.9629],[27.273,65.0182,142.3751],[27.2742,65.0227,140.7377],[27.2637,65.0232,141.4252],[27.2673,65.0366,137.5465],[27.2779,65.0361,140.4159],[27.2815,65.0495,136.2942],[27.2921,65.0489,135.6712],[27.2957,65.0623,133.5932],[27.3063,65.0618,137.8601],[27.31,65.0752,151.6733],[27.3205,65.0747,143.3748],[27.3242,65.0881,181.6041],[27.3348,65.0876,179.9686],[27.336,65.0921,171.7938],[27.4737,65.0855,165.9122],[27.4749,65.0899,166.2561],[27.5173,65.0879,170.1355],[27.5185,65.0924,178.4993],[27.5608,65.0903,180.9899],[27.5621,65.0947,187.6236],[27.5833,65.0937,185.7101],[27.5845,65.0982,197.7187],[27.5951,65.0976,192.5413],[27.5964,65.1021,196.6621],[27.607,65.1016,196.1767],[27.6082,65.106,206.353],[27.6188,65.1055,211.6496],[27.6201,65.11,222.2771],[27.6307,65.1095,239.8022],[27.632,65.1139,252.694],[27.653199999999998,65.1129,279.5698],[27.6544,65.1173,294.811],[27.665,65.1168,329.9543],[27.6663,65.1213,334.2216],[27.6981,65.1197,243.8108],[27.6968,65.1152,243.0532],[27.7498,65.1126,194.8722],[27.7485,65.1081,190.2599],[27.8014,65.1055,197.6737],[27.8001,65.101,183.027],[27.8636,65.0977,239.8426],[27.8623,65.0933,221.5529],[27.894,65.0917,308.0779],[27.898,65.105,226.3013],[27.9086,65.1045,259.373],[27.9218,65.1491,233.8513],[27.9324,65.1486,297.1773],[27.9497,65.2065,142.89],[27.9603,65.206,140.9153],[27.9617,65.2104,161.7673],[27.9723,65.2099,160.447],[27.9736,65.2143,157.7048],[27.9843,65.2138,162.3555],[27.9856,65.2183,156.2488],[27.9962,65.2177,150.0766],[27.9976,65.2222,155.9131],[28.0082,65.2216,155.0789],[28.0109,65.2306,170.2774],[28.0215,65.23,174.0314],[28.0229,65.2345,165.217],[28.0335,65.2339,165.9604],[28.0348,65.2384,168.6722],[28.0561,65.2373,175.7036],[28.0575,65.2417,165.9564],[28.0894,65.2401,188.5517],[28.090699999999998,65.2445,173.5819],[28.112,65.2434,207.7359],[28.1134,65.2479,188.1301],[28.1453,65.2462,205.0963],[28.1466,65.2506,183.6429],[28.1679,65.2495,191.1547],[28.1693,65.254,192.0752],[28.1586,65.2545,181.6663],[28.1641,65.2724,208.4059],[28.1535,65.2729,199.954],[28.159,65.2908,178.8333],[28.1483,65.2913,181.1145],[28.1538,65.3091,200.9968],[28.1432,65.3097,209.4212],[28.1445,65.3142,202.9517],[28.1232,65.3153,205.2312],[28.1259,65.3242,210.8579],[28.1153,65.3248,210.8037],[28.118,65.3337,211.6917],[28.1287,65.3331,211.2017],[28.1314,65.342,237.5304],[28.1208,65.3426,230.0654],[28.1221,65.3471,239.3098],[28.1115,65.3476,235.593],[28.1128,65.3521,230.4591],[28.1021,65.3526,215.5552],[28.1035,65.3571,198.5246],[28.0821,65.3582,200.9134],[28.0835,65.3627,212.401],[28.0728,65.3632,217.6323],[28.0742,65.3677,221.8749],[28.0635,65.3682,223.0433],[28.0649,65.3727,222.7622],[28.0435,65.3738,218.0431],[28.0448,65.3783,225.2358],[28.0342,65.3788,216.7181],[28.0355,65.3833,217.9901],[28.0248,65.3838,224.9909],[28.0262,65.3883,220.2507],[28.0155,65.3888,231.3146],[28.0168,65.3933,229.359],[27.9954,65.3944,237.9157],[27.9968,65.3988,228.6985],[27.9861,65.3994,262.2032],[27.9874,65.4038,234.193],[27.8697,65.4098,215.2764],[27.8684,65.4054,173.5898],[27.847,65.4065,166.7351],[27.8483,65.4109,187.2891],[27.8269,65.412,166.2946],[27.8309,65.4254,159.949],[27.8094,65.4265,160.0477],[27.8107,65.4309,161.6557],[27.7786,65.4325,171.6123],[27.7799,65.437,173.8702],[27.8014,65.4359,173.5461],[27.8027,65.4404,165.4032],[27.8134,65.4398,165.7188],[27.8147,65.4443,170.9399],[27.8254,65.4438,163.7137],[27.8281,65.4527,166.5667],[27.8174,65.4532,169.9739],[27.8227,65.4711,200.0616],[27.8119,65.4716,211.0173],[27.8159,65.485,199.9804],[27.8052,65.4855,203.2739],[27.8065,65.49,200.0121],[27.7958,65.4905,197.4968],[27.7984,65.4995,208.0193],[27.7877,65.5,208.8135],[27.789,65.5044,216.6315],[27.7783,65.505,200.4474],[27.8235,65.6567,348.6961],[27.8127,65.6572,330.0909],[27.814,65.6617,336.0006],[27.8032,65.6622,359.5418],[27.8072,65.6756,276.8592],[27.7964,65.6761,254.3101],[27.8004,65.6895,261.0669],[27.7896,65.6901,278.9173],[27.7949,65.7079,227.1391],[27.7841,65.7084,223.624],[27.7881,65.7218,229.6871],[27.7773,65.7224,232.2591],[27.7813,65.7357,227.2076],[27.7705,65.7363,221.0064],[27.7758,65.7541,262.8108],[27.765,65.7547,267.7482],[27.7676,65.7636,254.1843],[27.7568,65.7641,264.7658],[27.7581,65.7686,249.6574],[27.7364,65.7697,274.7146],[27.7377,65.7741,251.3753],[27.7269,65.7747,260.1826],[27.7282,65.7791,254.6694],[27.7173,65.7796,252.2228],[27.7187,65.7841,251.2078],[27.7295,65.7836,245.2443],[27.7335,65.797,342.771],[27.7444,65.7964,355.6323],[27.7511,65.8187,315.2046],[27.7619,65.8182,304.6771],[27.77,65.845,341.2729],[27.7591,65.8455,325.3537],[27.7604,65.85,336.8394],[27.7495,65.8505,283.1982],[27.7522,65.8594,341.9236],[27.7413,65.86,313.2581],[27.7427,65.8644,332.0033],[27.7318,65.865,322.1474],[27.7344,65.8739,284.7688],[27.7235,65.8744,260.1462],[27.7262,65.8834,257.7879],[27.7153,65.8839,251.0255],[27.7167,65.8883,257.1675],[27.7057,65.8889,271.44],[27.7084,65.8978,308.5754],[27.6975,65.8983,329.4488],[27.6988,65.9028,319.1129],[27.6879,65.9033,314.3535],[27.6919,65.9167,262.2739],[27.681,65.9172,278.2],[27.6837,65.9262,237.9819],[27.6727,65.9267,231.8517],[27.6767,65.9401,244.613],[27.6658,65.9406,240.6832],[27.6685,65.9495,229.3792],[27.6575,65.9501,230.7081],[27.6602,65.959,215.1451],[27.6383,65.96,213.2038],[27.637,65.9556,211.504],[27.6151,65.9566,216.3929],[27.6138,65.9522,213.7644],[27.5919,65.9532,212.7075],[27.5893,65.9443,222.1688],[27.5784,65.9448,213.4672],[27.5757,65.9359,222.8453],[27.5648,65.9364,211.2701],[27.5635,65.9319,210.8334],[27.5744,65.9314,211.9977],[27.5738,65.9291,215.6626],[27.5731,65.927,226.614],[27.5622,65.9275,210.5256],[27.5609,65.923,208.7523],[27.539,65.9241,205.5886],[27.5403,65.9285,204.5715],[27.5185,65.9296,202.4453],[27.5198,65.934,209.1566],[27.5089,65.9345,205.5967],[27.5102,65.939,217.9622],[27.4992,65.9395,212.0623],[27.5005,65.944,233.0975],[27.4786,65.945,206.822],[27.4799,65.9495,224.1739],[27.469,65.95,216.2194],[27.4703,65.9545,219.5761],[27.4594,65.955,210.9661],[27.4607,65.9594,218.2788],[27.4388,65.9604,205.5632],[27.4362,65.9515,206.9523],[27.4253,65.952,202.2297],[27.4227,65.9431,199.77],[27.4118,65.9436,201.6539],[27.4092,65.9347,202.9585],[27.3982,65.9352,209.7285],[27.3957,65.9263,205.5178],[27.3848,65.9268,219.6942],[27.3822,65.9178,212.8156],[27.3713,65.9184,219.0939],[27.3687,65.9094,210.3302],[27.3578,65.9099,208.8851],[27.3553,65.901,209.6598],[27.3443,65.9015,204.687],[27.3418,65.8926,195.4239],[27.3309,65.8931,186.4898],[27.3283,65.8841,181.8962],[27.3174,65.8847,182.6292],[27.3149,65.8757,178.6545],[27.304,65.8762,178.6079],[27.3015,65.8673,179.2824],[27.2906,65.8678,172.1474],[27.288,65.8589,180.8367],[27.2771,65.8594,170.3067],[27.2746,65.8504,170.5331],[27.2637,65.8509,168.9825],[27.2612,65.842,169.8894],[27.2503,65.8425,164.0896],[27.2478,65.8336,170.1917],[27.2369,65.8341,163.2948],[27.2344,65.8251,162.7515],[27.2235,65.8256,162.9516],[27.2211,65.8167,164.2196],[27.2102,65.8172,169.5383],[27.2077,65.8083,168.4029],[27.1968,65.8088,173.7948],[27.1943,65.7998,169.3277],[27.1834,65.8003,171.3767],[27.181,65.7914,166.6894],[27.1701,65.7919,164.8543],[27.1676,65.7829,161.8217],[27.1567,65.7834,160.4883],[27.1543,65.7745,172.8385],[27.1434,65.775,179.3239],[27.1409,65.766,188.8067],[27.1301,65.7665,178.6124],[27.1276,65.7576,173.5336],[27.1168,65.7581,184.3565],[27.1131,65.7447,161.3893],[27.1022,65.7452,164.3359],[27.0998,65.7362,182.5174],[27.0889,65.7367,166.6594],[27.0877,65.7323,166.3203],[27.0769,65.7327,149.8202],[27.0757,65.7283,149.4716],[27.0648,65.7288,149.1943],[27.066,65.7332,147.576],[27.0443,65.7342,150.347],[27.0455,65.7387,146.2509],[27.0347,65.7392,144.1458],[27.0335,65.7347,144.4758],[27.0118,65.7357,143.1152],[27.0105,65.7312,144.627],[26.9888,65.7321,145.0229],[26.9876,65.7277,146.9069],[26.9768,65.7282,145.6929],[26.9756,65.7237,150.947],[26.9539,65.7247,143.4245],[26.9527,65.7202,143.5888],[26.931,65.7211,142.8443],[26.9298,65.7167,143.3572],[26.9081,65.7176,148.6091],[26.9069,65.7132,146.0609],[26.8852,65.7141,158.2084],[26.884,65.7096,159.2381],[26.8732,65.7101,170.905],[26.872,65.7057,165.781],[26.8503,65.7066,160.302],[26.8492,65.7021,177.7885],[26.8275,65.7031,154.8621],[26.8263,65.6986,187.4609],[26.8154,65.6991,168.524],[26.8166,65.7035,149.5967],[26.5888,65.7132,131.3721],[26.5877,65.7088,140.012],[26.4357,65.715,135.8949],[26.4346,65.7105,135.0764],[26.2609,65.7175,133.3241],[26.262,65.722,134.1368],[26.1642,65.7259,133.5272],[26.1663,65.7348,134.6498],[26.1554,65.7352,145.6447],[26.1671,65.7845,127.8317],[26.1562,65.7849,131.2651],[26.1647,65.8207,123.6341],[26.1538,65.8211,129.1713],[26.1527,65.8166,125.9697],[26.1309,65.8175,125.4745],[26.1299,65.813,124.4569],[26.119,65.8134,129.514],[26.1179,65.809,132.6033],[26.0961,65.8098,130.5712],[26.0951,65.8053,128.1013],[26.0842,65.8057,129.7141],[26.0831,65.8013,124.2783],[26.0613,65.8021,121.4218],[26.0603,65.7976,122.0669],[26.0494,65.798,131.4482],[26.0483,65.7936,131.3701],[26.0266,65.7944,135.7291],[26.0255,65.7899,133.9127],[26.0146,65.7903,126.4921],[26.0136,65.7859,127.1436],[25.9918,65.7867,118.3198],[25.9908,65.7822,115.1479],[25.9799,65.7826,115.0479],[25.9789,65.7782,115.6608],[25.9571,65.779,120.9041],[25.956,65.7745,127.465],[25.9343,65.7753,119.7719],[25.9333,65.7708,120.0097],[25.9224,65.7712,113.8779],[25.9213,65.7668,113.358],[25.8996,65.7676,114.3171],[25.8986,65.7631,116.2029],[25.8877,65.7635,117.2442],[25.8867,65.759,112.5445],[25.8649,65.7598,116.3784],[25.8639,65.7554,112.8084],[25.853,65.7558,111.0105],[25.852,65.7513,110.1399],[25.8302,65.7521,116.2756],[25.8292,65.7476,113.6484],[25.8184,65.748,113.3297],[25.8174,65.7436,104.8055],[25.7956,65.7443,111.1501],[25.7946,65.7399,103.9447],[25.7076,65.743,102.7669],[25.7066,65.7386,100.1836],[25.5543,65.744,90.8708],[25.5533,65.7395,89.9033],[25.4228,65.744,80.6529],[25.4218,65.7396,80.9956],[25.411,65.7399,79.9715],[25.41,65.7355,79.1932],[25.3883,65.7362,78.4653],[25.3873,65.7317,73.9318],[25.3765,65.7321,75.1973],[25.3755,65.7276,77.5127],[25.3647,65.728,81.3881],[25.3637,65.7235,76.3002],[25.3529,65.7239,78.8287],[25.3501,65.7104,69.2426],[25.3392,65.7108,75.2534],[25.3374,65.7018,71.1246],[25.3265,65.7022,77.3228],[25.3247,65.6933,66.2231],[25.3138,65.6936,66.7666],[25.312,65.6846,71.7181],[25.3012,65.685,65.5228],[25.3002,65.6805,66.1422],[25.2785,65.6813,60.802],[25.2776,65.6768,58.4301],[25.2668,65.6771,56.5677],[25.2659,65.6727,53.5454],[25.2441,65.6734,53.5636],[25.2433,65.6689,49.2913],[25.2324,65.6693,38.9072],[25.2315,65.6648,41.0657],[25.2206,65.6652,39.2156],[25.2198,65.6607,44.4828],[25.2089,65.661,35.0124],[25.2071,65.6521,36.7207],[25.1963,65.6524,36.0586],[25.1954,65.6479,34.6969],[25.1845,65.6483,34.9398],[25.1836,65.6438,30.845],[25.1728,65.6442,32.7441],[25.171,65.6352,25.7875],[25.1602,65.6356,27.1251],[25.1584,65.6266,21.7213],[25.1476,65.627,30.3171],[25.145,65.6135,21.4527],[25.1341,65.6139,19.316],[25.1324,65.6049,15.0748],[25.1215,65.6053,18.8402],[25.1206,65.6008,14.2322],[25.1098,65.6011,11.9981],[25.109,65.5966,11.7771],[25.0981,65.597,10.694],[25.0964,65.588,9.2825],[25.0855,65.5882,6.493],[25.0851,65.5854,5.1557],[25.0891,65.5839,10.9749],[25.0839,65.5787,1.276],[25.087,65.5755,8.7787],[25.0839,65.5714,2.4662],[25.0917,65.5687,0.0],[25.0979,65.5687,0.0],[25.1026,65.5724,6.1475],[25.1078,65.5724,3.1678],[25.1141,65.5682,0.4482],[25.113,65.5651,0.0],[25.1182,65.562,8.2931],[25.1172,65.5589,0.0],[25.1182,65.5568,11.0737],[25.1151,65.5526,0.1393],[25.1208,65.55,0.0],[25.1286,65.5568,0.0],[25.1255,65.5599,0.0],[25.1349,65.5589,0.0],[25.1422,65.5661,0.0],[25.1495,65.5672,0.0],[25.1542,65.5708,2.6583],[25.1578,65.5682,0.0],[25.1568,65.5651,0.0],[25.1625,65.5625,0.0],[25.175,65.5667,1.4962],[25.1854,65.5604,0.0],[25.1917,65.5604,0.0],[25.1958,65.5625,6.8254],[25.2078,65.562,0.0],[25.212,65.5589,1.2949],[25.2047,65.5578,0.0],[25.2026,65.5547,0.8283],[25.2099,65.5536,0.0],[25.2089,65.5505,0.0],[25.212,65.5484,8.0439],[25.2089,65.5443,4.7758],[25.2109,65.5422,3.1789],[25.2182,65.5411,0.0],[25.2229,65.5375,0.0],[25.237,65.5349,0.0],[25.2401,65.5318,0.0],[25.2474,65.5307,0.0],[25.2578,65.5245,5.5226],[25.2599,65.5224,9.0785],[25.2589,65.5193,0.9401],[25.2641,65.5162,0.0],[25.2609,65.5109,0.0],[25.2766,65.5078,4.3661],[25.2755,65.5047,0.0],[25.2828,65.5036,0.0],[25.2849,65.5016,0.0],[25.2818,65.4964,2.0789],[25.2849,65.4943,3.9287],[25.2818,65.4901,0.6956],[25.2891,65.4891,2.3578],[25.2958,65.4833,0.0],[25.3229,65.4854,0.6631],[25.3307,65.4807,2.3393],[25.3292,65.4792,0.0],[25.3193,65.4786,0.0],[25.3214,65.4755,0.0],[25.3307,65.4693,5.2705],[25.3172,65.4661,4.6997],[25.3193,65.463,0.0],[25.3271,65.4625,1.5142],[25.3312,65.4646,0.0],[25.3438,65.4646,8.1673],[25.3453,65.4641,7.6856],[25.3443,65.4609,0.0],[25.3495,65.4599,4.2136],[25.3453,65.4547,0.0],[25.3312,65.4542,0.0],[25.3234,65.4505,0.0],[25.3318,65.4443,0.0],[25.3417,65.4437,0.2585],[25.3516,65.4411,1.1558],[25.35,65.4396,0.0],[25.3333,65.4396,7.4779],[25.3318,65.438,0.0],[25.35,65.4354,0.7432],[25.3589,65.4297,0.0],[25.3661,65.4287,0.2467],[25.362,65.4234,0.0],[25.3521,65.4208,0.701],[25.3479,65.4229,0.4583],[25.3396,65.4229,0.0],[25.3271,65.4271,2.3842],[25.3193,65.4266,0.0],[25.3172,65.4234,0.0],[25.3245,65.4224,3.721],[25.3307,65.4182,4.0544],[25.3276,65.4141,0.0],[25.3286,65.4109,0.0],[25.3203,65.4068,1.8574],[25.313,65.4057,0.0],[25.3099,65.4026,0.4873],[25.3021,65.4,0.0],[25.2875,65.4083,0.0],[25.2625,65.4083,1.9282],[25.2589,65.4057,0.0],[25.2604,65.4021,0.0],[25.2589,65.3984,0.0],[25.262,65.3953,2.7688],[25.2609,65.3922,0.0],[25.2714,65.3859,0.0],[25.2813,65.3854,0.0],[25.2828,65.3839,0.0],[25.2771,65.3792,3.9206],[25.2729,65.3812,0.0],[25.2651,65.3807,0.0],[25.263,65.3776,0.0],[25.2687,65.3771,0.4513],[25.2703,65.3755,0.3438],[25.2667,65.3729,0.2848],[25.2568,65.3724,0.0],[25.2589,65.3693,0.0],[25.2646,65.3667,0.0],[25.2708,65.3667,0.0],[25.275,65.3688,0.0],[25.3021,65.3688,0.0],[25.3063,65.3708,1.6078],[25.3307,65.3609,0.0],[25.3208,65.3604,0.2742],[25.3167,65.3583,0.0],[25.3068,65.3609,1.0196],[25.3047,65.363,0.0],[25.3057,65.3662,1.436],[25.2917,65.3667,0.0],[25.2901,65.3651,0.0],[25.2953,65.362,8.3708],[25.2922,65.3568,0.2206],[25.2953,65.3547,1.9627],[25.2854,65.3542,0.0],[25.2792,65.35,4.8926],[25.2714,65.3505,0.0],[25.2729,65.3521,0.7858],[25.2786,65.3526,0.0],[25.2807,65.3547,0.0],[25.275,65.3583,0.0],[25.2526,65.3505,3.0238],[25.2547,65.3484,0.0],[25.262,65.3474,9.4678],[25.2708,65.3417,0.0],[25.2755,65.3453,0.0],[25.2792,65.3458,0.0],[25.2807,65.3453,3.3094],[25.2797,65.3422,5.8397],[25.2839,65.338,0.0],[25.2938,65.3354,0.0],[25.3021,65.3354,3.4768],[25.312,65.3328,0.0],[25.3187,65.3292,0.0],[25.3271,65.3292,0.0],[25.3396,65.325,0.0],[25.3604,65.325,1.2715],[25.3667,65.3292,9.2131],[25.3729,65.3292,6.802],[25.3745,65.3276,0.0],[25.3724,65.3255,9.5631],[25.3651,65.3245,0.0],[25.3604,65.3208,5.1691],[25.3458,65.3229,8.5632],[25.3396,65.3208,14.6653],[25.3297,65.3234,4.749],[25.325,65.3271,0.0],[25.3104,65.3271,4.4204],[25.3063,65.3292,4.6774],[25.2979,65.3292,5.6868],[25.2938,65.3313,0.0],[25.2896,65.3313,0.0],[25.2792,65.3375,0.0],[25.2646,65.3375,2.2806],[25.2604,65.3354,3.6887],[25.2417,65.3354,0.0],[25.2339,65.3328,0.0],[25.2359,65.3297,1.5674],[25.2417,65.3292,0.0],[25.2474,65.3266,0.0],[25.2464,65.3234,0.0],[25.2516,65.3203,7.2601],[25.2505,65.3172,8.3024],[25.2526,65.3151,0.0],[25.2625,65.3146,1.9614],[25.2724,65.312,0.0],[25.2766,65.3099,0.0],[25.2755,65.3068,0.0],[25.2875,65.3021,0.0],[25.2932,65.3016,7.4966],[25.2953,65.2995,0.0],[25.2943,65.2963,0.0],[25.3016,65.2953,0.0],[25.3089,65.2901,0.0],[25.3161,65.2891,0.0],[25.3125,65.2854,3.1395],[25.2958,65.2854,6.1898],[25.2901,65.287,3.7732],[25.2911,65.2839,0.8682],[25.2849,65.2776,0.8721],[25.2651,65.2724,0.0],[25.263,65.2693,0.0],[25.2672,65.2672,0.0],[25.275,65.2667,0.0],[25.2792,65.2688,7.2264],[25.2833,65.2667,0.0],[25.2875,65.2688,4.0633],[25.2938,65.2688,7.2978],[25.2979,65.2667,0.0],[25.3294,65.2656,6.2241],[25.3341,65.2598,0.0],[25.3454,65.2595,7.072],[25.3445,65.255,8.5312],[25.5261,65.2486,35.5234],[25.527,65.2531,36.5593],[25.6231,65.2497,40.2985],[25.6222,65.2452,36.4398],[25.6329,65.2448,36.7331],[25.6319,65.2403,51.5578],[25.6639,65.2392,42.1399],[25.6649,65.2436,41.6271],[25.6756,65.2432,47.7757],[25.6765,65.2477,51.9097],[25.6872,65.2473,49.132],[25.6882,65.2518,54.7821],[25.6988,65.2514,49.7144],[25.6998,65.2559,52.1073],[25.7105,65.2555,52.7321],[25.7114,65.26,53.4503],[25.7221,65.2596,52.2883],[25.7231,65.2641,58.273],[25.7338,65.2637,55.4612],[25.7347,65.2682,49.5245],[25.7454,65.2678,47.4913],[25.7464,65.2722,51.8349],[25.7571,65.2718,47.0982],[25.759,65.2808,41.9738],[25.7697,65.2804,42.8783],[25.7726,65.2938,43.5223],[25.8154,65.2922,50.3733],[25.8164,65.2967,47.9057],[25.8698,65.2947,59.8442],[25.8708,65.2992,63.7197],[25.9136,65.2976,67.7534],[25.9146,65.302,68.4284],[25.9574,65.3004,72.4172],[25.9584,65.3049,77.3213],[25.9905,65.3036,85.0367],[25.9915,65.3081,76.6506],[26.0022,65.3077,86.5826],[25.9991,65.2943,85.0176],[25.9564,65.2959,72.5243],[25.9554,65.2915,76.0466],[25.934,65.2923,69.3989],[25.933,65.2878,74.353],[25.9544,65.287,72.8604],[25.9534,65.2825,76.7319],[25.9747,65.2817,81.3143],[25.9737,65.2772,85.067],[25.9844,65.2768,83.8461],[25.9814,65.2634,79.7687],[25.9921,65.2629,85.7655],[25.9931,65.2674,81.6433],[26.0144,65.2666,92.1474],[26.0155,65.2711,88.9833],[26.0261,65.2707,91.3439],[26.0251,65.2662,88.5116],[26.0358,65.2658,89.2802],[26.0307,65.2434,93.4803],[26.0414,65.243,95.8624],[26.0373,65.2251,93.3255],[26.048,65.2247,93.9462],[26.0439,65.2068,88.7669],[26.0546,65.2064,83.8401],[26.0505,65.1885,75.8812],[26.0612,65.188,76.24],[26.0591,65.1791,83.8387],[26.0485,65.1795,81.0974],[26.0495,65.184,83.8744],[26.0176,65.1852,66.706]]],
[[[25.2729,65.2896,0.0],[25.2714,65.288,5.3351],[25.2766,65.288,0.9419],[25.2766,65.2891,2.9245],[25.2729,65.2896,0.0]]],
[[[25.25,65.3438,7.2013],[25.2484,65.3422,0.0],[25.2578,65.3422,0.0],[25.2563,65.3438,0.0],[25.25,65.3438,7.2013]]],
[[[25.1984,65.2599,1.6484],[25.2,65.2583,0.0],[25.2104,65.2583,0.0],[25.212,65.2589,0.0],[25.2109,65.262,1.3475],[25.2208,65.2625,0.0],[25.2245,65.2662,1.4673],[25.2062,65.2667,2.806],[25.1984,65.2599,1.6484]]],
[[[25.2089,65.2734,5.3918],[25.2109,65.2714,6.1616],[25.2141,65.2714,3.2064],[25.213,65.2745,4.0442],[25.2141,65.2766,3.9369],[25.2083,65.2792,8.595],[25.2026,65.2786,2.6326],[25.2047,65.2755,4.4996],[25.2089,65.2734,5.3918]]],
[[[25.2083,65.2833,1.1283],[25.2068,65.2828,2.7323],[25.2068,65.2818,4.6729],[25.2099,65.2818,0.0],[25.2083,65.2833,1.1283]]],
[[[25.2208,65.3021,0.0],[25.2193,65.3005,6.0733],[25.237,65.3005,1.5221],[25.2313,65.3063,1.0699],[25.2234,65.3057,5.2526],[25.2245,65.3026,0.0],[25.2208,65.3021,0.0]]],
[[[24.8646,65.3625,0.6061],[24.863,65.362,0.3698],[24.863,65.3609,0.1336],[24.8661,65.3609,0.0],[24.8646,65.3625,0.6061]]],
[[[24.8604,65.3646,0.3539],[24.8589,65.363,0.7067],[24.862,65.363,1.1074],[24.862,65.3641,1.1889],[24.8604,65.3646,0.3539]]],
[[[24.8536,65.3912,0.0],[24.8438,65.3938,1.4114],[24.8375,65.3896,0.0],[24.8312,65.3896,1.1914],[24.8271,65.3917,0.6579],[24.8229,65.3896,0.0],[24.8188,65.3896,0.0],[24.8151,65.387,0.0],[24.8182,65.3839,1.3208],[24.8151,65.3797,0.0],[24.8214,65.3755,1.5916],[24.8354,65.3729,0.0],[24.837,65.3745,0.0],[24.8339,65.3786,0.0],[24.8453,65.3818,0.0],[24.8484,65.3849,0.0],[24.8536,65.3859,0.0],[24.8557,65.3891,0.0],[24.8536,65.3912,0.0]]],
[[[25.012,65.4203,0.5248],[25.0021,65.4229,0.0],[24.9943,65.4224,0.0],[24.9922,65.4193,0.0],[24.9953,65.4182,0.0],[24.9943,65.4151,0.0],[24.9953,65.413,0.593],[24.9901,65.4068,0.0],[25.0063,65.4063,0.0],[25.0187,65.4021,4.4184],[25.0307,65.4026,0.0],[25.0286,65.4057,0.0],[25.0255,65.4068,0.0],[25.0266,65.4099,0.0],[25.0245,65.412,0.0],[25.012,65.4203,0.5248]]],
[[[25.3479,65.4292,5.3907],[25.3464,65.4287,8.7942],[25.3464,65.4276,5.0184],[25.3495,65.4276,0.0],[25.3479,65.4292,5.3907]]]]}}