{"type": "Feature","bbox": [27.8562,60.8202,28.7776,61.2844],"geometry": {"type": "MultiPolygon","coordinates": [[[[28.7013,61.0107,43.2443],[28.7076,61.0336,33.0],[28.7168,61.033,33.0],[28.7208,61.0474,79.4215],[28.7293,61.0551,59.8016],[28.7376,61.0588,50.2486],[28.7426,61.0585,45.6593],[28.7434,61.0614,63.2961],[28.7465,61.0628,61.1896],[28.753,61.0624,40.7074],[28.7543,61.0671,35.7879],[28.7686,61.0749,47.7295],[28.7752,61.0745,63.4446],[28.7776,61.0834,69.7135],[28.7684,61.084,39.5507],[28.7697,61.0885,42.5654],[28.7604,61.0891,67.5575],[28.7617,61.0935,59.2978],[28.7432,61.0947,34.5769],[28.7445,61.0991,72.4106],[28.7353,61.0997,49.5488],[28.7402,61.1175,54.6241],[28.731,61.1181,67.661],[28.7384,61.1448,57.8722],[28.7292,61.1454,65.8139],[28.7366,61.1721,62.2754],[28.7273,61.1727,60.3604],[28.7335,61.195,85.8325],[28.715,61.1961,106.8608],[28.7188,61.2095,72.5],[28.7002,61.2107,72.5],[28.7015,61.2151,72.5],[28.683,61.2163,72.5],[28.6842,61.2207,72.5],[28.675,61.2213,72.5],[28.6762,61.2258,72.5],[28.6854,61.2252,72.5],[28.6867,61.2296,72.5],[28.7052,61.2285,90.5269],[28.7064,61.2329,72.5],[28.6972,61.2335,72.5],[28.6984,61.2379,72.5],[28.6891,61.2385,72.5],[28.6879,61.2341,72.5],[28.6694,61.2353,72.5],[28.6682,61.2308,93.6505],[28.6497,61.232,72.5],[28.6484,61.2276,72.5],[28.6392,61.2281,72.5],[28.6404,61.2326,72.5],[28.6311,61.2332,72.5],[28.6324,61.2376,72.5],[28.6231,61.2382,72.5],[28.6243,61.2426,72.5],[28.6058,61.2438,72.5],[28.607,61.2483,72.5],[28.5978,61.2489,72.5],[28.599,61.2533,72.5],[28.5805,61.2545,72.5],[28.5817,61.2589,72.5],[28.5724,61.2595,72.5],[28.5736,61.264,72.5],[28.5644,61.2645,72.5],[28.5656,61.269,72.5],[28.5563,61.2696,72.5],[28.5551,61.2651,72.5],[28.5458,61.2657,72.5],[28.5446,61.2612,72.5],[28.5353,61.2618,85.4006],[28.5341,61.2574,72.5],[28.5156,61.2585,84.0979],[28.5144,61.2541,72.5],[28.4958,61.2552,72.5],[28.4946,61.2508,72.5],[28.4761,61.2519,72.5],[28.4773,61.2564,72.5],[28.4588,61.2575,72.5],[28.46,61.262,72.5],[28.4507,61.2626,72.5],[28.4519,61.267,72.5],[28.4334,61.2682,72.5],[28.4346,61.2726,72.5],[28.416,61.2738,72.5],[28.4172,61.2782,72.5],[28.4079,61.2788,72.5],[28.4091,61.2832,72.5],[28.3906,61.2844,72.5],[28.3882,61.2755,72.5],[28.3789,61.2761,72.5],[28.3777,61.2716,72.5],[28.3685,61.2722,72.5],[28.3673,61.2677,72.5],[28.358,61.2683,72.5],[28.3568,61.2638,72.5],[28.3475,61.2644,72.5],[28.3463,61.2599,72.5],[28.3371,61.2605,72.5],[28.3359,61.2561,72.5],[28.3266,61.2566,72.5],[28.3254,61.2522,72.5],[28.3162,61.2527,72.5],[28.3138,61.2438,81.2428],[28.3045,61.2444,72.5],[28.3022,61.2355,72.5],[28.3114,61.2349,72.5],[28.3079,61.2216,72.5],[28.3172,61.221,72.5],[28.3136,61.2076,72.5],[28.3321,61.2065,72.5],[28.3309,61.2021,72.5],[28.3494,61.2009,72.5],[28.3483,61.1965,72.5],[28.3575,61.1959,72.5],[28.3563,61.1915,72.5],[28.3748,61.1903,72.5],[28.3736,61.1859,72.5],[28.3921,61.1847,72.5],[28.3909,61.1803,72.5],[28.4094,61.1791,72.5],[28.4071,61.1702,72.5],[28.3978,61.1708,72.5],[28.3966,61.1664,72.5],[28.3874,61.1669,72.5],[28.3862,61.1625,72.5],[28.377,61.163,72.5],[28.3746,61.1541,72.5],[28.3653,61.1547,72.5],[28.3642,61.1502,72.5],[28.3549,61.1508,72.5],[28.3526,61.1419,72.5],[28.3433,61.1425,72.5],[28.341,61.1336,72.5],[28.3317,61.1341,72.5],[28.3294,61.1253,72.5],[28.3017,61.1269,72.5],[28.3028,61.1314,72.5],[28.2751,61.1331,84.6786],[28.274,61.1286,94.1007],[28.2647,61.1292,85.9347],[28.2636,61.1247,88.3493],[28.2543,61.1253,97.3794],[28.252,61.1164,93.4819],[28.2428,61.117,85.3979],[28.2404,61.108,80.9566],[28.2128,61.1097,89.1133],[28.2116,61.1053,102.4072],[28.2024,61.1058,86.7024],[28.2012,61.1014,72.5],[28.192,61.1019,72.5],[28.1931,61.1064,72.5],[28.1839,61.1069,72.5],[28.1874,61.1203,103.0803],[28.1781,61.1208,72.5],[28.1793,61.1253,89.7254],[28.1701,61.1259,72.5],[28.1712,61.1303,92.8246],[28.1435,61.132,72.5],[28.1401,61.1186,72.5],[28.1493,61.1181,72.5],[28.1481,61.1136,72.5],[28.1574,61.113,72.5],[28.1539,61.0997,80.2667],[28.1447,61.1002,72.5],[28.1435,61.0958,78.1952],[28.1251,61.0969,72.5],[28.1239,61.0924,72.5],[28.1055,61.0935,72.5],[28.1066,61.098,72.5],[28.0974,61.0985,72.5],[28.0997,61.1074,72.5],[28.0812,61.1086,95.4732],[28.0824,61.113,72.5],[28.0731,61.1136,72.5],[28.0708,61.1046,86.4108],[28.0616,61.1052,82.686],[28.0559,61.0829,82.1494],[28.0467,61.0835,84.4172],[28.0444,61.0746,80.4543],[28.0352,61.0751,83.2218],[28.0341,61.0706,99.9192],[28.0248,61.0712,96.81],[28.0237,61.0667,72.5],[28.0053,61.0678,99.1922],[28.0042,61.0634,104.8333],[27.9949,61.0639,100.4735],[27.9938,61.0595,89.1549],[27.9846,61.06,94.9843],[27.9823,61.0511,84.5261],[27.9731,61.0516,84.9481],[27.972,61.0472,85.9949],[27.9628,61.0477,98.8944],[27.9617,61.0433,95.9267],[27.9524,61.0438,93.1704],[27.9513,61.0393,84.4342],[27.9329,61.0404,117.6064],[27.9318,61.036,103.8325],[27.941,61.0354,104.0429],[27.9399,61.031,79.8088],[27.9491,61.0304,87.428],[27.948,61.026,104.5224],[27.8927,61.0292,74.5],[27.8916,61.0247,105.6719],[27.8732,61.0258,74.5],[27.8687,61.008,81.7127],[27.8595,61.0085,84.1962],[27.8562,60.9952,74.5],[27.8746,60.9941,82.8717],[27.8757,60.9985,84.85],[27.8849,60.998,74.5],[27.886,61.0025,88.9501],[27.9044,61.0014,75.4407],[27.9033,60.9969,83.1594],[27.9125,60.9964,79.8632],[27.8903,60.9073,80.6067],[27.8995,60.9067,79.1203],[27.8962,60.8934,70.0248],[27.9053,60.8928,77.5159],[27.9042,60.8884,74.0394],[27.9317,60.8867,75.6697],[27.9306,60.8823,57.5726],[27.9398,60.8818,83.0034],[27.9409,60.8862,83.1511],[27.9867,60.8835,75.0566],[27.9879,60.888,72.0174],[27.997,60.8874,62.5346],[27.9982,60.8919,61.8825],[28.0073,60.8913,64.6361],[28.0084,60.8958,71.3613],[28.0176,60.8952,79.7227],[28.0187,60.8997,70.5241],[28.0371,60.8986,67.3539],[28.0348,60.8897,88.925299999999993],[28.0257,60.8902,77.6777],[28.0234,60.8813,74.5923],[28.0326,60.8808,72.1358],[28.0315,60.8763,71.5216],[28.059,60.8747,70.6334],[28.0601,60.8792,65.8887],[28.0876,60.8775,55.23],[28.0887,60.882,58.9492],[28.107,60.8809,69.1367],[28.1059,60.8764,60.3927],[28.1242,60.8753,67.3826],[28.1231,60.8708,72.0354],[28.1414,60.8697,64.5462],[28.1403,60.8653,47.6443],[28.1678,60.8636,51.443],[28.1666,60.8592,49.4557],[28.1941,60.8575,52.2169],[28.1952,60.862,53.7555],[28.2136,60.8609,70.0916],[28.2124,60.8564,62.1742],[28.2307,60.8553,62.4617],[28.2296,60.8508,55.5066],[28.2479,60.8497,47.8628],[28.2467,60.8452,46.8037],[28.2559,60.8447,47.234],[28.2536,60.8358,53.5457],[28.2444,60.8363,41.4143],[28.2421,60.8274,52.0305],[28.233,60.828,55.7042],[28.2318,60.8236,54.3424],[28.2867,60.8202,30.5],[28.2876,60.8238,49.7863],[28.2955,60.8287,39.4731],[28.2981,60.8285,53.5835],[28.2986,60.8302,42.6025],[28.3044,60.8327,48.281],[28.3084,60.8324,62.6886],[28.3092,60.8353,47.1273],[28.3141,60.839,59.4715],[28.3269,60.8539,42.8619],[28.3326,60.8536,70.9713],[28.3338,60.8584,51.0081],[28.3415,60.8629,62.8757],[28.3599,60.8656,64.832],[28.3673,60.8695,63.757],[28.3739,60.8691,77.4339],[28.3751,60.8737,65.0287],[28.3822,60.8776,71.6889],[28.3854,60.8774,78.8325],[28.386,60.8796,86.2208],[28.3934,60.8837,76.3982],[28.3983,60.8886,55.652],[28.4072,60.8896,82.4703],[28.4078,60.8917,74.0376],[28.4118,60.8939,69.8402],[28.4176,60.8935,74.4497],[28.4187,60.8976,70.7706],[28.4268,60.902,75.2042],[28.4291,60.9019,76.8932],[28.4295,60.9035,72.3419],[28.4682,60.9249,55.4269],[28.4715,60.9264,79.4579],[28.4821,60.9257,71.3144],[28.5004,60.9381,46.4967],[28.504,60.9379,46.0772],[28.5047,60.9407,41.7222],[28.5075,60.9422,49.2449],[28.5144,60.9418,70.6992],[28.5157,60.9467,82.088],[28.5223,60.9503,36.9574],[28.5259,60.9501,66.8878],[28.5277,60.9533,59.4584],[28.5363,60.954,60.1836],[28.5375,60.9584,66.9814],[28.6018,60.9543,70.4784],[28.6025,60.9572,79.5196],[28.6174,60.9579,92.377],[28.6391,60.9542,64.1126],[28.6385,60.952,76.0459],[28.6568,60.9508,82.0608],[28.6576,60.9535,68.2655],[28.6677,60.9579,63.3283],[28.6768,60.9676,72.0123],[28.6801,60.9674,81.2287],[28.6813,60.9721,77.276],[28.6899,60.9804,55.5073],[28.6929,60.9802,61.0569],[28.7013,61.0107,43.2443]]]]}
,"properties": {"GID_3": "FIN.4.4.2_1","GID_0": "FIN","country": "Finland","GID_1": "FIN.4_1","province": "SouthernFinland","NL_NAME_1": "NA","GID_2": "FIN.4.4_1","county": "SouthKarelia","NL_NAME_2": "NA","city": "Lappeenranta","VARNAME_3": "NA","NL_NAME_3": "NA","TYPE_3": "Seutukunta|Ekonomiskregion","ENGTYPE_3": "Sub-Region","CC_3": "NA","HASC_3": "FI.ES.LR","name": "Lappeenranta.city","area_km2": 1336.347,"hist_schema_id": "Elevation0-9000","hist_area_km2": {"-50": 0.041,"-25": 0.041,"0": 0.082,"25": 11.485,"50": 309.968,"75": 764.68,"100": 238.439,"125": 11.611}}}