{"type": "Feature","bbox": [22.0797,63.2825,23.7479,63.9292],"geometry": {"type": "MultiPolygon","coordinates": [[[[22.1901,63.4203,2.9052],[22.1958,63.4167,9.4705],[22.1995,63.4193,9.7516],[22.1979,63.4208,8.5853],[22.1901,63.4203,2.9052]]],
[[[22.1813,63.4229,3.7713],[22.1776,63.4193,0.0],[22.1807,63.4193,10.1101],[22.1828,63.4214,6.5548],[22.1813,63.4229,3.7713]]],
[[[22.1703,63.4297,4.8539],[22.1688,63.4313,2.3281],[22.1672,63.4307,0.0],[22.1688,63.4292,0.0],[22.1703,63.4297,4.8539]]],
[[[22.0807,63.4307,10.5183],[22.0875,63.4271,3.7197],[22.0979,63.4271,0.0],[22.0995,63.4286,8.1519],[22.0964,63.4307,0.0],[22.1,63.4354,0.0],[22.0974,63.4391,5.8849],[22.0917,63.4396,0.0],[22.0839,63.437,8.1888],[22.0797,63.4328,0.0],[22.0807,63.4307,10.5183]]],
[[[22.9753,63.3646,56.1414],[22.9759,63.3702,67.057],[22.9959,63.3698,53.9137],[22.9968,63.3788,52.5062],[23.0269,63.3782,66.8515],[23.0259,63.3692,54.2526],[23.0359,63.369,46.3974],[23.035,63.36,45.2026],[23.045,63.3598,61.4909],[23.0455,63.3643,47.4525],[23.0755,63.3637,60.1152],[23.0759,63.3681,65.818],[23.0859,63.3679,57.5661],[23.0855,63.3634,54.2078],[23.0955,63.3632,60.228],[23.095,63.3587,55.7675],[23.105,63.3585,64.0096],[23.1045,63.354,69.9464],[23.1145,63.3538,69.7754],[23.114,63.3493,62.4058],[23.124,63.3491,65.6301],[23.1245,63.3536,63.386],[23.1345,63.3534,65.1419],[23.1355,63.3624,75.145],[23.1455,63.3622,70.1824],[23.146,63.3666,72.4781],[23.156,63.3665,70.8543],[23.1565,63.3709,65.4362],[23.1665,63.3707,67.0382],[23.1675,63.3797,66.3968],[23.1775,63.3795,69.8135],[23.178,63.3839,68.4135],[23.188,63.3837,64.5459],[23.1885,63.3882,73.5983],[23.1985,63.388,65.9996],[23.1995,63.397,62.1259],[23.2095,63.3968,65.5183],[23.2105,63.4057,63.7471],[23.2205,63.4055,63.2855],[23.222,63.419,61.9122],[23.232,63.4188,58.9438],[23.234,63.4367,78.0452],[23.2441,63.4365,60.7511],[23.2456,63.4499,62.0164],[23.2556,63.4497,63.0567],[23.2571,63.4632,62.4523],[23.2672,63.463,68.6601],[23.2682,63.4719,63.6492],[23.2883,63.4715,66.8047],[23.2888,63.476,67.0827],[23.3089,63.4755,64.814],[23.3094,63.48,62.3928],[23.3194,63.4798,65.7029],[23.3199,63.4843,57.194],[23.34,63.4838,65.3631],[23.3405,63.4883,73.2741],[23.3606,63.4878,60.8448],[23.3612,63.4923,65.7258],[23.3813,63.4919,63.2401],[23.3818,63.4963,64.9527],[23.4019,63.4959,73.1813],[23.4013,63.4914,61.3273],[23.4114,63.4912,60.7643],[23.4109,63.4867,68.4446],[23.4209,63.4865,62.2712],[23.4204,63.482,61.2417],[23.4404,63.4815,62.0437],[23.4399,63.477,75.4425],[23.47,63.4763,62.4806],[23.4695,63.4718,65.2188],[23.4996,63.4711,74.1664],[23.4991,63.4666,65.0911],[23.5292,63.4659,75.7206],[23.5297,63.4704,79.7074],[23.5398,63.4701,63.0],[23.5392,63.4656,70.7091],[23.5492,63.4654,77.3621],[23.5487,63.4609,68.1083],[23.5587,63.4607,69.0751],[23.5576,63.4517,71.4981],[23.5676,63.4515,65.0251],[23.5654,63.4335,70.9217],[23.5754,63.4333,68.1836],[23.5749,63.4288,76.4235],[23.5849,63.4285,73.9109],[23.5844,63.424,70.4538],[23.5944,63.4238,68.5914],[23.5938,63.4193,69.1431],[23.6038,63.4191,67.8246],[23.6033,63.4146,73.3717],[23.6133,63.4143,81.9875],[23.6122,63.4054,73.7532],[23.6222,63.4051,79.5779],[23.6216,63.4006,76.3573],[23.6416,63.4001,77.3855],[23.6411,63.3956,71.9851],[23.6511,63.3954,72.6626],[23.6505,63.3909,70.9584],[23.6705,63.3904,78.5133],[23.67,63.3859,79.7109],[23.69,63.3854,93.6744],[23.6894,63.3809,84.4891],[23.7094,63.3804,81.6526],[23.7106,63.3894,89.8693],[23.7006,63.3897,83.8621],[23.7017,63.3986,76.4849],[23.6917,63.3989,79.8559],[23.6929,63.4079,69.3239],[23.6828,63.4081,74.2419],[23.684,63.4171,73.6029],[23.674,63.4173,67.1725],[23.6751,63.4263,73.7738],[23.6651,63.4266,73.7982],[23.6668,63.44,90.3431],[23.6568,63.4403,85.5407],[23.6642,63.4986,94.7807],[23.6541,63.4988,87.3945],[23.6581,63.5302,78.4648],[23.6481,63.5305,73.3162],[23.6486,63.535,74.7975],[23.6285,63.5355,59.7022],[23.6291,63.5399,71.1372],[23.619,63.5402,57.0794],[23.6196,63.5447,66.7127],[23.5995,63.5452,64.7987],[23.6,63.5497,58.0221],[23.5799,63.5502,60.7672],[23.5816,63.5636,61.3824],[23.5715,63.5639,61.0485],[23.5738,63.5818,63.6111],[23.5637,63.582,69.2115],[23.5659,63.6,56.2242],[23.5458,63.6005,53.2845],[23.5452,63.596,49.3923],[23.525,63.5965,48.4703],[23.5245,63.592,51.3351],[23.5043,63.5925,63.5365],[23.5038,63.588,61.4884],[23.4836,63.5885,52.0114],[23.4842,63.5929,56.9001],[23.4741,63.5932,54.6928],[23.4746,63.5977,61.3899],[23.4646,63.5979,59.7253],[23.4651,63.6024,66.4939],[23.4449,63.6029,56.1182],[23.4455,63.6074,56.9437],[23.4354,63.6076,55.6064],[23.4359,63.6121,55.6958],[23.4258,63.6123,58.8967],[23.4264,63.6168,57.0187],[23.4566,63.6161,53.2623],[23.4561,63.6116,58.3526],[23.4662,63.6114,50.5268],[23.4678,63.6248,50.4283],[23.4577,63.6251,54.736],[23.4583,63.6296,51.4259],[23.4683,63.6293,60.4604],[23.4689,63.6338,53.5578],[23.479,63.6336,56.1235],[23.4795,63.6381,48.6685],[23.4896,63.6378,44.0],[23.4902,63.6423,57.1345],[23.4801,63.6425,57.2308],[23.4817,63.656,43.486],[23.4716,63.6562,53.1541],[23.4722,63.6607,43.5],[23.4823,63.6605,47.7502],[23.4828,63.665,55.4541],[23.4929,63.6647,44.8214],[23.4935,63.6692,45.8954],[23.5036,63.669,51.4558],[23.5019,63.6555,43.5],[23.512,63.6553,47.1243],[23.5104,63.6418,52.9832],[23.5205,63.6416,43.5],[23.5199,63.6371,60.8625],[23.53,63.6369,43.5],[23.5295,63.6324,69.476],[23.5497,63.6319,46.3943],[23.5502,63.6364,50.8564],[23.5603,63.6361,43.5683],[23.5609,63.6406,45.9268],[23.5811,63.6401,71.5327],[23.5816,63.6446,48.5416],[23.6018,63.6441,58.604],[23.6024,63.6486,56.2088],[23.6125,63.6483,49.5],[23.613,63.6528,65.4186],[23.6231,63.6526,54.6544],[23.6237,63.6571,61.1847],[23.6338,63.6568,66.7936],[23.635,63.6658,59.1062],[23.6451,63.6656,61.0697],[23.6456,63.67,69.2152],[23.6658,63.6695,66.0558],[23.6653,63.6651,65.756],[23.6855,63.6646,66.0877],[23.6849,63.6601,79.549],[23.7152,63.6593,77.9157],[23.7158,63.6638,83.5973],[23.7259,63.6635,72.5],[23.7265,63.668,72.2608],[23.7366,63.6678,84.8794],[23.7372,63.6722,85.9669],[23.7473,63.672,87.6892],[23.7479,63.6765,78.6371],[23.7378,63.6767,83.7462],[23.7383,63.6812,74.8581],[23.7282,63.6815,74.6057],[23.7288,63.686,77.8839],[23.7086,63.6865,70.6217],[23.7092,63.691,71.4222],[23.6991,63.6912,77.2847],[23.6996,63.6957,70.9806],[23.6895,63.6959,69.729],[23.6901,63.7004,69.8334],[23.68,63.7007,75.6003],[23.6806,63.7052,70.9593],[23.6603,63.7057,69.198],[23.6609,63.7102,65.6236],[23.6508,63.7104,65.4062],[23.6514,63.7149,65.6597],[23.6311,63.7154,71.909],[23.6317,63.7199,73.9655],[23.6216,63.7201,66.9505],[23.6222,63.7246,63.6824],[23.6019,63.7251,58.5512],[23.6025,63.7296,57.9189],[23.5923,63.7299,53.4825],[23.5929,63.7343,56.5239],[23.5828,63.7346,57.6447],[23.5833,63.7391,53.6829],[23.5732,63.7393,58.5597],[23.5738,63.7438,53.2642],[23.5636,63.744,54.6933],[23.5642,63.7485,53.6845],[23.5439,63.749,48.0],[23.5445,63.7535,49.7867],[23.5343,63.7537,52.1075],[23.5349,63.7582,52.0245],[23.5248,63.7585,51.3098],[23.5253,63.763,51.873],[23.5152,63.7632,50.7156],[23.5157,63.7677,50.9322],[23.5056,63.7679,55.0814],[23.5061,63.7724,50.4404],[23.4859,63.7729,50.0012],[23.4864,63.7774,54.4355],[23.4763,63.7776,45.5125],[23.4757,63.7731,41.3718],[23.4656,63.7734,34.275],[23.4645,63.7644,37.9913],[23.4543,63.7646,31.8453],[23.4533,63.7556,32.8084],[23.4634,63.7554,39.3755],[23.4618,63.742,26.6225],[23.4516,63.7422,26.3231],[23.4511,63.7377,36.2933],[23.4409,63.7379,39.7886],[23.4415,63.7424,29.232],[23.4314,63.7427,35.3201],[23.4324,63.7517,26.5275],[23.402,63.7524,28.7565],[23.4026,63.7568,24.1023],[23.3113,63.7589,36.0022],[23.3108,63.7544,31.9995],[23.2905,63.7549,18.0207],[23.29,63.7504,29.9644],[23.2798,63.7506,26.9613],[23.2793,63.7461,20.1489],[23.2692,63.7463,41.7323],[23.2676,63.7329,31.9171],[23.2575,63.7331,29.5333],[23.2565,63.7241,24.0763],[23.2464,63.7243,20.9115],[23.2453,63.7154,20.9603],[23.2352,63.7156,20.5118],[23.2357,63.7201,19.7273],[23.2155,63.7205,19.0032],[23.216,63.725,28.111],[23.2058,63.7252,28.7561],[23.2063,63.7297,18.4183],[23.1962,63.7299,33.2624],[23.1967,63.7344,23.5378],[23.1764,63.7349,19.8531],[23.1769,63.7394,22.6917],[23.1668,63.7396,13.7922],[23.1673,63.7441,20.9459],[23.147,63.7445,26.4388],[23.1475,63.749,27.6903],[23.1374,63.7492,28.9645],[23.1379,63.7537,31.6903],[23.1278,63.7539,28.3982],[23.1282,63.7584,21.4697],[23.108,63.7588,30.6959],[23.1085,63.7633,29.9279],[23.0983,63.7635,29.4232],[23.0988,63.768,26.1174],[23.0887,63.7682,25.8849],[23.0891,63.7727,23.0878],[23.0689,63.7731,21.8504],[23.0693,63.7776,23.1986],[23.0592,63.7778,15.2714],[23.0597,63.7823,23.6792],[23.0394,63.7827,6.0],[23.0399,63.7872,14.3095],[23.0362,63.787,5.5169],[23.0238,63.7959,10.402],[23.0118,63.7944,0.3732],[23.0086,63.7962,6.506],[23.0201,63.8033,11.119],[23.0164,63.8078,1.7691],[23.0234,63.813,4.1444],[23.0216,63.8144,4.6584],[23.0144,63.8137,0.0],[23.0182,63.812,4.6377],[23.0151,63.8078,1.7691],[23.0161,63.8026,5.9534],[23.0068,63.7974,13.4911],[23.0078,63.7943,0.0],[23.0068,63.7901,4.3004],[23.012,63.7859,0.0],[22.9979,63.7833,3.3212],[22.9895,63.7886,3.9411],[22.9789,63.7885,4.1954],[22.9785,63.784,5.4646],[22.9582,63.7844,17.9897],[22.9577,63.7799,3.068],[22.9374,63.7803,7.5505],[22.9369,63.7758,0.0],[22.9233,63.776,13.4523],[22.8983,63.7868,0.0],[22.8807,63.7966,0.0],[22.8784,63.8006,4.8581],[22.8792,63.8084,7.2323],[22.8894,63.8082,12.4447],[22.8903,63.8172,5.2701],[22.8801,63.8174,13.5072],[22.881,63.8264,1.5],[22.8709,63.8266,16.6448],[22.8714,63.8315,6.2874],[22.8778,63.8345,15.4518],[22.8913,63.8354,6.6957],[22.8818,63.8359,10.4831],[22.8828,63.8391,0.0],[22.8776,63.8401,12.1518],[22.875,63.8438,0.0],[22.8693,63.8432,11.8041],[22.8625,63.8375,0.0],[22.8484,63.8401,5.7906],[22.8495,63.8432,0.0],[22.8464,63.8453,0.0],[22.8495,63.8495,0.0],[22.8422,63.8505,12.0017],[22.8333,63.8563,0.0],[22.8229,63.8521,0.0],[22.8125,63.8521,3.9323],[22.8021,63.8583,13.583],[22.7958,63.8583,0.0],[22.7958,63.8563,6.1974],[22.7917,63.8563,7.3271],[22.7854,63.8604,0.0],[22.7818,63.8568,0.0],[22.7901,63.8505,8.9874],[22.7974,63.8495,4.6459],[22.8021,63.8458,2.2281],[22.8208,63.8458,0.0],[22.8224,63.8443,0.0],[22.8068,63.8432,0.0],[22.8057,63.8401,6.9539],[22.8021,63.8375,9.9739],[22.7917,63.8375,9.2998],[22.7792,63.8417,0.0],[22.7776,63.8411,6.1496],[22.7792,63.8375,10.8531],[22.7771,63.8354,1.4962],[22.7734,63.8359,4.5612],[22.7745,63.8391,0.0],[22.7724,63.8411,0.0],[22.75,63.8438,0.0],[22.7458,63.8458,2.5538],[22.7292,63.8458,4.4336],[22.7292,63.8438,5.29],[22.725,63.8417,0.0],[22.7167,63.8458,0.0],[22.7125,63.8458,6.9387],[22.7109,63.8453,10.7376],[22.712,63.8422,0.0],[22.7083,63.8396,9.2852],[22.6938,63.8396,0.0],[22.6896,63.8417,9.2762],[22.688,63.8401,8.5242],[22.6901,63.838,2.7089],[22.6958,63.8354,0.8422],[22.7057,63.8349,5.9664],[22.7078,63.8318,0.0],[22.6943,63.8307,11.202],[22.6922,63.8286,4.1997],[22.6932,63.8255,0.0],[22.688,63.8245,8.0928],[22.6911,63.8214,9.1781],[22.687,63.8172,0.0],[22.6792,63.8167,8.741],[22.6714,63.8141,10.6083],[22.6734,63.8109,10.9655],[22.6786,63.8078,3.7463],[22.6729,63.8021,2.43],[22.6693,63.8057,0.0],[22.6745,63.8078,0.0],[22.6646,63.8104,9.5619],[22.6563,63.8104,10.1159],[22.6526,63.813,9.0806],[22.6526,63.8161,9.3315],[22.6557,63.8203,8.7567],[22.6516,63.8266,0.0],[22.6484,63.8276,0.0],[22.6495,63.8307,0.0],[22.6458,63.8333,15.7817],[22.6396,63.8333,5.2214],[22.6318,63.8307,0.0],[22.637,63.8266,4.4991],[22.6359,63.8234,0.0],[22.6432,63.8224,9.9889],[22.6411,63.8193,11.3972],[22.6359,63.8182,0.0],[22.6339,63.8161,0.0],[22.637,63.8141,9.8279],[22.6359,63.8109,1.5057],[22.637,63.8089,0.0],[22.6354,63.8083,0.0],[22.6271,63.8083,6.9036],[22.6172,63.8109,0.0],[22.6063,63.8187,0.0],[22.6026,63.8182,9.0244],[22.5995,63.813,7.1952],[22.5958,63.8104,4.1904],[22.5891,63.8141,4.2092],[22.5859,63.8141,0.0],[22.588,63.8109,4.6338],[22.5911,63.8099,5.5116],[22.5901,63.8068,0.2994],[22.5953,63.8036,3.785],[22.5922,63.7984,1.6883],[22.5953,63.7974,8.3886],[22.5974,63.7943,0.5305],[22.5938,63.7917,0.3657],[22.5859,63.7911,0.0],[22.5839,63.7891,0.0],[22.5932,63.7828,12.5718],[22.5953,63.7797,0.9988],[22.5797,63.7589,0.0],[22.5896,63.7562,0.0],[22.5979,63.7562,2.2949],[22.6083,63.75,0.3937],[22.612,63.7526,1.8535],[22.6089,63.7557,7.6237],[22.6125,63.7583,1.6627],[22.6182,63.7557,4.7823],[22.6146,63.75,6.7165],[22.6172,63.7464,4.5276],[22.6286,63.7443,0.0],[22.6307,63.7474,0.7937],[22.6276,63.7495,8.071],[22.6307,63.7536,0.0],[22.6193,63.762,1.0836],[22.6276,63.7724,0.0],[22.6375,63.7729,8.3027],[22.6375,63.775,9.6052],[22.6391,63.7755,5.7758],[22.638,63.7786,3.4055],[22.6432,63.7797,0.0],[22.6401,63.7828,2.0513],[22.6437,63.7854,0.0],[22.6484,63.7797,0.0],[22.6536,63.7766,2.8824],[22.6526,63.7734,0.0],[22.662,63.7682,1.3569],[22.6589,63.763,5.0205],[22.6724,63.7641,0.0],[22.6745,63.762,0.0],[22.6734,63.7589,5.1126],[22.6849,63.7578,10.0302],[22.688,63.7526,0.0],[22.6938,63.7521,4.1178],[22.6974,63.7495,0.0],[22.6964,63.7443,0.0],[22.7016,63.7432,6.7435],[22.7036,63.738,6.604],[22.6964,63.7339,0.0],[22.7057,63.7307,0.0],[22.7005,63.7276,0.0],[22.7062,63.725,0.0],[22.7146,63.725,0.0],[22.7188,63.7229,0.0],[22.7271,63.7229,2.3976],[22.7313,63.7208,0.0],[22.7396,63.7208,3.4155],[22.7474,63.7182,0.0],[22.7453,63.7151,11.5325],[22.7401,63.7141,0.0],[22.7432,63.7109,0.0],[22.738,63.7089,5.9874],[22.7417,63.7062,0.0],[22.7479,63.7083,5.9491],[22.7521,63.7062,0.0],[22.7563,63.7062,3.1931],[22.7599,63.7026,2.3758],[22.7479,63.7021,16.9643],[22.7438,63.7042,12.2666],[22.7396,63.7042,4.7837],[22.7328,63.7099,0.0],[22.7271,63.7125,0.0],[22.7214,63.713,9.9956],[22.7182,63.7161,0.0],[22.6979,63.7188,1.3154],[22.6901,63.7161,0.0],[22.6932,63.7141,4.5174],[22.6901,63.7089,0.0],[22.6932,63.7068,4.4791],[22.6901,63.7026,0.0],[22.6932,63.7016,4.2611],[22.6922,63.6984,0.0],[22.6932,63.6964,0.0],[22.6911,63.6922,0.0],[22.6854,63.6875,0.0],[22.6776,63.6922,3.5841],[22.6797,63.6953,0.0],[22.6849,63.6964,0.0],[22.6849,63.6995,0.0],[22.6693,63.7047,0.0],[22.6667,63.7083,0.0],[22.6604,63.7042,0.0],[22.6484,63.7036,0.6463],[22.6495,63.7005,0.0],[22.6484,63.6984,0.0],[22.6516,63.6974,5.9097],[22.65,63.6958,1.1345],[22.6422,63.6964,0.0],[22.6432,63.6995,0.0],[22.6396,63.7021,0.0],[22.6333,63.7,0.0],[22.6276,63.7005,5.2873],[22.6318,63.7078,5.2188],[22.6411,63.7068,3.5358],[22.6453,63.7141,2.7285],[22.6318,63.7172,3.0213],[22.6328,63.7203,0.0],[22.6313,63.7208,0.0],[22.6167,63.7229,7.3415],[22.6109,63.7161,0.0],[22.6141,63.7099,2.5244],[22.6125,63.7062,0.0],[22.6141,63.7026,2.5765],[22.6109,63.6984,0.0],[22.6141,63.6964,2.3025],[22.6089,63.6953,0.0],[22.6026,63.6891,0.0],[22.6083,63.6833,0.5208],[22.6063,63.6813,0.4759],[22.6005,63.6807,0.0],[22.5995,63.6776,0.0],[22.5943,63.6724,0.0],[22.5974,63.6703,5.3624],[22.5953,63.6672,8.4179],[22.5854,63.6688,0.0],[22.5807,63.6724,0.0],[22.5708,63.675,0.0],[22.5646,63.675,0.0],[22.5464,63.6703,0.0],[22.5443,63.6672,0.4609],[22.5474,63.6651,0.0],[22.5422,63.6641,0.0],[22.5349,63.6568,1.6364],[22.5234,63.6536,7.1271],[22.5203,63.6505,6.5895],[22.5151,63.6495,0.0],[22.5182,63.6474,10.1545],[22.5172,63.6443,7.2247],[22.5187,63.6417,8.036],[22.513,63.6339,3.4442],[22.5161,63.6328,8.6093],[22.5151,63.6297,3.1125],[22.5224,63.6245,0.0],[22.5203,63.6214,0.4307],[22.5026,63.6203,2.1096],[22.5005,63.6172,6.1967],[22.5063,63.6167,7.2524],[22.5078,63.6151,9.0665],[22.4979,63.6146,0.0],[22.4901,63.612,0.0],[22.4854,63.6063,0.0],[22.4729,63.6063,0.0],[22.4688,63.6042,0.0314],[22.45,63.6042,0.741],[22.4417,63.6083,0.9093],[22.4276,63.6036,0.0],[22.4349,63.5964,0.0],[22.4297,63.5953,0.0],[22.4276,63.5901,0.0],[22.4396,63.5896,0.0],[22.4562,63.5958,0.0],[22.4604,63.5958,0.0],[22.462,63.5953,0.7717],[22.4609,63.5922,0.0],[22.4661,63.5891,-0.1431],[22.4651,63.5839,0.0],[22.4688,63.5812,1.1339],[22.487,63.5839,0.0],[22.4984,63.5974,0.0],[22.5063,63.6,0.0],[22.5146,63.6,0.0],[22.5167,63.5979,0.0],[22.5057,63.5839,0.0],[22.5005,63.5828,0.0],[22.4964,63.5786,0.0],[22.4974,63.5734,0.0],[22.4896,63.5729,0.6516],[22.4854,63.575,0.0],[22.4771,63.575,0.0],[22.4755,63.5745,0.3955],[22.4766,63.5714,0.0],[22.4755,63.5693,0.0],[22.4786,63.5672,0.0666],[22.4766,63.5651,0.0],[22.4708,63.5667,0.0],[22.463,63.5661,0.0],[22.463,63.563,0.0],[22.4682,63.5557,1.2732],[22.4672,63.5526,0.0],[22.4771,63.5521,2.1044],[22.4828,63.5495,3.5914],[22.4797,63.5443,0.0],[22.4828,63.5432,0.0],[22.4818,63.5401,0.0],[22.4828,63.538,0.8231],[22.4776,63.537,0.0],[22.4724,63.5297,0.9316],[22.4672,63.5286,0.0],[22.4682,63.5234,2.0182],[22.463,63.5224,0.0],[22.4589,63.5182,0.0],[22.4599,63.513,0.0],[22.4547,63.512,0.9103],[22.4505,63.5078,0.0],[22.4521,63.5042,0.0],[22.4505,63.5005,0.0],[22.4521,63.4979,0.0],[22.4474,63.4922,0.752],[22.4396,63.4917,0.0],[22.4318,63.4891,0.0],[22.4286,63.4859,9.0436],[22.4234,63.4849,0.0],[22.4214,63.4818,0.0],[22.4245,63.4797,3.6484],[22.4151,63.4797,0.0],[22.4182,63.4849,0.0],[22.4109,63.4859,13.9139],[22.412,63.4891,0.0],[22.4068,63.4922,0.5206],[22.412,63.4943,0.0],[22.4141,63.4964,0.0],[22.4141,63.4995,0.0],[22.4005,63.5026,8.9989],[22.4016,63.5057,0.0],[22.3984,63.5068,3.8503],[22.3995,63.5099,0.0],[22.3974,63.5141,11.6292],[22.3917,63.5125,1.7036],[22.3859,63.513,0.8727],[22.387,63.5182,3.1881],[22.3818,63.5214,7.7221],[22.3828,63.5349,0.0],[22.3755,63.5359,9.3634],[22.3792,63.5396,13.5945],[22.3917,63.5354,8.9478],[22.3953,63.5391,0.0],[22.3875,63.5438,0.0],[22.3776,63.5443,5.4595],[22.3672,63.5505,0.0],[22.3734,63.5578,0.0],[22.3786,63.5589,0.0],[22.3807,63.5609,0.0],[22.3776,63.5641,8.376],[22.3813,63.5687,0.0],[22.3807,63.5703,0.0],[22.3755,63.5714,5.6941],[22.3766,63.5766,0.0],[22.3667,63.575,0.0],[22.3625,63.5771,0.0],[22.3417,63.5792,0.0],[22.3328,63.5849,0.0],[22.325,63.5854,0.0],[22.3234,63.5839,0.0],[22.3266,63.5828,0.0],[22.3255,63.5797,9.3525],[22.3276,63.5776,0.0],[22.3349,63.5766,0.0],[22.3411,63.5724,7.0877],[22.3255,63.5641,0.3401],[22.3286,63.562,0.0],[22.3276,63.5589,8.6445],[22.3307,63.5578,6.1048],[22.3328,63.5547,0.0],[22.3234,63.5536,1.2595],[22.3182,63.5484,0.0],[22.313,63.5474,0.0],[22.3089,63.5411,0.2608],[22.3099,63.538,2.9922],[22.3078,63.5339,2.3935],[22.3026,63.5328,0.0],[22.2953,63.5255,3.1056],[22.2901,63.5245,0.0],[22.2896,63.5229,2.9966],[22.2943,63.5172,0.0],[22.3016,63.5161,8.2711],[22.2995,63.5109,12.9877],[22.2943,63.5099,2.0885],[22.2984,63.5026,0.0],[22.3047,63.4984,0.0],[22.3099,63.4974,8.9183],[22.313,63.4922,4.5288],[22.3203,63.4911,4.5976],[22.3224,63.4891,0.7498],[22.3214,63.4859,0.0],[22.3245,63.4849,0.0],[22.3234,63.4818,0.0],[22.3307,63.4807,5.2922],[22.3339,63.4776,0.0],[22.3432,63.4745,12.212],[22.3443,63.4714,0.0],[22.3599,63.4661,2.934],[22.3641,63.463,0.4109],[22.3563,63.4625,1.9412],[22.35,63.4583,0.0],[22.3417,63.4625,0.0],[22.3359,63.463,0.0],[22.3339,63.4651,0.3235],[22.3349,63.4682,0.0],[22.3318,63.4693,0.0],[22.3328,63.4724,0.0],[22.3307,63.4745,1.8828],[22.325,63.4771,0.0],[22.3151,63.4776,16.5726],[22.313,63.4797,11.5897],[22.3141,63.4828,0.0],[22.3,63.4875,0.0],[22.2958,63.4854,4.4409],[22.2792,63.4854,0.0],[22.275,63.4833,3.8295],[22.2687,63.4833,0.0],[22.2583,63.4792,11.5364],[22.2479,63.4792,10.6767],[22.2438,63.4813,1.8449],[22.2125,63.4813,0.0],[22.2089,63.4786,0.0],[22.2099,63.4755,5.8499],[22.2047,63.4745,3.3755],[22.2078,63.4724,10.3355],[22.2068,63.4693,3.294],[22.212,63.4651,7.3529],[22.2068,63.4599,7.5048],[22.2047,63.4547,0.0],[22.213,63.4484,0.0],[22.2203,63.4474,1.3131],[22.2234,63.4422,0.0],[22.2328,63.4391,3.0373],[22.2297,63.4339,0.0],[22.2359,63.4297,0.0],[22.2578,63.4224,0.0],[22.2568,63.4193,0.0],[22.262,63.4172,13.6285],[22.2464,63.4182,13.6526],[22.2484,63.4151,0.0],[22.2557,63.4141,13.362],[22.2578,63.412,18.3582],[22.2568,63.4089,0.0],[22.2687,63.4042,8.9753],[22.2724,63.4047,1.9843],[22.2672,63.4089,12.3234],[22.2682,63.412,0.0],[22.2651,63.4141,0.0],[22.2729,63.4146,0.0],[22.2875,63.4083,0.0],[22.3016,63.4078,10.3032],[22.2984,63.4036,0.0],[22.2995,63.3984,6.6987],[22.2964,63.3953,0.0],[22.2964,63.3922,0.0],[22.3083,63.3875,4.1544],[22.3141,63.387,1.6457],[22.3208,63.3812,0.0],[22.3354,63.3812,1.115],[22.3474,63.3766,5.963],[22.3464,63.3734,0.0],[22.3536,63.3724,1.7274],[22.3526,63.3693,0.0],[22.3547,63.3672,0.0],[22.3641,63.3641,0.862],[22.363,63.3589,0.0],[22.3651,63.3568,0.0],[22.3724,63.3557,3.2301],[22.3755,63.3505,0.2911],[22.3807,63.3495,0.0],[22.383,63.3451,0.0],[22.4223,63.3445,11.9624],[22.422,63.34,8.1301],[22.542,63.3379,20.8349],[22.5416,63.3335,22.8523],[22.5516,63.3333,22.4631],[22.5508,63.3243,30.5831],[22.5607,63.3241,38.2891],[22.56,63.3151,40.5211],[22.57,63.315,48.3891],[22.5696,63.3105,55.1765],[22.5795,63.3103,48.7145],[22.5791,63.3058,51.8365],[22.5891,63.3056,48.5789],[22.5883,63.2967,50.744],[22.5983,63.2965,51.2642],[22.5979,63.292,55.2824],[22.6079,63.2918,50.0884],[22.6075,63.2873,49.1845],[22.6175,63.2871,56.1345],[22.6171,63.2826,49.9425],[22.627,63.2825,52.0099],[22.6274,63.287,48.1936],[22.6474,63.2866,59.5437],[22.6478,63.2911,48.9847],[22.6578,63.2909,46.2008],[22.6582,63.2954,49.3453],[22.6782,63.295,42.2689],[22.6786,63.2995,41.359],[22.6686,63.2997,46.2218],[22.669,63.3042,46.5285],[22.659,63.3044,47.3994],[22.6598,63.3134,49.4424],[22.6499,63.3135,46.6116],[22.6503,63.318,46.8757],[22.6603,63.3178,45.0591],[22.6607,63.3223,45.2394],[22.6807,63.322,43.2674],[22.6811,63.3265,40.936],[22.6911,63.3263,38.2869],[22.6915,63.3308,36.2544],[22.7015,63.3306,34.9143],[22.7019,63.3351,36.3467],[22.7219,63.3347,33.9212],[22.7223,63.3392,34.3858],[22.7323,63.339,29.8073],[22.7327,63.3435,29.6061],[22.7527,63.3431,26.0],[22.7532,63.3476,25.3245],[22.7432,63.3478,37.1828],[22.7436,63.3523,27.483],[22.7336,63.3525,31.4986],[22.734,63.3569,33.681],[22.774,63.3562,35.3624],[22.7736,63.3517,25.7832],[22.7936,63.3513,29.7976],[22.7932,63.3468,34.3424],[22.8632,63.3455,62.7837],[22.8732,63.3453,64.3386],[22.874,63.3543,54.7733],[22.904,63.3537,64.1043],[22.9036,63.3492,58.2435],[22.9236,63.3488,66.9345],[22.9231,63.3443,65.4569],[22.9431,63.3439,69.5781],[22.9427,63.3394,68.3614],[22.9627,63.339,64.4059],[22.9622,63.3345,61.7652],[22.9722,63.3343,57.6133],[22.9717,63.3298,57.3826],[22.9817,63.3296,63.5308],[22.9836,63.3476,63.3112],[22.9736,63.3478,59.1307],[22.9753,63.3646,56.1414]]],
[[[22.4328,63.4964,7.1334],[22.4297,63.4922,0.0],[22.4391,63.4943,0.0],[22.437,63.4974,0.0],[22.4328,63.4964,7.1334]]],
[[[22.4063,63.5083,0.0],[22.4078,63.5078,7.7244],[22.4068,63.5047,0.0],[22.4188,63.5042,7.4765],[22.4229,63.5083,0.0],[22.4188,63.5125,0.0],[22.4083,63.5125,8.575],[22.4047,63.5099,0.0],[22.4063,63.5083,0.0]]],
[[[22.4516,63.5766,0.0],[22.4479,63.5792,0.0],[22.4422,63.5797,9.5039],[22.4333,63.5854,10.5304],[22.4214,63.5849,0.0],[22.4193,63.5797,0.0],[22.4214,63.5755,0.0],[22.4255,63.5693,0.0],[22.4307,63.5682,10.5706],[22.4328,63.5641,0.0],[22.4297,63.5589,0.0],[22.437,63.5578,0.0],[22.4411,63.5557,0.0],[22.4432,63.5526,3.0061],[22.4318,63.5495,0.0],[22.4349,63.5464,13.4457],[22.4276,63.5391,0.0],[22.4286,63.5339,9.7972],[22.4255,63.5307,0.0],[22.4271,63.5292,0.0],[22.4328,63.5286,3.9312],[22.437,63.5255,12.0225],[22.4292,63.525,0.0],[22.425,63.5271,0.0],[22.4208,63.5271,11.7407],[22.4172,63.5234,0.0],[22.4271,63.5208,0.0],[22.4313,63.5208,0.2756],[22.4354,63.5229,0.0],[22.4396,63.5208,0.0],[22.4458,63.5208,0.0],[22.4536,63.5234,0.0],[22.4521,63.525,0.0],[22.4464,63.5255,0.0],[22.4401,63.5297,0.088],[22.4417,63.5313,2.4661],[22.4479,63.5313,0.0],[22.4521,63.5292,6.9813],[22.4557,63.5318,0.0],[22.4542,63.5333,0.1933],[22.4484,63.5339,0.0],[22.4495,63.537,0.0],[22.4464,63.538,0.0],[22.4474,63.5411,0.0],[22.4464,63.5432,0.0],[22.4479,63.5438,9.2079],[22.4578,63.5411,0.0],[22.4568,63.538,0.2881],[22.4589,63.5359,0.2624],[22.4661,63.5339,0.0],[22.4646,63.5375,0.0],[22.4661,63.5411,0.4719],[22.4646,63.5438,0.1384],[22.4661,63.5474,0.0],[22.4609,63.5505,0.2298],[22.462,63.5536,0.0],[22.4583,63.5563,0.0],[22.4526,63.5568,0.0],[22.4557,63.562,0.0],[22.4495,63.5661,0.0],[22.4422,63.5672,3.1932],[22.4443,63.5724,2.1056],[22.4536,63.5714,0.0],[22.4516,63.5766,0.0]]],
[[[22.188,63.4411,0.0],[22.1937,63.4375,6.7968],[22.1974,63.4401,10.6698],[22.1917,63.4437,13.0034],[22.188,63.4411,0.0]]],
[[[22.1292,63.4583,3.0251],[22.1307,63.4578,8.3283],[22.1297,63.4547,10.5325],[22.1313,63.4542,5.4787],[22.1391,63.4568,4.7152],[22.1443,63.462,0.0],[22.1495,63.4641,0.0],[22.1464,63.4651,3.617],[22.1411,63.4703,0.7673],[22.1375,63.4708,0.0],[22.1297,63.4682,0.0],[22.1276,63.4641,0.0],[22.1286,63.4609,0.0],[22.1276,63.4589,0.0],[22.1292,63.4583,3.0251]]],
[[[22.1953,63.4797,2.7824],[22.1937,63.4813,0.0],[22.1922,63.4807,1.0093],[22.1937,63.4792,0.0],[22.1953,63.4797,2.7824]]],
[[[22.2005,63.487,0.0],[22.2062,63.4833,0.0],[22.212,63.4839,0.7131],[22.2099,63.487,0.0],[22.2068,63.488,11.8275],[22.2078,63.4911,3.7909],[22.2062,63.4917,0.0],[22.2005,63.487,0.0]]],
[[[22.1651,63.5203,2.33],[22.1693,63.5172,1.2715],[22.1724,63.5172,3.0369],[22.1703,63.5203,5.1972],[22.1651,63.5203,2.33]]],
[[[22.1578,63.5234,0.0],[22.1563,63.525,2.2119],[22.1547,63.5245,3.6019],[22.1563,63.5229,0.7207],[22.1578,63.5234,0.0]]],
[[[22.3641,63.588,9.7423],[22.363,63.5859,7.3393],[22.3651,63.5839,12.0234],[22.3745,63.5839,0.0],[22.3724,63.587,4.1317],[22.3682,63.5891,0.0],[22.3641,63.588,9.7423]]],
[[[22.3474,63.5859,5.4881],[22.3458,63.5875,9.3918],[22.3443,63.587,7.4531],[22.3458,63.5854,0.0],[22.3474,63.5859,5.4881]]],
[[[22.7911,63.863,9.4935],[22.7901,63.8609,0.0],[22.7911,63.8599,0.0],[22.7958,63.8583,0.0],[22.7958,63.8604,7.1557],[22.7974,63.8609,0.0],[22.7964,63.863,10.9366],[22.7938,63.8646,9.6485],[22.7911,63.863,9.4935]]],
[[[22.7911,63.8651,7.5497],[22.7911,63.8661,9.3369],[22.788,63.8661,8.5111],[22.788,63.8651,10.9505],[22.7911,63.8651,7.5497]]],
[[[22.6792,63.7167,9.6532],[22.6755,63.713,0.0],[22.6786,63.713,2.9235],[22.6807,63.7151,17.2031],[22.6792,63.7167,9.6532]]],
[[[22.7172,63.7203,0.0],[22.7214,63.7172,3.7855],[22.7245,63.7172,5.4298],[22.7224,63.7203,4.0427],[22.7172,63.7203,0.0]]],
[[[22.6875,63.7292,1.5387],[22.6833,63.7292,0.9896],[22.6818,63.7276,0.4111],[22.6911,63.7276,0.0],[22.6875,63.7292,1.5387]]],
[[[22.6745,63.737,0.2742],[22.6708,63.7375,4.7693],[22.6693,63.7359,0.0],[22.6729,63.7354,0.0],[22.6745,63.737,0.2742]]],
[[[22.675,63.825,6.1153],[22.6708,63.825,10.5967],[22.6693,63.8234,0.0],[22.6786,63.8234,13.1141],[22.675,63.825,6.1153]]],
[[[22.6786,63.8297,10.0241],[22.6786,63.8307,0.0],[22.6755,63.8307,9.6258],[22.6755,63.8297,11.2354],[22.6786,63.8297,10.0241]]],
[[[22.6766,63.838,9.3529],[22.6755,63.8359,8.9194],[22.6776,63.8339,6.7393],[22.687,63.8339,0.0],[22.6839,63.8359,0.0],[22.6849,63.8391,0.0],[22.6828,63.8411,2.7056],[22.6734,63.8411,3.3557],[22.6766,63.838,9.3529]]],
[[[22.7276,63.8495,13.6597],[22.7255,63.8464,0.0],[22.7292,63.8458,4.4336],[22.7292,63.8479,1.3002],[22.7333,63.85,6.8272],[22.7375,63.8479,0.0],[22.7453,63.8484,0.0],[22.7438,63.85,0.0],[22.738,63.8505,0.0],[22.7396,63.8521,0.0],[22.7542,63.85,7.0735],[22.7557,63.8505,0.0],[22.7547,63.8536,1.5889],[22.7557,63.8557,0.0],[22.7453,63.862,6.9641],[22.7396,63.8625,7.4772],[22.738,63.8609,7.494],[22.7401,63.8589,7.2562],[22.7458,63.8583,0.0],[22.7474,63.8568,13.3262],[22.7438,63.8542,3.2663],[22.7333,63.8542,10.2707],[22.7276,63.8557,0.0],[22.7255,63.8526,0.0],[22.7286,63.8516,0.0],[22.7276,63.8495,13.6597]]],
[[[22.7266,63.8839,6.0331],[22.7266,63.8849,4.5237],[22.7234,63.8849,1.2285],[22.7234,63.8839,5.7264],[22.7266,63.8839,6.0331]]],
[[[22.7328,63.8859,7.479],[22.7313,63.8875,4.1609],[22.7297,63.887,4.4203],[22.7313,63.8854,2.8407],[22.7328,63.8859,7.479]]],
[[[22.387,63.5891,12.188],[22.3797,63.5901,18.3494],[22.3708,63.5958,13.1947],[22.3672,63.5932,12.9006],[22.3792,63.5854,0.0],[22.387,63.5891,12.188]]],
[[[22.388,63.6234,7.8797],[22.3797,63.6255,6.6643],[22.3807,63.6286,0.4863],[22.3792,63.6292,4.0356],[22.3651,63.6266,0.0],[22.3661,63.6214,0.7249],[22.3641,63.6172,0.8303],[22.362,63.6151,3.7389],[22.3568,63.6141,1.8333],[22.3526,63.6089,0.0],[22.3646,63.6042,11.5089],[22.3745,63.6036,2.6401],[22.3807,63.5995,0.0],[22.3797,63.5964,0.0],[22.3854,63.5938,17.2718],[22.3974,63.5964,0.0],[22.4057,63.6057,0.0],[22.4005,63.6089,14.1861],[22.4016,63.6141,0.8872],[22.3964,63.6151,-1.0],[22.3932,63.6203,12.2633],[22.388,63.6234,7.8797]]],
[[[22.387,63.5755,8.0293],[22.387,63.5766,0.0],[22.3839,63.5766,2.4324],[22.3839,63.5755,7.0159],[22.387,63.5755,8.0293]]],
[[[22.5729,63.7146,0.9773],[22.5693,63.7109,0.0],[22.5771,63.7104,0.0],[22.5807,63.713,0.0],[22.5792,63.7146,7.487],[22.5729,63.7146,0.9773]]],
[[[22.5812,63.7292,2.2956],[22.5776,63.7286,0.0],[22.5776,63.7255,4.9414],[22.5833,63.725,3.31],[22.587,63.7276,9.1794],[22.5854,63.7292,11.6195],[22.5812,63.7292,2.2956]]],
[[[22.6354,63.7354,0.0],[22.637,63.737,0.0],[22.6271,63.7396,0.0],[22.6151,63.7391,0.0],[22.625,63.7354,0.0],[22.6354,63.7354,0.0]]],
[[[22.6589,63.7505,0.0],[22.6578,63.7536,0.0],[22.65,63.7562,4.153],[22.638,63.7557,5.2783],[22.6396,63.7542,0.0],[22.6495,63.7536,0.2834],[22.6443,63.7443,0.0],[22.6464,63.7422,0.0],[22.6563,63.7396,0.7987],[22.662,63.7401,0.0],[22.6641,63.7422,0.0],[22.663,63.7453,0.0],[22.6646,63.7458,0.0],[22.6813,63.7458,0.0],[22.6833,63.7479,0.0],[22.6807,63.7516,4.0557],[22.675,63.7542,0.0],[22.6688,63.75,5.0852],[22.6589,63.7505,0.0]]],
[[[22.5875,63.75,9.0749],[22.5917,63.7479,12.1731],[22.5953,63.7516,0.0],[22.5917,63.7542,2.0312],[22.5854,63.7542,4.6518],[22.5818,63.7516,0.0],[22.5833,63.75,0.0],[22.5875,63.75,9.0749]]],
[[[22.5714,63.7557,3.057],[22.5755,63.7526,5.5241],[22.5786,63.7526,0.0],[22.5766,63.7557,0.0],[22.5714,63.7557,3.057]]],
[[[22.5464,63.7536,0.0],[22.5505,63.7505,5.4552],[22.5536,63.7505,0.0],[22.5589,63.7578,4.5819],[22.5641,63.7589,0.0],[22.5682,63.763,11.6976],[22.563,63.7672,0.0],[22.5661,63.7724,0.0],[22.563,63.7734,7.5217],[22.5641,63.7766,7.4918],[22.562,63.7786,4.0805],[22.5563,63.7813,0.6902],[22.5505,63.7766,0.0],[22.5557,63.7724,5.2027],[22.5547,63.7693,1.4298],[22.5578,63.7672,1.674],[22.5484,63.762,0.0],[22.5516,63.7589,5.4564],[22.5464,63.7536,0.0]]],
[[[22.6453,63.7724,0.0],[22.6375,63.7729,8.3027],[22.6359,63.7693,0.0],[22.6516,63.7672,1.3551],[22.6495,63.7703,0.0],[22.6453,63.7724,0.0]]],
[[[22.6417,63.8479,8.0604],[22.6401,63.8474,8.4672],[22.6401,63.8443,2.6574],[22.6516,63.8443,6.268],[22.6495,63.8474,0.0],[22.6417,63.8479,8.0604]]],
[[[22.8411,63.8672,0.0],[22.8328,63.8699,0.0],[22.8312,63.8688,0.0],[22.8208,63.8688,5.6114],[22.8167,63.8708,0.0],[22.8089,63.8682,0.0],[22.8109,63.8651,0.0],[22.8292,63.8604,0.0],[22.8349,63.8609,0.0],[22.8411,63.8672,0.0]]],
[[[22.7703,63.8745,7.6464],[22.7604,63.875,10.6486],[22.7563,63.8771,0.0],[22.7484,63.8745,7.8064],[22.7536,63.8724,-1.0],[22.7542,63.8708,-1.0],[22.7536,63.8693,3.4035],[22.7479,63.8688,7.309],[22.7464,63.8672,2.9138],[22.7526,63.863,2.5134],[22.7599,63.862,10.2067],[22.7589,63.8589,0.0],[22.7625,63.8583,0.0],[22.7667,63.8604,0.0],[22.7708,63.8583,7.0559],[22.7766,63.8641,0.0],[22.7734,63.8651,9.6208],[22.7745,63.8682,0.0],[22.7703,63.8745,7.6464]]],
[[[22.8182,63.8745,0.0],[22.8146,63.875,3.4543],[22.813,63.8734,0.0],[22.8167,63.8729,0.0],[22.8182,63.8745,0.0]]],
[[[22.7578,63.8818,4.586],[22.7563,63.8833,0.0],[22.7547,63.8828,7.3946],[22.7563,63.8812,9.5391],[22.7578,63.8818,4.586]]],
[[[22.7974,63.8839,0.0],[22.7995,63.887,0.0],[22.7917,63.8917,2.6668],[22.7854,63.8917,0.0],[22.7813,63.8896,10.5403],[22.7771,63.8917,0.0],[22.7729,63.8896,0.0],[22.7651,63.8891,8.5097],[22.7672,63.8859,0.0],[22.7771,63.8792,0.0],[22.7938,63.8792,0.0],[22.7974,63.8839,0.0]]],
[[[22.7396,63.8917,3.2331],[22.7359,63.888,3.5962],[22.7453,63.888,0.0],[22.7453,63.8911,9.6445],[22.7396,63.8917,3.2331]]],
[[[22.7464,63.8943,0.0],[22.7521,63.8937,0.0],[22.7557,63.8974,0.0],[22.738,63.8974,0.0],[22.7464,63.8943,0.0]]],
[[[22.7729,63.8958,8.9166],[22.778199999999998,63.8962,0.0],[22.7807,63.8984,2.163],[22.7797,63.9016,0.0],[22.7807,63.9036,0.0],[22.7776,63.9057,8.1398],[22.7849,63.9099,0.0],[22.7771,63.9104,7.9412],[22.7729,63.9083,0.0],[22.7625,63.9083,0.0],[22.7547,63.9057,0.0],[22.7568,63.9026,3.4615],[22.7599,63.9016,9.3717],[22.7589,63.8984,0.0],[22.7687,63.8979,6.5497],[22.7729,63.8958,8.9166]]],
[[[22.7229,63.9167,3.197],[22.7193,63.9161,4.603],[22.7193,63.9151,2.1678],[22.7245,63.9151,0.0],[22.7229,63.9167,3.197]]],
[[[22.737,63.9161,5.0751],[22.7339,63.9161,0.0],[22.7339,63.9151,0.0],[22.737,63.9151,4.7974],[22.737,63.9161,5.0751]]],
[[[22.7766,63.9161,0.0],[22.7734,63.9182,6.7632],[22.7766,63.9224,0.0],[22.7646,63.9292,0.0],[22.7589,63.9286,3.7326],[22.7526,63.9266,1.8704],[22.7495,63.9234,5.537],[22.738,63.9203,2.0251],[22.7458,63.9167,0.0],[22.7521,63.9188,8.3469],[22.7563,63.9167,0.0],[22.7604,63.9167,2.6508],[22.7667,63.9125,0.0],[22.7745,63.913,1.5105],[22.7766,63.9161,0.0]]]]}
,"properties": {"GID_3": "FIN.5.4.1_1","GID_0": "FIN","country": "Finland","GID_1": "FIN.5_1","province": "WesternFinland","NL_NAME_1": "NA","GID_2": "FIN.5.4_1","county": "Ostrobothnia","NL_NAME_2": "NA","city": "Jakobstadsregionen","VARNAME_3": "NA","NL_NAME_3": "NA","TYPE_3": "Seutukunta|Ekonomiskregion","ENGTYPE_3": "Sub-Region","CC_3": "NA","HASC_3": "FI.LS.JK","name": "Jakobstadsregionen.city","area_km2": 2588.981,"hist_schema_id": "Elevation0-9000","hist_area_km2": {"0": 556.853,"25": 1085.936,"50": 703.243,"75": 237.654,"100": 5.296}}}