{"type": "Feature","bbox": [26.0761,62.9926,28.173,64.0344],"geometry": {"type": "MultiPolygon","coordinates": [[[[26.6162,63.0336,101.8747],[26.6172,63.0381,101.7971],[26.6074,63.0386,101.7654],[26.6084,63.043,101.6114],[26.6183,63.0426,102.1859],[26.6193,63.0471,101.6975],[26.6291,63.0466,102.2117],[26.6301,63.0511,110.8118],[26.6893,63.0483,132.7078],[26.6903,63.0528,141.1401],[26.7199,63.0514,114.1303],[26.7189,63.047,116.3086],[26.7287,63.0465,116.8761],[26.7297,63.051,113.6047],[26.7396,63.0505,112.3483],[26.7427,63.0639,103.0],[26.7526,63.0634,103.0],[26.7546,63.0724,103.0],[26.804,63.0701,106.8984],[26.805,63.0745,107.8101],[26.8149,63.0741,109.6262],[26.8159,63.0785,116.3732],[26.8258,63.0781,106.6044],[26.8268,63.0825,107.2083],[26.886,63.0797,122.7164],[26.8871,63.0842,121.8809],[26.8969,63.0837,119.8731],[26.898,63.0882,119.3759],[26.9079,63.0877,126.387],[26.9089,63.0922,118.1663],[26.899,63.0927,116.7242],[26.9001,63.0971,124.9809],[26.8804,63.0981,119.5983],[26.8814,63.1025,124.8862],[26.8715,63.103,115.4155],[26.8726,63.1075,120.4753],[26.8528,63.1084,128.7306],[26.855,63.1173,119.84],[26.8451,63.1178,116.5354],[26.8472,63.1267,117.4369],[26.857,63.1263,125.5778],[26.8581,63.1307,126.8123],[26.8779,63.1298,129.5624],[26.8768,63.1253,132.31],[26.8867,63.1249,156.2407],[26.8856,63.1204,144.3535],[26.8955,63.1199,147.7686],[26.8945,63.1155,143.6143],[26.9043,63.115,145.2685],[26.9033,63.1105,130.5102],[26.9131,63.1101,137.0496],[26.9142,63.1145,146.8542],[26.9438,63.1131,141.577],[26.9449,63.1176,141.1558],[26.9548,63.1171,126.4033],[26.958,63.1305,130.2279],[26.9481,63.131,129.1659],[26.9492,63.1354,126.2867],[26.9689,63.1345,135.7973],[26.97,63.1389,142.857],[26.9997,63.1375,147.9483],[27.0007,63.142,143.795],[27.0205,63.141,143.9686],[27.0216,63.1455,145.1719],[27.0117,63.146,146.1706],[27.0128,63.1504,138.3401],[27.0029,63.1509,124.4809],[27.004,63.1554,129.596],[26.9941,63.1558,124.6689],[26.9951,63.1603,125.3974],[26.9556,63.1622,122.5],[26.9588,63.1756,122.5],[27.0478,63.1713,104.7228],[27.0468,63.1668,102.5],[27.1061,63.1639,93.4867],[27.1072,63.1684,113.6315],[27.0874,63.1694,109.1115],[27.0885,63.1738,111.3258],[27.0786,63.1743,109.6601],[27.0797,63.1788,125.0683],[27.0698,63.1793,130.2866],[27.0709,63.1837,125.46],[27.061,63.1842,134.23],[27.0621,63.1887,150.6438],[27.0423,63.1896,145.7451],[27.0575,63.2522,170.6541],[27.0376,63.2531,167.7927],[27.0398,63.2621,179.6943],[27.0497,63.2616,171.9912],[27.0508,63.266,177.8935],[27.0806,63.2646,140.7279],[27.0795,63.2601,149.3908],[27.115,63.2584,98.294],[27.1187,63.2563,92.4281],[27.1181,63.2537,134.5043],[27.128,63.2532,100.4921],[27.1291,63.2577,95.6438],[27.1215,63.2581,93.0918],[27.1195,63.2595,96.2029],[27.1203,63.2626,124.1435],[27.1104,63.2631,116.4112],[27.1115,63.2676,116.3474],[27.1015,63.2681,133.5282],[27.1026,63.2725,117.0586],[27.1126,63.2721,118.2969],[27.1137,63.2765,103.7679],[27.1534,63.2746,95.9592],[27.1556,63.2835,106.466],[27.1457,63.284,106.5355],[27.1468,63.2885,136.6371],[27.1368,63.2889,118.6098],[27.1423,63.3112,129.2643],[27.1324,63.3117,127.061],[27.1357,63.3251,159.7292],[27.1457,63.3247,127.7965],[27.1468,63.3291,137.6011],[27.1567,63.3286,112.8004],[27.1578,63.3331,129.8474],[27.1678,63.3326,128.0654],[27.1689,63.3371,112.1547],[27.1987,63.3356,104.1225],[27.1976,63.3311,87.0717],[27.2175,63.3301,83.0],[27.2164,63.3257,83.0],[27.2363,63.3247,102.7822],[27.2351,63.3202,95.1996],[27.255,63.3192,108.9208],[27.2539,63.3148,83.0],[27.2738,63.3138,101.0429],[27.2704,63.3004,83.0],[27.2803,63.2999,83.0],[27.2792,63.2954,83.0],[27.2891,63.2949,83.0],[27.288,63.2905,83.0],[27.298,63.29,83.0],[27.2968,63.2855,83.0],[27.3068,63.285,86.8609],[27.3011,63.2627,83.0],[27.311,63.2622,83.0],[27.3054,63.2399,83.0],[27.3153,63.2394,83.0],[27.3142,63.2349,83.0],[27.3241,63.2344,83.0],[27.323,63.23,83.0],[27.3329,63.2295,83.0],[27.3318,63.225,83.0],[27.3417,63.2245,83.0],[27.3394,63.2156,83.0],[27.3493,63.2151,83.0],[27.3471,63.2061,83.0],[27.3371,63.2066,83.0],[27.3338,63.1932,83.0],[27.3436,63.1927,83.0],[27.3425,63.1883,83.0],[27.3524,63.1878,83.0],[27.3513,63.1833,92.5543],[27.3612,63.1828,83.0],[27.3589,63.1739,83.0],[27.3688,63.1734,83.0],[27.3699,63.1779,83.0],[27.3996,63.1763,101.7635],[27.4007,63.1808,88.3455],[27.47,63.1772,111.0457],[27.4711,63.1817,104.5157],[27.481,63.1812,127.4317],[27.4822,63.1857,117.197],[27.502,63.1846,119.8007],[27.4996,63.1757,135.4746],[27.5095,63.1752,115.5484],[27.5084,63.1707,118.1271],[27.5183,63.1702,112.0803],[27.5171,63.1658,109.484],[27.527,63.1652,118.0237],[27.5258,63.1608,97.2176],[27.5357,63.1603,105.6479],[27.5346,63.1558,94.8519],[27.5543,63.1548,115.9926],[27.5555,63.1593,106.4292],[27.5456,63.1598,97.3366],[27.5468,63.1642,116.5452],[27.5369,63.1647,100.687],[27.538,63.1692,102.5645],[27.5479,63.1687,105.1435],[27.5526,63.1865,125.1117],[27.5723,63.1855,120.2802],[27.5735,63.1899,116.0922],[27.5933,63.1889,156.9898],[27.5945,63.1934,142.7001],[27.6143,63.1923,133.9053],[27.6131,63.1879,147.6319],[27.6329,63.1868,123.0109],[27.6399,63.2136,124.9408],[27.63,63.2141,138.4045],[27.6312,63.2186,117.3941],[27.6213,63.2191,129.9113],[27.6225,63.2236,116.4999],[27.6522,63.222,122.7263],[27.6545,63.2309,125.247],[27.6446,63.2314,131.0968],[27.647,63.2404,121.3884],[27.6668,63.2393,124.4188],[27.6656,63.2349,124.5974],[27.6755,63.2343,133.0011],[27.6743,63.2299,131.384],[27.6842,63.2293,130.5249],[27.6878,63.2427,126.6843],[27.6779,63.2432,131.9703],[27.6791,63.2477,121.8503],[27.689,63.2472,124.5889],[27.6901,63.2516,121.0],[27.7793,63.2469,151.0843],[27.7817,63.2558,141.3166],[27.7916,63.2553,171.0227],[27.7952,63.2686,163.547],[27.8151,63.2676,166.8337],[27.8139,63.2631,169.6873],[27.8238,63.2626,179.783],[27.8226,63.2581,175.0501],[27.8325,63.2576,154.8099],[27.8337,63.2621,179.8345],[27.8436,63.2615,156.4887],[27.8497,63.2838,135.4311],[27.8596,63.2833,140.4078],[27.8644,63.3011,131.6223],[27.8744,63.3006,131.621],[27.8756,63.305,131.3098],[27.8855,63.3045,128.5714],[27.8843,63.3,127.235],[27.9041,63.299,120.2919],[27.9029,63.2945,108.4783],[27.9128,63.2939,114.8882],[27.9153,63.3029,102.5],[27.9451,63.3012,103.6264],[27.9463,63.3057,119.7923],[27.9364,63.3062,99.5299],[27.9413,63.3241,99.006],[27.9437,63.333,102.4599],[27.9536,63.3324,109.5076],[27.9561,63.3414,105.8055],[28.0058,63.3386,95.0],[28.0083,63.3475,100.8162],[28.0182,63.347,104.9603],[28.0207,63.3559,103.0527],[28.0306,63.3554,110.8065],[28.0356,63.3732,116.8866],[28.0456,63.3726,137.4152],[28.048,63.3815,134.2375],[28.058,63.381,141.5773],[28.0593,63.3855,144.5108],[28.0692,63.3849,155.84],[28.0717,63.3938,147.4928],[28.0816,63.3933,158.0865],[28.0867,63.4111,120.8333],[28.0767,63.4116,136.9749],[28.0792,63.4206,118.2491],[28.0692,63.4211,129.0586],[28.0718,63.43,136.2416],[28.0618,63.4306,142.0985],[28.0643,63.4395,123.9277],[28.0743,63.4389,130.8895],[28.073,63.4345,121.1464],[28.083,63.4339,132.4222],[28.0817,63.4295,122.7917],[28.0917,63.4289,119.7762],[28.0904,63.4244,122.59],[28.1104,63.4234,145.5906],[28.1154,63.4412,149.0314],[28.1054,63.4417,131.4293],[28.1092,63.4551,140.7456],[28.1192,63.4545,165.092],[28.1242,63.4724,143.5],[28.1342,63.4718,143.5],[28.1355,63.4763,143.5],[28.1255,63.4768,143.5],[28.1293,63.4902,143.5],[28.1193,63.4907,143.5],[28.1218,63.4996,143.5],[28.1118,63.5002,151.7569],[28.1144,63.5091,148.7209],[28.1044,63.5097,143.5],[28.1056,63.5141,148.0465],[28.0957,63.5147,143.5],[28.0982,63.5236,148.4675],[28.0882,63.5242,143.5],[28.0894,63.5286,153.4092],[28.0794,63.5292,149.1852],[28.0807,63.5336,154.4873],[28.0707,63.5342,153.938],[28.072,63.5386,148.9916],[28.062,63.5392,154.2671],[28.0632,63.5436,152.6522],[28.0532,63.5442,149.4785],[28.0545,63.5486,155.6267],[28.0445,63.5492,150.0068],[28.0482,63.5626,156.0296],[28.0582,63.562,157.3502],[28.0645,63.5843,155.6125],[28.0746,63.5837,156.6875],[28.0796,63.6016,156.8578],[28.0696,63.6021,156.3825],[28.0708,63.6066,159.1237],[28.0608,63.6071,158.4084],[28.0621,63.6116,162.6206],[28.0521,63.6121,163.0805],[28.0546,63.6211,168.8102],[28.0646,63.6205,165.3802],[28.0659,63.625,162.4995],[28.0759,63.6244,177.6854],[28.0784,63.6333,192.3505],[28.0885,63.6328,195.8302],[28.0923,63.6461,179.6817],[28.1023,63.6456,190.1448],[28.1061,63.659,194.1275],[28.1162,63.6584,210.1654],[28.12,63.6718,190.9569],[28.13,63.6712,198.2699],[28.1339,63.6846,186.6332],[28.1439,63.684,188.6972],[28.1478,63.6974,184.7242],[28.1578,63.6968,192.398],[28.1617,63.7102,186.5116],[28.1717,63.7096,186.7925],[28.173,63.7141,186.038],[28.1629,63.7146,186.4735],[28.1642,63.7191,186.1436],[28.1542,63.7197,185.972],[28.1554,63.7241,193.3008],[28.1454,63.7247,188.4943],[28.1467,63.7291,196.2243],[28.1366,63.7297,196.5824],[28.1379,63.7341,200.1712],[28.1278,63.7347,194.0062],[28.1291,63.7392,198.3917],[28.119,63.7397,195.4297],[28.1203,63.7442,196.6933],[28.1102,63.7447,186.7596],[28.1115,63.7492,186.849],[28.1014,63.7497,188.4417],[28.104,63.7587,186.7418],[28.0939,63.7592,180.2204],[28.0951,63.7637,169.6803],[28.0851,63.7642,172.4097],[28.0863,63.7687,167.7226],[28.0763,63.7692,166.7422],[28.0775,63.7737,164.2866],[28.0674,63.7742,164.8838],[28.0687,63.7787,163.665],[28.0586,63.7793,163.4708],[28.0599,63.7837,163.3069],[28.0498,63.7842,163.3381],[28.0511,63.7887,163.4272],[28.041,63.7892,163.5853],[28.0423,63.7937,163.5446],[28.0322,63.7943,163.7173],[28.0334,63.7987,163.5299],[28.0233,63.7993,163.4724],[28.0246,63.8037,163.5801],[28.0044,63.8048,163.4878],[28.0057,63.8093,163.6627],[27.9956,63.8098,163.6595],[27.9968,63.8143,163.594],[27.9867,63.8148,163.6696],[27.988,63.8193,163.4287],[27.9779,63.8198,163.6157],[27.9792,63.8243,163.5263],[27.959,63.8254,163.9044],[27.9602,63.8298,163.8375],[27.9501,63.8304,163.5074],[27.9513,63.8348,163.4131],[27.9412,63.8354,163.5413],[27.9425,63.8398,163.4806],[27.9324,63.8404,163.6404],[27.9336,63.8448,163.4412],[27.9235,63.8454,164.051],[27.9248,63.8498,163.5983],[27.8843,63.852,167.0383],[27.8856,63.8565,175.6638],[27.8653,63.8576,180.0911],[27.8666,63.862,182.5924],[27.8564,63.8625,178.736],[27.8577,63.867,187.0514],[27.8476,63.8675,185.5696],[27.8488,63.872,190.2282],[27.8286,63.8731,177.5784],[27.8298,63.8775,183.2493],[27.8197,63.8781,176.2584],[27.8209,63.8825,187.48],[27.8007,63.8836,170.7914],[27.8019,63.8881,177.8136],[27.7918,63.8886,166.477],[27.793,63.8931,176.1354],[27.7727,63.8941,181.8743],[27.774,63.8986,167.3315],[27.7638,63.8991,173.581],[27.7651,63.9036,171.9935],[27.7448,63.9046,167.174],[27.746,63.9091,166.9046],[27.7257,63.9101,157.5],[27.727,63.9146,157.5],[27.6864,63.9167,157.5],[27.6876,63.9212,157.5],[27.6673,63.9222,157.5],[27.6572,63.9227,157.5],[27.656,63.9183,157.5],[27.6458,63.9188,157.5],[27.647,63.9233,157.5],[27.6267,63.9243,157.5],[27.6279,63.9288,159.0554],[27.6178,63.9293,161.2243],[27.619,63.9338,161.3083],[27.5987,63.9348,172.0036],[27.5999,63.9393,172.6039],[27.5796,63.9403,174.7413],[27.5808,63.9448,183.1187],[27.5707,63.9453,182.4601],[27.5719,63.9498,182.3501],[27.5516,63.9508,175.019],[27.5527,63.9552,183.4214],[27.4918,63.9583,197.4979],[27.4906,63.9539,193.2437],[27.5008,63.9534,199.5655],[27.4996,63.9489,175.5953],[27.4793,63.9499,165.4566],[27.4781,63.9455,165.7965],[27.4578,63.9465,156.0078],[27.4566,63.942,163.1487],[27.4464,63.9425,162.5115],[27.4476,63.947,151.9379],[27.4273,63.948,151.1696],[27.4308,63.9614,157.8721],[27.4206,63.9619,162.379],[27.4218,63.9664,160.5365],[27.3812,63.9684,166.056],[27.3823,63.9729,170.4665],[27.3417,63.9749,156.6722],[27.3428,63.9793,154.0],[27.292,63.9818,162.044],[27.2931,63.9863,170.423],[27.2016,63.9908,191.1364],[27.2027,63.9952,197.6737],[27.1416,63.9982,211.8371],[27.1314,63.9987,221.8285],[27.1303,63.9942,213.5919],[27.1201,63.9947,207.6548],[27.119,63.9902,198.2571],[27.0579,63.9931,196.5448],[27.059,63.9976,193.9218],[26.9979,64.0005,186.1125],[26.999,64.005,196.2145],[26.9787,64.0059,197.6609],[26.9798,64.0104,208.4442],[26.9594,64.0114,194.1064],[26.9605,64.0158,204.8993],[26.9299,64.0172,206.6074],[26.931,64.0217,212.4768],[26.9107,64.0227,219.2318],[26.9118,64.0271,221.7384],[26.8914,64.0281,226.2334],[26.8925,64.0325,225.0622],[26.8517,64.0344,181.9157],[26.8506,64.03,178.0628],[26.8302,64.0309,173.6665],[26.8291,64.0264,179.0584],[26.8189,64.0269,174.4347],[26.8178,64.0224,175.0224],[26.7974,64.0234,193.6915],[26.7963,64.0189,198.0996],[26.7862,64.0194,188.0734],[26.7851,64.0149,189.3493],[26.7647,64.0158,174.8857],[26.7636,64.0114,172.0581],[26.7432,64.0123,176.5882],[26.7421,64.0078,171.0713],[26.732,64.0083,171.8813],[26.7309,64.0038,161.417],[26.7105,64.0047,182.8147],[26.7094,64.0002,175.4036],[26.6891,64.0012,181.0095],[26.688,63.9967,175.0669],[26.6778,63.9972,174.2426],[26.6768,63.9927,180.1751],[26.6564,63.9936,181.8153],[26.6553,63.9891,193.7382],[26.6349,63.99,196.2043],[26.6339,63.9856,198.5984],[26.6237,63.986,197.0694],[26.6227,63.9816,203.1044],[26.6023,63.9825,190.5843],[26.6012,63.978,191.6855],[26.591,63.9785,185.3939],[26.59,63.974,183.6447],[26.5798,63.9744,178.1266],[26.5788,63.97,182.1446],[26.5686,63.9704,182.8007],[26.5665,63.9615,181.2305],[26.5563,63.9619,177.9366],[26.5553,63.9575,182.5026],[26.5451,63.9579,178.2693],[26.5441,63.9534,179.3821],[26.5339,63.9539,174.0601],[26.5329,63.9494,173.6344],[26.5227,63.9499,174.3682],[26.5217,63.9454,171.9774],[26.5115,63.9458,169.8807],[26.5105,63.9414,167.5525],[26.5003,63.9418,166.293],[26.4992,63.9373,165.0547],[26.4891,63.9378,165.4624],[26.487,63.9288,162.8501],[26.4768,63.9293,163.3094],[26.4758,63.9248,165.3961],[26.465699999999998,63.9253,164.3679],[26.4646,63.9208,166.4625],[26.4544,63.9212,170.5687],[26.4534,63.9168,173.6886],[26.4433,63.9172,177.1807],[26.4422,63.9127,177.2638],[26.4321,63.9132,182.5756],[26.4311,63.9087,178.819],[26.4209,63.9091,176.0294],[26.4199,63.9047,174.6728],[26.4097,63.9051,167.9375],[26.4086,63.9007,167.0956],[26.3986,63.9011,155.1894],[26.3975,63.8966,152.5357],[26.3874,63.897,151.634],[26.3864,63.8926,151.3356],[26.3762,63.893,153.8024],[26.3752,63.8885,148.625],[26.365,63.889,151.4506],[26.364,63.8845,148.936],[26.3539,63.8849,152.8429],[26.3529,63.8805,163.0575],[26.3427,63.8809,160.2115],[26.3417,63.8764,158.8792],[26.3316,63.8769,162.4154],[26.3306,63.8724,170.1717],[26.3204,63.8728,171.6758],[26.3184,63.8639,169.4318],[26.3083,63.8643,167.9802],[26.3073,63.8599,170.8156],[26.2972,63.8603,163.9639],[26.2962,63.8558,159.7746],[26.286,63.8562,145.1363],[26.285,63.8518,140.5016],[26.2749,63.8522,138.109],[26.2739,63.8477,134.0351],[26.2637,63.8482,130.8866],[26.2627,63.8437,130.9587],[26.2526,63.8441,138.6773],[26.2516,63.8396,136.8203],[26.2415,63.8401,137.4455],[26.2405,63.8356,142.2305],[26.2304,63.836,149.596],[26.2294,63.8316,161.5824],[26.2192,63.832,164.8076],[26.2183,63.8275,167.4382],[26.2284,63.8271,164.4734],[26.2264,63.8181,164.4925],[26.2365,63.8177,161.5547],[26.2346,63.8088,170.4702],[26.2447,63.8083,163.8506],[26.2418,63.7949,162.296],[26.2519,63.7945,141.9075],[26.2479,63.7766,147.2557],[26.258,63.7762,152.1652],[26.2531,63.7538,137.7055],[26.2632,63.7534,142.7849],[26.2583,63.731,133.4967],[26.2684,63.7306,127.8483],[26.2635,63.7083,159.4012],[26.2736,63.7078,154.4899],[26.2686,63.6855,155.034],[26.2787,63.685,144.916],[26.2738,63.6627,150.5257],[26.2838,63.6623,144.6765],[26.2789,63.6399,169.2881],[26.289,63.6395,169.4073],[26.2841,63.6171,174.2957],[26.2941,63.6167,173.2044],[26.2892,63.5943,183.4335],[26.2992,63.5939,173.133],[26.2983,63.5894,180.1765],[26.2882,63.5899,179.1266],[26.2872,63.5854,185.4269],[26.2671,63.5863,192.2599],[26.2661,63.5818,195.7512],[26.2461,63.5826,189.3238],[26.2451,63.5782,182.8655],[26.225,63.579,166.0622],[26.224,63.5745,176.3003],[26.214,63.575,175.998],[26.213,63.5705,184.5875],[26.203,63.5709,196.3734],[26.1855,63.4904,150.3711],[26.1755,63.4909,154.4485],[26.1736,63.4819,161.0396],[26.1636,63.4823,162.8551],[26.1607,63.4689,160.4613],[26.1507,63.4693,153.1629],[26.1488,63.4604,166.8367],[26.1388,63.4608,170.9698],[26.1382,63.458,177.2954],[26.1378,63.4563,182.0476],[26.1478,63.4559,171.1598],[26.1469,63.4515,182.353],[26.1569,63.451,169.0727],[26.1559,63.4466,175.0369],[26.1659,63.4461,156.0451],[26.165,63.4417,161.0932],[26.175,63.4412,142.2528],[26.173,63.4323,157.4232],[26.163,63.4327,166.4451],[26.1611,63.4238,158.5003],[26.1511,63.4242,157.6312],[26.1502,63.4197,159.0226],[26.1402,63.4202,156.2645],[26.1383,63.4112,146.5308],[26.1283,63.4116,145.7078],[26.1274,63.4072,152.3779],[26.1174,63.4076,160.2142],[26.1136,63.3897,145.1112],[26.1036,63.3901,145.145],[26.1007,63.3767,139.989],[26.0908,63.3771,141.28],[26.0879,63.3637,175.0646],[26.078,63.3641,174.9702],[26.0761,63.3552,162.2305],[26.096,63.3543,156.3404],[26.0951,63.3498,155.0176],[26.105,63.3494,151.9149],[26.1041,63.345,148.5874],[26.1141,63.3445,150.2747],[26.1122,63.3356,148.0722],[26.1221,63.3352,141.7991],[26.1212,63.3307,143.6811],[26.1311,63.3303,140.9681],[26.1283,63.3169,147.4541],[26.1382,63.3165,143.8587],[26.1335,63.2941,185.1375],[26.1435,63.2937,166.0229],[26.1397,63.2758,169.2115],[26.1496,63.2754,173.8961],[26.1477,63.2664,170.3381],[26.1576,63.266,174.4781],[26.1557,63.2571,181.6323],[26.1657,63.2566,182.53],[26.1638,63.2477,179.4435],[26.1737,63.2473,180.1243],[26.1728,63.2428,179.325],[26.1827,63.2424,176.9759],[26.1789,63.2245,169.1863],[26.1888,63.2241,170.7359],[26.1859,63.2107,146.7195],[26.1562,63.2119,183.2455],[26.1505,63.1851,189.1553],[26.1604,63.1847,183.2371],[26.1566,63.1668,149.4489],[26.1665,63.1664,149.5513],[26.1618,63.144,137.2532],[26.1816,63.1432,134.7807],[26.1806,63.1387,134.8186],[26.1905,63.1383,134.8131],[26.1867,63.1204,147.4754],[26.1966,63.12,150.9513],[26.1957,63.1155,146.6747],[26.2055,63.1151,145.9832],[26.2046,63.1106,145.4585],[26.2145,63.1102,147.9915],[26.2116,63.0968,147.9245],[26.2215,63.0963,163.0039],[26.2205,63.0919,145.1367],[26.2304,63.0914,158.3766],[26.2285,63.0825,151.0271],[26.2384,63.0821,156.602],[26.2365,63.0731,148.3824],[26.2464,63.0727,145.046],[26.2454,63.0682,149.0653],[26.2553,63.0678,145.7888],[26.2543,63.0633,145.0466],[26.2741,63.0625,144.6247],[26.2731,63.058,144.8031],[26.2928,63.0571,152.9245],[26.2919,63.0527,152.8246],[26.3116,63.0518,152.7767],[26.3106,63.0473,145.0363],[26.3303,63.0465,169.1302],[26.3284,63.0375,152.405],[26.3678,63.0358,150.1167],[26.3669,63.0313,147.7311],[26.3965,63.03,141.3033],[26.3955,63.0256,139.0878],[26.425,63.0242,122.7044],[26.424,63.0198,131.6057],[26.4536,63.0185,131.084],[26.4526,63.014,118.8997],[26.4822,63.0126,131.6566],[26.4812,63.0082,147.0275],[26.491,63.0077,129.1326],[26.49,63.0033,134.9771],[26.4999,63.0028,131.4301],[26.4989,62.9984,128.9143],[26.5087,62.9979,120.5854],[26.5077,62.9935,125.2684],[26.5274,62.9926,115.711],[26.5284,62.997,114.7395],[26.5481,62.9961,120.5533],[26.5491,63.0006,114.0838],[26.5589,63.0001,110.1655],[26.5599,63.0046,113.0948],[26.5796,63.0037,102.1856],[26.5806,63.0082,102.0949],[26.5905,63.0077,102.0104],[26.5915,63.0122,102.1807],[26.6013,63.0118,113.6286],[26.6023,63.0162,102.776],[26.6122,63.0158,103.289],[26.6132,63.0202,101.877],[26.623,63.0198,101.7738],[26.6251,63.0287,101.8382],[26.6152,63.0292,102.2869],[26.6162,63.0336,101.8747]]]]}
,"properties": {"GID_3": "FIN.1.2.3_1","GID_0": "FIN","country": "Finland","GID_1": "FIN.1_1","province": "EasternFinland","NL_NAME_1": "NA","GID_2": "FIN.1.2_1","county": "NorthSavonia","NL_NAME_2": "NA","city": "UpperSavonia","VARNAME_3": "NA","NL_NAME_3": "NA","TYPE_3": "Seutukunta|Ekonomiskregion","ENGTYPE_3": "Sub-Region","CC_3": "NA","HASC_3": "NA","name": "Upper_Savonia.city","area_km2": 8018.99,"hist_schema_id": "Elevation0-9000","hist_area_km2": {"75": 217.66,"100": 1559.894,"125": 2422.31,"150": 2299.787,"175": 1118.02,"200": 366.941,"225": 34.122,"250": 0.256}}}