{"type":"Feature","properties":{"featurecla":"Lake","scalerank":5,"name":"null343","name_abb":null,"name_alt":null,"note":"_untitled_15","delta":null,"dam_name":null,"year":-99,"admin":null,"min_zoom":4.7,"min_label":6.0},
"geometry":{"type": "Polygon","coordinates": [[[28.740981474695161,66.342428930372051,251.6637],[28.706540871820749,66.330360001159676,251.096],[28.735388556279673,66.313286881786013,258.0501],[28.804564126155611,66.294741941776721,263.9685],[28.836355451885822,66.282673012564345,259.0846],[28.832234354105992,66.279435007165887,265.916],[28.821931609656389,66.268249170334883,260.678],[28.834294902995907,66.2582407900124,253.4021],[28.840476549665681,66.255297148741079,250.2443],[28.849896201733884,66.254708420486821,249.3951],[28.849896201733884,66.248526773817048,243.0807],[28.821931609656389,66.24116767063876,252.7381],[28.821931609656389,66.234102931587614,242.8428],[28.828996348707534,66.232925475079071,242.5456],[28.842537098555596,66.228804377299241,239.5],[28.849896201733884,66.227332556663583,239.5],[28.83458926712305,66.221739638248067,239.5],[28.818987968385073,66.22291709475661,239.5],[28.803386669647068,66.226449464282183,245.202],[28.787785370909091,66.227332556663583,245.4572],[28.77601080582383,66.223800187138011,249.177],[28.752756039780422,66.2108481655442,243.4407],[28.740098382313761,66.207021431891491,239.5],[28.610283802248716,66.207021431891491,283.966],[28.610283802248716,66.19936796458606,258.9936],[28.613521807647146,66.192891953789172,254.9323],[28.552294069203754,66.188182127755056,268.3807],[28.527861846651831,66.179645568068253,256.1646],[28.595565595892111,66.155507709643445,248.6356],[28.617348541299862,66.1449106010667,239.5],[28.476348124403785,66.138728954396953,261.2238],[28.447500439944889,66.13343040010858,257.7265],[28.363312299585232,66.09751797659851,264.214],[28.299435283997667,66.083094134369048,249.8314],[28.236735724918617,66.0760293953179,255.4314],[28.175507986475225,66.0621942813427,264.5095],[28.143127932490756,66.060428096579926,239.5],[28.116929525176033,66.0760293953179,251.6044],[28.121050622955863,66.083094134369048,239.5],[28.118695709938805,66.085743411513249,239.5],[28.109864786124859,66.090158873420222,240.4628],[28.139595562965155,66.109586905810914,240.2846],[28.1407730194737,66.114296731845,240.5681],[28.119873166447348,66.131664215345779,240.0005],[28.104860595963629,66.147265514083756,251.7616],[28.077190368013248,66.156685166151988,270.9447],[28.027442830528003,66.166104818220191,254.4396],[27.9762234724071,66.164632997584533,241.1456],[27.952379978109434,66.166693546474448,243.2617],[27.935012494608657,66.17611319854268,246.7476],[27.916761918726479,66.182883573466682,246.8893],[27.888797326648984,66.182294845212425,240.6888],[27.862893283461403,66.17611319854268,246.4205],[27.849352533613342,66.166104818220191,259.0901],[27.902338076497045,66.152269704245015,264.1165],[27.917645011107879,66.1449106010667,283.4763],[28.016256993697,66.13431349248998,253.9603],[28.047753955300095,66.121655835023319,253.0766],[28.021261183858229,66.1039939873954,260.0878],[28.037745574977606,66.096929248344253,259.2848],[28.051580688952811,66.095163063581452,253.4005],[28.064238346419472,66.090747601674479,252.0273],[28.076012911504733,66.0760293953179,244.5234],[28.04392722164738,66.0742632105551,242.4209],[28.029209015290803,66.070142112775272,260.5807],[28.021261183858229,66.062783009596984,262.8464],[28.02302736862103,66.05571827054581,255.2786],[28.029503379417918,66.046887346731864,241.296],[28.037156846723349,66.039233879426433,257.9733],[28.041866672757465,66.035701509900861,256.7769],[28.072186177852018,66.02893113497683,269.2876],[28.322101321786789,66.042471884824892,249.2833],[28.4792917656751,66.029519863231087,248.2438],[28.476936852658071,66.033052232756688,239.5],[28.473110119005355,66.042471884824892,239.5],[28.505490172989823,66.048064803240379,239.5],[28.610283802248716,66.049242259748922,243.2073],[28.657970790844047,66.064254830232642,239.5],[28.683874834031627,66.076323759445017,239.5],[28.706540871820749,66.090158873420222,239.5],[28.66150316036962,66.102227802632626,278.8148],[28.614404900028546,66.09575179183571,254.2444],[28.567601003814616,66.083094134369048,257.9521],[28.38833325039144,66.069553384521015,239.5],[28.343295538940282,66.0760293953179,239.5],[28.385389609120097,66.09251378643728,239.5],[28.428955499935597,66.100755981996969,239.5],[28.686818475302942,66.110764362319429,239.5],[28.706540871820749,66.11753473724346,239.5],[28.699181768642461,66.11753473724346,239.5],[28.699181768642461,66.124305112167491,239.5],[28.725380175957184,66.131664215345779,239.5],[28.794555745833122,66.172580829017079,239.5],[28.822225973783503,66.182589209339568,239.5],[28.937616711619114,66.204372154747318,253.1282],[28.939088532254772,66.207904524272891,239.5],[28.937616711619114,66.236163480477529,246.0993],[28.94320963003463,66.2388127576217,247.5656],[28.959694021154007,66.24116767063876,244.447],[29.03004704753846,66.232336746824814,239.5],[29.067136927557044,66.232042382697671,243.2916],[29.090097329473338,66.248526773817048,245.9935],[29.0600721885059,66.247643681435676,239.5],[28.994723352282676,66.2591238823938,239.5],[28.966170031950895,66.268249170334883,239.5],[28.986186792595845,66.282673012564345,239.5],[29.011796471656311,66.2832617408186,239.5],[29.062132737395814,66.268249170334883,249.3087],[29.057717275488841,66.277668822403086,253.9277],[29.050358172310553,66.28385046907286,246.281],[29.042410340878007,66.289149023361233,239.5],[29.034756873572576,66.295625034158121,248.3109],[29.172224920943052,66.295625034158121,242.6376],[29.172224920943052,66.302984137336409,242.3453],[29.048591987547752,66.302984137336409,239.5],[28.983537515451673,66.319174164328672,239.2328],[28.950274369085776,66.322706533854245,255.6608],[28.932023793203626,66.309165784006183,239.5],[28.94144344527183,66.305927778607725,253.3631],[28.951451825594319,66.303572865590667,266.4486],[28.962048934171037,66.302395409082152,252.015],[28.972940406874926,66.302984137336409,250.0593],[28.972940406874926,66.295625034158121,253.9318],[28.954101102738491,66.28797156685269,256.086],[28.932612521457884,66.282673012564345,239.5],[28.910829576050133,66.2823786484372,239.5],[28.890812815405184,66.289443387488348,239.5],[28.884925532862553,66.295625034158121,243.9439],[28.872267875395892,66.31475870242167,239.5],[28.863436951581946,66.323589626235645,241.3352],[28.830468169343192,66.337719104337964,239.5],[28.786019186146319,66.344489479262,239.5],[28.740981474695161,66.342428930372051,251.6637]]]}}