{"type":"Feature","properties":{"featurecla":"Lake","scalerank":4,"name":"Inarijrvi","name_abb":"Inarijrvi","name_alt":null,"note":null,"delta":null,"dam_name":null,"year":-99,"admin":null,"min_zoom":4.0,"min_label":5.0},
"geometry":{"type": "Polygon","coordinates": [[[27.163778481523678,68.896332097366411,117.5],[27.222945671077156,68.8748435160858,117.5],[27.254148268553109,68.868367505288916,123.2337],[27.286822686664721,68.866012592271858,123.6282],[27.239724426323647,68.883968804026892,179.6448],[27.236486420925218,68.8942715484765,165.2555],[27.260329915222883,68.906929205943158,139.5789],[27.286233958410463,68.910461575468759,129.3139],[27.32273511017479,68.909872847214473,117.5],[27.350110973998028,68.9045742929261,117.5],[27.348933517489513,68.8933884560951,117.5],[27.355703892413544,68.881613891009835,117.5],[27.365123544481747,68.873077331323032,126.0989],[27.376603745439866,68.868073141161773,117.5],[27.390144495287927,68.866012592271858,117.5],[27.385729033380954,68.861008402110627,117.5],[27.380430479092581,68.850705657661024,117.5],[27.376603745439866,68.845407103372651,126.9339],[27.428706195942198,68.820680516693585,171.1226],[27.457553880401093,68.813027049388154,158.8794],[27.486401564859989,68.811260864625382,198.6022],[27.469034081359212,68.813910141769554,246.2305],[27.446073679442947,68.820091788439328,211.3809],[27.426645647052254,68.828628348126131,253.7813],[27.418109087365451,68.83863672844862,224.5396],[27.426056918797997,68.851883114169539,232.2684],[27.445190587061546,68.86041967385637,117.5],[27.46815098897784,68.863068951000542,117.5],[27.486401564859989,68.858359124966427,121.6997],[27.482280467080159,68.855709847822254,120.8951],[27.4772762769189,68.849822565279624,136.073],[27.472566450884813,68.845407103372651,123.7735],[27.5181928905902,68.815676326532355,122.4271],[27.544391297904923,68.803313033192808,117.5],[27.568823520456846,68.797131386523063,117.5],[27.522902716624316,68.780058267149428,118.0],[27.423113277526681,68.790361011599032,139.6959],[27.36453481622749,68.777997718259485,169.8794],[27.331271669861593,68.779763903022285,131.0327],[27.315081642869359,68.776525897623827,131.14],[27.307428175563928,68.77181607158974,131.1456],[27.303601441911212,68.767106245555624,131.4173],[27.300657800639897,68.761807691267251,131.3065],[27.294476153970152,68.75592040872462,130.9846],[27.2735763009438,68.745912028402131,131.1748],[27.227949861238386,68.737081104588185,131.5702],[27.204989459322121,68.729427637282754,131.3006],[27.21823584504304,68.723834718867266,133.4553],[27.231187866636844,68.722657262358751,135.0033],[27.245022980612021,68.722951626485866,154.7403],[27.260329915222883,68.722068534104466,131.1056],[27.269455203163943,68.718830528706036,131.4075],[27.288294507300378,68.709705240764947,131.8904],[27.297714159368581,68.707644691875032,140.2082],[27.323029474301904,68.7094108766378,166.5659],[27.328916756844535,68.714415066799063,230.4604],[27.320085833030589,68.723245990613009,282.8612],[27.300657800639897,68.735609283952527,232.8516],[27.329505485098821,68.750033126181989,147.3509],[27.365123544481747,68.750033126181989,148.5942],[27.401035967991817,68.745912028402131,141.0276],[27.431061108959227,68.748561305546332,181.0844],[27.421347092763881,68.7512105826905,189.6578],[27.413399261331335,68.75592040872462,183.3348],[27.407806342915848,68.7621020553944,232.834],[27.404273973390247,68.770344250954082,228.7421],[27.423996369908082,68.775348441115312,128.0418],[27.443424402298774,68.774170984606769,118.0],[27.4799255540631,68.762985147775765,118.0],[27.4781593693003,68.758275321741678,118.0],[27.474921363901871,68.746795120783531,118.0],[27.472566450884813,68.742379658876558,118.0],[27.579714993160735,68.75415422396182,182.549],[27.633289264298696,68.753565495707562,120.017],[27.678032611622712,68.735609283952527,121.2329],[27.640354003349842,68.712648882036262,120.1871],[27.629756894773124,68.701463045205259,121.0646],[27.675088970351396,68.717358708070378,131.1232],[27.695694459250603,68.73001636553704,120.3794],[27.694811366869203,68.745617664275017,138.5666],[27.68951281258083,68.761807691267251,149.8972],[27.697460644013404,68.780352631276543,174.006],[27.711590122115723,68.79683702239592,159.0871],[27.725719600218042,68.807434130972666,161.0475],[27.77487840944903,68.825095978600558,154.7322],[27.824037218680019,68.825979070981958,117.5],[27.870252386639692,68.813615777642411,117.5],[27.911463364438134,68.790361011599032,117.5],[27.852296174884657,68.76004150650445,117.5],[27.821976669790104,68.753271131580419,117.5],[27.787830431042835,68.735609283952527,117.5],[27.756039105312595,68.726483996011439,117.5],[27.746325089117249,68.722068534104466,117.5],[27.811379561213357,68.71500379505332,130.0089],[27.81579502312033,68.71824180045175,141.8691],[27.820210485027303,68.725306539502924,182.6936],[27.826392131697077,68.7323712785541,140.5773],[27.835223055511022,68.735609283952527,128.7697],[27.858183457427288,68.738552925223843,173.9898],[28.109864786124859,68.817442511295127,137.3474],[28.08984802547991,68.8339269024145,176.0986],[28.061589069275271,68.846290195754051,131.9732],[28.031858292434976,68.851000021788138,136.3158],[28.00713170575591,68.845407103372651,126.4181],[28.04392722164738,68.827450891617616,117.5],[28.055407422605498,68.817442511295127,117.5],[28.02302736862103,68.807434130972666,117.5],[27.989469858128018,68.804784853828465,117.5],[27.956501075889264,68.809200315735438,193.0775],[27.924709750159053,68.821269244947842,133.7115],[27.889091690776127,68.828333983999016,163.0436],[27.872018571402492,68.836281815431562,193.9027],[27.873196027911007,68.848939472898223,146.721],[27.885559321250525,68.855415483695111,142.4864],[27.898216978717187,68.857181668457912,122.1915],[27.909697179675334,68.861008402110627,144.4677],[27.917645011107879,68.872782967195889,125.5778],[27.888502962521841,68.877198429102862,133.2899],[27.874667848546665,68.882202619264092,131.5502],[27.873196027911007,68.889561722442409,130.073],[27.883204408233496,68.893977184349382,122.8111],[27.898216978717187,68.894860276730753,117.5],[27.913523913328049,68.892799727840838,117.5],[27.951496885728034,68.879847706247062,123.7214],[28.129881546769809,68.858359124966427,117.5],[28.2738256049372,68.858359124966427,117.5],[28.260873583343425,68.845407103372651,131.2345],[28.353892647517029,68.857770396712169,128.2304],[28.383917788484439,68.858359124966427,149.4171],[28.383917788484439,68.866012592271858,141.9888],[28.315036582735644,68.866012592271858,117.5],[28.338880077033309,68.875432244340089,134.7998],[28.394514897061185,68.884851896408293,132.4776],[28.411293652307705,68.899570102764869,117.5],[28.334758979253451,68.882496983391235,120.6323],[28.293842365582151,68.878670249738519,140.0098],[28.260873583343425,68.8857349887897,123.3828],[28.300907104633325,68.899570102764869,123.8168],[28.320923865278274,68.908695390705958,165.0275],[28.329166060837963,68.921058684045477,150.8079],[28.320335137024017,68.933716341512138,121.0407],[28.299729648124782,68.9369543469106,117.5],[28.253808844292251,68.934305069766424,122.9417],[28.228493529358929,68.937248711037739,117.5],[28.181689633144998,68.951378189140058,134.0443],[28.135474465185325,68.960209112954,130.3095],[28.097795856912455,68.981108965980354,134.8236],[28.076012911504733,68.981992058361726,117.5],[28.082194558174479,68.998770813608246,126.3078],[28.095440943895426,69.0214368513974,138.6054],[28.110453514379145,69.041747976169461,131.1686],[28.123699900100064,69.050284535856292,117.5],[28.227021708723271,69.031150867592743,128.327],[28.253514480165109,69.037332514262488,153.9828],[28.242623007461248,69.048223986966377,140.1451],[28.240856822698447,69.060881644433039,117.5],[28.244977920478306,69.0735393018997,117.5],[28.253514480165109,69.085019502857818,117.5],[28.267643958267456,69.096205339688822,117.5],[28.279418523352717,69.09679406794308,117.5],[28.466339744081324,69.044102889186519,125.4334],[28.465162287572781,69.055583090144665,146.6419],[28.461335553920094,69.065297106340012,148.3372],[28.454565178996063,69.0726562095183,133.362],[28.445145526927831,69.078249127933788,123.1426],[28.484590319963473,69.098265888578737,134.9147],[28.493715607904562,69.105624991757054,138.5211],[28.499897254574336,69.121520654622145,126.4372],[28.493126879650305,69.127996665419062,132.4932],[28.478997401547986,69.125641752402,136.7419],[28.451032809470462,69.109157361282627,131.5864],[28.431310412952655,69.100915165722938,125.9631],[28.411293652307705,69.095616611434565,128.3873],[28.3974585383325,69.09856025270588,135.3269],[28.394514897061185,69.108862997155484,133.5267],[28.399813451349559,69.119165741605087,133.5335],[28.407172554527847,69.128879757800433,123.8579],[28.425717494537139,69.1656752736919,123.3023],[28.461041189792951,69.175389289887249,117.5],[28.541402596499893,69.180687844175623,129.4336],[28.569955916831674,69.1945229581508,126.6142],[28.622352731461092,69.232495930550783,117.5],[28.651200415920016,69.242798675000387,126.2907],[28.562596813653386,69.228963561025211,150.6184],[28.458980640903036,69.228963561025211,216.4982],[28.421302032630166,69.220427001338379,151.7051],[28.404523277383674,69.221310093719779,137.7994],[28.3974585383325,69.235145207694984,133.4231],[28.403934549129417,69.247802865161646,125.9942],[28.419241483740251,69.257516881356992,117.5],[28.490477602506104,69.282243468036029,127.7119],[28.571427737467332,69.299022223282549,140.8741],[28.677398823234739,69.338467016318191,122.307],[28.707129600075035,69.357895048708883,131.1644],[28.699181768642461,69.3729076191926,126.8637],[28.714488703253323,69.387920189676322,120.342],[28.787785370909091,69.407642586194129,144.6665],[28.81869360425793,69.4258931620763,155.8943],[28.827818892199019,69.436490270653024,147.8772],[28.815161234732358,69.44120009668714,139.3223],[28.762470055975768,69.435018450017367,120.5505],[28.623235823842492,69.386154004913521,133.2026],[28.623235823842492,69.379972358243748,125.0387],[28.6482567746487,69.378794901735233,120.4628],[28.646196225758757,69.366137244268572,120.696],[28.629417470512266,69.350241581403452,137.6866],[28.610283802248716,69.339055744572448,137.5908],[28.369493946255005,69.272235087713568,128.8363],[28.34888845735577,69.26988017469651,117.5],[28.570544645085931,69.354362679183311,117.5],[28.596743052400655,69.3729076191926,127.4644],[28.571427737467332,69.376734352845318,157.8455],[28.538458955228577,69.3729076191926,155.7773],[28.506373265371224,69.362899238870114,143.6105],[28.45927500503015,69.334051554411218,140.2917],[28.369493946255005,69.311091152494953,132.0549],[28.376853049433294,69.318450255673241,130.2366],[28.322690050041075,69.326398087105787,151.1248],[28.240562458571333,69.316095342656183,135.3023],[28.171386888695395,69.291663120104261,129.0987],[28.157257410593076,69.256339424848449,148.3386],[28.171386888695395,69.271057631205053,165.1613],[28.188754372196144,69.284598381053087,149.4267],[28.207299312205464,69.295784217884091,163.4236],[28.225549888087613,69.304026413443779,158.4219],[28.259107398580625,69.312268609003468,147.1654],[28.261756675724797,69.303143321062379,140.3186],[28.251453931275194,69.287836386451545,142.9164],[28.246449741113963,69.276944913747684,160.0665],[28.284422713513948,69.301965864553864,145.8128],[28.30296765352324,69.3087362394779,145.7137],[28.329166060837963,69.311091152494953,137.3832],[28.315036582735644,69.297844766774034,127.9627],[28.329166060837963,69.290485663595717,117.5],[28.299435283997667,69.262226707391079,117.5],[28.249982110639536,69.245447952144588,127.4115],[28.154608133448875,69.235145207694984,131.3882],[28.134885736931068,69.228669196898068,119.5553],[28.114868976286118,69.217483360067064,125.8932],[28.100445134056656,69.213362262287234,123.7735],[28.096324036276798,69.228963561025211,124.6044],[28.102505682946571,69.246036680398845,141.0594],[28.11163097088766,69.2578112454841,130.3521],[28.114574612158975,69.267230897552338,132.0687],[28.103388775327971,69.276944913747684,132.6452],[28.116046432794633,69.288130750578688,125.626],[28.144305388999271,69.3060869623337,131.3433],[28.151664492177559,69.318450255673241,129.5098],[28.120461894701606,69.315506614401926,143.9767],[28.027442830528003,69.283715288671715,143.3871],[27.997123325433449,69.283420924544572,136.6225],[27.984760032093902,69.279299826764714,135.9956],[27.979755841932672,69.266642169298052,118.9893],[27.983582575585388,69.262226707391079,124.1247],[28.001244423213279,69.250452142305818,125.7138],[28.00713170575591,69.242798675000387,118.9878],[27.997417689560564,69.241032490237615,118.8749],[27.989175494000875,69.236911392457756,119.0117],[27.98299384733113,69.230729745788011,118.8186],[27.979755841932672,69.22219318610118,118.927],[27.996828961306306,69.223665006736837,129.8524],[28.028325922909403,69.231318474042268,119.1332],[28.041866672757465,69.228963561025211,118.8867],[28.021261183858229,69.2177777241942,124.3614],[28.013902080679941,69.215422811177149,120.7559],[28.022438640366772,69.20394261021903,118.8718],[28.036273754341948,69.197760963549257,120.2581],[28.052463781334183,69.195111686405056,137.018],[28.069242536580703,69.194817322277942,119.0058],[28.069242536580703,69.188046947353911,125.4413],[28.062177797529529,69.178332931158565,119.0983],[28.071303085470618,69.173034376870191,118.8356],[28.086904384208594,69.172740012743049,128.3823],[28.11339715565046,69.183631485446938,123.4796],[28.147837758524844,69.18628076259111,130.2065],[28.161378508372906,69.191579316879483,126.0461],[28.182278361399256,69.208652436253118,127.0871],[28.193758562357402,69.212773534032976,117.5],[28.212303502366694,69.215422811177149,117.5],[28.242623007461248,69.215128447050034,128.5696],[28.255575029055052,69.2186608165756,124.2348],[28.26705523001317,69.228963561025211,125.5578],[28.26293413223334,69.21807208832135,125.4188],[28.266760865886056,69.210124256888776,125.4168],[28.276180517954259,69.2048257026004,117.5],[28.287660718912406,69.200998968947715,117.5],[28.222311882689155,69.178921659412822,117.5],[28.139301198838041,69.163614724801988,127.0068],[28.096324036276798,69.147130333682611,117.5],[28.077779096267506,69.14448105653841,118.6883],[28.039806123867521,69.1441866924113,129.8728],[28.021261183858229,69.139771230504323,120.4091],[28.026854102273745,69.16037671940353,126.6253],[28.022144276239629,69.1674414584547,123.9771],[28.010075347027225,69.16538090956476,121.8551],[27.993296591780734,69.160082355276387,117.5],[27.987409309238103,69.156549985750814,117.5],[27.98299384733113,69.152428887970984,120.3151],[27.976517836534214,69.150073974953926,117.5],[27.925004114286168,69.160082355276387,121.6509],[27.94443214667686,69.173917469251592,127.1359],[27.954734891126492,69.178627295285708,122.387],[27.96621509208461,69.180687844175623,136.1483],[27.905576081895475,69.192462409260884,128.0505],[27.84169906630791,69.173034376870191,132.7797],[27.647418742401015,69.084430774603561,120.0699],[27.615921780797919,69.078249127933788,117.5],[27.58000935728785,69.0829589539679,126.2161],[27.561170053151443,69.0820758615865,135.2332],[27.548218031557639,69.072067481264042,117.5],[27.548512395684781,69.0614703726873,120.464],[27.558226411880128,69.054994361890408,118.0],[27.571178433473904,69.05175635649195,118.9254],[27.58265863443205,69.050284535856292,117.5],[27.58265863443205,69.044102889186519,121.2128],[27.565291150931273,69.042925432678,120.192],[27.552633493464612,69.039981791406689,121.4211],[27.506123961377824,69.019376302507453,127.2222],[27.495232488673935,69.016432661236138,117.5],[27.4799255540631,69.016727025363281,117.5],[27.4799255540631,69.009367922184992,117.5],[27.49317193978402,69.003186275515219,117.5],[27.471388994376269,68.993472259319873,117.5],[27.358647533684859,68.9787540529633,140.099],[27.305367626674013,68.965213303115235,141.1705],[27.249732806646136,68.959031656445461,117.5],[27.096663460537656,68.9157601297571,117.5],[27.053391933849298,68.913405216740074,117.5],[27.039556819874122,68.910461575468759,117.5],[27.0133584125594,68.899570102764869,137.9396],[27.148765911039959,68.899570102764869,117.5],[27.163778481523678,68.896332097366411,117.5]]]}}