{"type": "Feature","bbox": [27.19821908439809,66.466944956148751,27.972985467008641,66.764841452806],"geometry": {"type": "Polygon","coordinates": [[[27.223828763458556,66.545540178092921,149.6324],[27.19821908439809,66.5425965368216,147.0],[27.21411474726321,66.532293792371973,147.0],[27.247672257756221,66.51875304252394,147.0],[27.266511561892628,66.508450298074308,147.0],[27.285645230156206,66.505212292675878,147.0],[27.32361820255619,66.506978477438651,147.0],[27.342163142565482,66.50109119489602,145.7536],[27.335981495895709,66.492260271082074,151.8229],[27.321263289539132,66.483134983140985,154.4267],[27.315081642869359,66.474304059327039,146.8621],[27.339513865421281,66.468711140911552,153.0306],[27.366595365117405,66.466944956148751,150.8383],[27.370422098770121,66.469888597420066,147.9582],[27.376603745439866,66.485195532030929,151.2596],[27.379841750838324,66.491082814573559,147.0],[27.429883652450712,66.529938879354944,147.0],[27.438420212137544,66.5425965368216,163.5607],[27.396914870211958,66.552899281271209,147.0],[27.382491027982525,66.562613297466555,154.5471],[27.396914870211958,66.576742775568874,147.0],[27.417520359111194,66.578214596204532,147.0],[27.506712689632081,66.56379075397507,161.1375],[27.498470494072393,66.586751155891335,147.0],[27.506123961377824,66.600880633993654,147.0],[27.526729450277031,66.605296095900627,147.0],[27.658898943359162,66.584101878747163,147.0],[27.690984633216516,66.573504770170416,147.0],[27.73719980117616,66.551721824762666,147.0],[27.762809480236626,66.545245813965778,147.0],[27.794600805966837,66.5425965368216,147.0],[27.826392131697077,66.531705064117716,151.33],[27.845820164087769,66.528172694592143,147.0],[27.856122908537372,66.535826161897575,147.0],[27.8525905390118,66.54289090094872,153.6236],[27.821976669790104,66.56379075397507,147.0],[27.933835038100142,66.588811704781278,147.0],[27.972985467008641,66.591166617798308,156.1575],[27.972985467008641,66.597936992722339,157.1062],[27.947375787948175,66.604118639392112,175.5465],[27.938250500007115,66.60470736764637,178.1007],[27.942665961914088,66.617070660985917,164.5986],[27.950908157473776,66.627667769562635,156.1189],[27.972985467008641,66.645623981317669,153.446],[27.953557434617949,66.645623981317669,159.6924],[27.934718130481514,66.637970514012267,147.0],[27.917350646980765,66.6253128565456,160.7107],[27.904104261259818,66.610889014316143,147.0],[27.906753538404018,66.60735664479057,147.0],[27.911463364438134,66.597936992722339,147.0],[27.8490581694862,66.589400433035536,165.268],[27.824331582807162,66.58969479716265,188.2682],[27.801371180890868,66.60470736764637,156.6781],[27.79312898533118,66.595287715578166,168.3224],[27.760160203092454,66.569972400644843,160.6184],[27.741320898956019,66.587928612399878,165.3582],[27.609740134128174,66.618248117494431,147.0],[27.663903133520392,66.618248117494431,147.0],[27.656544030342104,66.625901584799863,147.0],[27.634172356680097,66.6420916117921,163.1295],[27.632994900171553,66.648861986716128,152.0376],[27.648301834782416,66.656809818148673,147.0],[27.663314405266135,66.6559267257673,147.0],[27.679504432258369,66.6523943562417,147.0],[27.698049372267661,66.651805627987443,147.0],[27.688335356072315,66.6626971006913,158.9265],[27.68127061702117,66.680947676573481,179.5842],[27.674500242097139,66.69007296451457,172.1078],[27.663314405266135,66.692133513404485,151.918],[27.629462530645981,66.682419497209139,160.1209],[27.609740134128174,66.686834959116112,155.5083],[27.608268313492516,66.675649122285108,157.0234],[27.602086666822743,66.671528024505278,153.8447],[27.578831900779335,66.67241111688665,150.9541],[27.569706612838246,66.675943486412251,147.0],[27.566174243312673,66.68418568197194,151.2798],[27.564702422677016,66.693605334040143,151.7727],[27.562053145532843,66.700375708964174,147.0],[27.551161672828954,66.712444638176578,147.0],[27.543508205523523,66.718331920719208,158.444],[27.534382917582462,66.720686833736266,160.9493],[27.518781618844486,66.721275561990524,156.0106],[27.506712689632081,66.7230417467533,150.9715],[27.503474684233623,66.7274572086603,150.3532],[27.51407179281037,66.7351106759657,171.036],[27.490522662639847,66.750123246449419,170.6782],[27.458142608655351,66.754833072483535,152.9241],[27.441658217535974,66.747768333432361,147.0],[27.465796075960782,66.727751572787412,147.0],[27.404273973390247,66.761897811534681,147.0],[27.384845940999554,66.764841452806,147.0],[27.377192473694151,66.760425990899023,152.9645],[27.381313571473981,66.75188943121222,155.1521],[27.390144495287927,66.7480626975595,147.0],[27.403685245135989,66.740409230254073,147.0],[27.405745794025904,66.730400849931613,147.0],[27.403685245135989,66.720686833736266,158.2366],[27.404273973390247,66.713916458812236,145.9068],[27.408100707042962,66.708323540396719,146.3689],[27.407806342915848,66.7062629915068,146.6035],[27.408983799424362,66.704496806744,146.4059],[27.418109087365451,66.700375708964174,197.6305],[27.420169636255366,66.701847529599831,195.986],[27.441658217535974,66.7071460838882,151.3245],[27.463735527070867,66.702730621981232,147.0],[27.527906906785546,66.67241111688665,147.0],[27.520253439480143,66.6662294702169,169.2778],[27.532616732819662,66.6550436333859,150.9999],[27.532616732819662,66.6403254270293,151.9593],[27.522902716624316,66.626784677181263,171.3242],[27.506712689632081,66.618248117494431,193.2921],[27.4808086464445,66.617365025113031,207.0486],[27.471094630249155,66.627079041308377,189.2131],[27.466973532469297,66.642680340046354,187.443],[27.458731336909608,66.658870367038617,178.7204],[27.443424402298774,66.670939296250992,206.1297],[27.4363596632476,66.6671125625983,193.9481],[27.424879462289482,66.638264878139381,156.8679],[27.41133871244142,66.624135400037062,165.3662],[27.399858511483274,66.622074851147147,164.208],[27.385140305126697,66.625018492418462,147.0],[27.362768631464689,66.6253128565456,155.987],[27.364829180354604,66.620897394638632,147.0],[27.368067185753063,66.609417193680486,147.0],[27.370422098770121,66.60470736764637,147.0],[27.339808229548424,66.592049710179708,155.054],[27.323912566683305,66.576448411441731,155.7319],[27.312432365725186,66.557903471432439,155.6555],[27.294476153970152,66.535826161897575,158.7123],[27.302129621275554,66.533471248880517,147.0],[27.32185201779339,66.522285412049513,165.2017],[27.290355056190293,66.525229053320828,171.3097],[27.223828763458556,66.545540178092921,149.6324]]]}
,"properties": {"featurecla": "Reservoir","scalerank": 7,"name": "Kemijarvi","name_abb": "Kemijarvi","name_alt": null,"note": null,"delta": null,"dam_name": "Seitakorva","year": 1968,"admin": null,"min_zoom": 5.7,"min_label": 6.7,"area_km2": 246.4063,"hist_schema_id": "Elevation0-9000","hist_area_km2": {"150": 222.9565,"175": 20.6473,"200": 2.0448,"225": 0.5725,"250": 0.1852}}}