{"type": "Feature","id": 15286.0,"bbox": [27.78882897227129,66.332525946087856,28.007823112896347,66.389044500775242],"geometry": {"type": "Polygon","coordinates": [[[27.91199791758379,66.368109442181549,245.378],[27.87671959727129,66.375128485150242,247.779],[27.856944206646347,66.3875796570253,254.9605],[27.84205162852129,66.389044500775242,247.6068],[27.85157311289629,66.3814761414003,242.0],[27.859141472271233,66.375982977337856,245.9134],[27.822642448833847,66.376593328900412,261.6738],[27.78882897227129,66.3747622742128,242.0],[27.81055748789629,66.3645083679628,242.0],[27.843638542583676,66.3544375671816,242.0],[27.864268425396233,66.349554754681662,242.0],[27.897105339458733,66.3486392273378,248.0839],[27.92383873789629,66.344366766400412,242.0],[27.942393425396347,66.341070867962856,252.3424],[27.983409050396347,66.3337466492128,242.0],[28.007823112896347,66.332525946087856,259.4445],[27.987681511333733,66.341681219525356,242.0],[27.955088737896233,66.355963446087856,253.3479],[27.91199791758379,66.368109442181549,245.378]]]}
,"properties": {"name": "Murtoselka","lge_id": null,"pfafstette": 56263.0,"lke_type": "N","altitude": 0,"objectid": 9307,"scalerank": 12,"featurecla": "Lake","note": null,"funkyname": 1,"min_zoom": 7.0,"min_label": 8.0,"area_km2": 19.11271,"hist_schema_id": "Elevation0-9000","hist_area_km2": {"250": 18.46687,"275": 0.56087,"300": 0.08497}}}