{"type":"Feature","properties":{"featurecla":"Reservoir","scalerank":8,"name":"Lokan Tekojarvi","name_abb":"Lokan Tekojarvi","name_alt":"Lokka Reservoir","note":null,"delta":null,"dam_name":"Lokka","year":1967,"admin":null,"min_zoom":6.0,"min_label":7.0},
"geometry":{"type": "Polygon","coordinates": [[[27.174964318354682,68.102432046492311,256.6591],[27.169665764066309,68.088596932517135,247.49],[27.177613595498883,68.074173090287672,246.8672],[27.187916339948487,68.066225258855127,242.0],[27.211171105991895,68.062987253456669,242.0],[27.285350866029063,68.061809796948154,248.5802],[27.314198550487959,68.0559225144055,244.5703],[27.338336408912767,68.043559221065976,242.0],[27.355703892413544,68.022953732166769,242.0],[27.330977305734478,68.023248096293884,253.4646],[27.319202740649217,68.021187547403969,271.3767],[27.308016903818213,68.016183357242738,274.9275],[27.355115164159258,68.004114428030334,242.0],[27.373954468295693,67.993517319453588,262.4457],[27.390144495287927,67.975266743571439,244.9685],[27.342163142565482,67.967318912138865,253.6521],[27.334804039387194,67.964669634994692,247.4555],[27.338042044785624,67.953189434036545,242.0],[27.34363496320114,67.945535966731143,243.9775],[27.34687296859957,67.937882499425712,242.0],[27.342163142565482,67.926696662594708,243.0905],[27.265334105384113,67.905502445441215,250.0198],[27.212054198373266,67.906385537822615,256.3495],[27.245906072993421,67.892550423847439,247.3829],[27.375426288931351,67.889606782576124,242.0],[27.429294924196455,67.8607590981172,250.9088],[27.543802569650666,67.846923984142023,242.0],[27.575593895380877,67.824552310480016,248.9415],[27.601497938568485,67.814838294284669,242.0],[27.750151822769965,67.826907223497074,242.0],[27.781354420245918,67.8327945060397,245.6098],[27.801371180890868,67.844863435252108,250.7642],[27.778116414847489,67.845157799379223,247.2651],[27.753684192295538,67.848101440650538,247.0256],[27.739260350066104,67.858109820973027,249.7837],[27.746325089117249,67.879009673999377,279.5252],[27.739554714193218,67.879009673999377,261.6266],[27.753389828168423,67.896082793373012,262.2142],[27.774584045321888,67.900203891152842,242.0],[27.799016267873839,67.900792619407127,246.7846],[27.821976669790104,67.906385537822615,271.8004],[27.81491193073893,67.907857358458273,257.8144],[27.801959909145154,67.912272820365246,255.9605],[27.79401207771258,67.9137446410009,249.4915],[27.813145745976158,67.939648684188512,242.0],[27.844937071706369,67.954072526417946,242.0],[27.911463364438134,67.968496368647408,271.1967],[27.911463364438134,67.975266743571439,257.0476],[27.90351553300556,67.977916020715611,249.5754],[27.89851134284433,67.981448390241184,242.0],[27.890269147284641,67.9888074934195,242.0],[28.13253082391401,67.9749723794443,245.2464],[28.157257410593076,67.981448390241184,262.8303],[28.134002644549668,67.991456770563673,260.9281],[28.081017101665964,67.996755324852046,247.6309],[28.055407422605498,68.002642607394677,246.4593],[28.114868976286118,68.022070639785369,245.5322],[28.123699900100064,68.033256476616373,246.1229],[28.117518253430291,68.048269047100092,248.7505],[28.103094411200829,68.055039422024123,254.3786],[28.086021291827194,68.05974924805821,248.9157],[28.072480541979132,68.0671083512365,255.0173],[28.055407422605498,68.07387872616053,257.8351],[27.998595146069107,68.08064910108456,251.4628],[27.986526216856703,68.077705459813245,261.1146],[27.998006417814821,68.068580171872156,255.7044],[28.06894817245356,68.05386196551558,247.5346],[28.07395236261479,68.0382606667776,247.2013],[28.039217395613264,68.025014281056684,256.1139],[27.935601222862914,68.0067637051745,266.562],[27.863187647588518,68.009412982318707,287.0872],[27.81667811550173,68.001759515013276,262.2152],[27.793423349458322,68.003525699776077,248.5185],[27.773700952940487,68.016183357242738,245.1879],[27.781354420245918,68.022659368039626,247.9567],[27.786064246280034,68.03207902010783,255.7184],[27.78989097993275,68.042381764557462,251.2695],[27.79401207771258,68.050329595990007,248.5142],[27.806669735179241,68.060043612185353,245.0719],[27.83581178376528,68.075056182669073,247.5082],[27.849352533613342,68.085064562991533,250.5299],[27.838461060909481,68.091834937915564,251.6478],[27.814617566611815,68.10154895411091,253.8862],[27.801371180890868,68.105081323636483,249.8524],[27.792245892949808,68.081237829338818,256.0226],[27.77222913230483,68.068285807745042,255.2291],[27.746325089117249,68.065047802346584,249.581],[27.718949225294011,68.070935084889214,251.455],[27.692750817979288,68.082415285847361,256.4854],[27.68127061702117,68.085358927118676,251.3403],[27.663903133520392,68.085064562991533,253.3627],[27.629756894773124,68.0800603728303,268.9594],[27.595610656025855,68.070935084889214,261.2246],[27.604147215712658,68.060632340439611,255.5778],[27.615921780797919,68.058866155676839,248.6943],[27.628285074137466,68.059160519803953,247.642],[27.639765275095584,68.05386196551558,245.4333],[27.641531459858385,68.047680318845835,246.576],[27.630051258900238,68.040615579794661,251.4334],[27.632994900171553,68.033256476616373,249.8065],[27.655660937960704,68.024425552802427,246.7848],[27.714828127514181,68.023542460421027,242.0],[27.739554714193218,68.009412982318707,246.1101],[27.715416855768439,68.004114428030334,245.9046],[27.69127899734363,68.00705806930165,253.1967],[27.667435503045965,68.01294535184428,248.7204],[27.643297644621185,68.016183357242738,248.9417],[27.548218031557639,68.009412982318707,283.7483],[27.517015434081685,68.001759515013276,278.6032],[27.500531042962308,67.994400411834988,261.5643],[27.48905084200419,67.996166596597789,264.2155],[27.476981912791786,68.000287694377619,262.0804],[27.450783505477062,68.004997520411735,246.2852],[27.404273973390247,68.022953732166769,242.0],[27.410749984187163,68.031490291853572,242.0],[27.418697815619709,68.037083210269088,242.0],[27.437831483883258,68.046502862337292,245.2484],[27.444601858807289,68.054450693769837,246.2355],[27.440480761027459,68.070346356634957,247.1565],[27.444601858807289,68.077705459813245,242.0],[27.456670788019693,68.078882916321788,242.0],[27.492288847402619,68.077116731558988,244.114],[27.499942314708051,68.081237829338818,244.0436],[27.501708499470851,68.088891296644249,243.9642],[27.506123961377824,68.09566167156828,247.0775],[27.51407179281037,68.105081323636483,251.3862],[27.49493812454682,68.121271350628746,287.3252],[27.465796075960782,68.126275540789976,288.6284],[27.434593478484828,68.1227431712644,291.0851],[27.41045562006002,68.111851698560514,274.3799],[27.406040158153047,68.104492595382226,255.3771],[27.402802152754589,68.094484215059765,247.0121],[27.398681054974759,68.084770198864419,243.9445],[27.390144495287927,68.077705459813245,250.3109],[27.377192473694151,68.076233639177588,258.1167],[27.36453481622749,68.0791772804489,249.7484],[27.348933517489513,68.085064562991533,246.9939],[27.342163142565482,68.094484215059765,251.0128],[27.330682941607336,68.099194041093853,257.4854],[27.319791468903475,68.0977222204582,248.9893],[27.309783088580986,68.07564491092333,244.8402],[27.298302887622867,68.072701269652015,248.5829],[27.220590758060098,68.088008204262849,263.5378],[27.174964318354682,68.102432046492311,256.6591]]]}}