{"type": "Feature","bbox": [26.812602077855587,65.960638657482292,27.260329915222883,66.207904524272891],"geometry": {"type": "Polygon","coordinates": [[[27.260329915222883,66.049242259748922,181.5966],[27.257680638078682,66.057484455308611,176.0],[27.253853904425966,66.059545004198526,176.0],[27.249732806646136,66.059545004198526,176.0],[27.246200437120535,66.062783009596984,176.0],[27.222945671077156,66.090453237547365,176.0],[27.197041627889547,66.0945743353272,176.0],[27.136696981827555,66.083388498496191,176.0],[27.118740770072549,66.084860319131849,176.0],[27.100490194190371,66.088981416911679,188.5912],[27.082828346562479,66.0954574277086,176.0],[27.060456672900472,66.106937628666714,176.0],[27.053980662103555,66.108703813429514,176.0],[27.049270836069468,66.112236182955087,177.2637],[27.047504651306667,66.120772742641918,176.0],[27.047210287179553,66.126954389311692,176.0],[27.04603283067101,66.132547307727179,176.0],[27.043089189399694,66.136962769634152,176.0],[27.037496270984207,66.138728954396953,176.0],[27.000406390965594,66.142850052176783,176.0],[26.8897254791641,66.172580829017079,188.3645],[26.898556402978045,66.183766665848083,176.0],[26.903854957266418,66.188770856009342,199.3658],[26.911508424571849,66.193186317916314,182.8633],[26.864115800103633,66.207610160145748,176.0],[26.842921582950169,66.207904524272891,177.2675],[26.821433001669561,66.193186317916314,195.4262],[26.812602077855587,66.174641377907022,198.1543],[26.825848463576534,66.166987910601591,209.4281],[26.876773457570295,66.15845135091476,201.5941],[26.910625332190449,66.134902220744237,191.3902],[26.951541945861749,66.123716383913234,179.6767],[26.958901049040037,66.11753473724346,179.4455],[26.951247581734606,66.1066432645396,182.4154],[26.910330968063306,66.088981416911679,180.6411],[26.897084582342387,66.0760293953179,180.1174],[26.903560593139275,66.0760293953179,180.5713],[26.884132560748583,66.065137922614014,176.0],[26.876773457570295,66.062783009596984,182.4796],[26.876773457570295,66.056012634672953,183.2489],[26.993341651914449,66.062783009596984,184.6203],[26.986571276990418,66.072202661665187,176.0],[26.976857260795072,66.077206851826418,176.0],[26.951836309988892,66.083388498496191,176.0],[26.984805092227617,66.101344710251226,179.0179],[27.030725896060176,66.096929248344253,176.0],[27.076057971638448,66.080444857224876,188.4433],[27.122861867852379,66.053363357528752,198.5824],[27.13051533515781,66.046004254350464,187.3047],[27.132575884047725,66.036584602282261,187.3851],[27.129926606903553,66.021866395925684,191.328],[27.123156231979522,66.007736917823365,189.7056],[27.107554933241545,65.987425793051273,199.6713],[27.109026753877203,65.980949782254356,181.5914],[27.124333688488036,65.975062499711726,191.3641],[27.190859981219802,65.974179407330354,183.8385],[27.196158535508175,65.9709414019319,182.634],[27.200868361542263,65.96623157589778,177.5],[27.208521828847694,65.962404842245064,177.5],[27.2223569428229,65.960638657482292,182.0133],[27.232365323145359,65.96211047811795,178.0],[27.241196246959305,65.96623157589778,185.0733],[27.248260986010479,65.9727075866947,178.0],[27.252970812044566,65.980949782254356,178.0],[27.212054198373266,65.987720157178387,184.499],[27.219707665678698,65.997434173373733,185.5713],[27.241490611086448,66.015684749255911,176.0],[27.246200437120535,66.025693129578372,176.0],[27.244434252357763,66.030108591485345,176.0],[27.241784975213562,66.032757868629545,177.0252],[27.240607518705048,66.0351127816466,177.4245],[27.242668067594963,66.038939515299319,176.0],[27.260329915222883,66.049242259748922,181.5966]]]}
,"properties": {"featurecla": "Lake","scalerank": 9,"name": "null532","name_abb": null,"name_alt": null,"note": "_untitled_211","delta": null,"dam_name": null,"year": -99,"admin": null,"min_zoom": 7.0,"min_label": 8.0,"area_km2": 140.859,"hist_schema_id": "Elevation0-9000","hist_area_km2": {"175": 122.7186,"200": 17.9947,"225": 0.1458}}}