{"type": "Feature","bbox": [26.122023835604693,67.969968189283065,27.174964318354682,68.182499089072138],"geometry": {"type": "Polygon","coordinates": [[[27.169665764066309,68.088596932517135,247.49],[27.174964318354682,68.102432046492311,256.6591],[27.09283672688494,68.128041725552777,262.2194],[27.030431531933033,68.159538687155845,257.8799],[27.007471130016768,68.166014697952761,252.0468],[26.993341651914449,68.159538687155845,249.6393],[26.997168385567164,68.146586665562069,253.2154],[27.012475320177998,68.138933198256638,251.3686],[27.02189497224623,68.129513546188434,246.4671],[27.007176765889625,68.111851698560514,243.5693],[26.983038907464845,68.1012545899838,249.6605],[26.854401783908287,68.085064562991533,253.9536],[26.845570860094341,68.081237829338818,248.9515],[26.834385023263337,68.075350546796187,242.3553],[26.827025920085049,68.0809434652117,247.1106],[26.821138637542418,68.0912462096613,260.4463],[26.81466262674553,68.098016584585338,256.7435],[26.79199658895638,68.105081323636483,247.8065],[26.718994285427726,68.118622073484545,248.0012],[26.737833589564161,68.129807910315549,251.2495],[26.745781420996707,68.1321628233326,253.7816],[26.745781420996707,68.139816290638038,255.924],[26.73018012225873,68.1386388341295,243.1395],[26.702215530181235,68.128336089679891,246.948],[26.659238367619992,68.1209769865016,247.5761],[26.653351085077361,68.12244880713726,247.7527],[26.652173628568846,68.125686812535719,247.9993],[26.649229987297531,68.13746137762098,258.1059],[26.649524351424645,68.139816290638038,254.4731],[26.594478259651027,68.13922756238378,252.6199],[26.566219303446388,68.142759931909353,260.0282],[26.55385601010687,68.156006317630272,262.733],[26.516471765961143,68.175434350020964,283.5219],[26.432283625601485,68.182499089072138,256.0597],[26.343974387461969,68.177494898910879,248.0981],[26.293932485849609,68.159538687155845,243.0731],[26.34750675698757,68.152179583977556,242.2263],[26.362224963344147,68.145997937307811,242.8956],[26.333082914758108,68.1412881112737,244.1162],[26.25301587217831,68.152768312231814,250.6823],[26.247128589635651,68.155711953503157,249.0717],[26.244479312491478,68.1627766925543,253.6859],[26.240652578838763,68.169547067478334,248.6451],[26.231821655024817,68.173373801131049,250.4356],[26.220635818193813,68.171901980495392,252.3764],[26.209449981362809,68.167486518588419,253.5701],[26.198852872786063,68.160716143664388,247.0526],[26.190905041353517,68.152768312231814,243.1017],[26.219458361685298,68.135106464603922,253.4773],[26.259786247102312,68.124214991900061,243.1824],[26.303352137917813,68.118622073484545,253.9779],[26.34161947444494,68.118622073484545,240.8657],[26.297170491248039,68.105964416017883,255.5251],[26.149988427682217,68.118622073484545,250.4998],[26.149988427682217,68.111851698560514,248.1364],[26.184134666429486,68.098016584585338,242.0832],[26.184134666429486,68.0912462096613,240.5233],[26.146456058156645,68.0912462096613,253.3251],[26.13173785180004,68.085653291245819,244.2146],[26.122023835604693,68.070935084889214,257.0898],[26.148810971173674,68.062104161075268,257.0695],[26.177069927378312,68.0679914436179,255.3027],[26.205034519455836,68.078882916321788,266.1665],[26.231821655024817,68.085064562991533,257.2348],[26.245362404872878,68.082415285847361,257.5084],[26.262435524246513,68.068580171872156,248.0709],[26.273326996950374,68.063281617583812,254.0248],[26.288928295688351,68.062104161075268,252.2377],[26.335437827775166,68.070935084889214,252.9267],[26.335437827775166,68.077705459813245,263.0554],[26.303646502044955,68.0782941880675,251.6668],[26.288339567434093,68.08064910108456,251.7598],[26.273326996950374,68.085064562991533,255.108],[26.295109942358124,68.098310948712481,242.6827],[26.327195632215478,68.103020774746568,283.3941],[26.422569609406139,68.105375687763626,240.7312],[26.623031579982808,68.063281617583812,241.0079],[26.6415765199921,68.056216878532638,243.2749],[26.662770737145593,68.045325405828777,241.3036],[26.676017122866511,68.031490291853572,242.6085],[26.670718568578138,68.016183357242738,247.6626],[26.690146600968831,68.009412982318707,241.5944],[26.733123763530045,68.001465150886162,241.4119],[26.753140524174995,67.994989140089245,241.3828],[26.754612344810653,67.99116240643653,241.5237],[26.754317980683538,67.9843920315125,241.4988],[26.755789801319196,67.977916020715611,241.435],[26.763148904497484,67.975266743571439,241.5434],[26.897084582342387,67.981448390241184,241.8862],[26.93829556014083,67.97202873817298,263.176],[26.95831232078578,67.969968189283065,261.3464],[26.97921217381213,67.975266743571439,279.8253],[26.959489777294294,67.990279314055158,279.3343],[26.931819549343913,68.002053879140419,313.0975],[26.902088772503618,68.00882425406445,281.6689],[26.876773457570295,68.009412982318707,260.1562],[26.879422734714495,68.018832634386911,277.3731],[26.883543832494325,68.027663558200857,267.6764],[26.8897254791641,68.035611389633431,253.2454],[26.897084582342387,68.042970492811719,257.2076],[26.849103229619914,68.051507052498522,259.5589],[26.835268115644737,68.057099970914038,269.0781],[26.867648169629234,68.069168900126442,273.1008],[26.943888478556318,68.083298378228761,264.6753],[26.979506537939244,68.085064562991533,249.6415],[27.013064048432256,68.091834937915564,242.986],[27.048976471942325,68.104492595382226,249.5457],[27.08371143894388,68.1115573344334,246.8335],[27.129337878649267,68.095072943314022,252.0334],[27.151120824057017,68.093306758551222,248.4612],[27.169665764066309,68.088596932517135,247.49]]]}
,"properties": {"featurecla": "Reservoir","scalerank": 8,"name": "Porttipahta Reservoir","name_abb": "Porttipahta Res.","name_alt": null,"note": null,"delta": null,"dam_name": "Porttipahdan/Tekorjarvi Lake","year": 1970,"admin": null,"min_zoom": 6.0,"min_label": 7.0,"area_km2": 327.4962,"hist_schema_id": "Elevation0-9000","hist_area_km2": {"250": 305.8069,"275": 19.3305,"300": 2.3033,"325": 0.0556}}}