{"type":"Feature","properties":{"id":1381.0,"name":"IIJÄRVI 7","lge_id":null,"pfafstette":937.0,"lke_type":"N","altitude":193,"objectid":1111,"scalerank":11,"featurecla":"Lake","note":null,"funkyname":0,"min_zoom":6.7,"min_label":7.7},
"geometry":{"type": "Polygon","coordinates": [[[27.734141472271233,69.434271551556577,192.8062],[27.734141472271233,69.434271551556577,192.8062],[27.745127800396233,69.423346258587827,207.6311],[27.764903191021233,69.418463446087827,192.36],[27.791880730083733,69.427618719525327,192.6177],[27.826182487896233,69.439154364056577,192.2814],[27.861582878521233,69.451605535931577,192.1185],[27.879405144146233,69.458624578900327,192.366],[27.897715691021233,69.467779852337827,192.1584],[27.933360222271233,69.479010321087827,192.049],[27.968882683208733,69.491705633587827,192.1412],[27.995005730083733,69.500860907025327,192.2242],[28.017100456646233,69.508429266400327,192.1862],[28.015391472271233,69.517279364056577,206.965],[27.998057487896233,69.516974188275327,207.7104],[27.973399284771233,69.509955145306577,203.126],[27.942149284771233,69.508734442181577,194.2644],[27.916514519146233,69.504523016400327,214.1067],[27.898936394146233,69.492926336712827,204.2881],[27.884654167583733,69.485357977337827,213.1494],[27.864878776958733,69.475592352337827,197.85],[27.843638542583733,69.462530828900327,203.8405],[27.809825066021233,69.453436590619077,199.885],[27.780406120708733,69.453131414837827,195.9112],[27.765513542583733,69.449469305462827,206.7149],[27.749034050396233,69.443976141400327,208.8658],[27.736582878521233,69.440069891400327,208.0427],[27.711924675396233,69.433966375775327,206.6474],[27.676402214458733,69.426092840619077,205.6188],[27.645396355083733,69.416632391400327,204.453],[27.625010612896233,69.407843328900327,201.5191],[27.638194206646233,69.404791571087827,192.3891],[27.654307487896233,69.411749578900327,195.2139],[27.669200066021233,69.415411688275327,197.2519],[27.695078972271233,69.419378973431577,192.1613],[27.712046745708733,69.414557196087827,192.2534],[27.723887566021233,69.419684149212827,193.1199],[27.734141472271233,69.434271551556577,192.8062]]]}}