{"type": "Feature","id": 15510.0,"bbox": [24.319102409771233,66.503363348431577,24.441905144146233,66.682074285931577],"geometry": {"type": "Polygon","coordinates": [[[24.340952995708733,66.569037176556577,99.4323],[24.340952995708733,66.569037176556577,99.4323],[24.324229362896233,66.565985418744077,96.9262],[24.336924675396233,66.554449774212827,77.0],[24.353037956646233,66.542242742962827,77.0],[24.361582878521233,66.531317449994077,77.0],[24.393565300396233,66.521246649212827,77.0],[24.413584831646233,66.510382391400327,77.0],[24.415049675396233,66.503363348431577,79.6045],[24.414195183208733,66.527350164837827,93.5303],[24.412119987896233,66.557501532025327,77.0],[24.428477409771233,66.560187078900327,77.0],[24.441905144146233,66.563238836712827,86.5687],[24.436411980083733,66.569647528119077,90.5008],[24.430064323833733,66.576666571087827,110.2232],[24.417979362896233,66.587530828900327,113.1815],[24.420664909771233,66.608221746869077,77.0],[24.426768425396233,66.636786199994077,89.5416],[24.417246941021233,66.660162664837827,81.8335],[24.410899284771233,66.675055242962827,77.0],[24.392832878521233,66.678107000775327,94.6806],[24.366465691021233,66.682074285931577,77.0],[24.352793816021233,66.678107000775327,77.0],[24.346202019146233,66.660162664837827,93.4286],[24.330088737896233,66.649847723431577,116.5462],[24.319102409771233,66.642828680462827,83.6323],[24.323252800396233,66.630377508587827,77.0],[24.327647331646233,66.620062567181577,77.0],[24.330943230083733,66.609991766400327,77.0],[24.342784050396233,66.602423407025327,77.0],[24.353770378521233,66.591559149212827,77.0],[24.356455925396233,66.574225164837827,77.0],[24.340952995708733,66.569037176556577,99.4323]]]}
,"properties": {"name": "Miekojärvi","lge_id": null,"pfafstette": 231.0,"lke_type": "N","altitude": 77,"objectid": 9434,"scalerank": 11,"featurecla": "Lake","note": null,"funkyname": 0,"min_zoom": 6.7,"min_label": 7.7,"area_km2": 60.80319,"hist_schema_id": "Elevation0-9000","hist_area_km2": {"75": 50.02341,"100": 8.69325,"125": 1.6491,"150": 0.43743}}}