{"type":"Feature","properties":{"id":15986.0,"name":null,"lge_id":null,"pfafstette":56275.0,"lke_type":"N","altitude":0,"objectid":11346,"scalerank":12,"featurecla":"Lake","note":"_untitled_11346","funkyname":0,"min_zoom":7.0,"min_label":8.0},
"geometry":{"type": "Polygon","coordinates": [[[27.933848503521233,66.264471746869077,254.8784],[27.933848503521233,66.264471746869077,254.8784],[27.929942253521233,66.266913153119077,263.9977],[27.954234245708733,66.265692449994077,250.4817],[27.988047722271233,66.264776922650327,247.3685],[28.043955925396233,66.259283758587827,244.0],[28.087901237896233,66.247137762494077,244.0],[28.098399284771233,66.242254949994077,258.3244],[28.104746941021233,66.236822821087827,244.0],[28.112559441021233,66.227057196087827,244.0],[28.125010612896233,66.218573309369077,244.0],[28.135996941021233,66.216437078900327,244.0],[28.161509636333733,66.213751532025327,244.0],[28.173594597271233,66.217352606244077,244.0],[28.184336784771233,66.224310614056577,256.1185],[28.200938347271233,66.231940008587827,244.0],[28.202159050396233,66.247748114056577,256.5781],[28.190928581646233,66.255926824994077,250.7531],[28.177989128521233,66.251959539837827,260.1086],[28.163584831646233,66.248053289837827,249.7415],[28.131724480083733,66.253546453900327,251.3737],[28.103160026958733,66.263556219525327,252.6135],[28.052500847271233,66.272711492962827,257.2136],[28.000743034771233,66.276007391400327,255.3792],[27.991587761333733,66.271490789837827,254.9439],[27.959727409771233,66.270270086712827,259.0038],[27.924815300396233,66.269293524212827,262.5053],[27.922129753521233,66.257452703900327,244.0],[27.933848503521233,66.248358465619077,244.0],[27.942637566021233,66.255621649212827,253.1384],[27.933848503521233,66.264471746869077,254.8784]]]}}