{"type":"Feature","properties":{"GID_3":"FIN.5.6.6_1","GID_0":"FIN","country":"Finland","GID_1":"FIN.5_1","province":"WesternFinland","NL_NAME_1":"NA","GID_2":"FIN.5.6_1","county":"Pirkanmaa","NL_NAME_2":"NA","city":"Tampere","VARNAME_3":"NA","NL_NAME_3":"NA","TYPE_3":"Seutukunta|Ekonomiskregion","ENGTYPE_3":"Sub-Region","CC_3":"NA","HASC_3":"FI.LS.TP","name":"Tampere.city"},
"geometry":{"type": "MultiPolygon","coordinates": [[[[23.2882,61.2496,136.5246],[23.2868,61.2362,134.8928],[23.324,61.2353,132.1247],[23.3236,61.2308,132.9539],[23.3795,61.2294,146.6839],[23.38,61.2339,151.5573],[23.3893,61.2337,134.6761],[23.3883,61.2247,126.4023],[23.3977,61.2245,124.6317],[23.3957,61.2065,132.7669],[23.4237,61.2058,125.0588],[23.4232,61.2014,122.6362],[23.4697,61.2002,126.7574],[23.4702,61.2047,132.1346],[23.5075,61.2037,108.9415],[23.5726,61.202,139.8971],[23.5721,61.1975,128.7921],[23.5814,61.1973,139.2976],[23.582,61.2018,139.3509],[23.6099,61.201,139.8928],[23.6104,61.2055,135.7272],[23.6476,61.2046,137.2236],[23.6482,61.209,145.5119],[23.6761,61.2083,128.9521],[23.6766,61.2128,132.497],[23.6859,61.2125,129.9529],[23.687,61.2215,107.1876],[23.6777,61.2217,112.7751],[23.6782,61.2262,116.065],[23.6689,61.2265,118.2557],[23.6694,61.231,107.813],[23.6787,61.2307,107.7933],[23.6792,61.2352,110.30029999999999],[23.6886,61.2349,109.8032],[23.6891,61.2394,110.3438],[23.6984,61.2392,109.7444],[23.6989,61.2437,96.394],[23.7083,61.2434,76.5],[23.7088,61.2479,76.5],[23.7181,61.2476,76.5],[23.7186,61.2521,78.9833],[23.7279,61.2519,93.9219],[23.7285,61.2564,79.7954],[23.7471,61.2558,101.5088],[23.7466,61.2514,103.1735],[23.7559,61.2511,103.3237],[23.7549,61.2421,100.3502],[23.7642,61.2419,88.07],[23.7636,61.2374,87.2835],[23.7916,61.2366,85.1324],[23.7911,61.2321,84.4894],[23.819,61.2314,79.5532],[23.8196,61.2358,79.807],[23.8289,61.2356,83.6985],[23.8294,61.2401,89.1489],[23.8387,61.2398,99.4485],[23.8393,61.2443,97.8979],[23.8486,61.244,103.4612],[23.8492,61.2485,106.5645],[23.8585,61.2482,98.5416],[23.859,61.2527,96.1809],[23.8683,61.2525,97.713],[23.8694,61.2614,95.2896],[23.8788,61.2612,115.6068],[23.8793,61.2657,104.0192],[23.8887,61.2654,104.4123],[23.8892,61.2699,120.2661],[23.8985,61.2696,102.5169],[23.8996,61.2786,102.5919],[23.909,61.2783,102.1922],[23.9101,61.2873,98.9812],[23.9194,61.287,110.3391],[23.92,61.2915,98.2257],[23.9293,61.2912,99.4295],[23.9304,61.3002,118.349],[23.9398,61.2999,97.3096],[23.9403,61.3044,108.2082],[23.9497,61.3041,109.874],[23.9502,61.3086,111.8828],[23.9596,61.3083,110.2374],[23.9607,61.3173,130.3348],[23.9701,61.3171,105.5545],[23.9706,61.3215,108.5112],[23.98,61.3213,117.0629],[23.9811,61.3302,126.0346],[23.9904,61.33,129.9815],[23.991,61.3344,128.1047],[24.0004,61.3342,117.1195],[24.0009,61.3386,119.1756],[24.0103,61.3384,129.2567],[24.0097,61.3339,120.3594],[24.0191,61.3336,134.2952],[24.0185,61.3291,113.025],[24.0278,61.3289,132.1372],[24.0267,61.3199,113.8416],[24.036,61.3196,132.588],[24.0366,61.3241,146.5367],[24.0459,61.3238,110.6196],[24.0471,61.3328,120.6405],[24.0564,61.3325,117.9443],[24.0576,61.3415,89.3756],[24.0669,61.3412,83.5],[24.0664,61.3367,97.6576],[24.0757,61.3364,95.9381],[24.0751,61.332,92.3212],[24.0845,61.3317,82.0],[24.0851,61.3362,82.0],[24.0944,61.3359,83.8278],[24.0956,61.3449,82.0],[24.1049,61.3446,82.0],[24.1061,61.3535,82.0],[24.0968,61.3538,82.0],[24.0973,61.3583,82.0],[24.1067,61.358,103.5453],[24.1073,61.3625,82.0],[24.126,61.3619,95.6011],[24.1266,61.3664,97.1185],[24.1453,61.3659,90.9083],[24.1459,61.3703,92.5627],[24.1646,61.3698,82.0],[24.1652,61.3743,83.519],[24.1839,61.3737,86.742],[24.1845,61.3782,99.7831],[24.2032,61.3776,146.0917],[24.2038,61.3821,144.0047],[24.2225,61.3815,140.6389],[24.2231,61.386,136.3949],[24.2418,61.3854,107.1545],[24.2425,61.3899,96.1276],[24.2518,61.3896,123.8105],[24.2524,61.3941,90.5264],[24.2712,61.3935,87.9857],[24.2718,61.398,86.9146],[24.2905,61.3974,104.9907],[24.2929,61.4153,89.4704],[24.2836,61.4156,101.8044],[24.2873,61.4425,137.8117],[24.2779,61.4428,142.2812],[24.2791,61.4518,128.2024],[24.2697,61.4521,126.8138],[24.271,61.461,153.3523],[24.2522,61.4616,115.4287],[24.2528,61.4661,130.1845],[24.2434,61.4664,119.1793],[24.244,61.4709,104.7883],[24.2346,61.4711,82.0],[24.2353,61.4756,99.8608],[24.2259,61.4759,82.0],[24.2289,61.4983,82.0],[24.2383,61.498,82.0],[24.2389,61.5025,83.3683],[24.2483,61.5022,82.0],[24.2489,61.5067,82.0],[24.2583,61.5064,82.0],[24.2595,61.5154,82.0],[24.2689,61.5151,82.0],[24.2696,61.5196,82.0],[24.2789,61.5193,82.0],[24.2796,61.5238,82.0],[24.289,61.5235,82.0],[24.2896,61.528,82.0],[24.3084,61.5274,82.0],[24.309,61.5318,82.0],[24.3372,61.531,82.0],[24.3378,61.5354,82.0],[24.3566,61.5349,82.0],[24.3573,61.5393,82.0],[24.3761,61.5387,82.0],[24.3767,61.5432,82.0],[24.3955,61.5426,82.0],[24.3962,61.5471,82.0],[24.3679,61.548,82.0],[24.3686,61.5525,82.0],[24.3497,61.5531,82.0],[24.3535,61.58,161.9828],[24.3347,61.5806,135.7995],[24.3353,61.585,166.1273],[24.3165,61.5856,123.5419],[24.3158,61.5812,119.8448],[24.297,61.5817,129.0232],[24.2964,61.5773,109.5742],[24.2776,61.5778,112.9429],[24.2769,61.5733,86.0],[24.2675,61.5737,86.0],[24.2669,61.5692,86.0],[24.2387,61.57,97.201],[24.2393,61.5745,86.0],[24.2298,61.5748,101.9872],[24.2305,61.5793,86.0],[24.2211,61.5796,118.3658],[24.2217,61.5841,103.3806],[24.2028,61.5846,142.8611],[24.2034,61.5891,144.467],[24.1846,61.5897,177.7735],[24.1852,61.5942,154.8731],[24.1758,61.5945,137.9447],[24.1764,61.5989,128.5],[24.1669,61.5992,142.1413],[24.1675,61.6037,137.0505],[24.1581,61.604,148.8151],[24.1587,61.6085,151.9818],[24.1493,61.6087,149.689],[24.1499,61.6132,150.9281],[24.1405,61.6135,153.865],[24.1411,61.618,150.9739],[24.1316,61.6183,148.8111],[24.1322,61.6228,149.656],[24.1228,61.623,150.8084],[24.1234,61.6275,152.4894],[24.114,61.6278,143.9444],[24.1145,61.6323,153.7887],[24.0957,61.6328,137.0],[24.1034,61.6911,160.2284],[24.0939,61.6914,174.7289],[24.0957,61.7048,147.9356],[24.0863,61.7051,152.5773],[24.0886,61.723,156.148],[24.0981,61.7228,149.2831],[24.0987,61.7272,156.8004],[24.1082,61.727,150.1633],[24.1088,61.7315,159.6516],[24.1182,61.7312,146.5748],[24.1188,61.7357,142.5],[24.1093,61.7359,169.5534],[24.1111,61.7494,186.9445],[24.1017,61.7497,187.6975],[24.1035,61.7631,197.1907],[24.094,61.7634,205.416],[24.0976,61.7903,172.9723],[24.0881,61.7906,171.3439],[24.0887,61.7951,182.469],[24.0697,61.7956,185.3417],[24.0691,61.7911,179.7133],[24.0312,61.7922,175.4061],[24.0306,61.7877,171.1411],[23.9832,61.7891,148.5225],[23.9837,61.7936,142.2405],[23.9743,61.7939,147.1345],[23.9748,61.7984,142.609],[23.9559,61.7989,142.5673],[23.9564,61.8034,145.0805],[23.9375,61.8039,138.9532],[23.938,61.8084,126.6358],[23.9191,61.8089,151.0241],[23.9196,61.8134,131.0664],[23.9006,61.8139,104.1125],[23.9012,61.8184,109.4473],[23.8917,61.8187,95.0],[23.8923,61.8232,95.0],[23.8828,61.8234,95.0],[23.8834,61.8279,95.0],[23.8739,61.8282,95.0],[23.8744,61.8327,95.0],[23.8459,61.8335,95.0],[23.8454,61.829,95.0],[23.8264,61.8295,95.0],[23.8258,61.825,95.0],[23.8163,61.8253,95.0],[23.8158,61.8208,95.0],[23.8063,61.8211,95.0],[23.8029,61.7942,95.0],[23.7935,61.7944,95.0],[23.7929,61.7899,95.0],[23.7834,61.7902,95.0],[23.7818,61.7767,95.0],[23.7723,61.777,95.0],[23.7706,61.7635,95.0],[23.7612,61.7638,95.0],[23.7584,61.7414,95.0],[23.7679,61.7411,95.0],[23.7668,61.7322,95.0],[23.7763,61.7319,95.0],[23.7757,61.7274,95.0],[23.7852,61.7271,95.0],[23.7847,61.7227,95.0],[23.7752,61.7229,95.0],[23.773,61.705,95.0],[23.7635,61.7052,95.0],[23.7619,61.6918,95.0],[23.7524,61.6921,95.0],[23.7519,61.6876,95.0],[23.7235,61.6883,95.0],[23.7241,61.6928,95.0],[23.7146,61.6931,95.0],[23.7152,61.6976,95.0],[23.6773,61.6986,95.0],[23.6779,61.703,95.0],[23.6495,61.7038,95.0],[23.65,61.7083,95.0],[23.6216,61.709,95.0],[23.6227,61.718,95.0],[23.6321,61.7177,102.487],[23.6332,61.7267,120.7033],[23.6337,61.7312,136.3025],[23.6242,61.7314,128.44],[23.6264,61.7494,139.5049],[23.6169,61.7496,149.0999],[23.6174,61.7541,126.8878],[23.6079,61.7544,128.133],[23.6074,61.7499,143.6281],[23.5885,61.7504,130.0134],[23.5874,61.7414,132.2096],[23.5779,61.7416,137.1268],[23.5774,61.7372,142.9154],[23.5679,61.7374,143.6321],[23.5674,61.7329,128.0911],[23.539,61.7336,132.4174],[23.5385,61.7292,138.8886],[23.5196,61.7296,123.3101],[23.518,61.7162,132.1803],[23.5086,61.7164,118.4752],[23.5065,61.6985,111.5305],[23.4971,61.6987,130.4521],[23.4956,61.6853,138.0601],[23.4861,61.6855,137.6611],[23.4841,61.6676,132.838],[23.4935,61.6673,133.0635],[23.49,61.6359,140.7811],[23.4805,61.6362,145.4093],[23.479,61.6227,161.0997],[23.4885,61.6225,153.9665],[23.4865,61.6045,161.5741],[23.4959,61.6043,163.3747],[23.4934,61.5819,156.5316],[23.484,61.5821,160.6804],[23.4835,61.5776,168.6908],[23.4646,61.5781,167.0132],[23.4641,61.5736,166.6949],[23.4453,61.5741,159.3569],[23.4443,61.5651,135.4181],[23.4348,61.5654,142.0462],[23.4329,61.5474,124.4912],[23.4235,61.5476,124.653],[23.423,61.5432,118.2282],[23.4135,61.5434,118.7121],[23.4125,61.5344,107.544],[23.4031,61.5346,121.2546],[23.4026,61.5302,114.2099],[23.3933,61.5304,109.7309],[23.3923,61.5214,109.8691],[23.317,61.5233,60.0],[23.3165,61.5188,83.2905],[23.2789,61.5197,95.9013],[23.2784,61.5152,94.3641],[23.269,61.5154,81.7348],[23.2695,61.5199,63.504],[23.2507,61.5203,83.9334],[23.2512,61.5248,78.2288],[23.2323,61.5253,84.3637],[23.2328,61.5298,88.8596],[23.214,61.5302,112.1996],[23.2144,61.5347,120.5482],[23.1956,61.5351,113.7145],[23.1947,61.5261,123.8729],[23.2041,61.5259,127.3793],[23.2027,61.5125,110.4407],[23.2121,61.5122,129.4626],[23.208,61.4719,84.5544],[23.1704,61.4727,127.3816],[23.1699,61.4683,110.7882],[23.1418,61.4689,136.8216],[23.1409,61.4599,79.0627],[23.1596,61.4595,88.6647],[23.1592,61.455,90.893],[23.1874,61.4544,82.6834],[23.1878,61.4589,69.7606],[23.1972,61.4586,56.5],[23.1967,61.4542,56.5],[23.2061,61.4539,56.5],[23.2057,61.4494,56.5],[23.1963,61.4496,56.5],[23.1958,61.4452,56.5],[23.1864,61.4454,56.5],[23.1851,61.4319,56.5],[23.1944,61.4317,56.5],[23.1931,61.4183,127.4797],[23.2025,61.418,136.4333],[23.2015,61.4091,125.0715],[23.2109,61.4089,133.0748],[23.21,61.3999,137.337],[23.2194,61.3997,123.1177],[23.2184,61.3907,120.2814],[23.2278,61.3905,139.2699],[23.2264,61.377,147.7007],[23.2358,61.3768,127.9567],[23.2349,61.3678,130.5738],[23.2442,61.3676,145.5822],[23.2433,61.3586,128.0479],[23.2527,61.3584,123.6642],[23.2517,61.3494,140.9348],[23.2424,61.3497,135.067],[23.2414,61.3407,132.9894],[23.2321,61.3409,124.2302],[23.2312,61.3319,137.5372],[23.2218,61.3322,122.1189],[23.2213,61.3277,133.7938],[23.2307,61.3274,128.342],[23.2302,61.323,124.356],[23.2489,61.3225,115.9414],[23.2485,61.318,132.3813],[23.2578,61.3178,117.6768],[23.2574,61.3133,117.5582],[23.2667,61.3131,128.6332],[23.2662,61.3086,132.982],[23.2756,61.3084,119.964],[23.2746,61.2994,130.6829],[23.284,61.2992,136.3816],[23.283,61.2902,136.6297],[23.2924,61.29,129.4542],[23.2882,61.2496,136.5246]]]]}}