{"type": "Feature","bbox": [28.850779294115284,61.595218652119627,28.904647929380388,61.622594515942865],"geometry": {"type": "Polygon","coordinates": [[[28.884042440481153,61.622594515942865,118.0922],[28.877272065557122,61.614352320383176,106.8049],[28.869324234124576,61.608465037840546,100.8505],[28.86049331031063,61.604343940060716,83.0],[28.850779294115284,61.601989027043658,96.4221],[28.904647929380388,61.595218652119627,111.0682],[28.904647929380388,61.6014002987894,95.6624],[28.895817005566414,61.599045385772342,84.1475],[28.890224087150926,61.599045385772342,104.1169],[28.876683337302865,61.6014002987894,103.917],[28.87962697857418,61.607287581332031,83.0],[28.884042440481153,61.622594515942865,118.0922]]]}
,"properties": {"featurecla": "Lake","scalerank": 4,"name": "null335","name_abb": null,"name_alt": null,"note": "_untitled_1","delta": null,"dam_name": null,"year": -99,"admin": null,"min_zoom": 4.0,"min_label": 5.0,"area_km2": 1.734267,"hist_schema_id": "Elevation0-9000","hist_area_km2": {"75": 0.524305,"100": 1.109132,"125": 0.10083}}}