{"type": "Feature","bbox": [24.8714,63.8396,26.8732,64.6265],"geometry": {"type": "MultiPolygon","coordinates": [[[[26.5563,63.9619,177.9366],[26.5665,63.9615,181.2305],[26.5686,63.9704,182.8007],[26.5788,63.97,182.1446],[26.5798,63.9744,178.1266],[26.59,63.974,183.6447],[26.591,63.9785,185.3939],[26.6012,63.978,191.6855],[26.6023,63.9825,190.5843],[26.6227,63.9816,203.1044],[26.6237,63.986,197.0694],[26.6339,63.9856,198.5984],[26.6349,63.99,196.2043],[26.6553,63.9891,193.7382],[26.6564,63.9936,181.8153],[26.6768,63.9927,180.1751],[26.6778,63.9972,174.2426],[26.688,63.9967,175.0669],[26.6891,64.0012,181.0095],[26.7094,64.0002,175.4036],[26.7105,64.0047,182.8147],[26.7309,64.0038,161.417],[26.732,64.0083,171.8813],[26.7421,64.0078,171.0713],[26.7432,64.0123,176.5882],[26.7636,64.0114,172.0581],[26.7647,64.0158,174.8857],[26.7851,64.0149,189.3493],[26.7862,64.0194,188.0734],[26.7963,64.0189,198.0996],[26.7974,64.0234,193.6915],[26.8178,64.0224,175.0224],[26.8189,64.0269,174.4347],[26.8291,64.0264,179.0584],[26.8302,64.0309,173.6665],[26.8506,64.03,178.0628],[26.8517,64.0344,181.9157],[26.8721,64.0335,198.8935],[26.8732,64.0379,193.1988],[26.8528,64.0389,186.7614],[26.8539,64.0434,186.7448],[26.8233,64.0448,194.3755],[26.8244,64.0492,197.2159],[26.8039,64.0502,199.3386],[26.805,64.0546,206.6901],[26.7846,64.0556,202.4966],[26.7868,64.0645,205.2127],[26.7766,64.065,208.8764],[26.7852,64.1007,169.3672],[26.775,64.1012,163.6968],[26.7826,64.1325,187.9535],[26.7724,64.1329,186.5889],[26.781,64.1687,168.841],[26.7708,64.1691,167.9873],[26.7784,64.2004,166.3098],[26.7682,64.2009,163.1258],[26.7769,64.2366,141.4396],[26.7666,64.2371,138.9063],[26.7731,64.2639,162.6033],[26.7011,64.2671,133.7857],[26.7022,64.2716,135.3039],[26.6919,64.272,134.7989],[26.693,64.2765,133.2046],[26.6827,64.277,129.798],[26.6913,64.3127,130.2311],[26.681,64.3132,129.0152],[26.6821,64.3176,129.7643],[26.6512,64.319,130.6461],[26.6501,64.3145,128.6042],[26.5471,64.3191,117.8551],[26.5481,64.3235,121.0473],[26.5275,64.3244,113.3267],[26.5285,64.3289,118.9503],[26.5182,64.3294,115.7388],[26.5193,64.3338,108.6038],[26.509,64.3343,108.4509],[26.51,64.3388,105.8312],[26.4997,64.3392,108.2564],[26.5008,64.3437,105.3169],[26.4905,64.3441,109.1074],[26.4915,64.3486,106.7314],[26.4709,64.3495,114.2168],[26.4719,64.3539,120.2598],[26.4616,64.3544,114.3572],[26.4637,64.3633,110.571],[26.474,64.3629,112.0554],[26.4792,64.3852,109.3362],[26.4689,64.3857,111.4023],[26.471,64.3946,108.2465],[26.4607,64.3951,106.2095],[26.4617,64.3995,104.2261],[26.4514,64.4,103.6438],[26.4535,64.4089,105.2529],[26.4431,64.4094,106.4681],[26.4452,64.4183,107.8308],[26.4349,64.4187,103.3444],[26.4359,64.4232,107.2767],[26.4256,64.4237,110.4062],[26.4266,64.4281,107.7518],[26.4162,64.4286,103.8389],[26.4173,64.433,107.4274],[26.4069,64.4335,105.1259],[26.408,64.438,106.7544],[26.3873,64.4388,111.3004],[26.3883,64.4433,109.5259],[26.3779,64.4437,110.0287],[26.379,64.4482,113.3404],[26.3686,64.4487,113.8714],[26.3697,64.4531,113.4217],[26.3489,64.454,117.649],[26.35,64.4585,111.5316],[26.3396,64.4589,114.2264],[26.3406,64.4634,112.1462],[26.3199,64.4642,112.6339],[26.3209,64.4687,110.0686],[26.3106,64.4691,109.3214],[26.3116,64.4736,110.373],[26.3012,64.474,108.9845],[26.3022,64.4785,110.7279],[26.2919,64.479,113.2526],[26.2909,64.4745,107.8476],[26.2805,64.4749,107.9892],[26.2795,64.4704,108.2587],[26.2691,64.4709,108.3713],[26.2681,64.4664,108.1693],[26.2473,64.4672,109.7725],[26.2463,64.4628,112.1592],[26.2152,64.4641,117.7507],[26.2142,64.4596,120.0203],[26.1831,64.4609,116.931],[26.1821,64.4564,119.748],[26.151,64.4577,104.488],[26.15,64.4532,104.2963],[26.1086,64.4549,98.8924],[26.1076,64.4504,99.2361],[26.0765,64.4517,94.8229],[26.0755,64.4472,91.7176],[26.0444,64.4484,98.2937],[26.0434,64.4439,95.7211],[26.0124,64.4452,92.7734],[26.0133,64.4497,93.187],[26.003,64.4501,91.5279],[26.0049,64.459,90.8563],[25.9946,64.4594,93.3968],[25.9965,64.4684,88.6296],[25.9861,64.4688,85.6077],[25.9881,64.4778,92.3413],[25.8117,64.4846,78.6718],[25.8126,64.4891,75.2091],[25.8022,64.4895,79.3974],[25.8032,64.494,70.9768],[25.7928,64.4944,77.0621],[25.7937,64.4989,75.1381],[25.773,64.4996,75.5301],[25.7739,64.5041,70.2785],[25.7635,64.5045,74.2726],[25.7645,64.509,73.0787],[25.7541,64.5094,69.1456],[25.755,64.5139,67.1848],[25.7446,64.5143,66.6253],[25.7455,64.5187,69.8471],[25.7351,64.5191,68.0124],[25.7361,64.5236,70.9473],[25.7257,64.524,65.421],[25.7266,64.5285,64.3749],[25.7162,64.5289,64.5572],[25.7171,64.5333,63.3872],[25.7068,64.5337,65.199],[25.7086,64.5427,61.7927],[25.6982,64.5431,61.8568],[25.6991,64.5476,63.3908],[25.6887,64.548,61.7673],[25.6906,64.5569,59.8657],[25.6802,64.5573,55.8301],[25.6811,64.5618,61.5215],[25.6707,64.5622,56.9681],[25.6725,64.5711,55.0267],[25.6621,64.5715,53.7568],[25.6631,64.576,53.2844],[25.6526,64.5764,56.6961],[25.6536,64.5808,52.7553],[25.6432,64.5812,59.1582],[25.645,64.5902,56.6559],[25.6346,64.5906,57.4832],[25.6355,64.595,55.5586],[25.6251,64.5954,55.7421],[25.6269,64.6044,58.0503],[25.606,64.6052,56.6023],[25.607,64.6096,53.2649],[25.5861,64.6104,53.2606],[25.587,64.6149,51.9472],[25.5662,64.6157,52.9336],[25.5671,64.6201,51.5173],[25.5462,64.6209,56.6149],[25.5471,64.6254,54.7247],[25.5158,64.6265,55.6965],[25.5149,64.622,50.8006],[25.5045,64.6224,50.1185],[25.5027,64.6134,54.2942],[25.4922,64.6138,51.931],[25.4931,64.6183,49.4639],[25.4618,64.6194,57.8613],[25.4609,64.615,56.1104],[25.4505,64.6153,56.1232],[25.4496,64.6108,53.7264],[25.4392,64.6112,53.8182],[25.4383,64.6067,49.8825],[25.4279,64.6071,53.3532],[25.4243,64.5892,59.9771],[25.4139,64.5896,55.8717],[25.4112,64.5761,60.8908],[25.4008,64.5765,54.8318],[25.3982,64.5631,61.0216],[25.3877,64.5635,52.7585],[25.3851,64.55,54.7437],[25.3955,64.5496,54.4152],[25.3946,64.5452,56.1508],[25.4154,64.5444,59.6612],[25.4146,64.5399,55.2028],[25.3834,64.5411,56.3651],[25.3816,64.5321,64.812],[25.392,64.5317,67.5611],[25.3911,64.5273,68.0114],[25.4119,64.5265,70.1601],[25.411,64.522,65.9173],[25.4318,64.5213,61.933],[25.4309,64.5168,64.6842],[25.4413,64.5164,64.027],[25.4405,64.512,67.3975],[25.4613,64.5112,64.1154],[25.4604,64.5067,71.2558],[25.4708,64.5064,66.0026],[25.4699,64.5019,64.2297],[25.4803,64.5015,68.8444],[25.4794,64.497,65.8042],[25.469,64.4974,67.407],[25.4663,64.484,70.6045],[25.4559,64.4843,66.5115],[25.4497,64.453,71.2967],[25.4601,64.4526,71.28],[25.4592,64.4482,72.5551],[25.4696,64.4478,74.3025],[25.4678,64.4388,74.6014],[25.4781,64.4385,72.4957],[25.4764,64.4295,75.6618],[25.4867,64.4291,79.9268],[25.4859,64.4246,80.6134],[25.4651,64.4254,76.6588],[25.4643,64.4209,79.1917],[25.4539,64.4213,82.5587],[25.453,64.4168,84.7007],[25.4219,64.4179,80.3959],[25.421,64.4134,81.5087],[25.4314,64.4131,79.5122],[25.4296,64.4041,83.9694],[25.44,64.4037,84.4956],[25.4374,64.3903,85.3062],[25.4477,64.3899,92.1897],[25.4459,64.381,88.8996],[25.4563,64.3806,87.942],[25.4545,64.3717,93.8076],[25.4131,64.3732,96.4468],[25.4123,64.3687,98.8986],[25.4019,64.369,100.2517],[25.4011,64.3646,100.8228],[25.3907,64.3649,98.8314],[25.3898,64.3605,101.8743],[25.3795,64.3608,106.2658],[25.3786,64.3564,103.9835],[25.3683,64.3567,104.8536],[25.3674,64.3522,110.6601],[25.3571,64.3526,110.4613],[25.3562,64.3481,111.4319],[25.3459,64.3485,105.798],[25.345,64.344,108.1191],[25.3347,64.3444,109.1112],[25.3338,64.3399,106.983],[25.3235,64.3403,105.5942],[25.3226,64.3358,107.4673],[25.3123,64.3362,103.8459],[25.3114,64.3317,106.9399],[25.3011,64.332,105.3304],[25.3003,64.3276,111.9001],[25.2899,64.3279,111.1092],[25.2891,64.3234,114.3199],[25.2788,64.3238,110.7929],[25.2779,64.3193,110.4909],[25.2056,64.3219,119.557],[25.2031,64.3084,114.1026],[25.1928,64.3088,115.3832],[25.1911,64.2998,116.5716],[25.253,64.2977,122.1707],[25.2522,64.2932,130.9595],[25.2625,64.2928,123.3865],[25.2591,64.2749,135.8304],[25.2282,64.276,128.5225],[25.229,64.2805,137.3375],[25.2187,64.2808,122.9045],[25.2195,64.2853,135.0308],[25.2092,64.2857,124.1059],[25.2101,64.2901,119.7564],[25.1998,64.2905,115.5312],[25.1989,64.286,115.2689],[25.1886,64.2864,115.2879],[25.1869,64.2774,119.8192],[25.1766,64.2778,113.9907],[25.1683,64.233,109.8075],[25.158,64.2333,107.184],[25.1572,64.2289,103.3972],[25.1469,64.2292,110.827],[25.146,64.2247,104.9426],[25.1357,64.2251,103.0299],[25.1349,64.2206,101.7622],[25.1246,64.221,94.2105],[25.1238,64.2165,100.7672],[25.1135,64.2168,96.7041],[25.1127,64.2123,96.9299],[25.1024,64.2127,94.8844],[25.1016,64.2082,98.799],[25.0913,64.2086,95.3381],[25.0905,64.2041,92.2601],[25.0802,64.2044,91.273],[25.0777,64.191,94.5212],[25.0675,64.1914,90.5049],[25.065,64.1779,93.182],[25.0548,64.1783,99.9863],[25.0531,64.1693,96.8117],[25.0428,64.1696,92.1724],[25.042,64.1652,102.1997],[25.0318,64.1655,109.4596],[25.031,64.161,103.3823],[25.0207,64.1614,101.7296],[25.0199,64.1569,108.4185],[25.0096,64.1572,106.0867],[25.0088,64.1527,109.3387],[24.9985,64.1531,110.4813],[24.9977,64.1486,105.8708],[24.9875,64.149,115.528],[24.9867,64.1445,108.2083],[24.9764,64.1448,107.8733],[24.9756,64.1403,107.7695],[24.9654,64.1407,110.5283],[24.9646,64.1362,106.9645],[24.9543,64.1365,111.754],[24.9551,64.141,105.4542],[24.9448,64.1414,101.3671],[24.9456,64.1458,104.233],[24.9354,64.1462,98.2833],[24.9362,64.1507,101.3073],[24.8746,64.1527,84.5173],[24.8714,64.1348,87.6456],[24.892,64.1341,92.0391],[24.8927,64.1386,88.2058],[24.903,64.1382,90.0856],[24.9022,64.1338,91.7351],[24.9125,64.1334,88.6465],[24.9117,64.1289,91.9024],[24.9219,64.1286,94.0441],[24.9188,64.1107,104.1253],[24.9085,64.111,99.5885],[24.9077,64.1065,96.5142],[24.9283,64.1059,102.5629],[24.9275,64.1014,100.4701],[24.9377,64.101,100.551],[24.9369,64.0966,102.808],[24.9574,64.0959,107.0965],[24.9566,64.0914,105.9051],[24.9669,64.0911,116.0821],[24.9661,64.0866,103.5095],[24.9763,64.0862,108.4148],[24.9755,64.0818,112.3803],[24.996,64.0811,116.2518],[24.9952,64.0766,116.5615],[25.0054,64.0762,119.1623],[25.0047,64.0718,116.0345],[25.0251,64.0711,119.8007],[25.0243,64.0666,119.0536],[25.0346,64.0663,124.1119],[25.0337,64.0618,119.4798],[25.044,64.0614,113.8696],[25.0432,64.057,118.3818],[25.0636,64.0563,113.4317],[25.0628,64.0518,117.5802],[25.0731,64.0514,108.8622],[25.0723,64.047,114.9172],[25.0927,64.0463,113.9199],[25.0919,64.0418,110.8112],[25.1021,64.0414,117.5457],[25.1013,64.0369,122.8948],[25.1217,64.0362,117.4302],[25.1209,64.0318,123.5748],[25.1311,64.0314,119.2073],[25.1303,64.0269,114.0611],[25.1508,64.0262,108.1069],[25.1549,64.0486,128.9362],[25.1753,64.0479,130.6462],[25.1762,64.0524,134.8567],[25.1966,64.0517,135.4989],[25.195,64.0427,133.0327],[25.1847,64.0431,129.6042],[25.1839,64.0386,129.9976],[25.1941,64.0383,128.8043],[25.1933,64.0338,121.3818],[25.2035,64.0334,129.0941],[25.201,64.02,136.5299],[25.1908,64.0203,126.8802],[25.19,64.0159,130.2341],[25.2002,64.0155,138.9548],[25.1994,64.011,131.843],[25.2096,64.0107,127.5993],[25.2088,64.0062,131.4726],[25.219,64.0058,129.0899],[25.2181,64.0014,125.7209],[25.2283,64.001,121.5636],[25.2275,63.9965,121.6927],[25.2377,63.9962,129.1984],[25.2369,63.9917,108.3585],[25.2471,63.9913,111.4826],[25.2463,63.9868,106.8163],[25.2565,63.9865,105.9077],[25.2556,63.982,108.955],[25.2658,63.9816,116.354],[25.265,63.9772,108.6685],[25.2752,63.9768,111.4585],[25.2743,63.9723,103.5834],[25.2845,63.972,110.4509],[25.2837,63.9675,116.5455],[25.3041,63.9668,118.4686],[25.3032,63.9623,111.9996],[25.3135,63.9619,124.0924],[25.3126,63.9574,115.6398],[25.3228,63.9571,119.7452],[25.322,63.9526,124.2232],[25.3321,63.9522,110.842],[25.3313,63.9478,121.923],[25.3415,63.9474,118.0116],[25.3406,63.9429,122.0643],[25.3508,63.9425,125.6456],[25.35,63.9381,129.7149],[25.3601,63.9377,121.8556],[25.3593,63.9332,126.4832],[25.3695,63.9328,126.3264],[25.3686,63.9284,137.3255],[25.5417,63.922,139.2462],[25.5461,63.9444,136.9535],[25.5562,63.944,135.0223],[25.5598,63.9619,140.4128],[25.57,63.9615,127.5636],[25.5709,63.966,132.7437],[25.5607,63.9664,137.2815],[25.5616,63.9709,136.0007],[25.5514,63.9713,135.6261],[25.5522,63.9757,135.9226],[25.542,63.9761,137.1092],[25.5429,63.9806,140.0078],[25.5327,63.981,138.5365],[25.5345,63.9899,128.2235],[25.5447,63.9896,124.9766],[25.5456,63.994,124.5947],[25.5762,63.9929,104.8451],[25.5753,63.9884,110.3168],[25.5855,63.988,102.487],[25.5837,63.9791,122.738],[25.5939,63.9787,116.5518],[25.593,63.9742,133.5299],[25.6032,63.9738,122.6985],[25.6059,63.9873,94.7218],[25.5957,63.9876,98.958],[25.5966,63.9921,96.5783],[25.5864,63.9925,101.7242],[25.5873,63.997,93.0091],[25.5975,63.9966,94.1046],[25.5984,64.0011,103.318],[25.6188,64.0003,112.0261],[25.6197,64.0048,120.074],[25.6299,64.0044,113.2663],[25.6308,64.0089,109.0891],[25.6206,64.0092,114.9472],[25.6215,64.0137,114.7378],[25.601,64.0145,109.8962],[25.6002,64.01,99.2965],[25.5797,64.0108,112.1528],[25.5806,64.0153,109.7671],[25.5602,64.016,101.7599],[25.5611,64.0205,98.3903],[25.5713,64.0201,104.511],[25.5722,64.0246,101.9062],[25.6131,64.0231,110.2614],[25.6157,64.0365,116.3107],[25.6259,64.0361,125.1763],[25.6269,64.0406,124.3707],[25.6371,64.0402,128.0378],[25.638,64.0447,118.1564],[25.6482,64.0443,115.8588],[25.6491,64.0488,120.2726],[25.6593,64.0484,116.1737],[25.6602,64.0528,130.0305],[25.6704,64.0525,119.0155],[25.6713,64.0569,116.6899],[25.6816,64.0565,120.3631],[25.6834,64.0655,125.3426],[25.6731,64.0659,131.3287],[25.6741,64.0704,120.6361],[25.6638,64.0708,123.5192],[25.6647,64.0752,113.3438],[25.6545,64.0756,118.0427],[25.6554,64.0801,110.7696],[25.6452,64.0805,111.312],[25.6461,64.085,102.9629],[25.687,64.0834,121.395],[25.6879,64.0879,127.4015],[25.6981,64.0875,121.6908],[25.6991,64.092,118.1072],[25.7195,64.0912,115.5337],[25.7204,64.0957,109.9863],[25.7307,64.0953,115.107],[25.7316,64.0997,113.3592],[25.7521,64.099,115.3146],[25.753,64.1034,110.5181],[25.7632,64.103,109.0237],[25.7642,64.1075,107.3767],[25.7744,64.1071,108.7196],[25.7753,64.1116,106.3275],[25.7856,64.1112,107.0826],[25.7846,64.1067,107.6882],[25.8051,64.1059,108.6802],[25.8042,64.1014,108.8132],[25.8247,64.1006,110.3398],[25.8237,64.0962,111.4256],[25.8442,64.0954,117.1115],[25.8433,64.0909,115.9875],[25.874,64.0897,128.6737],[25.873,64.0852,138.7899],[25.9037,64.084,127.1549],[25.9028,64.0795,125.2201],[25.9232,64.0787,128.0609],[25.9223,64.0742,121.4768],[25.9837,64.0718,133.3266],[25.9827,64.0673,134.3967],[26.0031,64.0665,133.9249],[26.0022,64.062,135.9803],[26.0226,64.0612,131.8682],[26.0217,64.0567,134.2872],[26.0421,64.0559,130.5434],[26.0411,64.0514,138.5253],[26.0514,64.051,132.6896],[26.0504,64.0465,128.0573],[26.0708,64.0457,127.232],[26.0698,64.0412,122.0503],[26.0903,64.0404,128.6709],[26.0893,64.0359,121.4865],[26.0995,64.0355,122.4342],[26.0966,64.0221,122.7344],[26.1068,64.0217,122.6184],[26.1058,64.0172,121.5236],[26.1262,64.0164,124.6475],[26.1253,64.0119,128.3985],[26.1457,64.0111,135.1853],[26.1467,64.0155,129.9592],[26.1568,64.0151,137.1453],[26.1559,64.0106,140.048],[26.1661,64.0102,137.035],[26.1651,64.0058,136.8486],[26.1753,64.0053,139.9829],[26.1743,64.0008,142.4565],[26.1845,64.0004,146.9453],[26.1835,63.9959,141.9542],[26.1937,63.9955,138.4446],[26.1927,63.9911,138.0775],[26.2029,63.9906,138.4798],[26.2009,63.9817,139.6385],[26.2111,63.9813,140.8674],[26.2101,63.9768,136.7342],[26.2203,63.9764,140.6249],[26.2193,63.9719,134.095],[26.2295,63.9715,136.3496],[26.2275,63.9625,135.3412],[26.2377,63.9621,138.4258],[26.2367,63.9576,138.9082],[26.2469,63.9572,147.1465],[26.2449,63.9482,151.0924],[26.2551,63.9478,181.4027],[26.2462,63.9076,148.9815],[26.2563,63.9072,153.1612],[26.2415,63.8401,137.4455],[26.2516,63.8396,136.8203],[26.2526,63.8441,138.6773],[26.2627,63.8437,130.9587],[26.2637,63.8482,130.8866],[26.2739,63.8477,134.0351],[26.2749,63.8522,138.109],[26.285,63.8518,140.5016],[26.286,63.8562,145.1363],[26.2962,63.8558,159.7746],[26.2972,63.8603,163.9639],[26.3073,63.8599,170.8156],[26.3083,63.8643,167.9802],[26.3184,63.8639,169.4318],[26.3204,63.8728,171.6758],[26.3306,63.8724,170.1717],[26.3316,63.8769,162.4154],[26.3417,63.8764,158.8792],[26.3427,63.8809,160.2115],[26.3529,63.8805,163.0575],[26.3539,63.8849,152.8429],[26.364,63.8845,148.936],[26.365,63.889,151.4506],[26.3752,63.8885,148.625],[26.3762,63.893,153.8024],[26.3864,63.8926,151.3356],[26.3874,63.897,151.634],[26.3975,63.8966,152.5357],[26.3986,63.9011,155.1894],[26.4086,63.9007,167.0956],[26.4097,63.9051,167.9375],[26.4199,63.9047,174.6728],[26.4209,63.9091,176.0294],[26.4311,63.9087,178.819],[26.4321,63.9132,182.5756],[26.4422,63.9127,177.2638],[26.4433,63.9172,177.1807],[26.4534,63.9168,173.6886],[26.4544,63.9212,170.5687],[26.4646,63.9208,166.4625],[26.465699999999998,63.9253,164.3679],[26.4758,63.9248,165.3961],[26.4768,63.9293,163.3094],[26.487,63.9288,162.8501],[26.4891,63.9378,165.4624],[26.4992,63.9373,165.0547],[26.5003,63.9418,166.293],[26.5105,63.9414,167.5525],[26.5115,63.9458,169.8807],[26.5217,63.9454,171.9774],[26.5227,63.9499,174.3682],[26.5329,63.9494,173.6344],[26.5339,63.9539,174.0601],[26.5441,63.9534,179.3821],[26.5451,63.9579,178.2693],[26.5553,63.9575,182.5026],[26.5563,63.9619,177.9366]],
[[25.4536,64.3672,93.4317],[25.4545,64.3717,93.8076],[25.4649,64.3713,94.8563],[25.464,64.3668,93.0072],[25.4536,64.3672,93.4317]]]]}
,"properties": {"GID_3": "FIN.3.2.6_1","GID_0": "FIN","country": "Finland","GID_1": "FIN.3_1","province": "Oulu","NL_NAME_1": "NA","GID_2": "FIN.3.2_1","county": "NorthernOstrobothnia","NL_NAME_2": "NA","city": "Siikalatva","VARNAME_3": "NA","NL_NAME_3": "NA","TYPE_3": "Seutukunta|Ekonomiskregion","ENGTYPE_3": "Sub-Region","CC_3": "NA","HASC_3": "FI.OU.SI","name": "Siikalatva.city","area_km2": 4012.385,"hist_schema_id": "Elevation0-9000","hist_area_km2": {"50": 185.668,"75": 512.46,"100": 1260.27,"125": 1250.51,"150": 511.931,"175": 220.84,"200": 70.483,"225": 0.222}}}