{"type": "Feature","id": "3192","bbox": [21.31671,60.88569,23.0009,62.30405],"geometry": {"type": "MultiPolygon","coordinates": [[[[21.36874,61.13386,0.0],[21.37062,61.13825,0.0],[21.36687,61.14151,0.0],[21.36329,61.13943,10.4899],[21.36199,61.13557,0.0],[21.36411,61.13386,0.0],[21.36874,61.13386,0.0]]],
[[[21.4616,61.19823,14.1325],[21.45948,61.20055,0.0],[21.45403,61.20262,0.0],[21.45029,61.20519,0.0],[21.42123,61.21186,0.0],[21.4131,61.2082,17.2375],[21.42229,61.19945,9.8493],[21.43279,61.19554,7.0374],[21.44223,61.19432,0.0],[21.4616,61.19823,14.1325]]],
[[[21.38917,61.19221,9.4158],[21.38575,61.201,0.0],[21.39137,61.20962,6.461],[21.38006,61.21402,1.6756],[21.36313,61.20856,0.0],[21.35678,61.20258,0.0],[21.35743,61.19977,10.4761],[21.35353,61.19746,0.0],[21.34645,61.19628,0.0],[21.34295,61.19062,11.5371],[21.34718,61.18187,0.0],[21.34978,61.17805,6.1852],[21.34816,61.17788,6.9725],[21.34669,61.17756,2.4421],[21.35239,61.17601,15.9386],[21.3694,61.17609,0.0],[21.38885,61.18098,0.0],[21.42359,61.17211,12.7927],[21.43165,61.17145,14.2896],[21.42937,61.173,12.7959],[21.42189,61.17674,2.8715],[21.38917,61.19221,9.4158]]],
[[[21.49334,61.35472,11.6378],[21.48341,61.35505,8.0309],[21.46892,61.35094,11.2751],[21.46526,61.34736,4.72],[21.46892,61.34504,6.4101],[21.47413,61.34679,0.0],[21.48292,61.34524,5.0469],[21.49724,61.3406,0.0],[21.50725,61.3402,0.0],[21.51157,61.34284,2.9218],[21.51108,61.34431,4.193],[21.49334,61.35472,11.6378]]],
[[[21.35434,61.47517,12.9795],[21.36036,61.48265,0.2698],[21.35157,61.48522,0.0],[21.33839,61.48009,0.0],[21.33896,61.47435,0.0],[21.35434,61.47517,12.9795]]],
[[[21.50782,61.61807,0.0],[21.51051,61.62222,2.5002],[21.51466,61.62495,0.0],[21.52198,61.62543,5.0465],[21.52613,61.6291,5.4552],[21.52394,61.63312,3.03],[21.52125,61.63398,4.0944],[21.48455,61.64045,9.7488],[21.47096,61.63032,0.0],[21.45997,61.62934,1.4068],[21.46192,61.62617,5.9506],[21.47836,61.62084,0.0],[21.50099,61.61774,0.0],[21.50782,61.61807,0.0]]],
[[[21.43987,61.6352,0.0],[21.42807,61.64106,0.0],[21.41131,61.64346,0.0],[21.40244,61.64,0.0],[21.40382,61.63597,2.4084],[21.41033,61.63174,5.8331],[21.4249,61.61738,13.2198],[21.43678,61.60977,14.0234],[21.44858,61.6079,8.339],[21.45069,61.61258,0.0],[21.42921,61.62816,0.0],[21.42913,61.63321,2.4851],[21.438,61.63304,0.0],[21.43987,61.6352,0.0]]],
[[[22.55028,61.99157,143.0656],[22.54925,62.0033,142.364],[22.59348,62.0282,151.0813],[22.62635,62.04086,149.6711],[22.66428,62.0498,148.5036],[22.7295,62.05089,152.6512],[22.7513,62.05709,156.0112],[22.7728,62.06768,155.5631],[22.77621,62.07208,170.9185],[22.7729,62.07898,176.2047],[22.77415,62.09714,161.7466],[22.77311,62.1097,171.2143],[22.76763,62.12262,162.8721],[22.76422,62.13634,151.8565],[22.76939,62.15119,156.1502],[22.78727,62.15931,159.5384],[22.82665,62.15959,162.1906],[22.84939,62.1621,165.1729],[22.85528,62.17313,163.5269],[22.83957,62.24333,153.0],[22.83833,62.27119,166.3595],[22.70449,62.28411,157.0835],[22.61891,62.30405,150.4305],[22.58697,62.30183,154.6778],[22.57178,62.27067,156.5399],[22.55896,62.25114,157.8654],[22.54563,62.2363,169.1711],[22.5078,62.21127,145.3223],[22.40269,62.1598,161.4141],[22.38419,62.1468,148.3302],[22.33882,62.12404,141.5421],[22.22948,62.10192,132.5975],[22.1777,62.08332,134.7493],[22.0637,62.01043,104.296],[22.01822,61.99317,96.5544],[21.93296,61.98531,88.4441],[21.64657,62.0205,71.3206],[21.52957,62.0251,38.6526],[21.47552,62.02231,30.6477],[21.4258,62.00945,20.5799],[21.40441,61.9958,17.0015],[21.38591,61.97841,17.2204],[21.36503,61.96252,6.6781],[21.33723,61.95317,0.0],[21.31671,61.9392,0.0],[21.31674,61.9392,0.0],[21.32569,61.93781,0.0],[21.37143,61.93911,0.9917],[21.38054,61.93781,0.0],[21.38722,61.93041,0.0],[21.3895,61.92113,0.0],[21.39357,61.91323,0.0],[21.41407,61.90689,0.0],[21.41196,61.90009,0.0],[21.40358,61.89313,0.0],[21.39422,61.88939,0.0],[21.40317,61.87641,0.0],[21.41847,61.86253,0.0],[21.4489,61.84162,14.578],[21.44459,61.82632,0.0],[21.45558,61.81997,-0.0752],[21.4725,61.81684,0.0],[21.48609,61.81118,0.0],[21.48902,61.79914,5.7466],[21.48194,61.78559,7.4475],[21.47267,61.77192,3.5515],[21.46998,61.75971,0.0],[21.48927,61.73697,0.0],[21.55934,61.71332,6.3415],[21.58595,61.69766,13.9817],[21.57032,61.69501,-0.2368],[21.53631,61.7082,18.2439],[21.51775,61.71125,3.4494],[21.51775,61.70506,0.0],[21.54103,61.68024,0.0],[21.54412,61.67284,0.0],[21.53614,61.65803,0.0],[21.53761,61.64985,0.0],[21.5525,61.64077,0.0],[21.57325,61.63557,0.0],[21.59181,61.62812,0.0],[21.61427,61.58544,0.0],[21.64812,61.56029,0.0],[21.71632,61.52692,0.6518],[21.71632,61.51948,2.4116],[21.68686,61.52448,4.1206],[21.62338,61.54588,12.2764],[21.50799,61.57014,0.0],[21.48227,61.56786,16.9483],[21.46648,61.56444,0.0],[21.46013,61.5624,0.0],[21.46192,61.55777,0.0],[21.46998,61.54682,0.0],[21.51026,61.51948,0.0],[21.52426,61.5174,0.0],[21.55095,61.5218,0.0],[21.5656,61.51948,0.0],[21.57114,61.51411,0.0],[21.59213,61.48534,5.9685],[21.55567,61.47517,3.2724],[21.42213,61.48534,0.5052],[21.44207,61.47504,0.0],[21.51026,61.45799,0.0],[21.54225,61.44212,0.0],[21.55787,61.43122,0.0],[21.57244,61.41641,21.9229],[21.54168,61.40839,5.7406],[21.47788,61.41157,0.0],[21.4489,61.40278,0.0],[21.46209,61.39842,0.0],[21.49008,61.39326,2.1679],[21.50343,61.38911,0.0],[21.5184,61.38158,0.0],[21.52426,61.37531,9.3106],[21.53077,61.35497,2.8976],[21.53175,61.34968,0.0],[21.52996,61.34052,0.0],[21.53077,61.33446,0.0],[21.53419,61.32949,1.3603],[21.542,61.32689,1.5978],[21.54444,61.32087,0.0],[21.54444,61.31078,0.0],[21.542,61.29271,15.4973],[21.54444,61.2873,5.827],[21.54444,61.27985,0.0],[21.50343,61.27985,0.0],[21.50831,61.26683,11.9123],[21.49936,61.26105,7.1725],[21.48561,61.25617,0.0],[21.47608,61.24575,6.1158],[21.5241,61.23461,3.2342],[21.54347,61.22508,2.7673],[21.55812,61.20417,10.4118],[21.52662,61.19969,22.8205],[21.49659,61.19111,16.9001],[21.49887,61.18745,2.2367],[21.50343,61.17744,5.1545],[21.47104,61.17817,7.3442],[21.45582,61.17617,8.866],[21.44264,61.16999,0.0],[21.45631,61.16999,2.9657],[21.44264,61.15575,0.0],[21.44907,61.15233,0.0],[21.45582,61.15021,0.0],[21.46266,61.14936,3.5341],[21.46998,61.14956,16.1302],[21.44508,61.14305,0.0],[21.43523,61.14273,0.0],[21.44606,61.13516,14.4165],[21.4524,61.12523,0.0],[21.46315,61.10114,5.6512],[21.45045,61.09077,0.0],[21.45484,61.07819,6.1116],[21.46827,61.06684,24.2135],[21.48227,61.06013,10.6152],[21.45387,61.055,12.4065],[21.39527,61.0694,9.3848],[21.36695,61.06013,14.3478],[21.39137,61.05793,17.9334],[21.40773,61.05073,4.5534],[21.40813,61.04816,6.8568],[21.40813,61.04815,6.8568],[21.4195,61.04702,7.857],[21.45061,61.01462,25.4782],[21.4934,61.00369,24.4868],[21.57422,61.00783,24.0304],[21.60047,61.01628,34.7705],[21.59882,61.02284,33.0388],[21.60026,61.03441,14.7687],[21.60822,61.04273,15.2312],[21.62372,61.04578,35.5956],[21.63571,61.04067,29.3923],[21.64129,61.0293,22.8902],[21.6446,61.01713,29.0296],[21.64967,61.00951,30.105],[21.67468,61.00175,12.4822],[21.70641,60.99876,33.8528],[21.73989,61.00183,39.1439],[21.7555,61.00602,34.4339],[21.76635,61.01984,32.5787],[21.76645,61.02795,34.6121],[21.77896,61.03534,35.8092],[21.80149,61.03669,41.9088],[21.81431,61.03581,43.1488],[21.82444,61.03248,36.4528],[21.82196,61.03038,38.0268],[21.80997,61.01829,41.4954],[21.8448,61.00971,48.0256],[21.90588,60.98462,54.2271],[21.92955,60.98008,48.4707],[21.95187,60.97315,49.3723],[21.95042,60.96767,57.4479],[21.94939,60.96052,40.387],[21.94763,60.95452,41.3719],[21.94536,60.9507,41.7093],[21.95135,60.94253,40.4179],[21.97791,60.92801,59.4005],[21.98866,60.91618,61.8515],[21.98918,60.90863,56.4902],[22.00561,60.89866,43.2616],[22.15113,60.88569,58.929],[22.17346,60.88907,61.875],[22.2147,60.91478,60.7437],[22.24622,60.92458,69.7467],[22.56186,60.94362,87.9409],[22.57312,60.94801,90.5077],[22.56558,60.95122,78.656],[22.53457,60.96997,86.416],[22.54832,60.98176,96.3876],[22.57023,60.98605,101.5029],[22.72299,60.98331,96.1707],[22.7574,60.98698,93.8877],[22.80112,60.99656,65.579],[22.82768,61.0125,93.4454],[22.81972,61.04025,81.8107],[22.82768,61.0463,74.063],[22.8376,61.05984,70.4234],[22.83523,61.0724,81.5733],[22.82561,61.07787,72.3016],[22.82603,61.09002,105.4301],[22.840699999999998,61.0911,82.8545],[22.92194,61.05472,73.2384],[22.96979,61.04552,78.4938],[22.9671,61.05731,82.4331],[22.97486,61.0649,82.7667],[22.98995,61.06937,101.6969],[22.99966,61.07074,94.9206],[23.0009,61.07886,89.7116],[22.99036,61.08222,91.7967],[22.94127,61.07787,86.0079],[22.92897,61.07865,96.3831],[22.92328,61.08855,87.934],[22.9299,61.09361,92.4813],[22.94499,61.10242,104.1661],[22.96897,61.11358,103.6449],[22.96359,61.11994,106.6753],[22.95119,61.12407,102.8242],[22.93321,61.1358,75.2167],[22.92194,61.15327,113.1965],[22.91853,61.165,107.2517],[22.92142,61.17689,92.5627],[22.94953,61.17683,100.195],[22.94251,61.19658,75.82],[22.9238,61.21089,88.1472],[22.86727,61.23058,82.0487],[22.74541,61.24355,80.0122],[22.68071,61.24169,46.6552],[22.66149,61.2452,46.2904],[22.64981,61.25228,44.9842],[22.64537,61.2605,46.2793],[22.64268,61.26908,51.1132],[22.63617,61.27714,50.0504],[22.58046,61.31724,88.2019],[22.57271,61.32447,92.4122],[22.56992,61.33326,84.1774],[22.59049,61.34013,107.9433],[22.58956,61.34675,111.6996],[22.58491,61.353,93.1186],[22.56527,61.38835,102.8831],[22.57188,61.39545,86.9983],[22.60124,61.39289,101.242],[22.62749,61.38736,93.257],[22.63989,61.39062,89.1371],[22.64402,61.39615,94.3908],[22.64971,61.40152,72.4655],[22.65839,61.40408,82.5468],[22.66676,61.4054,89.3086],[22.67379,61.40969,73.4453],[22.671,61.4184,91.9822],[22.67028,61.42008,91.3064],[22.66893,61.4225,87.0035],[22.67524,61.42612,79.2887],[22.72536,61.43196,89.1201],[22.72877,61.43677,95.9097],[22.72443,61.44173,97.8672],[22.7205,61.45191,106.5926],[22.72185,61.46369,107.7218],[22.72474,61.47085,106.3489],[22.70056,61.4794,73.9796],[22.67338,61.48452,61.9456],[22.64061,61.49997,65.1386],[22.59989,61.53289,74.1729],[22.60155,61.55265,77.9482],[22.66283,61.58275,105.049],[22.6863,61.60795,110.0382],[22.68102,61.62482,122.6406],[22.68526,61.63076,115.0418],[22.70459,61.63174,114.8366],[22.72185,61.64774,98.2476],[22.71699,61.66794,108.0565],[22.70397,61.67518,115.6771],[22.68412,61.66647,120.702],[22.67741,61.65799,114.8126],[22.66645,61.6551,120.7243],[22.65756,61.66523,111.4412],[22.65395,61.67536,122.1506],[22.65612,61.68476,104.9355],[22.66056,61.6882,109.7962],[22.6772,61.70698,102.0652],[22.69394,61.73148,117.1847],[22.71472,61.74615,123.2812],[22.73673,61.75484,128.489],[22.77342,61.76538,165.6977],[22.80546,61.78114,132.7214],[22.82189,61.79768,123.965],[22.82293,61.82282,141.8607],[22.79058,61.84129,125.3958],[22.76846,61.84966,132.2137],[22.74283,61.85387,130.6795],[22.74345,61.85953,134.4473],[22.74965,61.86359,135.7186],[22.78458,61.86765,132.8733],[22.78365,61.87597,142.1975],[22.75471,61.88397,125.348],[22.74231,61.89416,121.4205],[22.7389,61.90351,121.0001],[22.7234,61.9156,130.4741],[22.70831,61.91759,135.4748],[22.68113,61.92397,131.6433],[22.66232,61.93787,143.4859],[22.65736,61.95074,134.8975],[22.6402,61.96759,140.1479],[22.55028,61.99157,143.0656]]]]}
,"properties": {"ISO3166-1-Alpha-3": "FIN","country": "Finland","fill": "#00F","name": "Satakunta","area_km2": 8365.803,"hist_schema_id": "Elevation0-9000","hist_area_km2": {"0": 630.193,"25": 1458.687,"50": 2552.483,"75": 1676.738,"100": 939.945,"125": 554.62,"150": 497.264,"175": 55.744,"200": 0.12}}}