{"type":"Feature","properties":{"GID_2":"FIN.5.7_1","GID_0":"FIN","country":"Finland","GID_1":"FIN.5_1","province":"WesternFinland","NL_NAME_1":"NA","county":"Satakunta","VARNAME_2":"Satakunta|Satakunda","NL_NAME_2":"NA","TYPE_2":"Maakunta|landskap","ENGTYPE_2":"Region","CC_2":"NA","HASC_2":"NA","name":"Satakunta.county"},
"geometry":{"type": "MultiPolygon","coordinates": [[[[21.4104,61.0625,6.8885],[21.4146,61.0625,1.8498],[21.4161,61.0641,0.0],[21.4083,61.0667,0.0],[21.4047,61.0641,5.7797],[21.4063,61.0625,3.0681],[21.4104,61.0625,6.8885]]],
[[[21.3958,61.0667,0.0],[21.3974,61.0682,13.7794],[21.3943,61.0682,6.1311],[21.3943,61.0672,0.0],[21.3958,61.0667,0.0]]],
[[[21.3854,61.1646,6.9555],[21.387,61.1651,6.9555],[21.387,61.1661,9.6469],[21.3839,61.1661,2.7225],[21.3854,61.1646,6.9555]]],
[[[21.4188,61.1688,7.3488],[21.4151,61.1682,14.0481],[21.413,61.1651,0.0],[21.4292,61.1646,0.0],[21.4313,61.1667,2.6933],[21.4292,61.1688,0.5302],[21.4188,61.1688,7.3488]]],
[[[21.3646,61.1354,10.2963],[21.3661,61.137,12.524],[21.363,61.137,9.753],[21.363,61.1359,8.719],[21.3646,61.1354,10.2963]]],
[[[21.3276,61.1474,0.9866],[21.3214,61.1443,0.0],[21.3271,61.1437,0.0],[21.3307,61.1464,2.1108],[21.3276,61.1474,0.9866]]],
[[[21.3995,61.212,0.0],[21.3854,61.2167,0.0],[21.3792,61.2146,0.0],[21.3646,61.2146,3.0537],[21.363,61.213,0.0],[21.3682,61.2099,5.5243],[21.3703,61.2047,11.1168],[21.3609,61.2036,0.0],[21.3583,61.2,10.4761],[21.3599,61.1964,13.0149],[21.3479,61.1958,10.9027],[21.3438,61.1937,14.1269],[21.3375,61.1937,8.4601],[21.3359,61.1922,4.6238],[21.3495,61.187,0.0],[21.3443,61.1839,5.7559],[21.3495,61.1807,2.7893],[21.3484,61.1776,6.9725],[21.3505,61.1755,13.0975],[21.3563,61.1729,0.0],[21.3703,61.1734,0.0],[21.3734,61.1766,5.0108],[21.3786,61.1776,9.5275],[21.3813,61.1813,1.9471],[21.4042,61.1813,0.0],[21.412,61.1839,0.0],[21.4026,61.188,0.0],[21.3958,61.1937,0.0],[21.3833,61.1937,6.5791],[21.3792,61.1958,0.3709],[21.3734,61.1943,14.1588],[21.3734,61.1974,2.3551],[21.3849,61.2005,4.4317],[21.3922,61.2057,6.55],[21.3974,61.2068,0.0],[21.3995,61.2089,6.2523],[21.3995,61.212,0.0]]],
[[[21.3563,61.2042,2.6404],[21.3578,61.2057,1.2814],[21.3547,61.2057,1.7578],[21.3547,61.2047,6.039],[21.3563,61.2042,2.6404]]],
[[[21.4104,61.175,9.8341],[21.4182,61.1734,10.894],[21.4245,61.1776,0.0],[21.4286,61.1828,0.0],[21.4229,61.1833,13.305],[21.4161,61.1776,15.3341],[21.4068,61.1766,3.769],[21.4104,61.175,9.8341]]],
[[[21.4224,61.187,10.1943],[21.4193,61.187,0.0],[21.4172,61.1839,4.5933],[21.4203,61.1839,0.0],[21.4224,61.187,10.1943]]],
[[[21.4083,61.2208,11.0943],[21.4068,61.2193,6.7406],[21.4141,61.2172,14.2822],[21.4141,61.2203,0.0],[21.4083,61.2208,11.0943]]],
[[[21.4146,61.2333,0.0],[21.4161,61.2339,13.4699],[21.4161,61.2349,18.421],[21.413,61.2349,16.6124],[21.4146,61.2333,0.0]]],
[[[21.3875,61.2583,1.8124],[21.3813,61.2583,1.7288],[21.3797,61.2568,1.2245],[21.3891,61.2568,0.0],[21.3875,61.2583,1.8124]]],
[[[21.4271,61.3833,12.3494],[21.4234,61.3818,10.8388],[21.4271,61.3792,0.0],[21.4328,61.3797,9.8453],[21.4349,61.3818,6.0601],[21.4333,61.3833,6.5331],[21.4271,61.3833,12.3494]]],
[[[21.4208,61.3917,6.9622],[21.4193,61.3901,11.9815],[21.4266,61.388,12.2487],[21.4266,61.3911,6.3717],[21.4208,61.3917,6.9622]]],
[[[21.4042,61.3958,9.3526],[21.4057,61.3974,10.139],[21.4026,61.3974,12.7228],[21.4026,61.3964,10.5469],[21.4042,61.3958,9.3526]]],
[[[21.3625,61.2646,0.0],[21.3641,61.2651,0.0],[21.3641,61.2661,2.1974],[21.3609,61.2661,2.1221],[21.3625,61.2646,0.0]]],
[[[21.3813,61.375,0.0],[21.3828,61.3755,2.3688],[21.3828,61.3766,1.3515],[21.3797,61.3766,1.442],[21.3813,61.375,0.0]]],
[[[21.3807,61.4047,0.7414],[21.3828,61.4078,2.98],[21.3729,61.4104,8.1408],[21.3672,61.4099,4.3105],[21.3693,61.4068,7.3333],[21.3734,61.4047,3.0437],[21.3807,61.4047,0.7414]]],
[[[21.3557,61.413,3.6853],[21.3547,61.4109,5.1249],[21.3604,61.4083,0.0],[21.3641,61.4109,0.0],[21.3583,61.4146,0.0],[21.3557,61.413,3.6853]]],
[[[21.4,61.4021,0.0],[21.3964,61.4005,8.3418],[21.4,61.3979,9.2392],[21.4036,61.4016,0.0],[21.4,61.4021,0.0]]],
[[[21.3896,61.6292,0.0],[21.3911,61.6307,2.7139],[21.388,61.6307,3.065],[21.388,61.6297,2.4658],[21.3896,61.6292,0.0]]],
[[[21.4208,61.6437,0.0],[21.4224,61.6453,12.9228],[21.4193,61.6453,4.4845],[21.4193,61.6443,3.012],[21.4208,61.6437,0.0]]],
[[[21.4083,61.65,0.0],[21.4099,61.6505,2.6466],[21.4099,61.6516,0.0],[21.4068,61.6516,3.4678],[21.4083,61.65,0.0]]],
[[[21.3604,61.425,14.3107],[21.3547,61.4245,3.9976],[21.3547,61.4214,2.4349],[21.3661,61.4214,11.1504],[21.3641,61.4245,11.9981],[21.3604,61.425,14.3107]]],
[[[21.3807,61.4245,6.4076],[21.375,61.425,9.1802],[21.3734,61.4234,0.0],[21.3792,61.4229,8.7296],[21.3807,61.4245,6.4076]]],
[[[21.338,61.4755,6.0913],[21.3443,61.4714,1.573],[21.35,61.4708,0.1919],[21.3641,61.4755,0.2076],[21.3661,61.4786,4.5634],[21.3599,61.4828,0.2698],[21.3542,61.4833,5.9435],[21.3479,61.4792,9.8027],[21.3401,61.4786,0.0],[21.338,61.4755,6.0913]]],
[[[21.3766,61.6776,9.0625],[21.3766,61.6786,5.9591],[21.3734,61.6786,15.3335],[21.3734,61.6776,9.3208],[21.3766,61.6776,9.0625]]],
[[[21.4182,61.7641,0.0],[21.4151,61.7641,1.5861],[21.4151,61.763,2.1515],[21.4182,61.763,1.4827],[21.4182,61.7641,0.0]]],
[[[21.4667,61.4021,0.0],[21.4542,61.4063,0.0],[21.4422,61.4057,0.0],[21.4438,61.4042,0.0],[21.4521,61.4042,0.0],[21.4641,61.3995,7.8582],[21.463,61.3964,0.0],[21.4729,61.3896,0.0],[21.4771,61.3896,0.0],[21.4813,61.3875,0.0],[21.4995,61.388,0.0],[21.4974,61.3932,7.6748],[21.4896,61.3958,0.0],[21.4813,61.3958,15.3193],[21.4667,61.4021,0.0]]],
[[[21.4771,61.4146,0.0],[21.4708,61.4146,8.6653],[21.4693,61.413,9.443],[21.4786,61.413,8.8561],[21.4771,61.4146,0.0]]],
[[[21.4646,61.4395,6.6111],[21.4609,61.4391,0.0],[21.4609,61.438,0.0],[21.4646,61.4375,0.0],[21.4646,61.4395,6.6111]]],
[[[21.4375,61.5396,3.0358],[21.4391,61.5401,2.5096],[21.4391,61.5411,8.4356],[21.4359,61.5411,3.1045],[21.4375,61.5396,3.0358]]],
[[[21.5146,61.6063,0.0],[21.5161,61.6078,1.7812],[21.513,61.6078,1.7053],[21.513,61.6068,0.0],[21.5146,61.6063,0.0]]],
[[[21.4922,61.6422,3.0678],[21.4792,61.6458,0.0],[21.4714,61.6432,0.0],[21.4724,61.638,0.0],[21.463,61.637,7.753],[21.4786,61.6286,1.3301],[21.4766,61.6255,2.1195],[21.4562,61.625,6.1306],[21.4521,61.6271,0.0],[21.4484,61.6234,0.1272],[21.4557,61.6224,8.8919],[21.4604,61.6188,0.0],[21.4708,61.6188,3.0261],[21.475,61.6208,0.0473],[21.4958,61.6208,1.0652],[21.5,61.6188,0.0],[21.5104,61.6188,1.358],[21.512,61.6193,0.0],[21.5141,61.6234,0.5674],[21.513,61.6266,0.0],[21.5146,61.6271,1.4339],[21.5187,61.6271,2.0878],[21.5229,61.625,0.0],[21.5313,61.625,2.6643],[21.5354,61.6271,0.0],[21.55,61.6271,0.0],[21.5557,61.6318,1.4182],[21.5458,61.6354,0.0],[21.5333,61.6333,0.0],[21.5292,61.6354,0.0],[21.5208,61.6354,4.4269],[21.5161,61.6391,0.0],[21.5042,61.6437,0.0],[21.4922,61.6422,3.0678]]],
[[[21.525,61.6646,0.0],[21.5214,61.6641,15.1275],[21.5193,61.6609,4.1491],[21.525,61.6604,9.0673],[21.5286,61.663,9.01],[21.525,61.6646,0.0]]],
[[[21.5,61.6667,8.6729],[21.5016,61.6672,7.3518],[21.5016,61.6682,2.6147],[21.4984,61.6682,0.0],[21.5,61.6667,8.6729]]],
[[[21.425,61.6354,4.1374],[21.4208,61.6375,8.7077],[21.4083,61.6396,0.0],[21.4042,61.6354,2.7025],[21.4141,61.6266,2.5624],[21.4161,61.6224,9.4077],[21.4151,61.6193,0.0],[21.4224,61.6182,11.7239],[21.4286,61.6141,21.2893],[21.4276,61.6109,0.0],[21.4536,61.6047,1.9043],[21.4557,61.6099,0.0],[21.4297,61.6193,0.0],[21.4234,61.6234,0.0],[21.4255,61.6286,0.0],[21.4313,61.6271,0.0],[21.4375,61.6292,3.9454],[21.4417,61.6271,2.6703],[21.4432,61.6276,1.4754],[21.4432,61.6307,8.4988],[21.4354,61.6312,3.5776],[21.425,61.6354,4.1374]]],
[[[21.4354,61.6396,11.7277],[21.4318,61.6359,0.0],[21.4432,61.6359,0.0],[21.4411,61.6391,4.1329],[21.4354,61.6396,11.7277]]],
[[[21.4526,61.6526,0.0],[21.4589,61.6484,0.0],[21.4646,61.6479,0.0],[21.4724,61.6526,0.4916],[21.4745,61.6557,0.0],[21.4724,61.6599,0.0],[21.4672,61.663,3.0834],[21.4682,61.6661,1.3368],[21.4661,61.6682,0.0],[21.4604,61.6688,0.0],[21.4526,61.6661,1.2671],[21.4495,61.663,5.4848],[21.4443,61.662,0.0],[21.4516,61.6557,3.0074],[21.4526,61.6526,0.0]]],
[[[21.4479,61.6729,0.0],[21.4453,61.6766,0.0],[21.438,61.6776,7.7557],[21.4391,61.6807,0.0],[21.4375,61.6813,0.0],[21.4318,61.6807,4.2544],[21.4271,61.6771,11.2687],[21.4229,61.6771,7.4439],[21.4188,61.6792,0.0],[21.4151,61.6766,3.6735],[21.4208,61.6729,2.9485],[21.4286,61.6724,8.3434],[21.4276,61.6693,0.0],[21.4375,61.6667,0.0],[21.4516,61.6672,5.672],[21.4464,61.6693,4.8501],[21.4479,61.6729,0.0]]],
[[[21.5042,61.6708,0.0],[21.5026,61.6693,6.6034],[21.5083,61.6667,3.2972],[21.512,61.6693,6.4377],[21.5104,61.6708,10.1404],[21.5042,61.6708,0.0]]],
[[[21.4958,61.6688,16.1903],[21.4974,61.6693,4.0313],[21.4974,61.6703,7.6144],[21.4943,61.6703,9.6535],[21.4958,61.6688,16.1903]]],
[[[21.4938,61.7083,13.567],[21.4901,61.7068,11.2173],[21.4938,61.7042,2.7042],[21.4995,61.7047,0.0],[21.5016,61.7068,0.0],[21.5,61.7083,0.0],[21.4938,61.7083,13.567]]],
[[[21.5417,61.7458,16.2869],[21.5318,61.7484,4.9537],[21.5328,61.7516,0.0],[21.5297,61.7536,1.0748],[21.5328,61.7578,3.3317],[21.5229,61.7583,17.909],[21.5193,61.7557,17.1757],[21.5214,61.7505,15.0687],[21.5297,61.7443,3.0636],[21.5453,61.7443,1.9159],[21.5417,61.7458,16.2869]]],
[[[21.3651,61.6839,12.8559],[21.3661,61.6818,1.5508],[21.3651,61.6797,1.7863],[21.3682,61.6797,4.5812],[21.3703,61.6818,15.9409],[21.3682,61.6849,9.7943],[21.3651,61.6839,12.8559]]],
[[[21.3307,61.8464,0.0],[21.3276,61.8422,2.1318],[21.3354,61.8417,3.0024],[21.3375,61.8438,2.1337],[21.3359,61.8474,3.441],[21.3411,61.8495,0.0],[21.3354,61.8521,3.2498],[21.3276,61.8495,0.0],[21.3307,61.8464,0.0]]],
[[[21.362,61.8484,7.5415],[21.3604,61.85,6.0717],[21.3589,61.8495,6.3327],[21.3604,61.8479,2.6442],[21.362,61.8484,7.5415]]],
[[[21.3505,61.9266,8.6996],[21.3547,61.9234,0.6882],[21.3578,61.9234,4.7981],[21.3557,61.9286,9.8772],[21.3526,61.9286,11.5841],[21.3505,61.9266,8.6996]]],
[[[21.3651,61.9286,0.0],[21.3651,61.9255,7.5499],[21.3667,61.925,3.5481],[21.3708,61.925,6.8766],[21.3745,61.9276,11.3165],[21.3729,61.9292,5.9675],[21.3651,61.9286,0.0]]],
[[[21.4359,61.1214,9.3576],[21.4375,61.1208,14.0458],[21.4391,61.1224,10.6664],[21.4359,61.1224,9.847],[21.4359,61.1214,9.3576]]],
[[[21.4521,61.1458,0.0],[21.4438,61.1458,13.0107],[21.4422,61.1443,0.0],[21.4536,61.1443,5.9829],[21.4521,61.1458,0.0]]],
[[[21.438,61.1568,0.0],[21.4411,61.1568,0.0],[21.4411,61.1578,10.1013],[21.4396,61.1583,13.0423],[21.438,61.1568,0.0]]],
[[[21.4359,61.1651,9.437],[21.4391,61.1651,0.0],[21.4391,61.1661,0.0],[21.4359,61.1661,10.17],[21.4359,61.1651,9.437]]],
[[[21.6045,61.0326,34.393],[21.6049,61.0416,18.9152],[21.6142,61.0414,20.4954],[21.6144,61.0459,19.112],[21.633,61.0457,26.2382],[21.6325,61.0367,27.4103],[21.6418,61.0366,22.9214],[21.6413,61.0276,26.0881],[21.6506,61.0275,20.24],[21.6497,61.0096,28.2695],[21.6589,61.0095,22.4636],[21.6582,60.996,11.5],[21.6767,60.9958,12.4443],[21.677,61.0003,12.3625],[21.6955,61.0,14.6019],[21.6957,61.0045,18.2406],[21.705,61.0044,31.1542],[21.7048,60.9999,28.5581],[21.7418,60.9994,43.5896],[21.7421,61.0039,31.6837],[21.7513,61.0038,36.5737],[21.7516,61.0083,40.3761],[21.7608,61.0082,39.8087],[21.7611,61.0127,34.3825],[21.7703,61.0126,34.8955],[21.7706,61.017,34.5752],[21.7613,61.0172,31.018],[21.7618,61.0261,29.3597],[21.7621,61.0306,34.8032],[21.7713,61.0305,37.0705],[21.7716,61.035,34.6638],[21.8272,61.0343,34.9556],[21.827,61.0298,48.3501],[21.8177,61.0299,44.348],[21.8174,61.0254,48.1682],[21.8082,61.0255,42.2596],[21.8076,61.0166,46.4111],[21.8262,61.0163,40.6603],[21.8259,61.0118,43.1576],[21.8444,61.0116,46.3804],[21.8442,61.0071,32.6115],[21.8534,61.007,40.9834],[21.8532,61.0025,40.5152],[21.8624,61.0023,56.2479],[21.8619,60.9934,36.0019],[21.8712,60.9932,47.3497],[21.8709,60.9887,34.1171],[21.8802,60.9886,51.9102],[21.8796,60.9796,38.6393],[21.9537,60.9786,50.648],[21.952,60.9516,40.9553],[21.9428,60.9518,41.5874],[21.9425,60.9473,41.6643],[21.9518,60.9472,41.0934],[21.9512,60.9382,36.6365],[21.9604,60.938,35.7215],[21.9602,60.9336,37.3295],[21.9694,60.9334,42.611],[21.9691,60.9289,41.2424],[21.9784,60.9288,64.1855],[21.9781,60.9243,55.5692],[21.9873,60.9242,62.6453],[21.9868,60.9152,60.4956],[21.996,60.9151,60.1539],[21.9954,60.9061,56.6114],[21.9862,60.9062,55.7488],[21.9859,60.9017,56.0262],[21.9952,60.9016,52.419],[21.9949,60.8971,47.5298],[22.0133,60.8968,48.6605],[22.0136,60.9013,47.4473],[22.0783,60.9003,46.599],[22.0785,60.9048,55.2531],[22.1339,60.904,56.5766],[22.1333,60.895,62.0754],[22.1426,60.8949,62.8463],[22.142,60.8859,62.4142],[22.1512,60.8857,58.929],[22.1506,60.8768,64.3197],[22.1598,60.8766,68.9986],[22.1595,60.8721,55.702],[22.1687,60.872,53.7075],[22.169,60.8764,58.797],[22.1782,60.8763,63.471],[22.1792,60.8898,67.8369],[22.1884,60.8896,76.2345],[22.189,60.8986,50.5],[22.1982,60.8984,61.7272],[22.1989,60.9074,55.5497],[22.2081,60.9073,58.526],[22.2084,60.9118,59.0025],[22.2176,60.9116,74.9284],[22.2179,60.9161,57.6053],[22.2272,60.916,59.3227],[22.2275,60.9204,50.5],[22.2367,60.9203,65.7348],[22.237,60.9248,56.3896],[22.274,60.9242,73.0001],[22.2737,60.9197,70.0931],[22.3106,60.9191,56.4038],[22.3103,60.9146,70.1908],[22.3195,60.9144,64.2637],[22.3198,60.9189,43.0],[22.3383,60.9186,43.0],[22.3386,60.9231,43.0],[22.3479,60.9229,43.0],[22.3482,60.9274,43.0],[22.3574,60.9272,43.0],[22.3578,60.9317,43.0],[22.3855,60.9312,43.0],[22.3858,60.9357,43.0],[22.4228,60.9351,64.1587],[22.4231,60.9396,53.6477],[22.4509,60.9391,78.9728],[22.4512,60.9436,68.2097],[22.4789,60.9431,96.2288],[22.4793,60.9475,99.7678],[22.507,60.947,83.4002],[22.5073,60.9515,79.6124],[22.5351,60.951,83.0948],[22.5347,60.9465,94.7136],[22.5625,60.946,80.7181],[22.5621,60.9415,93.3897],[22.5806,60.9412,81.4855],[22.5809,60.9457,86.7053],[22.5717,60.9458,100.0045],[22.5721,60.9503,83.3162],[22.5628,60.9505,78.1095],[22.5632,60.955,97.243],[22.5539,60.9552,78.2401],[22.5543,60.9596,77.6748],[22.5451,60.9598,88.2546],[22.5458,60.9688,85.9626],[22.5365,60.969,93.9363],[22.5369,60.9734,82.2803],[22.5276,60.9736,77.8467],[22.528,60.9781,92.8247],[22.5372,60.9779,98.0279],[22.5376,60.9824,85.984],[22.5561,60.9821,93.4844],[22.5565,60.9866,95.0538],[22.575,60.9862,102.7705],[22.5753,60.9907,102.2714],[22.7049,60.9882,93.0403],[22.7045,60.9837,99.7561],[22.7323,60.9832,100.2439],[22.7326,60.9876,97.7219],[22.7511,60.9873,94.684],[22.7515,60.9917,91.2285],[22.7793,60.9912,108.535],[22.7797,60.9957,81.7681],[22.8167,60.9949,66.6787],[22.8171,60.9994,69.6333],[22.8264,60.9992,81.2359],[22.8291,61.0306,91.4565],[22.8199,61.0308,91.5787],[22.8203,61.0353,79.5373],[22.811,61.0355,73.216],[22.8114,61.04,77.0048],[22.8207,61.0398,81.8107],[22.8211,61.0443,73.7875],[22.8303,61.0441,88.5613],[22.8315,61.0575,87.4469],[22.8408,61.0573,79.5649],[22.842,61.0708,70.8513],[22.8327,61.071,88.8528],[22.8331,61.0755,69.7708],[22.8239,61.0757,68.8291],[22.8243,61.0802,74.76],[22.815,61.0804,88.7306],[22.8154,61.0848,74.7414],[22.8247,61.0847,76.4043],[22.8259,61.0981,109.5662],[22.8444,61.0977,79.1357],[22.844,61.0932,82.3769],[22.8533,61.093,75.3443],[22.8529,61.0886,74.5518],[22.8622,61.0884,73.618],[22.8618,61.0839,73.2387],[22.8711,61.0837,72.9395],[22.8707,61.0792,72.1306],[22.8799,61.079,72.625],[22.8783,61.0611,72.4339],[22.8876,61.0609,76.3536],[22.8872,61.056399999999996,72.1878],[22.9057,61.056,73.0432],[22.9053,61.0515,73.8242],[22.9239,61.0511,74.7395],[22.9235,61.0466,74.1093],[22.9698,61.0456,78.4938],[22.9702,61.0501,97.0598],[22.9609,61.0503,88.3268],[22.9618,61.0593,78.8731],[22.9711,61.0591,83.1759],[22.9715,61.0635,84.01],[22.9807,61.0633,82.2918],[22.9812,61.0678,91.8768],[22.9904,61.0676,98.5084],[22.9909,61.0721,87.7018],[23.0094,61.0717,97.4757],[23.0098,61.0762,91.9748],[23.0006,61.0764,97.8323],[23.0014,61.0854,90.9498],[22.9828,61.0858,99.4326],[22.9824,61.0813,95.6374],[22.9639,61.0817,103.7632],[22.9634,61.0772,89.0442],[22.9449,61.0776,83.7458],[22.9445,61.0731,84.4547],[22.9352,61.0733,93.2187],[22.9356,61.0778,85.2937],[22.9263,61.078,87.4442],[22.9268,61.0825,86.0299],[22.9175,61.0827,87.5731],[22.9183,61.0917,89.2775],[22.9276,61.0915,88.1277],[22.928,61.096,105.7363],[22.9373,61.0958,104.1898],[22.9377,61.1003,101.0782],[22.947,61.1,114.1196],[22.9474,61.1045,106.3227],[22.9567,61.1043,110.0725],[22.9571,61.1088,107.9595],[22.9664,61.1086,103.959],[22.9668,61.1131,105.4869],[22.9761,61.1129,99.3238],[22.9765,61.1174,101.1859],[22.9579,61.1178,105.0202],[22.9584,61.1223,113.4615],[22.9398,61.1227,112.7487],[22.941,61.1361,66.2314],[22.9317,61.1363,79.7042],[22.9322,61.1408,67.2577],[22.9228,61.141,73.7371],[22.9249,61.1635,103.2093],[22.9156,61.1637,103.2707],[22.9169,61.1771,85.5648],[22.9541,61.1763,101.7412],[22.9549,61.1853,77.8503],[22.9456,61.1855,79.5061],[22.9469,61.199,75.7382],[22.9376,61.1992,84.6798],[22.9384,61.2081,74.5077],[22.9198,61.2085,72.9878],[22.9202,61.213,75.4607],[22.9016,61.2134,74.2264],[22.902,61.2179,78.6885],[22.8833,61.2183,71.6077],[22.8841,61.2273,77.1725],[22.8748,61.2275,76.4617],[22.8752,61.2319,83.5367],[22.8193,61.2331,77.0237],[22.8197,61.2376,86.4671],[22.801,61.238,81.1903],[22.8014,61.2425,88.9795],[22.7735,61.243,89.8677],[22.7738,61.2475,85.9882],[22.7552,61.2479,95.4674],[22.7548,61.2434,69.2749],[22.6522,61.2454,41.0],[22.6526,61.2499,44.7363],[22.6432,61.2501,45.9592],[22.6444,61.2636,49.0935],[22.635,61.2638,61.1916],[22.6362,61.2772,50.0504],[22.6268,61.2774,49.9441],[22.6276,61.2864,88.1928],[22.6182,61.2865,58.5331],[22.619,61.2955,89.7625],[22.6096,61.2957,82.2686],[22.6104,61.3047,91.5524],[22.601,61.3049,92.612],[22.6014,61.3093,87.9277],[22.592,61.3095,91.6012],[22.5924,61.314,96.841],[22.5831,61.3142,92.9125],[22.5834,61.3187,93.8589],[22.5741,61.3189,85.5067],[22.5748,61.3278,83.7389],[22.5655,61.328,96.2895],[22.5658,61.3325,98.8751],[22.5752,61.3323,94.2684],[22.5756,61.3368,85.1883],[22.5849,61.3366,99.5915],[22.5853,61.3411,97.0622],[22.5946,61.3409,113.5063],[22.595,61.3454,103.8802],[22.5856,61.3456,92.5056],[22.5868,61.3591,104.8329],[22.5774,61.3592,103.626],[22.5785,61.3727,84.9995],[22.5691,61.3729,95.8913],[22.5702,61.3863,102.205],[22.5609,61.3865,97.9195],[22.5616,61.3955,67.3247],[22.5991,61.3948,104.6754],[22.5987,61.3903,117.092],[22.6268,61.3898,93.6545],[22.6265,61.3853,93.0489],[22.6358,61.3851,83.1687],[22.6374,61.403,94.0582],[22.6561,61.4027,77.361],[22.6565,61.4072,90.9779],[22.6752,61.4068,90.4683],[22.6764,61.4203,92.2535],[22.667,61.4205,80.6635],[22.6674,61.4249,74.4124],[22.6768,61.4248,80.4383],[22.6771,61.4292,91.5453],[22.7147,61.4285,91.8346],[22.7151,61.433,95.9549],[22.7338,61.4326,89.8122],[22.7342,61.4371,102.0621],[22.7249,61.4373,94.205],[22.726,61.4508,104.9598],[22.7166,61.451,92.8078],[22.7174,61.4599,99.7313],[22.7268,61.4598,104.9022],[22.7284,61.4777,116.2713],[22.653199999999998,61.4792,61.7848],[22.6539,61.4881,63.24],[22.6446,61.4883,74.8015],[22.6453,61.4973,65.7631],[22.6359,61.4975,79.0239],[22.6367,61.5065,78.2683],[22.6273,61.5066,81.7741],[22.6276,61.5111,83.0212],[22.6182,61.5113,74.1018],[22.619,61.5203,74.0175],[22.6096,61.5205,76.6269],[22.6103,61.5294,77.5774],[22.6009,61.5296,65.8837],[22.6017,61.5386,75.9453],[22.5922,61.5388,75.2027],[22.5926,61.5433,76.691],[22.5832,61.5434,78.3973],[22.5836,61.5479,85.8174],[22.593,61.5477,85.9036],[22.5934,61.5522,72.7747],[22.6028,61.552,76.1557],[22.6032,61.5565,77.1709],[22.622,61.5562,74.8757],[22.6224,61.5607,80.8433],[22.6318,61.5605,84.8939],[22.6322,61.565,72.407],[22.6416,61.5648,92.7258],[22.6431,61.5828,78.6768],[22.6526,61.5826,113.7459],[22.653,61.5871,120.2081],[22.6624,61.5869,114.4652],[22.6628,61.5914,119.0949],[22.6816,61.591,110.1329],[22.682,61.5955,107.0053],[22.6915,61.5953,109.5178],[22.693,61.6133,110.4593],[22.6836,61.6134,113.4429],[22.6843,61.6224,123.61],[22.6749,61.6226,114.2355],[22.6757,61.6316,115.4686],[22.6662,61.6318,115.9681],[22.6666,61.6362,116.8544],[22.6855,61.6359,119.0587],[22.6851,61.6314,115.3411],[22.6946,61.6312,118.4617],[22.6942,61.6267,121.5213],[22.713,61.6264,111.3014],[22.7138,61.6353,112.4993],[22.7233,61.6351,102.5434],[22.726,61.6665,107.9643],[22.7166,61.6667,113.4171],[22.717,61.6712,107.2904],[22.6981,61.6716,111.5905],[22.6985,61.6761,127.1732],[22.689,61.6763,112.7486],[22.6875,61.6583,130.8053],[22.6685,61.6587,113.0631],[22.6682,61.6542,110.0],[22.6587,61.6544,109.5],[22.6591,61.6589,118.2061],[22.6496,61.659,125.2971],[22.6527,61.6949,111.6408],[22.6622,61.6948,114.95],[22.6626,61.6992,122.0258],[22.691,61.6987,107.4919],[22.6925,61.7167,125.5129],[22.683,61.7168,117.7665],[22.6842,61.7303,119.3242],[22.6937,61.7301,121.4325],[22.6945,61.7391,106.9981],[22.7324,61.7383,124.1097],[22.7332,61.7473,127.4592],[22.7426,61.7471,126.7913],[22.7431,61.7516,125.7438],[22.7525,61.7514,125.6322],[22.7529,61.7559,134.1159],[22.7909,61.7552,150.6946],[22.7913,61.7597,142.8631],[22.8007,61.7595,145.0645],[22.802,61.7729,130.3421],[22.8115,61.7727,129.978],[22.8131,61.7907,121.9871],[22.8226,61.7905,134.8394],[22.8246,61.8129,138.0778],[22.8341,61.8127,118.1924],[22.8345,61.8172,120.1918],[22.825,61.8174,118.0076],[22.8255,61.8219,141.2657],[22.816,61.8221,120.7429],[22.8164,61.8266,136.2681],[22.8069,61.8268,131.2059],[22.8073,61.8313,135.9923],[22.7978,61.8315,121.2479],[22.7982,61.8359,123.8516],[22.7887,61.8361,129.0414],[22.7891,61.8406,128.3149],[22.7796,61.8408,126.8709],[22.7804,61.8498,131.1935],[22.7709,61.85,122.2657],[22.7713,61.8545,123.3974],[22.7618,61.8547,130.339],[22.7614,61.8502,132.1588],[22.7423,61.8506,121.2112],[22.7435,61.864,124.7248],[22.7626,61.8636,135.6181],[22.763,61.8681,129.2461],[22.7915,61.8676,135.9501],[22.7923,61.8765,153.3304],[22.7828,61.8767,144.6676],[22.7832,61.8812,154.9714],[22.7642,61.8816,141.9559],[22.7646,61.8861,141.6375],[22.7455,61.8865,125.8666],[22.7459,61.8909,137.6786],[22.7364,61.8911,122.9295],[22.7384,61.9136,129.7385],[22.7194,61.9139,134.9444],[22.7198,61.9184,128.6615],[22.6912,61.919,128.3561],[22.6915,61.9235,133.6577],[22.6725,61.9238,131.091],[22.6733,61.9328,141.9499],[22.6637,61.933,135.1454],[22.6645,61.942,135.9329],[22.655,61.9422,140.5081],[22.6569,61.9646,149.8833],[22.6378,61.965,147.6412],[22.6382,61.9694,147.4651],[22.6096,61.97,149.3145],[22.6099,61.9745,149.3749],[22.5908,61.9748,141.6838],[22.5912,61.9793,139.5082],[22.5817,61.9795,140.5551],[22.582,61.984,139.5466],[22.5629,61.9843,140.1685],[22.5633,61.9888,139.7273],[22.5538,61.989,141.9898],[22.5541,61.9935,142.523],[22.535,61.9938,138.7212],[22.5354,61.9983,146.5487],[22.5449,61.9981,141.635],[22.5453,62.0026,143.5341],[22.5549,62.0024,146.8284],[22.5553,62.0069,145.4657],[22.5648,62.0068,146.5457],[22.5656,62.0157,140.3091],[22.5751,62.0156,142.2052],[22.5755,62.0201,140.7627],[22.5851,62.0199,143.6903],[22.5858,62.0289,145.9289],[22.5954,62.0287,149.49],[22.5958,62.0332,153.649],[22.6053,62.033,148.8407],[22.6057,62.0375,148.6942],[22.6153,62.0373,148.6665],[22.6157,62.0418,148.9557],[22.6348,62.0414,157.8115],[22.6352,62.0459,151.2824],[22.6544,62.0456,153.5846],[22.6548,62.05,152.5207],[22.6739,62.0497,153.7178],[22.6743,62.0542,165.2949],[22.6935,62.0538,144.591],[22.6931,62.0493,155.2577],[22.7026,62.0491,141.5],[22.703,62.0536,141.5],[22.7317,62.0531,150.797],[22.7321,62.0575,147.7115],[22.7704,62.0568,152.7967],[22.7709,62.0613,164.2104],[22.7804,62.0611,162.0257],[22.7825,62.0835,162.1345],[22.7729,62.0837,166.501],[22.7758,62.1151,165.4917],[22.7662,62.1153,163.6835],[22.7694,62.1512,156.1502],[22.779,62.151,159.4593],[22.7795,62.1555,154.722],[22.789,62.1553,154.2456],[22.7895,62.1598,161.1101],[22.8087,62.1594,160.3788],[22.8091,62.1639,159.1032],[22.8475,62.1632,160.3197],[22.8479,62.1677,157.7898],[22.8576,62.1674,156.0],[22.8588,62.1809,154.382],[22.8492,62.1811,155.1243],[22.8496,62.1856,155.6532],[22.84,62.1858,156.2579],[22.8438,62.2262,153.0],[22.8342,62.2264,154.2593],[22.8384,62.2713,160.3306],[22.7419,62.2732,142.0303],[22.7423,62.2776,137.4818],[22.7134,62.2782,155.8023],[22.7138,62.2827,158.7233],[22.6945,62.2831,146.154],[22.6949,62.2876,147.2646],[22.6756,62.2879,158.8159],[22.676,62.2924,163.0215],[22.6567,62.2928,161.2803],[22.6571,62.2973,161.6538],[22.6378,62.2976,161.3271],[22.6382,62.3021,158.91],[22.6189,62.3025,148.7798],[22.6193,62.3069,155.8153],[22.6,62.3073,157.755],[22.6003,62.3118,161.3077],[22.590699999999998,62.312,155.0775],[22.5892,62.294,158.3762],[22.5795,62.2942,157.2012],[22.578,62.2762,160.6689],[22.5683,62.2764,158.312],[22.5672,62.263,156.3101],[22.5575,62.2631,156.792],[22.556,62.2452,156.0635],[22.5464,62.2453,165.9238],[22.5449,62.2274,177.6465],[22.5353,62.2276,164.313],[22.5345,62.2186,154.2036],[22.5152,62.2189,146.4258],[22.5149,62.2145,139.8988],[22.5053,62.2146,148.3292],[22.5049,62.2101,150.8331],[22.4856,62.2105,154.12],[22.4853,62.206,154.0902],[22.4756,62.2062,155.6492],[22.4753,62.2017,153.6831],[22.456,62.202,167.0123],[22.4557,62.1975,170.9702],[22.4461,62.1977,169.5363],[22.4453,62.1887,167.2426],[22.4357,62.1889,167.4525],[22.435,62.1799,170.3775],[22.4254,62.18,168.1523],[22.425,62.1756,165.4861],[22.4154,62.1757,160.1552],[22.4147,62.1668,167.3299],[22.4051,62.1669,162.8478],[22.4044,62.1579,157.4906],[22.3947,62.1581,162.6317],[22.3944,62.1536,156.2853],[22.3848,62.1538,156.3573],[22.3841,62.1448,148.1456],[22.3745,62.145,149.0874],[22.3738,62.136,151.2678],[22.3642,62.1362,145.9021],[22.3638,62.1317,144.6306],[22.3542,62.1318,148.8591],[22.3535,62.1228,134.0294],[22.3439,62.123,139.0491],[22.3432,62.114,132.2133],[22.3337,62.1142,140.8114],[22.3333,62.1097,139.4268],[22.3237,62.1098,144.7629],[22.3234,62.1054,141.6241],[22.3042,62.1057,139.2265],[22.3038,62.1012,137.3696],[22.1983,62.1029,150.2298],[22.198,62.0984,144.8168],[22.1884,62.0985,144.1221],[22.1878,62.0896,142.5786],[22.1782,62.0897,146.4613],[22.1775,62.0807,137.6635],[22.1679,62.0809,134.2815],[22.1673,62.0719,124.5858],[22.1577,62.0721,115.3302],[22.1571,62.0631,125.388],[22.1475,62.0632,116.0866],[22.1472,62.0587,132.4415],[22.1376,62.0589,120.27],[22.137,62.0499,120.9579],[22.1274,62.05,111.617],[22.1268,62.0411,106.1407],[22.1172,62.0412,106.6951],[22.1166,62.0322,92.174],[22.107,62.0324,96.5575],[22.1067,62.0279,108.1],[22.0971,62.028,109.7577],[22.0968,62.0235,111.1748],[22.0873,62.0237,112.0062],[22.087,62.0192,110.7887],[22.0774,62.0193,102.8055],[22.0771,62.0148,101.2718],[22.058,62.0151,103.9493],[22.0577,62.0106,102.9494],[22.0481,62.0108,102.8387],[22.0478,62.0063,95.1317],[22.0382,62.0064,102.6694],[22.0379,62.0019,94.7068],[22.0284,62.0021,96.9599],[22.0281,61.9976,94.3466],[22.0185,61.9977,96.8485],[22.0182,61.9932,96.5544],[22.0086,61.9934,88.6148],[22.0084,61.9889,87.7685],[21.9988,61.989,98.6308],[21.9985,61.9845,87.5647],[21.9794,61.9848,86.471],[21.9791,61.9803,86.2988],[21.96,61.9806,94.0879],[21.9603,61.9851,85.3379],[21.9316,61.9855,86.0438],[21.9319,61.99,87.3802],[21.8937,61.9905,88.7824],[21.8939,61.995,82.0915],[21.8653,61.9953,75.8178],[21.8655,61.9998,75.8934],[21.8368,62.0002,75.4182],[21.8371,62.0047,76.8197],[21.8084,62.0051,79.2625],[21.8087,62.0096,79.8151],[21.7704,62.0101,69.1568],[21.7707,62.0145,76.3933],[21.742,62.0149,72.081],[21.7422,62.0194,66.1736],[21.5413,62.0218,38.9959],[21.5415,62.0262,47.2305],[21.5224,62.0265,37.7073],[21.5222,62.022,31.283],[21.4935,62.0223,31.3929],[21.4932,62.0178,31.0233],[21.4645,62.0181,27.3586],[21.4643,62.0136,24.148],[21.4356,62.0139,15.4719],[21.4354,62.0094,14.6327],[21.4258,62.0095,20.5799],[21.4256,62.005,23.1877],[21.416,62.0051,15.8121],[21.4156,61.9961,18.5693],[21.4061,61.9962,15.8286],[21.4056,61.9872,19.7799],[21.3961,61.9873,14.9986],[21.3959,61.9828,10.2371],[21.3863,61.9829,14.7138],[21.3859,61.9739,11.5288],[21.3764,61.974,7.1611],[21.376,61.9651,9.3557],[21.3664,61.9652,17.3437],[21.3662,61.9607,7.0933],[21.3567,61.9608,13.5085],[21.3565,61.9563,6.7044],[21.3374,61.9565,0.0],[21.3372,61.9532,0.0],[21.3328,61.9555,13.1102],[21.3307,61.9523,0.0],[21.337,61.9516,0.0],[21.3505,61.9422,7.7959],[21.3583,61.9417,1.5892],[21.3625,61.9396,5.1926],[21.3703,61.9401,1.5833],[21.3729,61.9437,2.5522],[21.3953,61.9464,0.0],[21.4005,61.9516,0.0],[21.4063,61.9542,1.9399],[21.4161,61.9516,0.0],[21.4109,61.9495,0.0],[21.4078,61.9443,0.4174],[21.4026,61.9432,0.0],[21.4005,61.9401,1.9462],[21.4068,61.9359,0.0],[21.4141,61.9349,6.6312],[21.413,61.9318,0.0],[21.4229,61.9313,5.8987],[21.4349,61.9266,2.2765],[21.4339,61.9234,0.0],[21.437,61.9172,0.0],[21.4307,61.913,0.7891],[21.4255,61.912,2.2189],[21.4214,61.9078,0.0],[21.4229,61.9063,0.0],[21.4286,61.9057,6.7535],[21.4234,61.9026,0.0],[21.4411,61.9036,9.6044],[21.4391,61.9005,5.0413],[21.4313,61.9,3.6614],[21.4297,61.8984,0.0],[21.437,61.8974,6.826],[21.4417,61.8937,5.4546],[21.4458,61.8958,0.0],[21.45,61.8937,0.0],[21.4542,61.8937,10.8378],[21.462,61.8891,5.264],[21.4641,61.887,10.9342],[21.463,61.8839,0.0],[21.4661,61.8828,14.0829],[21.4651,61.8797,1.567],[21.4703,61.8766,12.19],[21.4693,61.8734,0.0],[21.4724,61.8724,7.2777],[21.4682,61.8651,11.3472],[21.463,61.8599,1.2361],[21.463,61.8568,0.0],[21.4682,61.8536,12.7869],[21.4672,61.8505,3.1528],[21.4708,61.8479,0.0],[21.4724,61.8484,0.0],[21.4714,61.8516,10.5021],[21.4734,61.8536,3.0046],[21.4807,61.8536,6.187],[21.4797,61.8505,0.0],[21.4849,61.8474,2.323],[21.4839,61.8443,5.7103],[21.4932,61.8401,9.0447],[21.4854,61.8375,1.6374],[21.4771,61.8438,0.0],[21.4646,61.8438,0.0],[21.4604,61.8458,15.3186],[21.4562,61.8438,0.0],[21.4417,61.85,6.4522],[21.438,61.8495,5.025],[21.4339,61.8464,4.0618],[21.4359,61.8443,0.0],[21.4432,61.8432,12.1641],[21.4422,61.8401,0.0],[21.4438,61.8396,0.0],[21.4521,61.8396,1.2295],[21.4562,61.8417,0.0],[21.4604,61.8396,7.0144],[21.4703,61.8391,0.0],[21.4839,61.8297,0.0],[21.4932,61.8266,4.2261],[21.4964,61.8234,0.0],[21.5036,61.8224,0.357],[21.5057,61.8203,0.0],[21.5047,61.8172,0.0],[21.5141,61.8141,0.0],[21.5063,61.8104,0.0],[21.5021,61.8104,2.8094],[21.5005,61.8109,0.903],[21.5016,61.8141,0.0],[21.4984,61.8151,0.0],[21.4995,61.8182,0.0],[21.4938,61.8187,4.6501],[21.4901,61.8161,7.8491],[21.4953,61.812,4.9596],[21.4932,61.8089,0.0],[21.4813,61.8083,0.0],[21.4771,61.8042,8.7866],[21.4672,61.8068,9.9176],[21.4625,61.8104,0.0],[21.4562,61.8104,3.6539],[21.4521,61.8063,0.0],[21.4458,61.8063,8.8522],[21.4417,61.8083,3.7125],[21.425,61.8083,0.8655],[21.4234,61.8068,3.507],[21.4255,61.8026,4.8897],[21.4313,61.8042,0.3734],[21.4411,61.8036,12.0169],[21.4495,61.7974,10.4478],[21.4516,61.7932,12.9561],[21.4505,61.788,0.0],[21.4547,61.7839,0.0],[21.4661,61.7828,4.7727],[21.4651,61.7797,0.0],[21.4724,61.7786,0.0],[21.4714,61.7755,0.0],[21.4745,61.7745,7.5263],[21.4734,61.7714,3.5515],[21.475,61.7708,0.0],[21.4833,61.7708,0.0],[21.4938,61.7667,0.0],[21.5,61.7667,3.8011],[21.5,61.7687,1.0578],[21.4984,61.7693,0.0],[21.4995,61.7724,0.0],[21.4922,61.7734,4.8633],[21.4901,61.7766,-0.5],[21.4958,61.7792,-0.5],[21.5021,61.7771,0.0],[21.5078,61.7786,3.0789],[21.5047,61.7734,0.0],[21.512,61.7724,3.4638],[21.5276,61.7609,0.0],[21.5349,61.7599,9.0356],[21.538,61.7568,9.7025],[21.5536,61.7516,3.9517],[21.5568,61.7464,0.0],[21.5661,61.7432,16.4911],[21.5724,61.7391,11.0746],[21.5714,61.7359,9.6541],[21.5766,61.7328,0.0],[21.5755,61.7297,0.0],[21.5854,61.7292,0.0],[21.5943,61.7234,0.0],[21.5995,61.7224,10.1811],[21.5917,61.7188,2.3858],[21.5661,61.7307,0.0],[21.5547,61.7318,5.3968],[21.55,61.7354,3.8661],[21.5401,61.7307,0.0],[21.5417,61.7292,15.9009],[21.5474,61.7286,6.4861],[21.55,61.725,0.0],[21.5453,61.7172,0.0],[21.5391,61.7109,1.2788],[21.5359,61.7109,14.183],[21.5245,61.7203,4.5421],[21.5146,61.7229,18.203],[21.5104,61.7229,0.1103],[21.5089,61.7214,3.8377],[21.5182,61.7182,19.8431],[21.5172,61.7151,0.0],[21.5245,61.7141,4.8057],[21.5266,61.712,0.0],[21.5255,61.7089,0.0],[21.5286,61.7078,3.4785],[21.5318,61.7026,0.0],[21.537,61.7016,8.7145],[21.5359,61.6964,13.7914],[21.5411,61.6943,0.0],[21.5318,61.6932,4.064],[21.5318,61.6901,0.0],[21.5411,61.687,10.7805],[21.538,61.6818,0.0],[21.5438,61.6813,14.3731],[21.5484,61.6776,0.0],[21.5557,61.6766,1.1827],[21.5526,61.6724,8.9966],[21.5557,61.6693,4.07],[21.5526,61.6651,0.0],[21.5604,61.6604,0.2071],[21.5688,61.6604,0.0],[21.575,61.6563,0.0],[21.5849,61.6557,3.5655],[21.5839,61.6526,0.0],[21.5932,61.6495,0.0],[21.5901,61.6453,3.5329],[21.5901,61.6422,0.6171],[21.5984,61.6359,0.0],[21.6026,61.6297,0.0],[21.6141,61.6286,11.0631],[21.613,61.6255,0.0],[21.6151,61.6234,0.0],[21.6328,61.6182,0.0],[21.6313,61.6167,0.0],[21.6229,61.6167,18.5547],[21.6161,61.6203,0.0],[21.613,61.6203,0.0],[21.6109,61.6172,0.0],[21.6141,61.6151,0.0],[21.6109,61.6109,0.0],[21.6167,61.6104,1.3402],[21.6286,61.6057,0.0],[21.6193,61.6026,8.8147],[21.6229,61.6,0.0],[21.6328,61.5995,2.6461],[21.6453,61.5911,0.0],[21.6401,61.5891,18.5136],[21.638,61.5859,0.0],[21.6479,61.5854,0.4977],[21.6557,61.5828,0.0],[21.6536,61.5776,0.2345],[21.65,61.575,0.0],[21.6458,61.575,0.0],[21.6417,61.5771,0.0],[21.6313,61.5771,0.3058],[21.6313,61.575,0.0],[21.6453,61.5724,0.0],[21.6495,61.5682,0.0],[21.6479,61.5667,0.0],[21.6437,61.5667,0.0],[21.6396,61.5687,0.0],[21.6339,61.5682,0.0],[21.6359,61.5651,0.0],[21.6495,61.562,0.0],[21.6495,61.5589,0.0],[21.6479,61.5583,0.1178],[21.6437,61.5604,0.0],[21.6354,61.5604,0.2002],[21.6292,61.5646,0.0],[21.6193,61.5651,4.3622],[21.6161,61.5703,0.0],[21.6125,61.5729,2.8895],[21.6,61.5729,0.0],[21.5938,61.5771,0.0],[21.5875,61.5729,0.0],[21.5833,61.575,3.0324],[21.575,61.575,0.0],[21.5646,61.5792,0.7349],[21.5443,61.5839,0.8124],[21.538,61.588,0.0],[21.5391,61.5911,0.0],[21.5339,61.5943,0.0],[21.5349,61.5974,0.0],[21.5271,61.6021,0.0],[21.5208,61.6021,0.29],[21.5146,61.6042,0.0],[21.5104,61.6021,0.0],[21.5,61.6021,0.0],[21.4984,61.6005,1.3679],[21.5016,61.5995,2.0413],[21.5036,61.5964,2.5851],[21.4958,61.5938,4.6812],[21.4917,61.5958,0.0],[21.4875,61.5958,0.0],[21.4833,61.5938,7.4179],[21.4786,61.5974,2.6334],[21.4755,61.5974,2.869],[21.4766,61.5943,3.0832],[21.4734,61.588,0.0],[21.4896,61.5917,6.4608],[21.4974,61.587,0.0],[21.4953,61.5839,0.0],[21.4901,61.5828,5.1889],[21.4911,61.5776,3.9967],[21.488,61.5714,3.866],[21.4901,61.5672,0.0],[21.4995,61.5693,0.0],[21.5021,61.5729,4.3224],[21.5063,61.5708,0.0],[21.5161,61.5703,5.9212],[21.5151,61.5672,0.0],[21.5182,61.5661,0.0],[21.5229,61.5604,0.0],[21.5214,61.5568,0.0],[21.5245,61.5516,0.0],[21.5234,61.5464,0.0],[21.5286,61.5432,2.0988],[21.5276,61.5401,0.0],[21.5349,61.5349,0.0],[21.5339,61.5318,0.0],[21.5396,61.5292,0.0],[21.5521,61.5292,0.0],[21.5563,61.5271,0.0],[21.5604,61.5292,0.0],[21.5792,61.5292,0.0],[21.5854,61.5333,0.0],[21.587,61.5328,0.0],[21.5859,61.5297,0.1642],[21.5943,61.5234,0.0],[21.6016,61.5224,0.0],[21.6208,61.5146,0.0],[21.6307,61.5141,0.0],[21.6245,61.5047,0.1876],[21.6188,61.5062,0.7852],[21.6083,61.5062,5.1479],[21.6042,61.5021,0.2343],[21.6,61.5042,0.0],[21.5896,61.5,1.3099],[21.5818,61.4995,0.0],[21.5828,61.4964,0.1937],[21.5812,61.4958,0.0],[21.5729,61.4958,0.0],[21.5625,61.5,0.4022],[21.5458,61.5,7.8009],[21.5313,61.5062,0.0],[21.5187,61.5062,9.8585],[21.5042,61.5104,0.0],[21.4979,61.5104,2.3253],[21.4938,61.5083,10.7282],[21.4813,61.5083,9.912],[21.4771,61.5104,3.5726],[21.4526,61.5099,0.0],[21.4583,61.5062,0.0],[21.4745,61.5036,8.4452],[21.4828,61.4974,0.4188],[21.4818,61.4943,0.0],[21.4833,61.4938,0.3165],[21.5057,61.4932,8.1036],[21.5057,61.4901,0.0],[21.5005,61.488,0.8568],[21.5026,61.4859,0.9221],[21.5099,61.4849,4.3139],[21.5172,61.4797,7.9842],[21.5229,61.4813,2.1757],[21.5354,61.4813,1.056],[21.537,61.4807,0.6944],[21.5359,61.4776,0.0],[21.5432,61.4766,0.0],[21.5464,61.4734,0.0],[21.5578,61.4724,13.1983],[21.5661,61.4661,0.0],[21.5651,61.463,0.0],[21.5682,61.462,0.0],[21.5672,61.4589,0.0],[21.5682,61.4568,0.0],[21.5651,61.4557,0.0],[21.5672,61.4526,0.0],[21.5812,61.4521,4.8607],[21.5875,61.4479,0.0],[21.5974,61.4474,8.9325],[21.5964,61.4443,0.0],[21.5974,61.4422,3.3822],[21.5911,61.438,2.6437],[21.5859,61.437,0.0],[21.5891,61.4339,0.0],[21.5849,61.4297,0.0],[21.5729,61.4292,2.3399],[21.5625,61.425,0.0],[21.5583,61.425,0.0],[21.5542,61.4271,0.0],[21.5333,61.4271,10.673],[21.5271,61.4313,3.8249],[21.5187,61.4313,7.535],[21.5042,61.4354,0.0],[21.4958,61.4354,2.5566],[21.4917,61.4375,0.0],[21.4792,61.4354,7.1377],[21.475,61.4375,0.0],[21.4646,61.4375,0.0],[21.4646,61.4354,0.0],[21.4729,61.4354,0.0],[21.4828,61.4328,5.5138],[21.4792,61.4292,1.365],[21.475,61.4292,6.5496],[21.4625,61.4333,0.0],[21.4542,61.4333,0.6369],[21.4505,61.4297,0.0],[21.4583,61.425,0.0],[21.4745,61.4224,8.6192],[21.4771,61.4188,0.0],[21.4875,61.4188,8.5155],[21.5063,61.4125,0.0],[21.5146,61.4125,0.0],[21.5234,61.4068,0.0],[21.5286,61.4057,1.037],[21.5313,61.4021,0.0],[21.5297,61.3984,3.9784],[21.537,61.3932,0.0],[21.5318,61.3911,14.5038],[21.5328,61.3859,0.0],[21.5255,61.3859,3.239],[21.5266,61.3891,0.0],[21.5167,61.3958,0.0],[21.5089,61.3953,1.8869],[21.5089,61.3922,1.6136],[21.5193,61.3839,5.253],[21.5375,61.3833,7.6799],[21.5411,61.3797,0.0],[21.5354,61.3771,0.0],[21.5208,61.3771,3.722],[21.5146,61.3812,0.0],[21.5068,61.3786,0.0],[21.5047,61.3755,5.2197],[21.5161,61.3745,3.0845],[21.5182,61.3714,0.3097],[21.5146,61.3708,6.1459],[21.5146,61.3688,3.0337],[21.525,61.3646,0.0],[21.5307,61.3641,6.8786],[21.5328,61.3609,0.0],[21.5234,61.3599,0.9474],[21.5297,61.3547,2.8976],[21.5396,61.3542,5.4724],[21.55,61.35,0.0],[21.5583,61.35,4.6764],[21.5661,61.3474,3.8099],[21.5651,61.3422,2.5414],[21.5703,61.3391,0.0],[21.5688,61.3375,0.0],[21.5568,61.337,2.8952],[21.5516,61.3318,0.0],[21.5422,61.3286,2.6446],[21.5474,61.3234,9.4721],[21.5438,61.3208,0.0],[21.5359,61.3203,1.0321],[21.5391,61.3172,1.5984],[21.5271,61.3167,0.0],[21.5224,61.313,0.0],[21.5172,61.312,3.6624],[21.5141,61.3089,0.0],[21.5042,61.3083,0.0],[21.4943,61.3036,0.7105],[21.4958,61.3021,0.0],[21.5078,61.2995,0.4201],[21.5141,61.2953,0.4801],[21.5109,61.2901,0.0],[21.5151,61.288,2.7247],[21.5391,61.287,2.9444],[21.5339,61.2849,0.0],[21.5349,61.2818,0.0],[21.525,61.2813,0.9032],[21.5208,61.2833,9.2584],[21.5104,61.2792,4.2267],[21.4896,61.2813,6.2584],[21.4797,61.2755,0.0],[21.487,61.2745,0.5711],[21.4859,61.2714,0.0],[21.4932,61.2703,6.5793],[21.4922,61.2672,4.7573],[21.4943,61.263,8.3218],[21.5167,61.2562,0.0],[21.5266,61.2557,7.5652],[21.5234,61.2505,0.0],[21.5417,61.25,4.4269],[21.5479,61.2458,0.0],[21.5682,61.2411,1.7157],[21.5729,61.2375,0.0],[21.5771,61.2375,3.1523],[21.5938,61.2313,0.0],[21.5995,61.2307,0.3969],[21.5974,61.2276,0.0],[21.5922,61.2266,5.4785],[21.588,61.2234,10.6686],[21.5995,61.2172,0.0],[21.5958,61.2146,0.0],[21.5917,61.2146,0.7502],[21.5828,61.2203,0.0],[21.5734,61.2214,9.416],[21.5724,61.2245,0.0],[21.5672,61.2255,8.4362],[21.5641,61.2286,7.0544],[21.55,61.2292,15.0912],[21.5458,61.2313,0.0],[21.5417,61.2313,6.4389],[21.5417,61.2333,0.0],[21.5333,61.2333,0.0],[21.5292,61.2313,7.577],[21.525,61.2313,0.0],[21.5234,61.2328,0.0],[21.5286,61.2339,0.0],[21.5266,61.237,0.0],[21.5208,61.2375,8.0169],[21.5104,61.2417,0.0],[21.5021,61.2417,0.2152],[21.5005,61.2422,4.6258],[21.5016,61.2453,0.0],[21.4917,61.2479,2.5015],[21.4792,61.2479,0.0],[21.475,61.2458,1.8455],[21.4708,61.2479,2.0068],[21.4667,61.2458,3.7048],[21.4625,61.2458,10.1184],[21.4542,61.25,11.0109],[21.45,61.2479,4.3427],[21.4458,61.25,0.0],[21.4417,61.25,0.0],[21.4234,61.2432,14.1489],[21.4328,61.2391,0.855],[21.4276,61.237,7.1644],[21.4297,61.2339,0.0],[21.4438,61.2333,1.2635],[21.4479,61.2354,2.5631],[21.4583,61.2354,0.0],[21.4661,61.2307,0.9827],[21.4651,61.2276,0.0],[21.475,61.2292,17.4546],[21.4911,61.2245,0.0],[21.4901,61.2214,0.0],[21.4932,61.2203,7.8654],[21.4922,61.2172,0.0],[21.5078,61.2161,3.2098],[21.5068,61.213,4.7823],[21.512,61.2099,8.9155],[21.5099,61.2068,6.9286],[21.5042,61.2062,1.5726],[21.5026,61.2068,0.0],[21.5036,61.212,0.0],[21.5021,61.2125,7.3655],[21.4875,61.2146,3.3586],[21.4833,61.2125,0.0],[21.4771,61.2125,0.0],[21.4693,61.2151,3.8157],[21.4646,61.2188,0.0],[21.4547,61.2193,9.6891],[21.4557,61.2224,0.0],[21.4542,61.2229,13.0336],[21.4458,61.2229,11.251],[21.4417,61.225,3.6649],[21.4375,61.225,12.7981],[21.4359,61.2234,0.0],[21.438,61.2214,6.8433],[21.4438,61.2208,2.9187],[21.4453,61.2193,0.0],[21.4375,61.2167,11.4775],[21.4318,61.2182,8.4927],[21.4297,61.2151,3.5514],[21.4328,61.2141,17.7995],[21.4318,61.2109,0.0],[21.4417,61.2104,12.6079],[21.4557,61.2057,5.6833],[21.4578,61.2005,0.0],[21.4547,61.2005,3.4336],[21.4458,61.2062,10.5274],[21.4354,61.2062,15.589],[21.4083,61.2146,0.0],[21.4026,61.2078,1.8191],[21.4042,61.2062,2.833],[21.4099,61.2078,1.687],[21.4109,61.2047,0.0],[21.4203,61.2016,16.5394],[21.4255,61.1964,0.0],[21.4391,61.1932,2.4239],[21.4422,61.188,0.0],[21.4474,61.1849,3.917],[21.4464,61.1818,0.0],[21.4484,61.1776,8.1073],[21.4557,61.1724,5.5403],[21.4536,61.1693,1.7502],[21.4422,61.163,5.4178],[21.4495,61.162,11.5193],[21.4526,61.1589,4.375],[21.462,61.1557,2.8911],[21.4568,61.1536,6.1282],[21.4589,61.1505,3.319],[21.462,61.1495,3.5341],[21.4609,61.1464,0.0],[21.4786,61.1411,7.9996],[21.4688,61.1354,0.0],[21.4646,61.1375,0.0],[21.4604,61.1375,8.1478],[21.4562,61.1354,15.8908],[21.4333,61.1354,11.754],[21.4271,61.1292,3.1974],[21.4292,61.1271,3.59],[21.4396,61.1271,10.3963],[21.4438,61.125,0.0],[21.4479,61.1271,6.1033],[21.4557,61.1266,0.0],[21.4547,61.1234,12.6003],[21.4599,61.1203,13.4455],[21.462,61.1172,6.6064],[21.4526,61.1161,0.0],[21.4484,61.1089,6.4209],[21.4516,61.1078,8.7293],[21.4505,61.1047,0.0],[21.4557,61.1026,5.5652],[21.45,61.1021,11.3243],[21.4484,61.1005,13.1159],[21.4568,61.0943,0.0],[21.4703,61.0911,0.0],[21.4724,61.088,9.1689],[21.4672,61.0849,5.8327],[21.4682,61.0818,7.346],[21.4604,61.0792,10.4785],[21.4557,61.0828,1.8631],[21.4484,61.0839,9.5485],[21.4438,61.0875,0.0],[21.4313,61.0875,0.0],[21.4208,61.0833,12.5993],[21.4167,61.0833,8.8577],[21.4063,61.0896,0.0],[21.3979,61.0896,3.5935],[21.3937,61.0917,0.0],[21.3771,61.0917,0.0],[21.3734,61.0891,10.8842],[21.3688,61.0812,6.7174],[21.3708,61.0792,0.0],[21.3833,61.0792,1.7616],[21.3875,61.0812,0.499],[21.4,61.0771,0.0],[21.4146,61.0771,1.5928],[21.4266,61.0724,5.4864],[21.4214,61.0703,8.6927],[21.4208,61.0687,5.1996],[21.4229,61.0667,2.4177],[21.4307,61.0661,3.1627],[21.4255,61.0578,0.0],[21.4286,61.0547,12.2143],[21.4224,61.0464,11.6828],[21.4196,61.0458,16.5267],[21.4194,61.0436,20.8821],[21.4287,61.0435,13.3914],[21.4279,61.0256,21.9623],[21.4372,61.0255,22.146],[21.437,61.021,24.7204],[21.4462,61.0209,19.3794],[21.446,61.0164,18.7588],[21.4553,61.0163,21.6154],[21.4551,61.0118,27.2983],[21.4644,61.0117,23.9201],[21.4642,61.0072,22.3101],[21.4734,61.0071,32.2926],[21.4732,61.0026,23.948],[21.4825,61.0025,19.873],[21.4823,60.998,26.4187],[21.4915,60.9979,28.0519],[21.4917,61.0024,23.6621],[21.5381,61.0019,30.2513],[21.5383,61.0064,26.8913],[21.5846,61.0059,32.5784],[21.5848,61.0103,32.952],[21.6033,61.0101,21.2283],[21.604,61.0236,21.0204],[21.5947,61.0237,16.3952],[21.595,61.0282,27.2035],[21.5952,61.0327,15.6696],[21.6045,61.0326,34.393]]],
[[[21.5333,61.2375,9.2473],[21.5318,61.2359,10.3869],[21.5417,61.2354,1.7278],[21.5417,61.2333,0.0],[21.5453,61.2339,0.0],[21.5417,61.2375,0.0],[21.5333,61.2375,9.2473]]],
[[[21.4958,61.2938,5.099],[21.4922,61.2922,1.8934],[21.4958,61.2896,2.7595],[21.5016,61.2901,0.8432],[21.4995,61.2932,0.0],[21.4958,61.2938,5.099]]],
[[[21.4854,61.2938,3.9734],[21.4911,61.2943,6.0231],[21.4932,61.2974,13.6675],[21.4896,61.3,0.6748],[21.4792,61.3,14.361],[21.475,61.2979,16.664],[21.4708,61.3,6.63],[21.4651,61.2995,1.3294],[21.4708,61.2958,4.4153],[21.4792,61.2958,8.6154],[21.4833,61.2979,17.3977],[21.4849,61.2974,18.6856],[21.4839,61.2943,3.9734],[21.4854,61.2938,3.9734]]],
[[[21.4333,61.1729,16.3028],[21.4271,61.1729,16.064],[21.4255,61.1714,2.8493],[21.4391,61.1714,0.1114],[21.4375,61.1729,0.0],[21.4333,61.1729,16.3028]]],
[[[21.4443,61.3297,0.7909],[21.4474,61.3297,1.0508],[21.4474,61.3307,0.0],[21.4443,61.3307,2.5951],[21.4443,61.3297,0.7909]]],
[[[21.475,61.3542,0.0],[21.4792,61.3542,2.9537],[21.4807,61.3557,0.0],[21.4729,61.3583,0.0],[21.4672,61.3578,11.6982],[21.4672,61.3568,9.5306],[21.475,61.3542,0.0]]],
[[[21.4411,61.3661,0.0],[21.438,61.3672,0.0],[21.4411,61.3724,0.0],[21.4359,61.3755,0.0],[21.437,61.3786,0.0],[21.425,61.3771,0.0],[21.4214,61.3745,5.5339],[21.4307,61.3703,9.0104],[21.4276,61.3651,0.0],[21.4339,61.3609,0.0],[21.437,61.3609,8.2586],[21.4411,61.3661,0.0]]],
[[[21.5125,61.3458,0.0],[21.5026,61.3464,3.782],[21.4964,61.3505,9.4351],[21.4974,61.3536,12.7735],[21.4938,61.3563,0.0],[21.4875,61.3563,2.4432],[21.4792,61.3521,0.0],[21.4688,61.3521,0.0],[21.4651,61.3495,0.0],[21.4688,61.3458,11.0647],[21.475,61.3458,0.0],[21.4792,61.3479,0.8676],[21.4807,61.3474,3.5636],[21.4797,61.3443,0.0],[21.4896,61.3438,7.7919],[21.4938,61.3417,0.0],[21.5104,61.3417,0.0],[21.5141,61.3443,0.0],[21.5125,61.3458,0.0]]],
[[[21.5109,61.3714,7.5176],[21.5146,61.3708,6.1459],[21.5146,61.3729,0.0],[21.5109,61.3724,0.0],[21.5109,61.3714,7.5176]]],
[[[21.4917,61.4,0.0],[21.5021,61.3979,7.0329],[21.5042,61.4,15.7247],[21.5016,61.4036,10.9205],[21.4958,61.4063,0.0],[21.4839,61.4036,0.0],[21.488,61.4005,0.0],[21.4917,61.4,0.0]]],
[[[21.4833,61.4104,3.38],[21.4797,61.4089,0.0],[21.4854,61.4063,0.0],[21.4891,61.4089,11.4002],[21.4875,61.4104,11.7291],[21.4833,61.4104,3.38]]],
[[[21.6271,61.5812,0.0],[21.6234,61.5776,0.0],[21.6313,61.5771,0.3058],[21.6286,61.5807,0.0],[21.6271,61.5812,0.0]]],
[[[21.6026,61.5922,6.5736],[21.6083,61.5917,16.1878],[21.6099,61.5932,9.5121],[21.6005,61.5953,14.1746],[21.6026,61.5922,6.5736]]],
[[[21.5964,61.5964,2.7386],[21.5995,61.5964,12.0858],[21.5995,61.5974,0.0],[21.5979,61.5979,5.3315],[21.5964,61.5964,2.7386]]],
[[[21.5979,61.6208,3.638],[21.6078,61.6193,5.7435],[21.6057,61.6224,0.0],[21.6,61.625,0.0],[21.5964,61.6224,4.1269],[21.5979,61.6208,3.638]]],
[[[21.587,61.6214,0.0],[21.5849,61.6245,2.4527],[21.575,61.6271,0.0],[21.5625,61.6271,0.0],[21.5547,61.6245,15.4725],[21.5646,61.6208,0.2609],[21.575,61.6208,1.6674],[21.5792,61.6188,4.4464],[21.5833,61.6188,8.6028],[21.587,61.6214,0.0]]],
[[[21.5792,61.6354,0.0],[21.5807,61.637,3.8812],[21.5755,61.637,3.4853],[21.5755,61.6359,1.4127],[21.5792,61.6354,0.0]]],
[[[21.5063,61.7667,0.0],[21.5,61.7667,3.8011],[21.5,61.7646,0.0],[21.5187,61.7583,15.909],[21.5224,61.7609,11.0782],[21.5182,61.7641,0.0],[21.5104,61.7646,10.6041],[21.5063,61.7667,0.0]]],
[[[21.4526,61.887,8.7506],[21.4542,61.8854,12.1417],[21.4557,61.8859,8.1048],[21.4542,61.8875,8.3251],[21.4526,61.887,8.7506]]]]}}