{"type":"Feature","properties":{"id":53990.0,"name":"htrinjärvi","lge_id":null,"pfafstette":9735.0,"lke_type":"N","altitude":154,"objectid":30292,"scalerank":11,"featurecla":"Lake","note":null,"funkyname":0,"min_zoom":6.7,"min_label":7.7},
"geometry":{"type": "Polygon","coordinates": [[[24.021250847271233,62.817755438275327,166.2489],[24.021250847271233,62.817755438275327,166.2489],[24.004771355083733,62.822882391400327,170.5906],[23.999034050396233,62.815314032025327,153.0],[24.008555534771233,62.805914617962827,153.0],[24.010264519146233,62.798895574994077,153.0],[24.007823112896233,62.785223699994077,153.0],[24.015147331646233,62.775213934369077,153.0],[24.020274284771233,62.768805242962827,153.0],[24.026377800396233,62.760626532025327,153.0],[24.031870964458733,62.753607489056577,153.0],[24.035777214458733,62.742926336712827,153.0],[24.036143425396233,62.726263739056577,155.3699],[24.022471550396233,62.718390203900327,170.9124],[24.011241081646233,62.715948797650327,171.997],[24.018565300396233,62.708319403119077,153.0],[24.028208855083733,62.699469305462827,153.0],[24.035777214458733,62.691900946087827,153.0],[24.041026237896233,62.679449774212827,167.4082],[24.047618034771233,62.664252020306577,153.0],[24.069224480083733,62.659064032025327,153.0],[24.092784050396233,62.649908758587827,153.0],[24.114268425396233,62.636908270306577,153.0],[24.125498894146233,62.622931219525327,165.2101],[24.129405144146233,62.605841375775327,153.0],[24.143077019146233,62.600714422650327,153.0],[24.152598503521233,62.605841375775327,164.2583],[24.147349480083733,62.618353582806577,174.9938],[24.137950066021233,62.636297918744077,162.793],[24.125132683208733,62.653570867962827,183.8791],[24.115733269146233,62.671515203900327,162.1122],[24.105479362896233,62.685553289837827,161.1113],[24.085948112896233,62.686468817181577,185.1651],[24.070445183208733,62.691656805462827,178.958],[24.071055534771233,62.712286688275327,153.0],[24.067149284771233,62.731451727337827,174.7911],[24.055552605083733,62.744757391400327,160.3253],[24.050059441021233,62.756354071087827,166.0375],[24.046397331646233,62.769659735150327,153.0],[24.042491081646233,62.784308172650327,169.9157],[24.029063347271233,62.787665106244077,175.3708],[24.020518425396233,62.795294500775327,163.3967],[24.023692253521233,62.808356024212827,153.0],[24.021250847271233,62.817755438275327,166.2489]]]}}