{"type": "Feature","id": 39222.0,"bbox": [24.672862175396233,63.494940496869077,24.882090691021233,63.580939032025327],"geometry": {"type": "Polygon","coordinates": [[[24.863780144146233,63.516241766400327,140.5],[24.863780144146233,63.516241766400327,140.5],[24.869517448833733,63.519842840619077,140.5],[24.882090691021233,63.526495672650327,149.9709],[24.876231316021233,63.536871649212827,146.4829],[24.867076042583733,63.544806219525327,146.8996],[24.848155144146233,63.553900457806577,151.572],[24.821787956646233,63.562384344525327,159.1309],[24.803477409771233,63.567267157025327,146.8666],[24.767954948833733,63.578253485150327,146.6004],[24.738780144146233,63.580939032025327,143.7666],[24.755503776958733,63.569342352337827,140.5],[24.793467644146233,63.555670477337827,140.5],[24.808360222271233,63.542975164837827,140.5],[24.789317253521233,63.541388250775327,148.2858],[24.772471550396233,63.548407293744077,141.8189],[24.765269401958733,63.556341864056577,147.1563],[24.736827019146233,63.560187078900327,149.672],[24.696787956646233,63.565130926556577,153.8963],[24.678233269146233,63.557257391400327,147.5966],[24.672862175396233,63.542608953900327,144.3958],[24.677500847271233,63.533575750775327,140.5],[24.685923698833733,63.526251532025327,140.5],[24.692637566021233,63.518927313275327,140.5],[24.715830925396233,63.514044500775327,140.5],[24.751231316021233,63.503729559369077,140.5],[24.775279167583733,63.497931219525327,140.5],[24.802378776958733,63.500372625775327,140.5],[24.835459831646233,63.495550848431577,140.5],[24.855479362896233,63.494940496869077,140.5],[24.867076042583733,63.505255438275327,149.6646],[24.863780144146233,63.516241766400327,140.5]]]}
,"properties": {"name": "Lestijärvi","lge_id": null,"pfafstette": 97.0,"lke_type": "N","altitude": 141,"objectid": 24507,"scalerank": 10,"featurecla": "Lake","note": null,"funkyname": 0,"min_zoom": 6.0,"min_label": 7.0,"area_km2": 59.42728,"hist_schema_id": "Elevation0-9000","hist_area_km2": {"150": 59.39895,"175": 0.02832}}}