{"type":"Feature","properties":{"id":80941.0,"name":"Kuohijärvi","lge_id":null,"pfafstette":64793.0,"lke_type":"N","altitude":0,"objectid":41545,"scalerank":12,"featurecla":"Lake","note":null,"funkyname":0,"min_zoom":7.0,"min_label":8.0},
"geometry":{"type": "Polygon","coordinates": [[[24.882334831646233,61.205023504681577,95.2943],[24.882334831646233,61.205023504681577,95.2943],[24.875987175396233,61.198004461712827,103.9958],[24.887461784771233,61.188299871869077,86.0],[24.913584831646233,61.183111883587827,86.0],[24.931895378521233,61.187689520306577,86.0],[24.929698112896233,61.199591375775327,104.0711],[24.934825066021233,61.210211492962827,86.0],[24.948741081646233,61.221441961712827,124.1593],[24.943614128521233,61.230536199994077,124.42],[24.928477409771233,61.242438055462827,86.0],[24.908091667583733,61.252142645306577,115.5361],[24.882090691021233,61.259344793744077,116.832],[24.856211784771233,61.277655340619077,115.953],[24.834239128521233,61.285834051556577,100.4031],[24.829600456646233,61.271857000775327,86.0],[24.844004753521233,61.251471258587827,86.0],[24.864268425396233,61.231756903119077,86.0],[24.880137566021233,61.212652899212827,86.0],[24.882334831646233,61.205023504681577,95.2943]]]}}