{"type":"Feature","properties":{"id":41022.0,"name":"Kolimajärvi 52","lge_id":null,"pfafstette":96513.0,"lke_type":"N","altitude":111,"objectid":23641,"scalerank":10,"featurecla":"Lake","note":null,"funkyname":0,"min_zoom":6.0,"min_label":7.0},
"geometry":{"type": "Polygon","coordinates": [[[25.809092644146233,63.318976141400327,127.9708],[25.809092644146233,63.318976141400327,127.9708],[25.775645378521233,63.338385321087827,149.5146],[25.755869987896233,63.353033758587827,136.4148],[25.738536003521233,63.366339422650327,146.2162],[25.730967644146233,63.369391180462827,152.8772],[25.718150261333733,63.357245184369077,109.0],[25.706553581646233,63.345404364056577,128.1461],[25.685069206646233,63.345404364056577,132.0865],[25.657725456646233,63.347845770306577,122.554],[25.642832878521233,63.354254461712827,127.5622],[25.630869987896233,63.356940008587827,117.8014],[25.616587761333733,63.343878485150327,124.005],[25.616221550396233,63.329840399212827,109.0],[25.649668816021233,63.321661688275327,115.4417],[25.675303581646233,63.314093328900327,109.0],[25.677989128521233,63.302252508587827,109.0],[25.696787956646233,63.293707586712827,109.0],[25.707774284771233,63.281561590619077,114.1354],[25.715098503521233,63.266669012494077,109.0],[25.728770378521233,63.267584539837827,109.0],[25.740000847271233,63.269415594525327,109.0],[25.747569206646233,63.273932196087827,109.0],[25.777110222271233,63.271857000775327,109.0],[25.813853386333733,63.264532782025327,109.0],[25.829966667583733,63.262457586712827,123.1635],[25.841319206646233,63.262457586712827,150.6188],[25.832041862896233,63.271857000775327,125.12],[25.819956901958733,63.283392645306577,109.0],[25.847911003521233,63.282171942181577,109.0],[25.886851433208733,63.266974188275327,145.0891],[25.913828972271233,63.240240789837827,111.2903],[25.927256706646233,63.216192938275327,111.8289],[25.929453972271233,63.204962469525327,111.725],[25.931529167583733,63.192206121869077,111.729],[25.935069206646233,63.186102606244077,111.5393],[25.943003776958733,63.193121649212827,111.2847],[25.958506706646233,63.197088934369077,111.5686],[25.983409050396233,63.187018133587827,111.7324],[26.010020378521233,63.188849188275327,111.5882],[26.002696159771233,63.214117742962827,132.4622],[25.956065300396233,63.238653875775327,129.3183],[25.918711784771233,63.256598211712827,134.5003],[25.889903191021233,63.272711492962827,122.8706],[25.872569206646233,63.285528875775327,151.5111],[25.855479362896233,63.299200750775327,127.6059],[25.840342644146233,63.306769110150327,128.6519],[25.809092644146233,63.318976141400327,127.9708]]]}}