{"type":"Feature","properties":{"id":68760.0,"name":"Aurejärvi","lge_id":null,"pfafstette":4859.0,"lke_type":"N","altitude":0,"objectid":31748,"scalerank":12,"featurecla":"Lake","note":null,"funkyname":0,"min_zoom":7.0,"min_label":8.0},
"geometry":{"type": "Polygon","coordinates": [[[23.364390495708733,62.006476141400327,154.766],[23.364390495708733,62.006476141400327,154.766],[23.371958855083733,62.015021063275327,154.4126],[23.381114128521233,62.029303289837827,163.9845],[23.384776237896233,62.060309149212827,157.9661],[23.382334831646233,62.081915594525327,163.8598],[23.372569206646233,62.097418524212827,164.2403],[23.356822136333733,62.101324774212827,160.2448],[23.350718620708733,62.083380438275327,173.3574],[23.356089714458733,62.061590887494077,164.5904],[23.344248894146233,62.033880926556577,169.9467],[23.334971550396233,62.008063055462827,156.0822],[23.353160026958733,61.998602606244077,154.3252],[23.364390495708733,62.006476141400327,154.766]]]}}