{"type": "Feature","id": 77486.0,"bbox": [21.736094597271233,61.713812567181577,21.948008659771233,61.787359930462827],"geometry": {"type": "Polygon","coordinates": [[[21.866587761333733,61.732062078900327,34.0],[21.866587761333733,61.732062078900327,34.0],[21.896006706646233,61.731085516400327,38.8491],[21.923716667583733,61.726263739056577,43.1905],[21.941416862896233,61.723273016400327,46.586],[21.948008659771233,61.727545477337827,58.0696],[21.918223503521233,61.734503485150327,69.01],[21.892344597271233,61.742377020306577,57.6718],[21.876963737896233,61.747259832806577,43.4308],[21.862071159771233,61.753302313275327,46.2933],[21.842784050396233,61.758490301556577,51.8313],[21.807017448833733,61.772467352337827,48.9778],[21.780039909771233,61.781866766400327,41.3438],[21.765635612896233,61.779486395306577,48.3665],[21.747447136333733,61.787359930462827,49.3255],[21.736094597271233,61.785895086712827,40.6248],[21.748911980083733,61.763067938275327,34.0],[21.787242058208733,61.735113836712827,34.0],[21.819468620708733,61.721441961712827,34.0],[21.837657097271233,61.713812567181577,34.0],[21.848887566021233,61.718390203900327,34.0],[21.858042839458733,61.727179266400327,34.0],[21.866587761333733,61.732062078900327,34.0]]]}
,"properties": {"name": "Isojärvi Sotamiehenluoto","lge_id": null,"pfafstette": 53.0,"lke_type": "N","altitude": 35,"objectid": 39427,"scalerank": 12,"featurecla": "Lake","note": null,"funkyname": 0,"min_zoom": 7.0,"min_label": 8.0,"area_km2": 32.06433,"hist_schema_id": "Elevation0-9000","hist_area_km2": {"25": 21.70884,"50": 10.22496,"75": 0.13053}}}