{"type": "Feature","id": 36589.0,"bbox": [25.794444206646233,63.508612371869077,26.061045769146233,63.682135321087827],"geometry": {"type": "Polygon","coordinates": [[[25.849131706646233,63.538092352337827,138.5],[25.849131706646233,63.538092352337827,138.5],[25.866221550396233,63.531378485150327,138.5],[25.883189323833733,63.526556707806577,138.5],[25.902354362896233,63.524115301556577,138.5],[25.915049675396233,63.526861883587827,138.5],[25.929331901958733,63.533514715619077,138.5],[25.958262566021233,63.531988836712827,138.5],[25.981944206646233,63.532355047650327,138.5],[25.996836784771233,63.527472235150327,138.5],[26.017100456646233,63.519842840619077,138.5],[26.042491081646233,63.512823797650327,138.5],[26.059825066021233,63.508612371869077,138.5],[26.061045769146233,63.516485907025327,148.5555],[26.047373894146233,63.527106024212827,151.1139],[26.035411003521233,63.537176824994077,153.2507],[26.023203972271233,63.546881414837827,149.8753],[26.011485222271233,63.557257391400327,145.728],[25.984385612896233,63.567877508587827,143.4311],[25.962901237896233,63.581244207806577,138.5],[25.987071159771233,63.587652899212827,138.5],[26.010752800396233,63.594916082806577,138.5],[26.027842644146233,63.603155828900327,138.5],[26.036143425396233,63.610113836712827,145.9133],[26.036997917583733,63.623175360150327,138.5],[26.042491081646233,63.634772039837827,145.5339],[26.027842644146233,63.650885321087827,146.7962],[26.012950066021233,63.664801336712827,149.0855],[25.999034050396233,63.678839422650327,143.0798],[25.984385612896233,63.682135321087827,148.6099],[25.986827019146233,63.671820379681577,138.5],[25.984385612896233,63.666022039837827,145.3117],[25.982920769146233,63.659308172650327,138.5],[25.979746941021233,63.648077703900327,143.0566],[25.968272331646233,63.625616766400327,144.3444],[25.950083855083733,63.610113836712827,141.6104],[25.933360222271233,63.608282782025327,147.8817],[25.925425651958733,63.619818426556577,144.8479],[25.922618034771233,63.638983465619077,138.5],[25.922984245708733,63.650885321087827,144.117],[25.910533073833733,63.665411688275327,147.1022],[25.891368034771233,63.667853094525327,146.1003],[25.882823112896233,63.650885321087827,144.4934],[25.875254753521233,63.639288641400327,144.0099],[25.856700066021233,63.633795477337827,147.8698],[25.846690300396233,63.625006414837827,145.3411],[25.829356316021233,63.628912664837827,155.4369],[25.802622917583733,63.638067938275327,143.1923],[25.794444206646233,63.634405828900327,144.7857],[25.806895378521233,63.625921942181577,138.5],[25.833872917583733,63.611639715619077,138.5],[25.861582878521233,63.595831610150327,138.5],[25.876475456646233,63.579718328900327,138.5],[25.885508659771233,63.562994696087827,138.5],[25.890147331646233,63.552374578900327,138.5],[25.880137566021233,63.546881414837827,144.9857],[25.860606316021233,63.556891180462827,149.8497],[25.835093620708733,63.572394110150327,144.3388],[25.817881706646233,63.569098211712827,149.0661],[25.828501823833733,63.556952215619077,138.5],[25.841319206646233,63.546271063275327,168.7374],[25.849131706646233,63.538092352337827,138.5]]]}
,"properties": {"name": "Pyhjärvi","lge_id": null,"pfafstette": 551.0,"lke_type": "N","altitude": 132,"objectid": 21626,"scalerank": 10,"featurecla": "Lake","note": null,"funkyname": 0,"min_zoom": 6.0,"min_label": 7.0,"area_km2": 110.06093,"hist_schema_id": "Elevation0-9000","hist_area_km2": {"150": 109.90999,"175": 0.15095}}}