{"type":"Feature","properties":{"id":79686.0,"name":"Kukkiajärvi","lge_id":null,"pfafstette":647573.0,"lke_type":"N","altitude":87,"objectid":43006,"scalerank":12,"featurecla":"Lake","note":null,"funkyname":0,"min_zoom":7.0,"min_label":8.0},
"geometry":{"type": "Polygon","coordinates": [[[24.726939323833733,61.298651434369077,84.5],[24.726939323833733,61.298651434369077,84.5],[24.733409050396233,61.302252508587827,95.288],[24.733164909771233,61.317755438275327,84.5],[24.745616081646233,61.332098699994077,84.5],[24.764903191021233,61.326910711712827,84.5],[24.781016472271233,61.322638250775327,84.5],[24.791514519146233,61.342718817181577,84.5],[24.785044792583733,61.355475164837827,97.6984],[24.768565300396233,61.353644110150327,91.6785],[24.764659050396233,61.361578680462827,108.7555],[24.758311394146233,61.370062567181577,89.6358],[24.743907097271233,61.361822821087827,95.9787],[24.727793816021233,61.349676824994077,104.037],[24.712412956646233,61.354864813275327,94.8396],[24.701182487896233,61.353644110150327,84.5],[24.671641472271233,61.354559637494077,84.5],[24.637217644146233,61.360663153119077,105.0731],[24.621836784771233,61.355780340619077,85.5],[24.617198112896233,61.343878485150327,84.5],[24.627574089458733,61.336004949994077,84.5],[24.642832878521233,61.331793524212827,84.5],[24.655772331646233,61.330816961712827,84.5],[24.676524284771233,61.330206610150327,84.5],[24.703257683208733,61.311712957806577,87.4494],[24.726939323833733,61.298651434369077,84.5]],
[[24.636485222271233,61.344855047650327,84.5],[24.636485222271233,61.344855047650327,84.5],[24.636485222271233,61.340277410931577,84.5],[24.628794792583733,61.344244696087827,84.5],[24.636485222271233,61.344855047650327,84.5]]]}}