{"type":"Feature","properties":{"id":42151.0,"name":"Kivijärvi","lge_id":"fi","pfafstette":9799.0,"lke_type":"N","altitude":131,"objectid":23002,"scalerank":10,"featurecla":"Lake","note":null,"funkyname":0,"min_zoom":6.0,"min_label":7.0},
"geometry":{"type": "Polygon","coordinates": [[[25.116709831646233,63.302252508587827,129.703],[25.116709831646233,63.302252508587827,129.703],[25.112071159771233,63.297064520306577,132.5678],[25.109629753521233,63.294317938275327,130.6788],[25.117808464458733,63.288580633587827,130.6497],[25.126963737896233,63.280646063275327,130.8903],[25.112681511333733,63.276983953900327,142.4655],[25.099009636333733,63.274298407025327,139.9826],[25.107554558208733,63.268805242962827,142.4367],[25.127207878521233,63.259649969525327,130.804],[25.135752800396233,63.248724676556577,130.7066],[25.124766472271233,63.247503973431577,137.1625],[25.120860222271233,63.235968328900327,130.9786],[25.109873894146233,63.224737860150327,139.7529],[25.091441276958733,63.224737860150327,151.3726],[25.098155144146233,63.218023992962827,139.1673],[25.114512566021233,63.204352117962827,141.345],[25.109629753521233,63.197088934369077,134.9705],[25.098033073833733,63.188605047650327,130.8168],[25.110850456646233,63.175787664837827,130.8741],[25.130869987896233,63.169073797650327,136.6629],[25.141612175396233,63.156378485150327,130.7622],[25.152842644146233,63.140875555462827,130.819],[25.159434441021233,63.124762274212827,134.334],[25.115122917583733,63.121344305462827,147.2987],[25.052744987896233,63.132025457806577,131.3885],[25.032725456646233,63.130804754681577,145.7934],[25.041514519146233,63.125921942181577,135.1852],[25.063975456646233,63.121954657025327,130.5739],[25.102305534771233,63.111944891400327,130.6974],[25.123545769146233,63.100409246869077,137.2411],[25.110606316021233,63.094916082806577,141.8989],[25.109873894146233,63.081549383587827,130.9063],[25.130625847271233,63.064825750775327,130.6761],[25.154551628521233,63.046881414837827,130.7294],[25.161631706646233,63.022894598431577,136.3824],[25.168955925396233,63.011664129681577,130.7623],[25.182383659771233,62.998297430462827,130.8888],[25.191661003521233,62.987066961712827,130.6991],[25.205088737896233,62.977911688275327,130.7268],[25.219370964458733,62.968817449994077,130.6256],[25.231211784771233,62.978277899212827,141.4435],[25.225718620708733,62.994940496869077,142.7861],[25.214854362896233,63.006781317181577,131.4321],[25.199229362896233,63.015936590619077,136.2635],[25.182871941021233,63.023565985150327,131.6523],[25.181651237896233,63.032965399212827,130.7328],[25.193247917583733,63.037176824994077,133.4804],[25.210826042583733,63.042059637494077,130.7568],[25.201182487896233,63.056952215619077,165.3742],[25.183848503521233,63.077887274212827,131.6407],[25.223399284771233,63.083746649212827,130.6269],[25.257945183208733,63.084295965619077,136.4426],[25.243907097271233,63.094305731244077,140.5839],[25.235850456646233,63.101629949994077,142.6794],[25.229380730083733,63.114691473431577,131.5012],[25.240244987896233,63.121954657025327,130.6954],[25.256724480083733,63.125982977337827,140.8047],[25.245127800396233,63.135077215619077,136.9668],[25.237559441021233,63.142340399212827,160.6863],[25.218516472271233,63.156012274212827,151.1208],[25.200450066021233,63.173956610150327,130.7991],[25.214121941021233,63.184576727337827,138.0935],[25.232676628521233,63.196417547650327,131.341],[25.224619987896233,63.206183172650327,158.5677],[25.205699089458733,63.211310125775327,169.5621],[25.180674675396233,63.221991278119077,146.5857],[25.169810417583733,63.237799383587827,134.1691],[25.164683464458733,63.247503973431577,134.294],[25.150401237896233,63.255377508587827,131.0129],[25.144053581646233,63.264837957806577,138.4869],[25.135996941021233,63.271246649212827,130.7691],[25.151866081646233,63.277899481244077,131.47],[25.169444206646233,63.284002996869077,146.91],[25.154551628521233,63.294317938275327,144.0613],[25.143687370708733,63.304693914837827,138.3463],[25.132456901958733,63.318609930462827,159.6699],[25.108409050396233,63.337774969525327,142.6101],[25.094737175396233,63.348456121869077,139.4339],[25.087412956646233,63.356024481244077,142.5637],[25.076914909771233,63.367254949994077,139.5779],[25.063243034771233,63.364508367962827,135.4576],[25.063731316021233,63.351446844525327,130.8293],[25.085581901958733,63.339911199994077,130.7553],[25.102915886333733,63.326239324994077,130.9665],[25.112071159771233,63.312872625775327,130.7068],[25.116709831646233,63.302252508587827,129.703]]]}}