{"type":"Feature","properties":{"id":73834.0,"name":"Kyrsjärvi","lge_id":null,"pfafstette":4173.0,"lke_type":"N","altitude":83,"objectid":37074,"scalerank":10,"featurecla":"Lake","note":null,"funkyname":0,"min_zoom":6.0,"min_label":7.0},
"geometry":{"type": "Polygon","coordinates": [[[23.243662956646233,61.749640203900327,83.0],[23.243662956646233,61.749640203900327,83.0],[23.246104362896233,61.766730047650327,98.8065],[23.228526237896233,61.777044989056577,129.4122],[23.208140495708733,61.776739813275327,87.7805],[23.188365105083733,61.780035711712827,114.3876],[23.176524284771233,61.792486883587827,95.3344],[23.169932487896233,61.801642157025327,83.0],[23.160166862896233,61.801642157025327,124.5404],[23.149424675396233,61.795294500775327,124.3911],[23.129405144146233,61.793463446087827,100.6214],[23.116343620708733,61.802862860150327,86.9018],[23.096934441021233,61.814093328900327,101.1962],[23.080577019146233,61.816839910931577,95.0697],[23.058970573833733,61.822272039837827,113.4117],[23.032237175396233,61.834173895306577,85.7966],[23.036387566021233,61.851813055462827,83.0],[23.039561394146233,61.865790106244077,114.9239],[23.033702019146233,61.860968328900327,92.679],[23.026133659771233,61.850287176556577,89.1606],[23.016978386333733,61.839972235150327,83.0],[23.000010612896233,61.836004949994077,123.7025],[22.983286980083733,61.831183172650327,83.0],[23.002085808208733,61.822943426556577,83.0],[23.030284050396233,61.813849188275327,83.0],[23.050913933208733,61.798651434369077,83.0],[23.045542839458733,61.790716864056577,94.4933],[23.030650261333733,61.782477117962827,87.2827],[23.015391472271233,61.762762762494077,105.7021],[23.015757683208733,61.751532293744077,82.5],[23.038584831646233,61.753058172650327,82.5],[23.057749870708733,61.771551824994077,113.5858],[23.085459831646233,61.786749578900327,83.0],[23.102793816021233,61.777960516400327,83.0],[23.114024284771233,61.763922430462827,83.0],[23.136485222271233,61.760016180462827,83.0],[23.156504753521233,61.754523016400327,83.0],[23.173594597271233,61.744208074994077,83.0],[23.177989128521233,61.732367254681577,83.0],[23.186534050396233,61.720831610150327,83.0],[23.199351433208733,61.712286688275327,83.0],[23.182994011333733,61.710150457806577,106.9294],[23.165293816021233,61.704962469525327,86.1143],[23.172862175396233,61.695563055462827,83.0],[23.182627800396233,61.691046453900327,125.8741],[23.213389519146233,61.684027410931577,83.0],[23.245616081646233,61.689825750775327,83.0],[23.243662956646233,61.707770086712827,88.1368],[23.231211784771233,61.719305731244077,106.151],[23.230967644146233,61.730536199994077,119.8343],[23.243662956646233,61.749640203900327,83.0]]]}}