{"type": "Feature","bbox": [25.1137,60.1234,26.7526,60.7627],"geometry": {"type": "MultiPolygon","coordinates": [[[[25.2245,60.1266,0.0],[25.2214,60.1266,2.4331],[25.2193,60.1234,8.9851],[25.2224,60.1234,10.8001],[25.2245,60.1266,0.0]]],
[[[25.2854,60.1521,13.552],[25.287,60.1536,4.2537],[25.2839,60.1536,19.9104],[25.2839,60.1526,19.5024],[25.2854,60.1521,13.552]]],
[[[25.2229,60.1583,11.0794],[25.2245,60.1599,9.5685],[25.2214,60.1599,17.1952],[25.2214,60.1589,13.2455],[25.2229,60.1583,11.0794]]],
[[[25.2417,60.1792,24.8877],[25.2359,60.1786,14.668],[25.2359,60.1755,2.8639],[25.2432,60.1755,13.9333],[25.2432,60.1786,26.6594],[25.2417,60.1792,24.8877]]],
[[[25.4422,60.163,12.7031],[25.4432,60.1661,0.0],[25.438,60.1672,0.0],[25.4349,60.1703,18.0452],[25.4292,60.1708,21.8078],[25.425,60.1688,12.3183],[25.4172,60.1682,0.0],[25.4089,60.1609,3.7672],[25.4125,60.1583,9.5309],[25.4224,60.1589,0.0],[25.4203,60.162,3.2643],[25.4172,60.163,15.2001],[25.4208,60.1667,0.0],[25.4307,60.1661,0.0],[25.4255,60.163,8.0629],[25.4312,60.1625,16.0298],[25.4417,60.1583,2.2936],[25.4453,60.1609,0.0],[25.4422,60.163,12.7031]]],
[[[25.4359,60.1724,0.0],[25.4417,60.1688,2.9759],[25.4495,60.1714,0.0],[25.4479,60.1729,0.0],[25.4359,60.1724,0.0]]],
[[[25.3518,60.1699,11.2913],[25.3516,60.1724,0.0],[25.3438,60.1729,15.6598],[25.3396,60.175,28.2254],[25.3255,60.1745,4.1334],[25.3276,60.1714,20.5578],[25.3354,60.1708,20.0909],[25.3438,60.1667,0.0],[25.3518,60.1699,11.2913]]],
[[[25.4542,60.175,14.7716],[25.462,60.1734,17.3232],[25.4641,60.1755,0.0],[25.463,60.1786,8.5996],[25.4641,60.1807,0.0],[25.4583,60.1833,20.2303],[25.4542,60.1833,14.18],[25.4443,60.1807,4.8453],[25.4401,60.1766,8.4841],[25.4417,60.175,10.8309],[25.4542,60.175,14.7716]]],
[[[25.4724,60.1828,15.543],[25.4667,60.1833,13.2687],[25.4651,60.1818,13.9422],[25.4708,60.1813,9.2726],[25.4724,60.1828,15.543]]],
[[[25.5458,60.1896,8.7941],[25.5474,60.1911,11.7739],[25.5443,60.1911,17.0184],[25.5443,60.1901,8.7941],[25.5458,60.1896,8.7941]]],
[[[25.4953,60.1995,16.2425],[25.4896,60.2,16.9833],[25.488,60.1984,0.0],[25.4938,60.1979,13.884],[25.4953,60.1995,16.2425]]],
[[[25.5464,60.2089,5.7029],[25.5333,60.2146,10.6365],[25.525,60.2146,20.1664],[25.5172,60.212,0.0],[25.5187,60.2104,0.0],[25.5271,60.2104,10.6592],[25.5349,60.2078,0.1816],[25.5318,60.2026,0.0],[25.5349,60.2005,12.2467],[25.5276,60.1932,15.6931],[25.5292,60.1917,2.8333],[25.5333,60.1937,14.3886],[25.5375,60.1917,0.0],[25.5432,60.1922,7.745],[25.5422,60.1953,0.0],[25.5432,60.1974,0.0],[25.5396,60.2021,2.7734],[25.5422,60.2057,4.3373],[25.5474,60.2068,5.7234],[25.5464,60.2089,5.7029]]],
[[[25.212,60.2036,15.5374],[25.2062,60.2042,22.5244],[25.2047,60.2026,11.6624],[25.2104,60.2021,8.7822],[25.212,60.2036,15.5374]]],
[[[25.3354,60.2062,17.0841],[25.337,60.2068,21.2837],[25.337,60.2078,13.1913],[25.3339,60.2078,6.9219],[25.3354,60.2062,17.0841]]],
[[[25.2771,60.2104,0.0],[25.2786,60.2109,0.0],[25.2786,60.212,0.0],[25.2755,60.212,13.4363],[25.2771,60.2104,0.0]]],
[[[25.2333,60.2125,0.0],[25.2396,60.2125,4.7991],[25.2474,60.2161,0.0],[25.2375,60.2167,11.3924],[25.2333,60.2146,20.5745],[25.2292,60.2167,0.0],[25.2193,60.2161,18.2334],[25.2229,60.2125,4.0138],[25.2333,60.2125,0.0]]],
[[[25.5021,60.2104,11.5112],[25.5005,60.2089,2.5603],[25.5042,60.2062,4.4077],[25.5083,60.2104,13.2772],[25.5063,60.2125,0.0],[25.5021,60.2104,11.5112]]],
[[[25.487,60.2161,12.9331],[25.4839,60.2161,0.0],[25.4818,60.213,0.0],[25.4891,60.213,19.7352],[25.487,60.2161,12.9331]]],
[[[25.5078,60.2161,17.0267],[25.5021,60.2167,15.6045],[25.5005,60.2151,7.6551],[25.5063,60.2146,17.4704],[25.5078,60.2161,17.0267]]],
[[[25.5651,60.2182,7.8719],[25.5589,60.2151,10.4639],[25.5703,60.2151,0.0],[25.5682,60.2182,5.9822],[25.5651,60.2182,7.8719]]],
[[[25.5083,60.2188,15.5746],[25.5099,60.2193,1.0551],[25.5099,60.2203,17.5648],[25.5068,60.2203,25.7814],[25.5083,60.2188,15.5746]]],
[[[25.4979,60.225,21.3767],[25.4943,60.2234,0.0],[25.4979,60.2208,7.8578],[25.5036,60.2214,16.0877],[25.5016,60.2245,24.3683],[25.4979,60.225,21.3767]]],
[[[25.5583,60.2271,0.0],[25.5547,60.2266,19.9547],[25.5526,60.2234,0.0],[25.5641,60.2234,9.0178],[25.562,60.2266,2.2968],[25.5583,60.2271,0.0]]],
[[[25.5333,60.2271,12.1761],[25.5349,60.2276,7.6901],[25.5349,60.2286,13.0189],[25.5318,60.2286,6.3005],[25.5333,60.2271,12.1761]]],
[[[25.3229,60.2229,0.0],[25.3245,60.2245,14.2283],[25.3167,60.225,7.6039],[25.3104,60.2292,6.9155],[25.3047,60.2286,5.9895],[25.3026,60.2266,0.0],[25.3047,60.2234,0.0],[25.3104,60.2208,3.4838],[25.3229,60.2229,0.0]]],
[[[25.2438,60.2333,0.0],[25.2313,60.2333,2.8336],[25.2255,60.2349,0.0],[25.2234,60.2328,1.1099],[25.2245,60.2297,26.0951],[25.2172,60.2286,19.2573],[25.2182,60.2255,21.3843],[25.2172,60.2234,12.2077],[25.225,60.2229,1.106],[25.2292,60.2208,19.0628],[25.2417,60.2208,0.0],[25.2458,60.2229,0.5932],[25.25,60.2188,0.0],[25.2641,60.2193,16.7507],[25.2625,60.2208,0.0],[25.2526,60.2214,15.6752],[25.2505,60.2234,0.0],[25.2516,60.2266,0.0],[25.25,60.2292,0.0],[25.2516,60.2328,4.1532],[25.2438,60.2333,0.0]]],
[[[25.2939,60.2262,17.8714],[25.2979,60.2313,14.8471],[25.2932,60.237,0.0],[25.2833,60.2375,0.0],[25.2797,60.2349,11.8595],[25.2849,60.2328,4.4163],[25.2901,60.2255,24.421],[25.2939,60.2262,17.8714]]],
[[[25.3203,60.2349,7.1689],[25.3146,60.2354,11.2892],[25.313,60.2339,0.0],[25.3187,60.2333,13.3323],[25.3203,60.2349,7.1689]]],
[[[25.3396,60.2438,17.7609],[25.3292,60.2417,4.6521],[25.3276,60.2422,8.5072],[25.3286,60.2453,17.7296],[25.325,60.2479,14.3564],[25.3042,60.2479,0.0],[25.2984,60.2422,0.0],[25.3063,60.2396,13.1506],[25.3229,60.2396,2.556],[25.3292,60.2354,0.0],[25.3453,60.2328,0.0],[25.3474,60.2307,16.6461],[25.3464,60.2276,0.0],[25.35,60.225,5.0962],[25.3589,60.2328,7.0999],[25.3682,60.2359,0.0],[25.3604,60.2396,16.3602],[25.35,60.2396,4.2276],[25.3396,60.2438,17.7609]]],
[[[25.2521,60.2417,22.5242],[25.2505,60.2401,0.0],[25.2578,60.238,7.7731],[25.2578,60.2411,0.0],[25.2521,60.2417,22.5242]]],
[[[25.287,60.2453,7.6036],[25.2839,60.2443,20.2359],[25.2859,60.2422,3.5457],[25.2891,60.2422,6.7246],[25.2891,60.2432,12.0105],[25.287,60.2453,7.6036]]],
[[[25.2479,60.2438,21.7743],[25.2495,60.2453,22.056],[25.2464,60.2453,24.2349],[25.2464,60.2443,23.6576],[25.2479,60.2438,21.7743]]],
[[[25.8875,60.225,12.7598],[25.8755,60.2276,5.6869],[25.8708,60.2333,4.3285],[25.8693,60.2328,5.022],[25.8703,60.2276,2.4715],[25.8682,60.2255,0.0],[25.8583,60.2271,0.0],[25.8521,60.2229,11.1601],[25.8453,60.2286,6.0746],[25.8396,60.2313,17.4186],[25.8354,60.2271,0.0],[25.8312,60.2292,8.3606],[25.8271,60.2292,15.5453],[25.8214,60.2245,0.0],[25.8224,60.2214,17.0125],[25.8214,60.2193,5.2112],[25.8245,60.2172,29.8595],[25.812,60.2026,6.3954],[25.8068,60.2005,9.0569],[25.8312,60.1958,0.0],[25.8417,60.2021,27.4716],[25.8641,60.2047,7.7373],[25.863,60.2078,0.0],[25.8646,60.2083,3.5268],[25.8688,60.2062,0.0],[25.8729,60.2062,0.0],[25.8771,60.2083,0.0],[25.8854,60.2083,7.2464],[25.8896,60.2062,0.0],[25.9203,60.2068,13.2146],[25.9182,60.2099,0.0],[25.9104,60.2125,8.4089],[25.9005,60.213,11.4654],[25.8932,60.2203,15.4841],[25.8901,60.2214,4.4646],[25.8911,60.2245,3.9631],[25.8875,60.225,12.7598]]],
[[[25.688,60.213,14.0157],[25.6891,60.2182,0.0],[25.6839,60.2193,3.2317],[25.6786,60.2266,9.987],[25.6729,60.2313,7.376],[25.6682,60.2276,18.8821],[25.663,60.2266,0.0],[25.6609,60.2234,0.0],[25.6641,60.2214,7.4811],[25.6589,60.2203,15.504],[25.6568,60.2182,19.0868],[25.6583,60.2167,9.7899],[25.6661,60.2161,0.0],[25.6729,60.2125,14.8647],[25.6833,60.2125,11.3012],[25.6875,60.2104,9.343],[25.6891,60.2109,5.249],[25.688,60.213,14.0157]]],
[[[25.6172,60.3016,3.2349],[25.6182,60.3036,3.161],[25.6089,60.3047,0.0],[25.612,60.3078,0.0],[25.6042,60.3146,0.0],[25.5984,60.3141,0.0],[25.587,60.3068,4.9826],[25.5776,60.3036,6.8048],[25.5755,60.3016,0.3932],[25.5766,60.2984,7.6816],[25.575,60.2958,14.3243],[25.5766,60.2932,4.4661],[25.5755,60.2901,0.0],[25.5766,60.288,0.0],[25.5734,60.2828,0.0],[25.5745,60.2797,6.7604],[25.5729,60.2771,8.14],[25.5745,60.2734,16.2047],[25.5714,60.2693,5.9004],[25.5766,60.2682,17.7897],[25.5771,60.2667,0.0],[25.5734,60.2609,0.0],[25.5786,60.2599,17.0937],[25.5797,60.2568,11.8562],[25.5849,60.2557,11.8111],[25.5839,60.2526,0.0],[25.5891,60.2516,6.5763],[25.5901,60.2484,20.2006],[25.5964,60.2422,13.8674],[25.6021,60.2417,9.7712],[25.6125,60.2375,12.9269],[25.6208,60.2375,0.0],[25.625,60.2396,14.3499],[25.6328,60.2401,2.1464],[25.6339,60.2432,2.1508],[25.6375,60.2458,2.7737],[25.6411,60.2432,0.0],[25.6411,60.2401,3.8887],[25.637,60.2359,9.0932],[25.6292,60.2354,4.6452],[25.6187,60.2313,2.7909],[25.6104,60.2313,0.0],[25.5964,60.2266,7.326],[25.6,60.2229,1.3459],[25.6161,60.2203,8.1702],[25.6182,60.2172,0.0],[25.6083,60.2188,0.0],[25.6068,60.2172,3.8024],[25.6125,60.2125,0.0],[25.6266,60.212,18.1996],[25.6286,60.2089,12.3686],[25.6255,60.2047,12.6462],[25.6313,60.2042,7.5511],[25.6432,60.2109,0.0],[25.6417,60.2125,6.1172],[25.6354,60.2125,11.2271],[25.6297,60.2151,14.8933],[25.6318,60.2182,0.0],[25.637,60.2193,0.0],[25.6354,60.2229,3.6658],[25.638,60.2266,8.449],[25.6458,60.2292,7.312],[25.6563,60.2292,4.0597],[25.6641,60.2318,0.0],[25.6661,60.2359,0.0],[25.6651,60.2391,3.702],[25.6771,60.2396,5.0551],[25.6786,60.2411,9.1224],[25.6693,60.2484,16.8183],[25.6708,60.2521,5.5789],[25.6693,60.2547,0.0],[25.6703,60.2578,3.3177],[25.6667,60.2604,0.9855],[25.6568,60.2609,0.693],[25.6578,60.2641,0.0],[25.6526,60.2651,2.7096],[25.6536,60.2682,0.0],[25.6516,60.2724,0.0],[25.6437,60.275,11.3725],[25.6359,60.2755,11.3501],[25.637,60.2786,0.0],[25.6307,60.2828,10.1131],[25.6187,60.2833,0.0],[25.6109,60.288,8.6863],[25.612,60.2911,0.0],[25.6089,60.2943,8.5521],[25.6089,60.2974,4.5126],[25.6172,60.3016,3.2349]]],
[[[25.8458,60.2625,11.3092],[25.8474,60.263,21.0422],[25.8474,60.2641,12.7813],[25.8443,60.2641,1.5451],[25.8458,60.2625,11.3092]]],
[[[25.9458,60.2542,0.0],[25.9443,60.2526,1.4255],[25.9516,60.2505,0.0],[25.9516,60.2536,9.9752],[25.9458,60.2542,0.0]]],
[[[25.9562,60.2542,15.8162],[25.9578,60.2547,4.4561],[25.9578,60.2557,6.9287],[25.9547,60.2557,10.9938],[25.9562,60.2542,15.8162]]],
[[[25.9646,60.2646,3.6774],[25.9661,60.2651,8.4681],[25.9661,60.2661,20.7427],[25.963,60.2661,0.0],[25.9646,60.2646,3.6774]]],
[[[25.9557,60.2682,0.0],[25.9526,60.2682,0.0],[25.9505,60.2651,0.0315],[25.9578,60.2651,-0.2706],[25.9557,60.2682,0.0]]],
[[[25.8542,60.2667,0.0],[25.8557,60.2672,1.8293],[25.8557,60.2682,6.1955],[25.8526,60.2682,19.4809],[25.8542,60.2667,0.0]]],
[[[25.7875,60.2896,4.2234],[25.7891,60.2911,12.3314],[25.7859,60.2911,6.2247],[25.7859,60.2901,0.5031],[25.7875,60.2896,4.2234]]],
[[[25.575,60.3042,0.0],[25.5766,60.3057,0.0],[25.5734,60.3057,0.0],[25.5734,60.3047,0.0],[25.575,60.3042,0.0]]],
[[[25.6125,60.3125,0.0],[25.6187,60.3104,0.0],[25.6245,60.3161,5.4411],[25.6109,60.3141,9.3558],[25.6125,60.3125,0.0]]],
[[[25.9141,60.312,17.4346],[25.9109,60.312,11.5706],[25.9089,60.3089,0.0],[25.9141,60.3089,15.9845],[25.9141,60.312,17.4346]]],
[[[25.9271,60.3208,16.4666],[25.9255,60.3203,0.0],[25.9255,60.3172,6.8291],[25.9292,60.3146,10.2801],[25.9391,60.3193,0.0],[25.9333,60.3229,1.8165],[25.9271,60.3208,16.4666]]],
[[[25.8937,60.3187,2.2659],[25.8953,60.3193,3.2579],[25.8953,60.3203,7.3854],[25.8922,60.3203,16.2385],[25.8937,60.3187,2.2659]]],
[[[25.9005,60.3203,0.0],[25.9036,60.3193,-0.6254],[25.9078,60.3245,-0.1986],[25.9042,60.3271,4.0743],[25.8964,60.3245,1.3532],[25.9016,60.3224,-0.4048],[25.9005,60.3203,0.0]]],
[[[25.3516,60.2422,13.3131],[25.35,60.2438,16.6678],[25.3484,60.2432,3.735],[25.35,60.2417,5.7239],[25.3516,60.2422,13.3131]]],
[[[25.3646,60.2417,0.0],[25.3682,60.2432,15.4822],[25.3589,60.2453,18.5136],[25.3609,60.2422,0.0],[25.3646,60.2417,0.0]]],
[[[25.5328,60.237,4.3563],[25.5354,60.2354,16.1294],[25.5391,60.238,0.0],[25.5339,60.2422,0.0],[25.537,60.2474,0.0],[25.5339,60.2495,0.5722],[25.5391,60.2516,0.0],[25.5354,60.2542,13.2905],[25.5255,60.2536,11.211],[25.5214,60.2495,5.372],[25.5224,60.2443,7.8258],[25.5151,60.2401,15.9149],[25.5187,60.2354,0.0],[25.5229,60.2354,0.0],[25.5271,60.2375,13.2111],[25.5328,60.237,4.3563]]],
[[[25.3792,60.2646,6.9124],[25.375,60.2646,16.7821],[25.3734,60.263,22.7476],[25.3807,60.263,0.0],[25.3792,60.2646,6.9124]]],
[[[25.2641,60.2464,0.0],[25.2641,60.2474,11.4718],[25.2609,60.2474,16.4329],[25.2625,60.2458,0.0],[25.2641,60.2464,0.0]]],
[[[25.3328,60.2484,0.0],[25.3328,60.2495,0.0],[25.3297,60.2495,16.533],[25.3312,60.2479,0.0],[25.3328,60.2484,0.0]]],
[[[25.3063,60.2521,11.9111],[25.3021,60.2521,0.0],[25.3005,60.2505,0.0],[25.3078,60.2505,0.0],[25.3063,60.2521,11.9111]]],
[[[25.5099,60.2714,0.0],[25.5151,60.2786,4.6262],[25.5229,60.2792,0.0],[25.5266,60.2818,8.4406],[25.525,60.2833,12.965],[25.5167,60.2833,0.0],[25.5151,60.2849,0.0],[25.5229,60.2875,15.3126],[25.5271,60.2875,10.2617],[25.5313,60.2854,0.0],[25.537,60.2859,16.4073],[25.5391,60.288,22.7619],[25.538,60.2911,18.5883],[25.5401,60.2953,4.215],[25.5453,60.2964,15.188],[25.5443,60.2995,11.2388],[25.5464,60.3016,0.0],[25.5516,60.3026,0.0],[25.5521,60.3042,0.0],[25.5505,60.3068,0.2873],[25.5516,60.3099,1.5925],[25.5484,60.3151,14.9322],[25.5516,60.3203,7.4571],[25.5417,60.3208,5.5467],[25.5276,60.3255,28.1098],[25.5255,60.3286,0.0],[25.5307,60.3297,0.0],[25.5333,60.3333,0.0],[25.5453,60.3339,4.5475],[25.5521,60.3396,4.6038],[25.5589,60.3339,14.8276],[25.5729,60.3312,0.0],[25.5745,60.3328,0.0],[25.5714,60.3349,1.6366],[25.5792,60.3417,2.3551],[25.5807,60.3411,1.7662],[25.5797,60.338,3.1833],[25.5807,60.3359,6.5383],[25.5776,60.3307,9.9227],[25.5786,60.3276,4.4347],[25.5714,60.3234,0.0],[25.5786,60.3182,15.9483],[25.5771,60.3146,0.0],[25.5797,60.3109,0.0],[25.5854,60.3104,0.0],[25.5891,60.3141,0.0],[25.5859,60.3151,13.8977],[25.5839,60.3182,2.3617],[25.5875,60.3208,0.0],[25.5953,60.3214,0.0],[25.6016,60.3297,4.062],[25.5964,60.3318,0.0],[25.5958,60.3333,0.0],[25.5995,60.338,0.0],[25.5984,60.3411,0.8528],[25.6057,60.3411,0.0],[25.6026,60.337,0.0],[25.6047,60.3318,0.0],[25.6203,60.3318,0.0],[25.6245,60.338,0.0],[25.6214,60.3422,0.0],[25.6214,60.3453,7.7309],[25.6266,60.3464,0.0],[25.6286,60.3484,0.0],[25.6276,60.3516,0.581],[25.6297,60.3536,5.5036],[25.6354,60.3563,23.8585],[25.6432,60.3568,0.0],[25.6422,60.3599,0.6015],[25.6464,60.3661,29.3992],[25.6542,60.3688,0.0],[25.6578,60.3661,-0.1981],[25.6589,60.363,0.0822],[25.6667,60.3625,7.2991],[25.6682,60.3609,15.8269],[25.6589,60.3599,0.0],[25.6599,60.3568,0.0037],[25.6521,60.3542,3.5465],[25.6479,60.3563,11.3949],[25.6422,60.3536,0.0],[25.6401,60.3505,0.0],[25.6437,60.3458,1.2094],[25.6401,60.3401,6.1973],[25.6458,60.3333,0.0],[25.6688,60.3333,0.0],[25.6703,60.3318,7.6214],[25.6625,60.3292,8.8244],[25.6542,60.3292,4.3011],[25.65,60.3312,0.0],[25.6458,60.3312,0.0],[25.6417,60.3292,6.6363],[25.6313,60.3292,5.1994],[25.6297,60.3276,14.9614],[25.6318,60.3234,0.0],[25.6411,60.3224,2.2641],[25.6359,60.3141,3.1361],[25.6391,60.3099,7.3276],[25.638,60.3068,0.0],[25.6516,60.3078,0.1322],[25.6464,60.3005,4.2698],[25.6557,60.2995,0.0],[25.6641,60.2932,8.1352],[25.663,60.2901,0.0],[25.6661,60.288,18.1599],[25.6609,60.2818,0.0],[25.6682,60.2807,10.023],[25.6729,60.2771,9.8107],[25.6979,60.2771,0.0],[25.7021,60.2792,4.772],[25.7062,60.2771,0.0],[25.7141,60.2766,14.9761],[25.7125,60.2729,10.4675],[25.7141,60.2703,11.8205],[25.713,60.2672,11.6471],[25.7151,60.2651,0.0],[25.7286,60.262,8.1652],[25.7318,60.2589,6.9575],[25.737,60.2578,7.8808],[25.75,60.2479,2.1636],[25.7583,60.2479,0.0],[25.7625,60.25,4.7393],[25.7724,60.2495,1.3745],[25.7776,60.2422,2.8717],[25.7828,60.2411,5.1681],[25.7875,60.2375,2.1058],[25.7911,60.2401,9.5271],[25.7901,60.2432,9.3421],[25.7938,60.2479,0.0],[25.7922,60.2505,9.5747],[25.7932,60.2536,0.0],[25.7922,60.2557,0.0],[25.7979,60.2562,0.0],[25.8021,60.2542,5.8605],[25.8042,60.2562,11.2582],[25.8,60.2604,14.2377],[25.7958,60.2583,-0.4392],[25.788,60.2609,5.5555],[25.7901,60.2641,0.0],[25.8,60.2646,6.2694],[25.8042,60.2625,0.5898],[25.8083,60.2646,3.2],[25.8167,60.2646,1.8639],[25.8208,60.2625,0.0],[25.8292,60.2625,12.8389],[25.8354,60.2667,10.0363],[25.8474,60.2672,5.3639],[25.8422,60.2724,8.3606],[25.8516,60.2734,0.0],[25.8495,60.2766,11.77],[25.8417,60.2813,0.0],[25.8375,60.2813,0.0],[25.8333,60.2792,17.8347],[25.825,60.2792,0.0],[25.8188,60.2833,4.2586],[25.8104,60.2833,0.0],[25.8089,60.2818,0.0],[25.8141,60.2807,14.8224],[25.8161,60.2776,1.0842],[25.8104,60.2771,0.0],[25.8063,60.2792,0.0],[25.8,60.2792,3.0134],[25.7818,60.2839,6.4548],[25.7797,60.288,2.9291],[25.7807,60.2911,0.0],[25.7797,60.2922,0.0],[25.7714,60.2943,1.9501],[25.7766,60.3016,0.0],[25.7672,60.3026,0.0],[25.7661,60.3057,0.0],[25.7609,60.3068,9.0846],[25.762,60.3099,0.0],[25.7542,60.3125,0.0],[25.7438,60.3083,0.0],[25.7401,60.3109,0.373],[25.7401,60.3141,0.0],[25.7464,60.3203,0.0],[25.7563,60.3208,0.1464],[25.762,60.3161,3.3889],[25.7609,60.313,0.0],[25.7703,60.3099,11.9237],[25.7734,60.3068,0.0],[25.7891,60.3016,13.6949],[25.7911,60.2995,24.9401],[25.7901,60.2964,0.0],[25.8021,60.2875,0.0],[25.8208,60.2854,0.0],[25.8354,60.2896,17.3382],[25.8578,60.2891,0.4527],[25.8578,60.2859,6.3608],[25.8547,60.2818,0.0],[25.8599,60.2776,13.8726],[25.8568,60.2734,0.0],[25.8682,60.2703,0.0],[25.8724,60.2672,0.0],[25.8703,60.2651,5.4852],[25.8651,60.2641,4.4361],[25.8682,60.2589,0.0],[25.8625,60.2562,12.5825],[25.8542,60.2562,15.671],[25.8458,60.2604,9.6772],[25.8359,60.2578,0.0],[25.8375,60.2562,5.4039],[25.8453,60.2557,2.8337],[25.8474,60.2536,0.0],[25.8464,60.2505,7.1887],[25.8563,60.25,11.483],[25.8625,60.2542,0.0],[25.8667,60.2521,0.0],[25.8708,60.2542,8.0315],[25.8937,60.2438,0.0],[25.9042,60.2479,0.0],[25.9224,60.2505,0.0],[25.9266,60.2526,0.0],[25.9255,60.2557,-0.6689],[25.9307,60.2568,0.0],[25.9349,60.262,9.0592],[25.9271,60.2604,17.4406],[25.9255,60.2609,0.0],[25.9266,60.2641,0.0],[25.925,60.2646,0.0],[25.9208,60.2625,10.4955],[25.9151,60.263,6.722],[25.9161,60.2661,10.8376],[25.912,60.2724,0.0],[25.9068,60.2734,0.5334],[25.9099,60.2786,7.8347],[25.9021,60.2833,0.0],[25.8979,60.2813,16.5603],[25.8937,60.2833,1.8999],[25.8859,60.2839,2.4954],[25.887,60.287,0.0],[25.8859,60.2911,0.0],[25.8995,60.2964,0.0],[25.9016,60.2984,0.0],[25.9016,60.3016,2.2789],[25.8974,60.3057,3.19],[25.888,60.3089,2.3056],[25.8849,60.312,1.261],[25.8797,60.313,9.858],[25.8828,60.3182,1.8489],[25.8771,60.3187,0.0],[25.8724,60.3224,-0.7996],[25.8672,60.3234,0.0],[25.8724,60.3255,-0.4559],[25.8734,60.3286,-0.3395],[25.8786,60.3297,0.0],[25.8901,60.337,0.0],[25.8958,60.3354,0.0],[25.9057,60.338,0.0],[25.9089,60.3411,8.0686],[25.9141,60.3422,12.1192],[25.9161,60.3443,16.5077],[25.9146,60.3479,0.0],[25.9161,60.3505,10.5059],[25.9151,60.3536,0.0],[25.9161,60.3557,0.0],[25.9109,60.3589,0.0],[25.9089,60.362,0.0],[25.9141,60.3682,0.0],[25.9042,60.3688,0.0],[25.8901,60.3734,2.3924],[25.8911,60.3766,0.0],[25.8859,60.3797,-0.6036],[25.887,60.3828,0.2605],[25.8828,60.3891,0.0],[25.8734,60.3901,5.5757],[25.8714,60.3922,0.0],[25.8729,60.3958,0.0],[25.863,60.3984,0.0],[25.8578,60.4036,-0.2045],[25.8505,60.4047,-0.14],[25.8583,60.4083,-0.1177],[25.8703,60.4057,-0.4898],[25.8776,60.4005,-0.4434],[25.8854,60.3979,0.0],[25.8932,60.3974,2.2461],[25.8953,60.3932,9.2284],[25.8943,60.3901,0.0],[25.8995,60.387,0.0],[25.8984,60.3797,0.0],[25.9078,60.3766,8.1264],[25.913,60.3714,0.0],[25.9307,60.3682,7.0195],[25.9443,60.3568,0.0],[25.9521,60.3563,-0.0921],[25.9583,60.3521,0.0],[25.9708,60.3521,0.1617],[25.975,60.35,0.0],[25.9833,60.35,0.0],[25.9849,60.3516,0.0],[25.9818,60.3536,25.6876],[25.9859,60.3578,0.0],[25.9932,60.3578,9.8587],[25.9901,60.3526,0.0],[25.9932,60.3505,3.4328],[25.988,60.3495,11.6537],[25.9859,60.3464,13.5112],[25.9979,60.3458,-0.3974],[26.0099,60.3411,0.0],[26.0224,60.3307,1.9254],[26.0214,60.3276,0.0],[26.0245,60.3224,20.7614],[26.0234,60.3193,0.0],[26.0286,60.3172,3.6192],[26.0234,60.3161,4.0061],[26.0266,60.313,17.9792],[26.0167,60.3125,12.4348],[26.0089,60.3172,6.2535],[26.0099,60.3203,12.5442],[26.0078,60.3245,0.0],[25.9979,60.3229,-0.0283],[25.9943,60.3255,0.7437],[26.0,60.3333,0.0],[25.9974,60.337,0.5087],[25.9859,60.3401,2.2766],[25.9792,60.3438,1.6543],[25.9688,60.3438,-0.0963],[25.9609,60.3464,6.5583],[25.95,60.3542,0.0],[25.9438,60.3542,0.0],[25.9396,60.3563,0.0],[25.9339,60.3557,0.0],[25.9297,60.3516,1.2264],[25.9307,60.3464,11.0175],[25.9255,60.3401,0.0],[25.9391,60.337,17.2708],[25.938,60.3339,0.0],[25.9474,60.3266,9.8184],[25.9495,60.3245,0.5083],[25.9484,60.3214,0.0],[25.9536,60.3182,2.9797],[25.9526,60.3109,0.0],[25.9557,60.3099,6.1268],[25.9547,60.3068,0.0],[25.9578,60.3036,0.0],[25.9562,60.3021,0.8015],[25.9484,60.3047,-0.3765],[25.9417,60.3104,0.0],[25.9401,60.3099,3.7677],[25.9411,60.3068,0.0],[25.9391,60.3047,0.0],[25.9339,60.3036,0.0312],[25.9318,60.3016,0.0],[25.9333,60.3,0.0],[25.9391,60.2995,7.1259],[25.9359,60.2943,0.0],[25.9411,60.2911,10.5899],[25.938,60.287,0.0],[25.9391,60.2839,-0.0625],[25.9339,60.2828,9.88],[25.9333,60.2813,8.1438],[25.937,60.2766,5.4733],[25.9359,60.2734,0.0],[25.938,60.2693,0.0],[25.95,60.2708,0.0],[25.9542,60.2729,0.0],[25.9667,60.2729,0.0],[25.9682,60.2724,5.5636],[25.9672,60.2693,8.7454],[25.9693,60.2672,0.0],[25.9854,60.2667,20.239],[25.9896,60.2646,0.0],[25.9995,60.2693,2.6055],[25.9979,60.2729,8.3271],[25.9995,60.2766,14.3939],[25.9974,60.2786,12.2897],[25.9922,60.2797,0.0],[25.9943,60.2828,-0.0736],[25.9984,60.2849,0.0],[26.0057,60.2828,13.4898],[26.0047,60.2797,0.0],[26.0083,60.2771,0.0],[26.0125,60.2792,10.3677],[26.0229,60.2792,0.0],[26.037,60.2839,15.9749],[26.038,60.287,0.0],[26.0458,60.2896,9.2466],[26.0682,60.2891,14.7113],[26.0724,60.287,0.0],[26.0693,60.2818,7.8896],[26.0792,60.2771,1.3564],[26.0828,60.2807,8.1521],[26.0776,60.2828,0.0],[26.0818,60.287,0.0],[26.0875,60.2875,7.7765],[26.0891,60.2891,15.7144],[26.087,60.2911,19.498],[26.0729,60.2958,0.0],[26.0646,60.2958,22.3014],[26.0604,60.2979,0.0],[26.0563,60.2979,0.0],[26.0464,60.2953,5.3287],[26.0411,60.2901,7.2764],[26.0333,60.2896,0.0],[26.0292,60.2875,27.3431],[26.025,60.2896,0.0],[26.0146,60.2896,0.0],[26.0083,60.2938,0.0],[26.0042,60.2917,15.4229],[26.0,60.2917,10.83],[25.9979,60.2938,0.0],[25.9984,60.2953,0.0],[26.0036,60.2964,6.6992],[26.0089,60.3016,0.0],[26.0167,60.3021,0.0],[26.0208,60.3042,0.0],[26.0333,60.3021,0.0],[26.0375,60.3042,15.4254],[26.0417,60.3042,5.6223],[26.0458,60.3021,0.0],[26.0495,60.3047,8.4946],[26.0526,60.3099,1.1217],[26.0604,60.3125,-0.0417],[26.0661,60.312,0.0],[26.0651,60.3089,0.0],[26.0729,60.3063,0.0],[26.0828,60.3068,5.2796],[26.0859,60.3099,20.934],[26.0974,60.313,0.0],[26.112,60.3255,10.8773],[26.1099,60.3286,0.0],[26.1068,60.3297,0.0],[26.1099,60.3339,13.197],[26.1068,60.3401,14.1399],[26.1089,60.3432,0.0],[26.112,60.3432,6.3131],[26.1167,60.3396,2.2674],[26.1209,60.3396,5.9271],[26.125,60.3417,0.0],[26.1292,60.3396,5.5256],[26.1307,60.3401,5.335],[26.1297,60.3432,9.953],[26.1307,60.3453,0.0],[26.1234,60.3443,0.0],[26.1245,60.3474,0.0],[26.1193,60.3505,3.0556],[26.1245,60.3568,10.1065],[26.1229,60.3583,29.645],[26.1188,60.3563,17.9043],[26.1089,60.3578,10.2666],[26.1047,60.3536,0.0],[26.1057,60.3505,0.0],[26.0979,60.3458,15.934],[26.0896,60.3458,0.0],[26.0854,60.3479,0.0],[26.0812,60.3458,8.5413],[26.0734,60.3464,0.1897],[26.0693,60.3505,0.0],[26.0745,60.3526,0.0],[26.0724,60.3557,0.0],[26.0693,60.3568,14.9863],[26.0703,60.3599,0.0],[26.0609,60.3609,0.0],[26.0547,60.3651,15.2027],[26.0526,60.3672,16.7209],[26.0536,60.3703,0.0],[26.0411,60.3807,0.0],[26.0292,60.3854,14.2757],[26.0214,60.3859,0.0],[26.0172,60.3901,0.0],[26.0182,60.3932,0.0],[26.0089,60.3974,-0.3335],[26.0224,60.3984,0.6495],[26.0255,60.4016,0.0],[26.0307,60.4026,0.0],[26.0359,60.4099,0.0],[26.0411,60.4109,0.0],[26.0432,60.4141,0.0],[26.0401,60.4151,0.0],[26.0411,60.4182,0.0],[26.0349,60.4203,24.5523],[26.0214,60.4214,11.9774],[26.0224,60.4266,0.0],[26.0193,60.4297,0.0],[26.0208,60.4333,3.8371],[26.0193,60.437,0.0],[26.025,60.4375,0.0],[26.0328,60.4349,3.7118],[26.0339,60.4318,0.0],[26.0401,60.4255,0.0],[26.0516,60.4245,0.0],[26.0536,60.4224,0.0],[26.0526,60.4193,0.0],[26.0563,60.4167,0.0],[26.0623,60.4167,17.7255],[26.0609,60.413,0.0],[26.0625,60.4125,4.1523],[26.0667,60.4125,0.0],[26.0682,60.4141,3.0655],[26.0625,60.4168,2.5479],[26.0641,60.4203,0.0],[26.0589,60.4214,0.0],[26.0599,60.4245,0.0],[26.0568,60.4266,0.0],[26.0682,60.4297,0.0],[26.0714,60.4328,0.0],[26.0745,60.4328,1.976],[26.0766,60.4307,2.6026],[26.0755,60.4276,0.0],[26.0849,60.4245,0.0],[26.087,60.4224,0.0],[26.0859,60.4193,0.0],[26.088,60.4151,0.0],[26.1057,60.4099,11.0627],[26.1188,60.4042,0.0],[26.1266,60.4036,0.0],[26.1396,60.3937,0.0],[26.1437,60.3958,0.0],[26.1479,60.3958,0.0],[26.1526,60.3922,0.0],[26.1599,60.3911,0.0],[26.1547,60.3839,6.3702],[26.1583,60.3813,0.0],[26.1641,60.3807,28.2171],[26.1661,60.3786,0.0],[26.1646,60.3771,10.0297],[26.1589,60.3786,15.2581],[26.1651,60.3714,0.0],[26.1875,60.3646,0.0],[26.2,60.3646,12.8992],[26.2099,60.3693,0.0],[26.2078,60.3724,9.021],[26.2047,60.3734,15.4614],[26.2057,60.3766,4.7033],[26.2047,60.3786,0.0],[26.2109,60.387,0.0],[26.2161,60.388,6.1634],[26.2203,60.3932,0.0],[26.2062,60.3958,4.9917],[26.2047,60.3943,0.0],[26.2078,60.3922,0.0],[26.2021,60.3917,0.0],[26.1964,60.3943,0.0],[26.1911,60.3995,0.0],[26.1734,60.4026,3.7394],[26.1766,60.4078,0.0],[26.1693,60.4141,0.0],[26.175,60.4146,0.0],[26.1833,60.4104,0.0],[26.1896,60.4104,0.0],[26.1974,60.4078,0.0],[26.2005,60.4047,0.0],[26.2104,60.4021,0.0],[26.2146,60.4042,6.8339],[26.2229,60.4042,0.0],[26.2245,60.4026,0.0],[26.2214,60.3984,12.3956],[26.2234,60.3964,7.4757999999999996],[26.2375,60.3958,0.0],[26.2438,60.3917,3.4601],[26.2516,60.3943,6.2157],[26.2484,60.3974,0.0],[26.2563,60.3979,5.8491],[26.262,60.3932,9.6436],[26.2609,60.3901,3.7116],[26.263,60.388,13.5483],[26.2703,60.3859,0.0],[26.2703,60.3891,8.8295],[26.2651,60.3943,6.7384],[26.2661,60.3974,8.6345],[26.2526,60.4047,0.0],[26.2526,60.4078,0.0],[26.2557,60.4109,4.9521],[26.2547,60.4141,0.0],[26.2557,60.4161,0.0],[26.2505,60.4193,2.3905],[26.2516,60.4224,0.0],[26.2505,60.4245,0.0],[26.2521,60.425,9.2953],[26.2521,60.4271,0.0],[26.2417,60.4271,18.1275],[26.238,60.4297,13.4333],[26.2391,60.4328,0.0],[26.238,60.4349,0.0],[26.2432,60.438,0.0],[26.2401,60.4432,0.0],[26.2432,60.4474,0.0],[26.2359,60.4526,0.0],[26.2396,60.4562,0.0],[26.2464,60.4505,0.0],[26.2516,60.4495,0.0],[26.2568,60.4422,0.0],[26.262,60.4411,0.0],[26.2609,60.438,0.0],[26.2682,60.437,10.7084],[26.2703,60.4349,4.9459],[26.2693,60.4318,0.0],[26.275,60.4313,0.0],[26.2792,60.4333,0.0],[26.2833,60.4333,7.3399],[26.2911,60.4307,0.0],[26.2896,60.4292,0.0],[26.2839,60.4286,0.0],[26.2849,60.4255,5.9034],[26.2818,60.4214,13.9639],[26.2839,60.4193,0.0],[26.2974,60.4161,0.0],[26.2922,60.4078,7.668],[26.2932,60.4047,15.9941],[26.2922,60.4026,0.0],[26.2995,60.3974,7.7666],[26.2984,60.3943,0.0],[26.3005,60.3922,0.0],[26.3078,60.387,5.5157],[26.3068,60.3839,0.0],[26.3141,60.3786,17.921],[26.313,60.3755,8.1794],[26.3151,60.3734,0.0],[26.3349,60.3734,3.0189],[26.3339,60.3766,12.3841],[26.338,60.3828,0.0],[26.3432,60.3839,10.0382],[26.3453,60.3859,0.0],[26.3401,60.388,5.0348],[26.3411,60.3911,8.9178],[26.338,60.3922,6.8928],[26.3391,60.3953,0.0],[26.3339,60.3974,0.0],[26.3479,60.4021,9.8887],[26.3708,60.3979,0.0],[26.3724,60.3984,15.98],[26.3714,60.4016,6.8679],[26.3724,60.4036,0.0],[26.3693,60.4047,4.7834],[26.3672,60.4078,0.0],[26.3813,60.4125,0.0],[26.3854,60.4125,0.0],[26.3911,60.4078,0.0],[26.3901,60.4026,0.0],[26.4036,60.4016,5.1012],[26.4089,60.3964,0.0],[26.412,60.3953,6.962],[26.4109,60.3922,15.9285],[26.4167,60.3937,0.0],[26.4245,60.3911,0.0],[26.4234,60.388,0.0],[26.425,60.3854,0.2263],[26.4234,60.3818,0.0],[26.4245,60.3797,0.0],[26.4188,60.375,15.0472],[26.4047,60.3797,5.2442],[26.4,60.3833,0.0],[26.3901,60.3839,16.1376],[26.3911,60.387,0.0],[26.3839,60.387,7.3565],[26.3854,60.3833,8.4736],[26.3839,60.3797,10.3025],[26.387,60.3766,8.5113],[26.3859,60.3734,8.0993],[26.3911,60.3703,0.0],[26.3859,60.363,40.1795],[26.3922,60.3589,19.6273],[26.4,60.3583,2.7905],[26.4042,60.3563,0.0],[26.4109,60.362,0.0],[26.4245,60.363,12.8456],[26.4297,60.3703,0.0],[26.4396,60.3708,11.4936],[26.4411,60.3703,14.3938],[26.4401,60.3672,0.0],[26.4432,60.3661,7.8001],[26.4422,60.363,5.9856],[26.4479,60.3583,0.0],[26.4604,60.3583,9.6858],[26.4646,60.3604,9.962],[26.4917,60.3604,0.0],[26.4958,60.3625,3.2438],[26.5057,60.3557,4.913],[26.5047,60.3526,0.0],[26.5078,60.3484,5.0724],[26.5047,60.3464,0.0],[26.5125,60.3438,2.0779],[26.5375,60.3438,10.2965],[26.5391,60.3443,5.1093],[26.538,60.3474,1.4026],[26.5411,60.3536,8.4609],[26.5313,60.3542,3.1302],[26.5271,60.3521,21.7259],[26.5214,60.3568,0.2769],[26.5229,60.3583,18.7731],[26.5349,60.3589,14.9804],[26.5339,60.3641,9.7868],[26.5349,60.3661,0.7427],[26.5328,60.3682,0.0],[26.525,60.3708,0.0],[26.5208,60.3688,11.0123],[26.5021,60.3688,5.6083],[26.4943,60.3714,20.9362],[26.4922,60.3734,17.8869],[26.4932,60.3766,10.2428],[26.4896,60.3792,0.0],[26.4792,60.375,9.9053],[26.475,60.375,10.5628],[26.4703,60.3786,7.8282],[26.463,60.3797,4.28],[26.4516,60.387,0.0],[26.4443,60.388,3.0985],[26.4464,60.3911,0.0],[26.4516,60.3932,3.1436],[26.438,60.3943,0.0],[26.4391,60.3974,4.238],[26.4359,60.3984,4.5049],[26.437,60.4016,0.0],[26.4349,60.4036,3.0011],[26.4271,60.4063,0.0],[26.4229,60.4063,2.4927],[26.4188,60.4042,7.9352],[26.413,60.4068,0.0],[26.4141,60.4141,0.0],[26.4068,60.4193,0.0],[26.4109,60.4245,0.0],[26.4208,60.425,4.503],[26.4224,60.4245,0.0],[26.4214,60.4151,0.0],[26.4333,60.4146,0.0],[26.4375,60.4125,0.4378],[26.4432,60.4172,0.0],[26.4443,60.4203,0.0],[26.4516,60.4193,4.7374],[26.4599,60.4276,0.0],[26.4583,60.4313,11.8752],[26.4599,60.4339,9.1069],[26.4589,60.437,0.0],[26.462,60.4401,0.0],[26.462,60.4432,0.0],[26.4599,60.4453,0.0],[26.4547,60.4464,0.0],[26.4557,60.4495,0.0],[26.4536,60.4536,0.0],[26.4474,60.4599,0.0],[26.4443,60.4609,0.0],[26.4495,60.463,0.0],[26.4578,60.4714,0.0],[26.4568,60.4807,0.0],[26.4589,60.4849,0.0],[26.4632,60.4838,0.0],[26.4608,60.4884,0.9517],[26.4535,60.4916,6.4494],[26.4579,60.4914,11.5562],[26.4588,60.4959,9.0],[26.4679,60.4955,9.5],[26.4697,60.5044,9.5],[26.4788,60.504,16.8509],[26.4797,60.5084,17.3535],[26.4888,60.508,20.2928],[26.4905,60.5169,23.4993],[26.4996,60.5165,14.7606],[26.5005,60.521,18.0887],[26.5096,60.5205,17.928],[26.5114,60.5294,11.5],[26.5023,60.5299,24.0875],[26.5032,60.5344,25.0071],[26.4941,60.5348,26.3571],[26.495,60.5393,15.0],[26.486,60.5397,15.0],[26.4868,60.5442,19.4442],[26.505,60.5433,24.8244],[26.5059,60.5477,15.0],[26.515,60.5473,22.7704],[26.5159,60.5518,15.0],[26.5341,60.5509,18.2963],[26.535,60.5554,36.359],[26.5441,60.5549,15.195],[26.5486,60.5773,15.0],[26.5577,60.5768,15.0],[26.5596,60.5857,15.0],[26.5687,60.5853,15.0],[26.5705,60.5942,19.8568],[26.5796,60.5938,18.354],[26.5814,60.6027,21.018],[26.5905,60.6023,18.5549],[26.5915,60.6067,19.0497],[26.6006,60.6063,18.213],[26.6015,60.6108,29.4994],[26.6197,60.6099,16.3783],[26.6206,60.6143,17.8985],[26.6662,60.6121,20.2295],[26.6652,60.6076,15.5],[26.6743,60.6072,17.554],[26.6734,60.6027,18.3346],[26.6825,60.6022,17.828],[26.6807,60.5933,18.5474],[26.6989,60.5924,20.9449],[26.698,60.5879,16.0],[26.7162,60.587,27.374],[26.7152,60.5826,16.0],[26.7334,60.5816,26.521],[26.7325,60.5772,26.8564],[26.7507,60.5763,26.6346],[26.7526,60.5852,31.1081],[26.7435,60.5856,20.2578],[26.7444,60.5901,31.6959],[26.7353,60.5906,26.016],[26.7372,60.5995,30.411],[26.7281,60.6,29.2981],[26.729,60.6044,29.6772],[26.7199,60.6049,28.3922],[26.7217,60.6138,28.4123],[26.7126,60.6143,27.4907],[26.7145,60.6232,28.9714],[26.7054,60.6237,34.6284],[26.7063,60.6281,38.8004],[26.6972,60.6286,43.2375],[26.6991,60.6375,40.5563],[26.6899,60.638,34.4739],[26.6918,60.6469,25.3683],[26.6736,60.6478,35.7666],[26.6745,60.6523,45.9129],[26.6563,60.6532,30.1135],[26.6471,60.6536,41.1149],[26.6462,60.6492,32.6309],[26.628,60.6501,34.1355],[26.6271,60.6456,44.3519],[26.6088,60.6465,28.0233],[26.607,60.6376,20.5925],[26.5979,60.638,22.86],[26.5951,60.6246,18.9243],[26.586,60.6251,16.9099],[26.5842,60.6161,19.7701],[26.5751,60.6166,16.505],[26.5732,60.6076,28.3137],[26.5641,60.6081,31.1838],[26.5623,60.5991,15.0],[26.5532,60.5996,15.0667],[26.5514,60.5907,15.0],[26.5423,60.5911,15.0],[26.5432,60.5956,26.0406],[26.4885,60.5982,15.2613],[26.4894,60.6027,15.6742],[26.4803,60.6031,15.3773],[26.4839,60.621,26.7002],[26.4748,60.6214,23.3705],[26.4757,60.6259,24.3338],[26.4666,60.6264,18.4856],[26.4684,60.6353,19.2508],[26.4593,60.6357,18.5512],[26.4602,60.6402,19.563],[26.451,60.6406,19.3319],[26.4519,60.6451,21.874],[26.4337,60.646,25.9257],[26.4346,60.6504,43.8397],[26.3981,60.6522,47.547],[26.399,60.6567,42.4261],[26.3534,60.6588,37.8715],[26.356,60.6722,36.2659],[26.3377,60.6731,41.4795],[26.3395,60.682,29.5112],[26.3304,60.6825,30.1378],[26.333,60.6959,31.3086],[26.3239,60.6963,40.053],[26.3256,60.7052,27.6786],[26.3348,60.7048,26.5232],[26.3365,60.7137,57.8023],[26.3274,60.7142,32.8348],[26.3283,60.7186,49.1517],[26.3191,60.7191,35.02],[26.32,60.7235,56.7675],[26.3109,60.724,41.6001],[26.3118,60.7284,60.6473],[26.3026,60.7289,29.9778],[26.3061,60.7467,34.2414],[26.297,60.7472,31.3754],[26.2979,60.7516,31.4307],[26.2887,60.7521,38.4832],[26.2896,60.7565,37.0671],[26.2804,60.757,49.6631],[26.2813,60.7614,46.4368],[26.2538,60.7627,39.567],[26.2512,60.7493,50.2398],[26.2237,60.7506,43.1279],[26.2246,60.755,45.8218],[26.2155,60.7555,62.1062],[26.2129,60.7421,40.6757],[26.222,60.7416,46.4959],[26.2203,60.7327,44.3797],[26.2294,60.7323,41.0427],[26.2286,60.7278,57.2984],[26.2194,60.7282,52.9914],[26.2168,60.7148,61.3666],[26.2077,60.7152,39.2731],[26.2068,60.7108,36.4443],[26.1977,60.7112,45.5517],[26.1968,60.7067,59.0107],[26.1785,60.7076,42.5728],[26.1777,60.7031,65.5982],[26.1685,60.7035,54.9692],[26.1677,60.699,58.4599],[26.1585,60.6995,43.6585],[26.1577,60.695,54.9487],[26.1485,60.6954,39.9512],[26.1477,60.6909,50.9586],[26.1385,60.6913,30.2914],[26.1377,60.6869,59.8013],[26.1011,60.6885,50.5815],[26.102,60.693,46.1801],[26.0837,60.6938,53.9018],[26.0845,60.6983,53.0155],[26.0754,60.6987,62.6858],[26.0762,60.7032,60.8449],[26.0579,60.704,64.8838],[26.0588,60.7085,45.2645],[26.0405,60.7093,59.9451],[26.0413,60.7138,54.8192],[26.0048,60.7154,39.7615],[26.0039,60.7109,39.7997],[25.9765,60.7122,39.9648],[25.9757,60.7077,40.0385],[25.9482,60.7089,70.9936],[25.9474,60.7044,82.6297],[25.9383,60.7048,44.6598],[25.9391,60.7093,44.0955],[25.9299,60.7097,61.5675],[25.9316,60.7187,52.3898],[25.9224,60.7191,61.5956],[25.9249,60.7325,67.6522],[25.9158,60.7329,55.6079],[25.9166,60.7374,92.0445],[25.9074,60.7378,92.1642],[25.9066,60.7333,79.5377],[25.87,60.7349,85.9155],[25.8692,60.7304,77.4216],[25.86,60.7308,76.6437],[25.8592,60.7263,62.9694],[25.85,60.7267,57.8107],[25.8492,60.7223,61.1499],[25.8401,60.7227,68.241],[25.8385,60.7137,61.8905],[25.811,60.7149,57.8857],[25.8102,60.7104,55.5834],[25.7827,60.7116,51.0105],[25.7819,60.7071,52.4029],[25.7362,60.7091,66.9401],[25.737,60.7136,65.706],[25.7279,60.714,83.2819],[25.7287,60.7184,69.9277],[25.7195,60.7188,84.4856],[25.7187,60.7144,89.1519],[25.7096,60.7147,93.9297],[25.7088,60.7103,88.2826],[25.6996,60.7107,85.0549],[25.698,60.7017,71.9693],[25.6889,60.7021,63.3016],[25.6873,60.6931,50.6865],[25.6782,60.6935,52.1305],[25.6774,60.6891,61.1229],[25.6408,60.6906,44.8824],[25.64,60.6861,44.0136],[25.6309,60.6865,44.7556],[25.6293,60.6776,44.5544],[25.6201,60.6779,52.1158],[25.6194,60.6735,51.2701],[25.5919,60.6746,51.6994],[25.5927,60.6791,53.4364],[25.5836,60.6795,54.5182],[25.5844,60.6839,57.2354],[25.5661,60.6847,65.798],[25.5669,60.6892,62.3512],[25.5577,60.6895,58.0549],[25.5585,60.694,59.0437],[25.5402,60.6948,62.4851],[25.541,60.6992,72.7566],[25.5227,60.7,67.2039],[25.5234,60.7045,72.8006],[25.5143,60.7048,72.4412],[25.5135,60.7004,70.6646],[25.4952,60.7011,77.7955],[25.4945,60.6967,78.1575],[25.4853,60.697,83.6744],[25.4846,60.6925,83.8677],[25.4754,60.6929,74.7372],[25.4746,60.6884,95.3466],[25.4655,60.6888,74.2633],[25.4647,60.6843,75.2361],[25.4556,60.6847,75.3613],[25.4541,60.6758,82.971],[25.4449,60.6761,81.6443],[25.4442,60.6716,78.3645],[25.435,60.672,96.4606],[25.4335,60.6631,81.3744],[25.4244,60.6634,75.9103],[25.4236,60.659,78.6195],[25.4328,60.6586,75.4574],[25.4297,60.6407,83.7767],[25.4389,60.6403,85.9361],[25.4381,60.6359,70.1777],[25.4473,60.6355,67.3157],[25.4465,60.631,63.773],[25.4556,60.6306,61.2043],[25.4548,60.6262,62.0232],[25.464,60.6258,82.4167],[25.4632,60.6213,62.9018],[25.4723,60.6209,74.8312],[25.4716,60.6165,79.3119],[25.4807,60.6161,60.7454],[25.4792,60.6072,78.3126],[25.4883,60.6068,61.4595],[25.4868,60.5978,68.4165],[25.4959,60.5975,76.2159],[25.4944,60.5885,76.659],[25.5035,60.5881,63.3928],[25.5027,60.5837,55.9146],[25.5119,60.5833,62.8067],[25.5111,60.5788,58.3661],[25.5202,60.5784,45.3013],[25.5194,60.574,42.1636],[25.5103,60.5743,42.4548],[25.5073,60.556399999999996,47.868899999999996],[25.4891,60.5572,40.105],[25.4883,60.5527,58.7114],[25.4701,60.5535,69.2899],[25.4693,60.549,52.3489],[25.4511,60.5497,58.6207],[25.4504,60.5452,80.1855],[25.4321,60.546,69.4155],[25.4314,60.5415,73.6268],[25.4132,60.5423,83.4297],[25.4117,60.5333,79.9204],[25.4208,60.5329,64.1663],[25.4185,60.5195,62.7464],[25.4276,60.5191,57.2944],[25.4261,60.5102,73.9982],[25.4352,60.5098,63.8645],[25.4307,60.483,60.4124],[25.4398,60.4826,42.1724],[25.4391,60.4781,56.1237],[25.4481,60.4778,44.3591],[25.4474,60.4733,52.0465],[25.4656,60.4725,46.4301],[25.4648,60.4681,70.3721],[25.4739,60.4677,58.0954],[25.4731,60.4632,45.1079],[25.4822,60.4628,46.8258],[25.4815,60.4584,63.3532],[25.4996,60.4576,40.9085],[25.4989,60.4532,43.1263],[25.508,60.4528,44.0736],[25.5064,60.4438,46.837],[25.5155,60.4435,52.0104],[25.5147,60.439,43.6614],[25.5057,60.4394,38.5062],[25.5049,60.4349,36.2819],[25.4958,60.4352,38.0094],[25.4943,60.4263,26.7665],[25.4762,60.4271,17.0465],[25.4754,60.4226,11.9248],[25.4663,60.423,11.8199],[25.4656,60.4185,41.2897],[25.4475,60.4192,32.6858],[25.4467,60.4147,26.2537],[25.4286,60.4155,42.5229],[25.4278,60.411,21.5018],[25.4006,60.4121,40.1953],[25.3999,60.4076,14.3359],[25.3727,60.4087,25.6617],[25.3719,60.4043,22.2167],[25.3629,60.4046,22.277],[25.3636,60.4091,45.4413],[25.3545,60.4095,63.424],[25.356,60.4184,37.4872],[25.3469,60.4188,30.2531],[25.3484,60.4277,29.3805],[25.3393,60.4281,40.8451],[25.3401,60.4326,54.4269],[25.331,60.4329,61.2987],[25.3317,60.4374,70.4198],[25.3227,60.4378,59.0123],[25.3234,60.4422,58.832],[25.3143,60.4426,56.0318],[25.3151,60.4471,43.3062],[25.306,60.4474,79.6711],[25.3067,60.4519,65.4694],[25.2976,60.4523,69.6734],[25.2984,60.4567,55.1315],[25.2893,60.4571,46.7206],[25.29,60.4616,60.0708],[25.2809,60.4619,46.9185],[25.2816,60.4664,50.3581],[25.2726,60.4668,46.4073],[25.274,60.4757,63.3542],[25.2649,60.4761,58.3037],[25.2657,60.4806,75.7742],[25.2566,60.4809,70.3506],[25.2573,60.4854,70.2212],[25.2482,60.4857,75.9316],[25.2489,60.4902,61.4888],[25.2398,60.4906,53.8092],[25.2406,60.495,45.6849],[25.2315,60.4954,44.7689],[25.2322,60.4999,65.2625],[25.214,60.5006,73.6562],[25.2147,60.5051,64.6406],[25.1692,60.5068,43.8877],[25.1657,60.4845,55.9027],[25.1566,60.4848,61.9193],[25.1488,60.4356,36.5574],[25.1578,60.4352,64.2392],[25.155,60.4173,38.18],[25.1641,60.417,39.6289],[25.1626,60.408,36.1288],[25.1536,60.4084,49.276],[25.1472,60.3681,51.9292],[25.1562,60.3677,59.3269],[25.1548,60.3588,36.9697],[25.1458,60.3591,48.6795],[25.1444,60.3502,42.7932],[25.1353,60.3505,61.6771],[25.1346,60.346,38.2002],[25.1527,60.3453,43.2715],[25.1513,60.3364,30.4676],[25.1241,60.3374,34.0602],[25.1234,60.3329,45.8622],[25.1144,60.3333,32.0542],[25.1137,60.3288,41.4886],[25.1227,60.3285,32.9109],[25.122,60.324,41.5154],[25.1401,60.3233,35.2866],[25.1394,60.3188,62.7285],[25.1575,60.3181,35.6674],[25.1568,60.3136,61.0353],[25.1749,60.3129,65.4981],[25.1735,60.304,58.7031],[25.1825,60.3036,53.0859],[25.1818,60.2992,39.4012],[25.1908,60.2988,57.3939],[25.1901,60.2943,51.0368],[25.1992,60.294,46.5873],[25.1985,60.2895,52.3553],[25.1894,60.2899,64.9049],[25.1873,60.2764,32.5238],[25.1692,60.2771,46.7829],[25.1685,60.2727,53.5629],[25.1504,60.2733,52.2101],[25.1497,60.2689,48.0414],[25.1407,60.2692,12.0156],[25.14,60.2648,14.0508],[25.149,60.2644,34.841],[25.1483,60.2599,11.3122],[25.1573,60.2596,42.2174],[25.1559,60.2506,21.944],[25.165,60.2503,7.2845],[25.1635,60.2413,41.0047],[25.1726,60.241,25.3213],[25.1712,60.232,0.4134],[25.1802,60.2317,9.4189],[25.1795,60.2272,2.1108],[25.1855,60.2269,7.3869],[25.1839,60.2297,8.569],[25.1854,60.2313,13.4144],[25.1911,60.2297,9.8173],[25.1901,60.2328,0.0],[25.1917,60.2333,0.0],[25.1958,60.2313,6.253],[25.2,60.2333,0.0],[25.2078,60.2339,15.6154],[25.2109,60.2391,5.6044],[25.2161,60.2401,0.7336],[25.2182,60.2422,6.3962],[25.2172,60.2453,0.0],[25.2188,60.2458,0.0],[25.2313,60.2458,0.0],[25.237,60.2443,23.9542],[25.2354,60.2479,1.8247],[25.237,60.2516,5.4791],[25.2328,60.2557,0.0],[25.2271,60.2562,15.0643],[25.2255,60.2578,0.0],[25.2375,60.2583,0.0],[25.2417,60.2604,0.0],[25.2453,60.2578,6.473],[25.2443,60.2526,13.6426],[25.2521,60.25,0.0],[25.2646,60.25,0.0],[25.275,60.2542,21.2506],[25.2854,60.2542,0.0],[25.2896,60.2562,0.0],[25.2938,60.2542,0.0],[25.3146,60.2542,0.0],[25.3224,60.2568,0.0],[25.325,60.2604,1.6127],[25.3333,60.2604,0.0],[25.3375,60.2583,0.0],[25.3563,60.2562,0.0],[25.3578,60.2557,14.9499],[25.3568,60.2526,0.0],[25.3583,60.2521,0.0],[25.3682,60.2578,0.0],[25.3646,60.2604,20.2675],[25.3604,60.2583,4.4967],[25.3521,60.2583,0.0],[25.3505,60.2589,0.0],[25.3484,60.2641,0.0],[25.3604,60.2646,0.0],[25.362,60.2651,0.0],[25.3609,60.2682,13.5833],[25.3708,60.2687,16.5576],[25.375,60.2708,0.0],[25.3792,60.2687,0.0],[25.3891,60.2682,8.2925],[25.3839,60.2661,12.28],[25.3849,60.263,5.949],[25.3797,60.2557,25.8064],[25.3875,60.2521,0.0],[25.3917,60.2542,8.352],[25.4104,60.2542,0.0],[25.425,60.2583,0.0],[25.4309,60.2577,13.1061],[25.4328,60.2557,5.3684],[25.4297,60.2536,21.2687],[25.4312,60.2521,20.0309],[25.4453,60.2526,10.3774],[25.4464,60.2557,0.0],[25.45,60.2583,0.0],[25.4516,60.2578,0.0],[25.4505,60.2547,0.0],[25.4562,60.2521,11.2857],[25.4604,60.2521,0.0],[25.4682,60.2568,0.0],[25.463,60.2589,17.1997],[25.4646,60.2604,0.0],[25.4703,60.2599,0.0],[25.475,60.2562,0.0],[25.4807,60.2568,0.0],[25.4854,60.2604,6.6743],[25.4891,60.2578,11.6182],[25.4771,60.2521,16.0589],[25.4708,60.2521,0.0],[25.4667,60.25,19.2203],[25.4604,60.25,3.779],[25.4458,60.2458,16.8575],[25.4167,60.2458,0.0],[25.4151,60.2464,4.311],[25.4161,60.2495,17.8443],[25.4068,60.2516,0.0],[25.4078,60.2484,3.2051],[25.4068,60.2464,0.0],[25.4089,60.2422,0.0],[25.4141,60.2411,14.1643],[25.413,60.238,0.0],[25.4182,60.237,0.0],[25.4172,60.2318,0.0],[25.4203,60.2286,6.041],[25.4193,60.2255,14.3526],[25.4224,60.2255,15.0307],[25.4271,60.2292,17.8734],[25.4354,60.225,16.3824],[25.4438,60.225,0.0],[25.4484,60.2307,8.3447],[25.4578,60.2318,0.0],[25.4641,60.2359,0.0],[25.4682,60.2401,0.0],[25.4672,60.2432,0.0],[25.4849,60.2443,0.0],[25.4755,60.2495,2.5827],[25.4833,60.2521,17.1185],[25.4896,60.2479,2.5828],[25.4974,60.2505,6.3522],[25.5016,60.2547,8.5417],[25.4984,60.2578,10.6306],[25.5063,60.2583,0.0],[25.5099,60.2609,0.0],[25.5083,60.2646,18.1589],[25.5099,60.2714,0.0]]],
[[[25.8359,60.188,14.3475],[25.8391,60.188,8.7948],[25.8391,60.1891,10.9819],[25.8375,60.1896,12.966],[25.8359,60.188,14.3475]]],
[[[25.8589,60.1964,12.2577],[25.862,60.1964,12.0993],[25.862,60.1974,11.4112],[25.8589,60.1974,9.9838],[25.8589,60.1964,12.2577]]],
[[[25.8693,60.1984,4.042],[25.8708,60.1979,0.0],[25.8724,60.1995,12.9155],[25.8708,60.2,13.2829],[25.8693,60.1984,4.042]]],
[[[25.8854,60.2021,0.0],[25.8771,60.2021,0.0],[25.8755,60.2005,14.9743],[25.887,60.2005,12.9266],[25.8854,60.2021,0.0]]],
[[[25.9276,60.1984,8.8001],[25.9333,60.1979,0.5268],[25.9349,60.1995,8.8948],[25.9271,60.2021,0.0],[25.9214,60.2016,0.2267],[25.9276,60.1984,8.8001]]],
[[[25.9151,60.2151,9.4099],[25.9229,60.2125,5.3851],[25.9266,60.2161,0.0],[25.9167,60.2167,0.0],[25.9151,60.2151,9.4099]]],
[[[25.9047,60.2172,8.8474],[25.9063,60.2167,12.8854],[25.9078,60.2182,11.0103],[25.9047,60.2182,14.9072],[25.9047,60.2172,8.8474]]],
[[[25.9417,60.2188,15.8573],[25.9354,60.2188,8.4467],[25.9339,60.2172,4.9771],[25.9479,60.2167,13.1388],[25.9516,60.2203,0.0],[25.9458,60.2208,0.0],[25.9417,60.2188,15.8573]]],
[[[25.9688,60.2292,3.5056],[25.963,60.2286,5.8154],[25.9609,60.2255,5.5475],[25.9682,60.2255,14.4989],[25.9703,60.2276,0.0],[25.9688,60.2292,3.5056]]],
[[[25.9349,60.2307,12.7417],[25.9146,60.2354,5.5211],[25.9042,60.2313,11.0683],[25.8984,60.2307,13.8207],[25.8943,60.2255,3.731],[25.9021,60.2229,0.0],[25.9146,60.2229,15.6365],[25.9208,60.2188,0.0],[25.925,60.2208,9.822],[25.937,60.2214,0.0],[25.937,60.2245,14.2077],[25.9354,60.225,7.4489],[25.9193,60.2255,0.0],[25.9349,60.2307,12.7417]]],
[[[25.9495,60.2286,12.31],[25.9438,60.2292,15.7871],[25.9422,60.2276,14.5408],[25.9479,60.2271,13.7077],[25.9495,60.2286,12.31]]],
[[[25.9276,60.2359,20.3149],[25.9313,60.2333,4.8311],[25.9354,60.2333,5.3391],[25.9391,60.237,3.8499],[25.9333,60.2354,1.532],[25.9292,60.2375,3.1387],[25.9276,60.2359,20.3149]]],
[[[25.9422,60.238,7.3688],[25.9437,60.2375,5.0874],[25.9453,60.2391,0.0],[25.9437,60.2396,0.0],[25.9422,60.238,7.3688]]],
[[[25.9229,60.2396,0.0],[25.9266,60.2401,0.0],[25.9266,60.2432,0.0],[25.9188,60.2458,0.0],[25.9063,60.2458,1.2515],[25.9,60.2417,1.3676],[25.8839,60.2411,7.8057],[25.9,60.2354,0.0],[25.9146,60.2396,14.5309],[25.9229,60.2396,0.0]]],
[[[25.9579,60.2444,14.5926],[25.9641,60.2474,12.0587],[25.9604,60.25,16.4549],[25.9479,60.2479,5.3664],[25.9438,60.25,4.101],[25.9297,60.2453,3.5995],[25.9375,60.2417,1.407],[25.9458,60.2417,0.0],[25.95,60.2438,18.2011],[25.9579,60.2444,14.5926]]],
[[[25.9318,60.2505,17.3465],[25.9349,60.2505,0.0],[25.9349,60.2516,-0.1477],[25.9333,60.2521,5.7629],[25.9318,60.2505,17.3465]]],
[[[25.963,60.2223,10.1113],[25.9589,60.2172,14.1141],[25.9688,60.2167,15.5286],[25.9828,60.2214,4.0326],[25.9813,60.2229,4.2053],[25.963,60.2223,10.1113]]],
[[[26.0104,60.2271,7.6412],[26.0068,60.2255,11.3844],[26.0141,60.2234,3.3187],[26.0141,60.2266,6.3525],[26.0104,60.2271,7.6412]]],
[[[26.0109,60.2297,15.2259],[26.0125,60.2292,6.8109],[26.0141,60.2307,16.0151],[26.0125,60.2313,11.9809],[26.0109,60.2297,15.2259]]],
[[[25.9714,60.2318,12.5656],[25.9745,60.2318,0.0],[25.9745,60.2328,2.2409],[25.9714,60.2328,14.8185],[25.9714,60.2318,12.5656]]],
[[[26.0193,60.2401,3.527],[26.0151,60.2411,14.5351],[26.0187,60.2375,8.1283],[26.0203,60.238,7.7498],[26.0193,60.2401,3.527]]],
[[[26.2057,60.2589,0.0],[26.2042,60.2604,4.367],[26.1984,60.2599,13.0471],[26.2,60.2583,9.0671],[26.2057,60.2589,0.0]]],
[[[26.1089,60.2734,14.5223],[26.1047,60.2745,7.3967],[26.1083,60.2708,11.953],[26.1099,60.2714,11.88],[26.1089,60.2734,14.5223]]],
[[[26.0932,60.2776,16.795],[26.0917,60.2792,13.3747],[26.0859,60.2786,0.0],[26.0875,60.2771,0.0],[26.0932,60.2776,16.795]]],
[[[26.4443,60.2734,5.728],[26.4458,60.2729,0.0],[26.4474,60.2745,1.1793],[26.4458,60.275,0.0],[26.4443,60.2734,5.728]]],
[[[26.6047,60.2776,10.0086],[26.6,60.2792,0.0],[26.5979,60.2771,0.0],[26.6,60.275,0.0],[26.6042,60.275,11.9894],[26.6057,60.2755,10.8136],[26.6047,60.2776,10.0086]]],
[[[26.2589,60.3026,16.6727],[26.262,60.3026,0.0],[26.262,60.3036,12.0056],[26.2589,60.3036,23.0856],[26.2589,60.3026,16.6727]]],
[[[26.2495,60.3047,18.9601],[26.2479,60.3063,18.0081],[26.2422,60.3057,0.0],[26.2438,60.3042,17.6494],[26.2495,60.3047,18.9601]]],
[[[26.1396,60.2917,9.8209],[26.1432,60.2932,0.0],[26.138,60.2943,12.6864],[26.125,60.3104,22.6887],[26.1083,60.3104,12.2178],[26.0984,60.3078,9.2103],[26.1016,60.3026,8.4779],[26.0964,60.3016,0.0],[26.0938,60.2979,16.0949],[26.0943,60.2964,10.3763],[26.0995,60.2953,3.3628],[26.0984,60.2922,14.7571],[26.1016,60.288,0.9286],[26.0984,60.2859,2.4049],[26.1036,60.2849,14.2426],[26.1068,60.2818,0.0],[26.1161,60.2786,0.0],[26.1151,60.2755,17.8303],[26.1167,60.275,15.1631],[26.1229,60.2792,0.0],[26.1328,60.2776,15.6685],[26.1349,60.2818,0.0],[26.1339,60.2849,0.0],[26.1349,60.287,0.0],[26.1271,60.2896,0.0],[26.1229,60.2875,0.0],[26.1188,60.2875,0.0],[26.1172,60.288,0.0],[26.1172,60.2911,0.0],[26.1396,60.2917,9.8209]]],
[[[26.0297,60.2964,0.0],[26.0313,60.2958,0.0],[26.0328,60.2974,9.2815],[26.0313,60.2979,0.0],[26.0297,60.2964,0.0]]],
[[[26.1964,60.3464,10.9832],[26.1938,60.3479,11.4279],[26.1833,60.3479,6.7688],[26.1771,60.3521,0.0],[26.1672,60.3474,0.0],[26.1682,60.3443,15.1994],[26.1672,60.3422,0.0],[26.1807,60.3391,9.1472],[26.1828,60.337,7.1327],[26.1818,60.3339,5.0808],[26.187,60.3328,9.4955],[26.1911,60.3266,8.0676],[26.1901,60.3234,4.9322],[26.1979,60.3187,10.2818],[26.2313,60.3187,0.0],[26.2354,60.3208,0.0],[26.2474,60.3214,7.6835],[26.238,60.3297,6.5381],[26.2391,60.3328,0.0],[26.225,60.3333,0.0],[26.2172,60.3359,10.7072],[26.2182,60.3391,0.0],[26.1964,60.3464,10.9832]]],
[[[26.2208,60.3667,6.2274],[26.2125,60.3667,1.9106],[26.2109,60.3651,5.1498],[26.2224,60.3651,11.3592],[26.2208,60.3667,6.2274]]],
[[[26.488,60.3068,0.0],[26.4896,60.3063,0.0],[26.4911,60.3078,0.7478],[26.488,60.3078,0.0],[26.488,60.3068,0.0]]],
[[[26.2807,60.3151,21.398],[26.2755,60.313,0.0],[26.2792,60.3104,0.0],[26.2891,60.3109,2.5706],[26.2849,60.3161,0.0],[26.2807,60.3151,21.398]]],
[[[26.2672,60.3193,0.0],[26.2687,60.3187,0.0],[26.2703,60.3203,0.0],[26.2687,60.3208,0.0],[26.2672,60.3193,0.0]]],
[[[26.5125,60.3396,0.0],[26.5089,60.3391,0.0],[26.5099,60.3349,0.0],[26.5125,60.3333,0.0],[26.5182,60.3339,0.537],[26.5161,60.3391,4.3883],[26.5125,60.3396,0.0]]],
[[[26.3046,60.3356,6.2647],[26.3057,60.337,0.0],[26.3026,60.337,5.6081],[26.3026,60.3359,12.1341],[26.3046,60.3356,6.2647]]],
[[[26.3016,60.338,16.0429],[26.3036,60.3411,15.8315],[26.2958,60.3417,18.7558],[26.2917,60.3438,0.0],[26.288,60.3411,11.7015],[26.2896,60.3396,7.2985],[26.3016,60.338,16.0429]]],
[[[26.2833,60.3458,21.2107],[26.2771,60.3458,4.6338],[26.2755,60.3443,0.0],[26.287,60.3443,15.1569],[26.2833,60.3458,21.2107]]],
[[[26.4068,60.3464,12.064],[26.4099,60.3464,10.4644],[26.4099,60.3474,14.2023],[26.4083,60.3479,14.2023],[26.4068,60.3464,12.064]]],
[[[26.4193,60.3505,4.6555],[26.4224,60.3474,0.0],[26.4214,60.3443,0.0],[26.4271,60.3438,23.511],[26.4359,60.3474,9.3171],[26.437,60.3495,0.0],[26.4359,60.3516,23.7296],[26.4391,60.3557,0.0],[26.4359,60.3568,9.1376],[26.437,60.3599,0.0],[26.4313,60.3604,13.7527],[26.4245,60.3547,0.0],[26.4172,60.3536,1.8981],[26.4193,60.3505,4.6555]]],
[[[26.3521,60.3625,2.3614],[26.3583,60.3625,5.1011],[26.3599,60.3641,14.9795],[26.3547,60.3651,0.0],[26.3432,60.3745,4.8533],[26.3401,60.3745,0.0],[26.338,60.3724,0.0],[26.3484,60.363,6.0276],[26.3521,60.3625,2.3614]]],
[[[26.263,60.3755,8.7828],[26.2661,60.3755,0.0],[26.2661,60.3766,0.0],[26.2646,60.3771,0.0],[26.263,60.3755,8.7828]]],
[[[26.3583,60.3917,0.0],[26.3599,60.3932,0.0],[26.3547,60.3932,3.1913],[26.3547,60.3922,16.3457],[26.3583,60.3917,0.0]]],
[[[26.0776,60.3724,0.0],[26.0755,60.3693,0.0],[26.0776,60.3651,0.2921],[26.0849,60.3651,0.0],[26.0839,60.3693,18.3756],[26.0807,60.3724,0.0],[26.0776,60.3724,0.0]]],
[[[26.1188,60.3729,15.5406],[26.1151,60.3724,21.378],[26.113,60.3693,2.9817],[26.1188,60.3688,1.458],[26.1224,60.3714,3.853],[26.1188,60.3729,15.5406]]],
[[[26.0563,60.3812,3.461],[26.0547,60.3797,0.0],[26.0589,60.3755,5.8373],[26.062,60.3755,7.902],[26.0641,60.3776,0.0],[26.062,60.3807,0.0],[26.0563,60.3812,3.461]]],
[[[26.1125,60.3896,0.0],[26.0995,60.3953,0.0],[26.0938,60.3958,0.0],[26.0859,60.388,13.1511],[26.0891,60.387,30.5301],[26.088,60.3839,0.0],[26.0896,60.3833,0.0],[26.1021,60.3833,0.0],[26.1083,60.3875,8.5937],[26.1099,60.3859,20.1359],[26.1068,60.3818,0.0],[26.1089,60.3797,0.0],[26.1146,60.3792,19.8033],[26.1161,60.3797,18.8717],[26.1151,60.387,17.8094],[26.1161,60.3891,0.0],[26.1125,60.3896,0.0]]],
[[[26.2536,60.4271,0.0],[26.2557,60.4286,0.0],[26.2521,60.4292,2.851],[26.2521,60.4271,0.0],[26.2536,60.4271,0.0]]],
[[[26.0458,60.3875,1.7081],[26.0474,60.3891,0.0],[26.0443,60.3891,0.0],[26.0443,60.388,5.4162],[26.0458,60.3875,1.7081]]],
[[[25.6536,60.3599,0.0],[25.6521,60.3604,8.0573],[25.6505,60.3589,3.9765],[25.6521,60.3583,0.0],[25.6536,60.3599,0.0]]],
[[[25.875,60.3958,0.3172],[25.8766,60.3974,0.0],[25.8729,60.3979,5.7644],[25.8729,60.3958,0.0],[25.875,60.3958,0.3172]]]]}
,"properties": {"GID_2": "FIN.4.1_1","GID_0": "FIN","country": "Finland","GID_1": "FIN.4_1","province": "SouthernFinland","NL_NAME_1": "NA","county": "EasternUusimaa","VARNAME_2": "Itä-Uusimaa|ÖstraNyland","NL_NAME_2": "NA","TYPE_2": "Maakunta|landskap","ENGTYPE_2": "Region","CC_2": "NA","HASC_2": "NA","name": "Eastern_Uusimaa.county","area_km2": 2800.666,"hist_schema_id": "Elevation0-9000","hist_area_km2": {"0": 409.204,"25": 1320.258,"50": 805.736,"75": 248.757,"100": 16.7}}}