{"type": "Feature","bbox": [27.79401207771258,63.067922380159359,28.438963880258086,63.424102973988681],"geometry": {"type": "Polygon","coordinates": [[[27.922060473014852,63.343152839027482,114.908],[27.938250500007115,63.32872899679802,99.8472],[27.925004114286168,63.32872899679802,118.8373],[27.933246309845856,63.318426252348416,99.7188],[27.979755841932672,63.301353132974782,221.3327],[27.980344570186929,63.298998219957724,244.924],[27.979167113678415,63.290461660270921,282.3988],[27.979755841932672,63.28781238312672,278.6643],[27.983876939712502,63.286340562491063,225.9676],[27.992413499399333,63.28692929074532,269.2015],[27.996828961306306,63.284280013601148,300.8811],[28.00212751559468,63.280158915821289,276.9447],[28.015079537188484,63.272799812643,252.7643],[28.021261183858229,63.267206894227513,221.2253],[28.015668265442741,63.2624970681934,252.9611],[28.005954249247395,63.251311231362394,166.9247],[28.000066966704765,63.246895769455421,165.749],[28.034507569579148,63.219519905632183,138.8476],[28.041277944503179,63.198620052605833,138.7027],[28.061589069275271,63.199503144987233,103.2421],[28.084549471191536,63.208039704674036,102.8906],[28.0998564058024,63.208922797055436,96.1701],[28.117518253430291,63.200680601495748,111.5016],[28.13753501407524,63.201269329750005,107.6666],[28.156374318211675,63.208334068801179,98.4359],[28.170798160441137,63.219519905632183,95.0],[28.185222002670571,63.200680601495748,100.7781],[28.253514480165109,63.15740907480739,110.0325],[28.240562458571333,63.153876705281817,97.7873],[28.235263904282959,63.147695058612044,98.4592],[28.23703008904576,63.139452863052355,95.6519],[28.246449741113963,63.130033210984152,102.9801],[28.257341213817824,63.125912113204294,115.7488],[28.269704507157371,63.126206477331436,106.2299],[28.295019822090694,63.130033210984152,111.9367],[28.280595979861232,63.116786825263233,110.5769],[28.227610436977528,63.11560936875469,98.7877],[28.205238763315521,63.109722086212059,97.9504],[28.21613023601941,63.1108995427206,102.8598],[28.227316072850414,63.109427722084945,115.3856],[28.237324453172874,63.106189716686487,103.9398],[28.246449741113963,63.102362983033771,94.0],[28.230848442375986,63.0970644287454,98.9957],[28.21524714363801,63.0988306135082,112.6244],[28.201117665535691,63.0988306135082,121.9716],[28.191403649340344,63.088527869058595,149.792],[28.252925751910851,63.07057165730356,129.6868],[28.2738256049372,63.067922380159359,119.4032],[28.336525164016251,63.075575847464791,117.6462],[28.3565419246612,63.075575847464791,107.7163],[28.3565419246612,63.081757494134564,106.3831],[28.359779930059659,63.094120787474083,100.4031],[28.438963880258086,63.150638699883359,94.0],[28.391276891662756,63.162413264968649,94.0],[28.383917788484439,63.168006183384136,94.0],[28.387155793882897,63.175954014816682,127.5781],[28.403934549129417,63.1824300256136,103.8984],[28.411293652307705,63.191555313554659,101.5476],[28.381562875467409,63.196853867843032,94.9736],[28.350949006245713,63.209511525309694,194.8275],[28.322984414168189,63.217164992615125,257.8166],[28.301201468760439,63.205979155784121,129.8145],[28.330932245600764,63.184196210376371,102.7942],[28.347416636720112,63.174776558308167,100.8238],[28.363312299585232,63.171244188782595,94.0],[28.323278778295332,63.157703438934533,97.336],[28.289132539548064,63.168889275765537,102.7597],[28.256163757309309,63.188317308156229,134.8898],[28.219073877290725,63.19832568847869,102.0303],[28.204061306807006,63.20421297102132,102.9731],[28.200528937281433,63.218342449123639,100.291],[28.201117665535691,63.234238111988759,95.0],[28.198762752518633,63.246895769455421,95.0],[28.186105095051971,63.25690414977791,95.0],[28.166382698534136,63.2642632529562,95.0],[28.146071573762072,63.26602943771897,95.0],[28.130470275024095,63.260436519303482,95.0],[28.118695709938805,63.255726693269366,95.0],[28.095440943895426,63.26602943771897,96.5187],[28.055407422605498,63.293994029796494,95.0],[27.852884903138914,63.403791849216617,123.8877],[27.83757796852808,63.408796039377847,122.3785],[27.825803403442819,63.418215691446051,128.9029],[27.812851381849015,63.424102973988681,132.5451],[27.79401207771258,63.418215691446051,130.3958],[27.8107908329591,63.403497485089474,129.4552],[27.879083310453638,63.360814686655374,123.2994],[27.922060473014852,63.343152839027482,114.908]]]}
,"properties": {"featurecla": "Lake","scalerank": 9,"name": "null531","name_abb": null,"name_alt": null,"note": "_untitled_212","delta": null,"dam_name": null,"year": -99,"admin": null,"min_zoom": 7.0,"min_label": 8.0,"area_km2": 211.4333,"hist_schema_id": "Elevation0-9000","hist_area_km2": {"100": 140.6163,"125": 41.7349,"150": 11.4989,"175": 5.0382999999999996,"200": 3.7868,"225": 3.3743,"250": 3.516,"275": 1.315,"300": 0.5527}}}