{"type":"Feature","properties":{"id":37886.0,"name":null,"lge_id":null,"pfafstette":0.0,"lke_type":"N","altitude":0,"objectid":21196,"scalerank":12,"featurecla":"Lake","note":"_untitled_21196","funkyname":0,"min_zoom":7.0,"min_label":8.0},
"geometry":{"type": "Polygon","coordinates": [[[26.306895378521233,63.453863836712827,131.0043],[26.306895378521233,63.453863836712827,131.0043],[26.309825066021233,63.471808172650327,136.6538],[26.303477409771233,63.487677313275327,139.2206],[26.295420769146233,63.504034735150327,137.8637],[26.283702019146233,63.512823797650327,140.0658],[26.248179558208733,63.519537664837827,146.92],[26.225718620708733,63.514410711712827,130.821],[26.223643425396233,63.497320867962827,135.8777],[26.222056511333733,63.486090399212827,130.8774],[26.239390495708733,63.473395086712827,130.7198],[26.269786003521233,63.463019110150327,130.901],[26.289561394146233,63.452398992962827,130.8679],[26.298960808208733,63.445379949994077,131.5132],[26.306895378521233,63.453863836712827,131.0043]]]}}