{"type": "Feature","id": 42825.0,"bbox": [28.652110222271233,62.768194891400327,28.829844597271233,62.907721258587827],"geometry": {"type": "Polygon","coordinates": [[[28.707408073833733,62.773077703900327,99.5],[28.707408073833733,62.773077703900327,99.5],[28.720469597271233,62.768194891400327,99.5],[28.731211784771233,62.773688055462827,99.5],[28.742686394146233,62.785223699994077,99.5],[28.752696159771233,62.794317938275327,99.5],[28.763682487896233,62.795294500775327,99.5],[28.775767448833733,62.800116278119077,99.5],[28.790049675396233,62.807989813275327,99.5],[28.809825066021233,62.810187078900327,99.5],[28.794077995708733,62.827276922650327,115.4225],[28.790049675396233,62.839972235150327,113.8551],[28.820445183208733,62.837774969525327,99.5],[28.829844597271233,62.849371649212827,99.5],[28.811778191021233,62.866949774212827,109.7467],[28.794688347271233,62.861212469525327,99.5],[28.787364128521233,62.846930242962827,106.4559],[28.773448112896233,62.851813055462827,116.9049],[28.744883659771233,62.859381414837827,115.7001],[28.718272331646233,62.867560125775327,120.1072],[28.703135612896233,62.876105047650327,126.6622],[28.687022331646233,62.887945867962827,151.5527],[28.682505730083733,62.901617742962827,152.742],[28.673350456646233,62.907721258587827,99.5],[28.655161980083733,62.904364324994077,121.9471],[28.652110222271233,62.885504461712827,99.5],[28.671153191021233,62.867926336712827,99.5],[28.691661003521233,62.858465887494077,99.5],[28.689707878521233,62.846014715619077,131.48],[28.694956901958733,62.828741766400327,99.5],[28.708994987896233,62.810431219525327,99.5],[28.705821159771233,62.787970282025327,110.3758],[28.707408073833733,62.773077703900327,99.5]]]}
,"properties": {"fillOpacity": 1,"fill": "#F0F","name": "Lake~Rikkavesi","title": "Lake~Rikkavesi","lge_id": null,"pfafstette": 0.0,"lke_type": "N","altitude": 0,"objectid": 24045,"scalerank": 10,"featurecla": "Lake","note": "Lake~Rikkavesi","funkyname": 0,"min_zoom": 6.0,"min_label": 7.0,"area_km2": 51.57312,"hist_schema_id": "Elevation0-9000","hist_area_km2": {"100": 44.4229,"125": 6.63765,"150": 0.49323,"175": 0.01934}}}