{"type": "Feature","bbox": [26.197675416277548,62.938402164221429,26.7669756381502,63.380242719046066],"geometry": {"type": "Polygon","coordinates": [[[26.6398103352293,63.153582341154674,108.5294],[26.650996172060303,63.170361096401194,107.3931],[26.673956573976596,63.178014563706625,134.9686],[26.686025503188972,63.1806638408508,115.4218],[26.695445155257204,63.187139851647686,110.799],[26.703687350816892,63.19420459069886,105.4811],[26.711635182249438,63.19832568847869,114.971],[26.723704111461842,63.199503144987233,123.1303],[26.7669756381502,63.19832568847869,152.8734],[26.74695887750525,63.210394617691094,138.1329],[26.734889948292846,63.246601405328306,102.1659],[26.718994285427726,63.253077416125194,101.8507],[26.726942116860272,63.258081606286424,101.8444],[26.73518431241996,63.262202704066283,102.2305],[26.744015236233935,63.2651463453376,121.7178],[26.753140524174995,63.267206894227513,103.2782],[26.7225266549533,63.277215274549974,104.7147],[26.690735329223088,63.2745659974058,102.3482],[26.661004552382792,63.276626546295716,110.45],[26.635689237449469,63.301353132974782,102.5239],[26.683964954299057,63.301941861229039,146.0247],[26.698094432401376,63.297820763449209,121.4704],[26.707219720342465,63.298115127576324,124.6611],[26.716933736537811,63.305474230754612,122.1726],[26.732829399402931,63.321369893619732,122.6467],[26.716933736537811,63.325785355526705,102.3509],[26.629213226652581,63.327551540289505,115.2688],[26.605958460609173,63.323430442509647,113.3715],[26.58388115107428,63.314893882822844,109.5871],[26.567691124082046,63.301353132974782,102.206],[26.545908178674296,63.3145995186957,102.2585],[26.521475956122373,63.334027551086393,101.8248],[26.504697200875881,63.355810496494144,102.0815],[26.505580293257282,63.375827257139093,111.5759],[26.496749369443307,63.379359626664666,121.7451],[26.487035353247961,63.380242719046066,125.1188],[26.477321337052615,63.378476534283294,111.9706],[26.460248217678981,63.36552451268949,102.2083],[26.454949663390636,63.365230148562347,102.2476],[26.449945473229377,63.367879425706548,102.1855],[26.441408913542574,63.36964561046932,103.5123],[26.42433579416894,63.368468153960805,106.6319],[26.412855593210793,63.364641420308089,116.6969],[26.38341918049764,63.349334485697256,129.4142],[26.395488109710016,63.335205007594936,128.5151],[26.47202278276427,63.281042008202689,103.1345],[26.484091711976646,63.275743453914316,118.609],[26.49115645102782,63.273977269151544,116.6781],[26.537665983114607,63.2763321821686,102.25],[26.549440548199897,63.273388540897287,117.7819],[26.558565836140957,63.252783051998051,122.3087],[26.569457308844846,63.248661954218221,118.8047],[26.582114966311508,63.247190133582563,117.5],[26.591534618379711,63.243069035802705,111.1626],[26.613906292041719,63.213926987216666,110.4092],[26.627152677762638,63.20009187324149,102.0097],[26.6433427047549,63.191555313554659,101.9077],[26.630096319033953,63.185079302757771,101.8625],[26.615966840931634,63.185962395139171,101.9933],[26.602720455210715,63.192438405936059,108.2548],[26.591534618379711,63.202152422131405,122.785],[26.579171325040193,63.208922797055436,155.0495],[26.571517857734761,63.202446786258548,141.0082],[26.566219303446388,63.191555313554659,116.3696],[26.560920749158015,63.184784938630628,103.3448],[26.545613814547181,63.183607482122113,102.1708],[26.502342287858824,63.191555313554659,122.6155],[26.495571912934793,63.186845487520571,128.4028],[26.491450815154963,63.175954014816682,110.5396],[26.489978994519277,63.164473813858564,106.8966],[26.49203954340922,63.15740907480739,102.3878],[26.473788967527042,63.157703438934533,102.2039],[26.466135500221611,63.159763987824448,107.4523],[26.458482032916208,63.164768177985678,107.3321],[26.456715848153408,63.160941444332963,105.6565],[26.452889114500692,63.154759797663218,105.1481],[26.451417293865035,63.150638699883359,103.4122],[26.36251932747129,63.175659650689568,109.8145],[26.32071962141859,63.196853867843032,102.4955],[26.293932485849609,63.225701552301956,102.3564],[26.30070286077364,63.246895769455421,102.7813],[26.280980464255805,63.260436519303482,102.1311],[26.252721508051167,63.270150535498829,102.184],[26.222402002956613,63.275154725660059,109.569],[26.197675416277548,63.274860361532944,148.4224],[26.293638121722466,63.193910226571717,135.1808],[26.335437827775166,63.171244188782595,127.008],[26.418742875753424,63.1406303195609,135.9346],[26.431106169092971,63.126795205585694,119.4139],[26.436404723381315,63.111193906847717,125.7299],[26.462603130696039,63.087939140804309,112.0576],[26.47202278276427,63.075575847464791,153.7297],[26.456421484026293,63.060857641108214,116.9458],[26.45524402751775,63.048494347768667,111.9951],[26.466135500221611,63.038780331573321,116.0524],[26.485563532612304,63.033187413157833,118.9038],[26.485563532612304,63.02700576648806,118.7648],[26.4743776957813,63.030832500140775,119.165],[26.464663679585954,63.031715592522175,118.4561],[26.456715848153408,63.028477587123717,125.7012],[26.451417293865035,63.020235391564029,132.0813],[26.474966424035586,63.00198481568188,128.6513],[26.487918445629361,62.995803169012106,118.8508],[26.529129423427804,62.989032794088075,114.3592],[26.562981298047958,62.96695548455321,121.0581],[26.619793574584349,62.940757077238487,120.1138],[26.629507590779696,62.938402164221429,122.1813],[26.6433427047549,62.941640169619888,134.864],[26.649524351424645,62.955769647722207,122.4123],[26.663948193654107,62.958713288993522,142.795],[26.663948193654107,62.965778028044667,102.1642],[26.648346894916131,62.972842767095841,101.8521],[26.63745542221227,62.982556783291187,103.7943],[26.630979411415353,62.995214440757849,101.5207],[26.629213226652581,63.010227011241568,101.8852],[26.623620308237065,63.023179032835344,101.8475],[26.610373922516146,63.034659233793491,101.8306],[26.581231873930108,63.051437989039982,101.7872],[26.546202542801439,63.064390010633787,102.5162],[26.536782890733235,63.071749113812075,102.3522],[26.53383924946192,63.082051858261678,102.5607],[26.542375809148723,63.087056048422937,102.0229],[26.560920749158015,63.088527869058595,105.278],[26.569751672971961,63.087056048422937,108.1887],[26.579171325040193,63.082934950643079,111.9926],[26.588885341235539,63.080580037626021,109.8044],[26.598304993303742,63.085289863660137,106.1391],[26.60566409648203,63.091765874457025,108.1702],[26.613317563787461,63.095886972236883,109.769],[26.623031579982808,63.097358792872541,111.9371],[26.635689237449469,63.095886972236883,108.513],[26.635394873322326,63.100302434143856,110.1147],[26.633923052686669,63.103246075415171,109.8688],[26.629213226652581,63.109722086212059,102.022],[26.635689237449469,63.109722086212059,101.974],[26.623031579982808,63.123262836060121,108.9073],[26.633039960305268,63.135037401145382,105.0551],[26.6398103352293,63.153582341154674,108.5294]]]}
,"properties": {"featurecla": "Lake","scalerank": 5,"name": "null339","name_abb": null,"name_alt": null,"note": "_untitled_22","delta": null,"dam_name": null,"year": -99,"admin": null,"min_zoom": 4.7,"min_label": 6.0,"area_km2": 391.9122,"hist_schema_id": "Elevation0-9000","hist_area_km2": {"100": 285.9798,"125": 95.25,"150": 10.0181,"175": 0.6643}}}