{"type": "Feature","id": "3190","bbox": [28.3584,61.72414,31.56952,63.88336],"geometry": {"type": "Polygon","coordinates": [[[28.9347,63.84199,214.6909],[28.57203,63.88336,197.6436],[28.5186,63.88202,217.5316],[28.46548,63.87135,233.8678],[28.46444,63.8675,234.8105],[28.46248,63.85285,191.4544],[28.45576,63.84192,201.1038],[28.44119,63.82494,207.1543],[28.3584,63.75342,259.0454],[28.38931,63.74076,253.9587],[28.44563,63.70536,235.8418],[28.46961,63.6972,219.4682],[28.54981,63.69286,165.0957],[28.57948,63.68733,143.5],[28.5956,63.68206,143.5],[28.60738,63.67348,153.4918],[28.60387,63.67105,162.2749],[28.58795,63.65668,192.1351],[28.60645,63.62206,242.354],[28.61503,63.59514,221.9136],[28.63384,63.57253,240.7645],[28.65926,63.56077,191.7467],[28.67518,63.54904,200.8108],[28.6634,63.547,212.6754],[28.64097,63.54537,248.8601],[28.62092,63.53979,239.6639],[28.61182,63.53199,233.3834],[28.61699,63.51369,206.3595],[28.6264,63.50354,217.8562],[28.63828,63.48145,228.0674],[28.64769,63.45832,253.5027],[28.66123,63.4369,225.1195],[28.68169,63.42055,222.3998],[28.70856,63.40678,210.6441],[28.75259,63.39014,165.2098],[28.76138,63.3766,194.2268],[28.75745,63.36709,190.0981],[28.75559,63.35872,185.6246],[28.75321,63.33533,179.7966],[28.74804,63.32296,180.1798],[28.73606,63.31115,226.893],[28.70309,63.28999,187.6228],[28.69957,63.28348,202.7179],[28.70712,63.27839,221.8498],[28.71022,63.27673,246.558],[28.70526,63.27107,223.1687],[28.65296,63.25154,170.2643],[28.64759,63.24663,159.7833],[28.66019,63.24286,160.5779],[28.6572,63.23619,145.9097],[28.61823,63.2088,139.9588],[28.64242,63.19681,146.5019],[28.67239,63.18689,177.2031],[28.71973,63.16447,190.602],[28.87693,63.06023,166.7937],[29.0519,62.99905,243.7448],[29.05728,62.98163,214.8888],[29.04518,62.97548,198.8564],[28.98886,62.96019,139.5905],[28.97604,62.95481,139.5495],[28.96932,62.94562,169.5677],[28.97397,62.9436,158.6687],[28.98958,62.93492,160.0563],[28.99444,62.93285,158.7751],[28.99041,62.92779,145.4444],[28.9809,62.92582,166.2137],[28.96322,62.92647,135.6068],[28.94689,62.93171,156.6252],[28.93945,62.93554,169.3617],[28.93346,62.92774,189.2313],[28.94007,62.91766,142.7432],[28.9563,62.90794,122.7436],[28.98731,62.89787,123.7702],[29.01046,62.87658,140.8328],[29.03919,62.86252,122.0438],[29.08828,62.84996,114.9119],[29.08146,62.83753,114.6799],[28.95609,62.78852,160.308],[28.92405,62.78196,158.9712],[28.87951,62.79459,135.0088],[28.83868,62.81565,122.2928],[28.796,62.82826,107.6102],[28.76985,62.82557,99.5],[28.74443,62.79374,99.5],[28.72655,62.78113,99.5],[28.67311,62.76661,99.5],[28.64645,62.74434,99.5],[28.70205,62.6923,99.5],[28.68686,62.68548,99.5],[28.67983,62.68137,99.5],[28.66764,62.67026,99.5],[28.65823,62.65333,99.5],[28.80985,62.6308,99.5],[28.82742,62.62483,99.5],[28.91413,62.58466,99.5],[28.93222,62.57964,99.5],[28.95558,62.56613,99.5],[28.96364,62.5582,99.5],[28.98886,62.5445,99.5],[29.03102,62.52972,99.5],[29.03981,62.52399,132.412],[29.01449,62.51443,112.175],[29.0241,62.50944,112.1224],[29.10709,62.49112,111.5],[29.11371,62.48298,111.5],[29.1074,62.4767,111.5],[29.09686,62.46203,111.5],[29.08839,62.44417,117.3334],[29.08456,62.43366,122.7464],[29.08404,62.42125,110.5],[29.087039999999998,62.41991,110.5],[29.09324,62.418,110.5],[29.10451,62.41676,110.5],[29.10782,62.41433,110.5],[29.10244,62.39909,113.7971],[29.10192,62.39673,111.203],[29.11164,62.3919,124.9842],[29.14337,62.38503,120.1602],[29.15929,62.38555,114.4117],[29.16249,62.38981,111.5212],[29.18337,62.40978,130.5791],[29.20879,62.41759,73.5],[29.24951,62.4096,73.5],[29.28145,62.38296,73.5],[29.31338,62.33227,73.5],[29.33984,62.29912,73.5],[29.35586,62.28343,73.5],[29.39307,62.25553,73.5],[29.41312,62.24475,73.5],[29.42108,62.22013,73.5],[29.41508,62.20003,73.5],[29.42211,62.1606,73.5],[29.44144,62.12468,73.5],[29.45911,62.09874,73.5],[29.49384,62.06148,97.1056],[29.5452,62.02593,94.938],[29.60463,61.99717,72.5],[29.63388,61.98722,72.5],[29.65641,61.97314,72.5],[29.63409,61.95229,72.5],[29.62179,61.93513,82.4658],[29.61662,61.92351,72.5],[29.62375,61.90594,72.5],[29.68628,61.87542,72.5],[29.69279,61.86713,72.5],[29.67357,61.85039,72.5],[29.68969,61.84274,72.5],[29.69383,61.82486,75.9373],[29.65362,61.78331,97.6654],[29.56401,61.72414,110.37],[30.05721,61.84881,106.5627],[30.14331,61.8508,79.5],[30.14496,61.85057,79.5],[30.14565,61.85047,79.5],[30.33957,61.99167,99.6797],[30.33973,61.99167,99.6797],[30.33994,61.99177,99.6797],[30.4807,62.06769,107.3884],[30.60721,62.15127,87.0309],[30.63501,62.18401,106.076],[30.64772,62.19277,80.2163],[30.6655,62.19982,78.8683],[30.70384,62.21039,137.4128],[30.79381,62.253,112.6517],[30.90755,62.29289,157.9061],[30.92564,62.30212,148.3751],[30.94186,62.3146,143.1579],[30.96708,62.34819,152.5052],[30.98062,62.3588,165.6721],[31.12335,62.43482,156.0205],[31.14164,62.45652,144.0],[31.15296,62.46735,144.0],[31.16862,62.47601,144.0],[31.22159,62.49159,169.5427],[31.22195,62.49172,169.5427],[31.22216,62.49172,169.5427],[31.24376,62.50334,162.9893],[31.26009,62.52484,144.0],[31.28406,62.57298,177.0344],[31.30277,62.59603,163.1089],[31.34701,62.62933,147.5715],[31.36334,62.65158,148.332],[31.41057,62.74653,185.5964],[31.44126,62.7887,156.2141],[31.48064,62.82609,213.9352],[31.56952,62.90593,190.0727],[31.53583,62.91952,216.4175],[31.5193,62.94319,177.7641],[31.50545,62.9682,191.9424],[31.48064,62.98634,182.138],[31.46803,62.99156,186.5549],[31.44447,63.00194,177.8902],[31.38034,63.04794,183.3562],[31.35155,63.0622,190.6245],[31.28851,63.08473,191.9868],[31.26277,63.10059,199.2498],[31.25084,63.11548,201.8689],[31.24076,63.13573,227.4377],[31.23425,63.15723,194.6553],[31.23306,63.17573,203.0025],[31.22567,63.19604,202.769],[31.20397,63.21268,234.2861],[31.17782,63.22524,238.2737],[30.97494,63.28916,221.5681],[30.82094,63.37567,156.7821],[30.48866,63.46212,198.3746],[30.46107,63.47287,147.1044],[30.44143,63.49158,158.9749],[30.38045,63.53245,171.6189],[30.24247,63.5818,180.3303],[30.00115,63.71534,162.6419],[29.98078,63.74154,208.0444],[29.99843,63.7471,204.6311],[29.99779,63.7473,204.6311],[29.98249,63.75197,211.5514],[29.93009,63.74805,172.2705],[29.78323,63.71518,180.2375],[29.76659,63.71415,202.1851],[29.75873,63.71559,213.8649],[29.74313,63.72479,208.319],[29.73589,63.73218,222.6702],[29.68659,63.85801,261.3399],[29.67161,63.86913,269.1297],[29.65621,63.87336,275.2859],[28.9347,63.84199,214.6909]]]}
,"properties": {"ISO3166-1-Alpha-3": "FIN","country": "Finland","fill": "#00F","name": "North Karelia","area_km2": 21258.77,"hist_schema_id": "Elevation0-9000","hist_area_km2": {"75": 2648.96,"100": 4746.39,"125": 3362.52,"150": 4201.68,"175": 3410.14,"200": 1769.54,"225": 823.62,"250": 251.53,"275": 38.42,"300": 5.23,"325": 0.64}}}