{"type":"Feature","properties":{"GID_2":"FIN.1.1_1","GID_0":"FIN","country":"Finland","GID_1":"FIN.1_1","province":"EasternFinland","NL_NAME_1":"NA","county":"NorthKarelia","VARNAME_2":"Pohjois-Karjala|NorraKarelen","NL_NAME_2":"NA","TYPE_2":"Maakunta|landskap","ENGTYPE_2":"Region","CC_2":"NA","HASC_2":"NA","name":"North_Karelia.county"},
"geometry":{"type": "MultiPolygon","coordinates": [[[[29.6201,61.9335,72.5],[29.6131,61.9113,72.5],[29.632,61.91,72.5],[29.6292,61.9011,72.5],[29.6386,61.9005,72.5],[29.6372,61.896,72.5],[29.6467,61.8954,72.5],[29.6453,61.891,72.5],[29.6641,61.8896,72.5],[29.6627,61.8852,72.5],[29.6722,61.8845,72.5],[29.6707,61.8801,72.5],[29.6802,61.8795,72.5],[29.6788,61.875,72.5],[29.6882,61.8744,72.5],[29.6868,61.8699,72.5],[29.6962,61.8693,72.5],[29.6934,61.8604,72.5],[29.684,61.861,72.5],[29.6826,61.8566,72.5],[29.6731,61.8573,72.5],[29.6703,61.8484,82.5539],[29.6798,61.8477,72.5],[29.6783,61.8433,72.5],[29.6878,61.8426,72.5],[29.6864,61.8382,72.5],[29.6958,61.8375,72.5],[29.6803,61.7887,117.9984],[29.6709,61.7893,104.2532],[29.6667,61.776,112.0533],[29.6573,61.7767,113.0201],[29.6545,61.7678,104.5375],[29.6451,61.7685,111.1824],[29.6423,61.7596,118.482],[29.6329,61.7602,113.4517],[29.6315,61.7558,94.800299999999993],[29.6127,61.7571,103.0981],[29.6099,61.7482,114.852],[29.6005,61.7489,119.9098],[29.5991,61.7444,106.7668],[29.5898,61.7451,127.0869],[29.5884,61.7407,130.8868],[29.579,61.7413,107.9212],[29.5762,61.7324,110.6665],[29.5668,61.7331,138.1973],[29.564,61.7242,110.37],[29.5734,61.7235,108.1243],[29.5748,61.728,110.4052],[29.5936,61.7267,104.8755],[29.595,61.7311,106.1373],[29.6044,61.7305,125.4779],[29.6057,61.7349,108.8351],[29.6245,61.7336,104.6817],[29.6259,61.738,102.6035],[29.6353,61.7374,101.6884],[29.6367,61.7418,110.6222],[29.6461,61.7412,100.2403],[29.6475,61.7456,111.8469],[29.6663,61.7443,99.8975],[29.6677,61.7487,103.5046],[29.6771,61.7481,110.6641],[29.6785,61.7525,97.5341],[29.6879,61.7519,96.9025],[29.6893,61.7563,97.7268],[29.7081,61.755,94.2019],[29.7095,61.7594,97.1875],[29.7189,61.7588,105.4678],[29.7203,61.7632,100.6359],[29.7391,61.7619,107.0932],[29.7405,61.7663,105.9156],[29.7499,61.7657,107.8001],[29.7513,61.7701,95.7825],[29.7607,61.7694,89.4674],[29.7621,61.7739,91.4323],[29.7809,61.7725,98.7367],[29.7823,61.777,111.8905],[29.7917,61.7763,110.1657],[29.7931,61.7807,95.9588],[29.8025,61.7801,93.5821],[29.8039,61.7845,90.5003],[29.8228,61.7832,87.4531],[29.8242,61.7876,83.7553],[29.8336,61.7869,88.0086],[29.835,61.7914,94.449],[29.8444,61.7907,90.2083],[29.8458,61.7952,79.5],[29.8646,61.7938,93.9562],[29.8661,61.7983,79.5],[29.8755,61.7976,79.5],[29.8769,61.802,79.5],[29.8863,61.8013,79.5],[29.8877,61.8058,79.5],[29.9066,61.8044,79.5],[29.908,61.8089,79.5],[29.9174,61.8082,79.5],[29.9188,61.8126,108.1077],[29.9376,61.8113,79.5],[29.9391,61.8157,79.5],[29.9485,61.8151,89.38],[29.9499,61.8195,79.5],[29.9594,61.8188,79.5],[29.9608,61.8232,91.4586],[29.9796,61.8219,79.5],[29.9811,61.8263,79.5],[29.9905,61.8256,79.5],[29.9919,61.8301,94.4972],[30.0013,61.8294,79.5],[30.0028,61.8338,79.5],[30.0122,61.8332,79.5],[30.0137,61.8376,79.5],[30.0231,61.8369,79.5],[30.0245,61.8414,93.0507],[30.0434,61.84,116.4388],[30.0448,61.8444,115.3264],[30.0542,61.8437,115.6685],[30.0557,61.8482,121.7764],[30.0651,61.8475,101.4713],[30.0666,61.8519,111.6903],[30.0854,61.8506,79.5],[30.0869,61.855,79.5],[30.0963,61.8543,100.8548],[30.0978,61.8587,79.5],[30.1166,61.8574,79.5],[30.1181,61.8618,79.5],[30.1275,61.8611,79.5],[30.129,61.8655,79.5],[30.1384,61.8648,79.5],[30.1369,61.8604,79.5],[30.1463,61.8597,79.5],[30.1434,61.8509,79.5],[30.15,61.8517,85.5407],[30.1606,61.8587,110.0732],[30.1651,61.8583,105.8947],[30.1665,61.8625,102.2964],[30.2011,61.8838,105.9849],[30.1993,61.8879,111.1382],[30.2023,61.8923,108.2046],[30.2109,61.8959,102.2668],[30.2162,61.8955,109.7569],[30.2176,61.8997,79.3395],[30.2495,61.9157,100.1501],[30.2519,61.9156,92.1383],[30.2526,61.9175,93.4641],[30.2733,61.9305,105.2298],[30.2772,61.9319,86.9271],[30.2862,61.9312,91.9892],[30.2871,61.9339,93.0234],[30.3104,61.9385,72.9497],[30.3175,61.938,93.7909],[30.322,61.9513,66.5],[30.3157,61.9517,66.5],[30.3149,61.9531,66.5],[30.3143,61.9656,98.6503],[30.3332,61.9761,83.8129],[30.3386,61.9773,90.4332],[30.35,61.9764,117.7142],[30.3512,61.98,133.0132],[30.3801,61.9969,133.4245],[30.3859,61.9965,141.9631],[30.3879,62.0023,135.5529],[30.4203,62.0244,135.2665],[30.4323,62.0294,108.8273],[30.4359,62.0291,113.9836],[30.4369,62.0318,119.9627],[30.4529,62.0415,128.5871],[30.4594,62.041,127.9301],[30.4616,62.0471,121.9507],[30.4653,62.0496,114.562],[30.472,62.0491,113.8099],[30.4766,62.0624,109.563],[30.4824,62.062,105.0466],[30.4935,62.0702,102.3218],[30.4986,62.0698,102.9291],[30.5022,62.0791,93.8876],[30.5075,62.0828,94.0311],[30.5127,62.0824,103.9517],[30.5146,62.0877,109.2925],[30.5344,62.1035,76.5],[30.5394,62.1031,76.5],[30.5414,62.109,85.6517],[30.6001,62.1387,86.5139],[30.607,62.1435,103.2235],[30.6119,62.1431,104.8545],[30.6166,62.1564,94.8191],[30.622,62.156,95.6407],[30.6281,62.1613,85.9386],[30.6342,62.1701,70.9389],[30.6333,62.176,65.3675],[30.6354,62.1822,84.8831],[30.6302,62.1837,68.4615],[30.6406,62.1944,78.6463],[30.6483,62.1995,78.8937],[30.6512,62.1992,82.9528],[30.6522,62.202,71.3401],[30.6582,62.2059,79.0002],[30.6706,62.2107,103.3658],[30.6845,62.2103,112.2594],[30.6853,62.2128,99.8216],[30.7188,62.2129,138.1211],[30.7327,62.2203,130.382],[30.7368,62.22,116.6277],[30.7379,62.2231,108.1552],[30.7495,62.2281,111.8279],[30.755,62.2322,128.9651],[30.7606,62.2318,121.3983],[30.7621,62.236,110.983],[30.7768,62.2442,107.5],[30.7844,62.2436,128.7618],[30.7892,62.2569,137.7856],[30.7987,62.2562,122.2772],[30.8053,62.2591,133.4261],[30.8109,62.2633,141.1752],[30.8149,62.2748,130.0685],[30.8423,62.2816,134.2644],[30.8551,62.2882,159.1401],[30.8591,62.2879,182.6814],[30.8611,62.2931,165.1851],[30.891,62.3072,129.0],[30.9136,62.3122,129.0],[30.9398,62.3094,136.5964],[30.9484,62.3127,129.0],[30.9537,62.3169,129.0],[30.9579,62.3166,129.0],[30.9644,62.3343,139.7455],[30.9545,62.3351,146.6624],[30.9437,62.3389,167.1093],[30.9671,62.3523,156.8118],[30.9709,62.352,163.3731],[30.972,62.3551,161.6719],[30.9881,62.3643,181.4729],[30.9949,62.3638,190.091],[30.9971,62.3698,179.5935],[31.0045,62.3745,168.0362],[31.042,62.3965,158.5643],[31.0462,62.3962,150.992],[31.0495,62.405,150.9031],[31.0567,62.4045,151.5142],[31.0638,62.4085,161.4305],[31.0702,62.4079,172.7585],[31.0723,62.4135,166.1009],[31.0774,62.4165,170.5315],[31.0831,62.416,168.1754],[31.0849,62.421,163.0795],[31.0927,62.4232,161.9205],[31.1011,62.4304,166.3651],[31.1341,62.4455,170.3911],[31.1627,62.4528,144.0],[31.1697,62.459,144.0],[31.1831,62.4855,144.0],[31.1879,62.4851,144.0],[31.1918,62.4953,144.0],[31.2298,62.5071,147.2596],[31.2471,62.526,144.0],[31.2526,62.5256,144.0],[31.2602,62.5453,156.3635],[31.2625,62.5458,148.3101],[31.2615,62.5472,149.7323],[31.2687,62.5516,157.4651],[31.2723,62.5513,155.7453],[31.275,62.5584,167.5474],[31.3182,62.6069,155.8213],[31.3231,62.6065,154.6442],[31.3279,62.618899999999996,156.9073],[31.3365,62.6282,150.3185],[31.3413,62.6278,149.5905],[31.3454,62.6385,149.6923],[31.3484,62.6421,149.2029],[31.3533,62.6451,151.4605],[31.3577,62.6447,149.843],[31.3604,62.6518,148.4766],[31.3746,62.6627,160.9059],[31.3803,62.6749,147.7855],[31.3835,62.6877,153.5031],[31.4187,62.7509,183.4927],[31.4243,62.7575,184.5402],[31.43,62.7722,166.0075],[31.435,62.7803,159.8124],[31.4394,62.7821,165.0295],[31.4549,62.7816,168.8848],[31.4612,62.7835,155.476],[31.4635,62.7879,172.916],[31.458,62.7965,172.155],[31.4588,62.8011,165.2871],[31.4951,62.8311,192.2955],[31.4978,62.8353,192.7169],[31.5111,62.8465,178.0447],[31.516,62.8461,189.3582],[31.5187,62.853,170.365],[31.5257,62.859,166.3224],[31.5309,62.8586,166.0415],[31.5338,62.8659,164.5464],[31.5618,62.8905,179.6458],[31.5708,62.9004,181.5901],[31.5775,62.9004,177.4789],[31.5828,62.9137,175.3146],[31.5768,62.9142,175.3565],[31.5685,62.9282,184.8862],[31.5704,62.9329,192.051],[31.5638,62.9335,196.1002],[31.5615,62.9358,198.2634],[31.5624,62.9381,199.3093],[31.5583,62.9385,196.5473],[31.5542,62.9417,197.6056],[31.5562,62.9478,210.0275],[31.5491,62.9483,223.3778],[31.5407,62.9593,203.7356],[31.542,62.9626,185.3408],[31.5377,62.9629,191.2327],[31.5334,62.9663,186.2962],[31.534,62.9678,197.74],[31.5298,62.9691,188.4657],[31.5291,62.973,192.7157],[31.5127,62.9901,215.4263],[31.5136,62.9922,204.5697],[31.5104,62.9925,206.8342],[31.5045,62.9986,182.9638],[31.4966,63.0003,175.7535],[31.4976,63.0026,181.0299],[31.4872,63.0035,182.5121],[31.479,63.0064,180.762],[31.4798,63.0086,177.9263],[31.4604,63.0105,186.3012],[31.4621,63.0146,184.9601],[31.4561,63.0155,182.7708],[31.4592,63.0228,182.5506],[31.4575,63.0286,185.9967],[31.4593,63.033,185.7004],[31.4521,63.0336,193.3017],[31.45,63.035,203.1471],[31.4513,63.0382,193.7232],[31.4409,63.0391,188.5959],[31.415,63.0485,178.0],[31.4157,63.0502,178.0],[31.4024,63.0513,186.4308],[31.3876,63.0549,186.3095],[31.38,63.0618,188.1116],[31.3818,63.0666,187.8172],[31.3765,63.067,191.6916],[31.3736,63.0713,189.4208],[31.3658,63.077,206.5699],[31.3473,63.0814,205.8909],[31.3479,63.0829,208.1962],[31.3387,63.0837,207.9841],[31.3188,63.0889,197.3817],[31.3054,63.0947,191.3583],[31.3028,63.0964,191.3854],[31.3042,63.1,196.2946],[31.2968,63.1006,190.2359],[31.279,63.113,204.4948],[31.2801,63.1156,220.253],[31.2761,63.1159,216.6106],[31.2718,63.1204,214.579],[31.2737,63.1252,206.0009],[31.2667,63.1258,199.8127],[31.2647,63.1279,194.8063],[31.2656,63.1304,194.321],[31.2623,63.1307,190.6722],[31.2586,63.1356,188.9436],[31.2627,63.1489,197.4498],[31.2577,63.1495,199.1741],[31.259,63.1781,189.5331],[31.2544,63.1867,197.4554],[31.2442,63.1964,193.542],[31.2369,63.2088,193.4845],[31.2388,63.2109,193.3257],[31.2376,63.2141,191.8344],[31.2395,63.219,190.6939],[31.2358,63.2193,192.4364],[31.2313,63.2258,200.6492],[31.2193,63.2316,213.169],[31.189,63.2381,212.7149],[31.1601,63.2475,199.7262],[31.1614,63.2524,201.9326],[31.1541,63.253,199.2986],[31.1323,63.2633,203.1287],[31.1185,63.2724,203.9008],[31.119,63.2739,205.0017],[31.1103,63.2776,217.4168],[31.1109,63.2791,219.8063],[31.1017,63.2817,211.8889],[31.1027,63.2843,215.4382],[31.0933,63.285,215.1769],[31.084,63.2882,211.6591],[31.0847,63.2902,209.1657],[31.0723,63.2912,210.5179],[31.0365,63.3015,210.7181],[31.0005,63.3084,245.6658],[30.9825,63.3146,205.199],[30.9831,63.3162,206.4415],[30.974,63.3179,215.3988],[30.9677,63.3212,195.6886],[30.9519,63.3365,185.2057],[30.9494,63.3436,159.1359],[30.9444,63.3478,157.8638],[30.9456,63.3509,159.9766],[30.9268,63.3548,150.4395],[30.9275,63.3568,162.8921],[30.9098,63.3581,147.5656],[30.8891,63.3626,161.3399],[30.8897,63.3642,155.6728],[30.8649,63.3665,146.8778],[30.8515,63.3697,146.9517],[30.8518,63.3716,168.3028],[30.848,63.3719,152.3362],[30.843,63.3751,147.1981],[30.8436,63.3768,138.5],[30.8398,63.3771,144.8239],[30.8307,63.3828,184.7292],[30.8272,63.3871,156.9003],[30.7909,63.4046,157.0],[30.7835,63.4061,157.0],[30.7844,63.4085,157.0],[30.7646,63.41,157.0],[30.6698,63.4287,155.5359],[30.6705,63.4306,161.091],[30.6527,63.4319,170.9747],[30.6414,63.4344,177.3904],[30.6424,63.4372,178.524],[30.6231,63.4386,191.8049],[30.5655,63.4497,162.0456],[30.5663,63.4518,159.3676],[30.5491,63.4531,151.3609],[30.5372,63.4557,148.704],[30.5382,63.4584,150.4417],[30.5202,63.4585,209.0713],[30.5052,63.4619,257.468],[30.4919,63.471,143.5761],[30.4935,63.4753,151.7723],[30.4848,63.4759,156.6163],[30.4757,63.4824,177.9312],[30.4769,63.4856,147.0572],[30.4707,63.486,148.566],[30.4515,63.4999,236.0327],[30.4519,63.501,232.5491],[30.4498,63.5012,238.8109],[30.4355,63.5118,257.3459],[30.4369,63.5157,237.5659],[30.4293,63.5163,252.5907],[30.4193,63.5235,216.8564],[30.4203,63.526,195.3692],[30.4155,63.5264,209.8164],[30.4114,63.5296,191.6673],[30.4119,63.5312,196.4354],[30.4092,63.5314,197.1765],[30.3927,63.5431,204.63],[30.3592,63.5545,164.5768],[30.3603,63.5576,162.0736],[30.3494,63.5584,176.9485],[30.3411,63.561,180.6205],[30.342,63.5634,177.735],[30.329,63.5644,180.8212],[30.3044,63.5725,190.5984],[30.3053,63.5751,212.5427],[30.294,63.5759,183.9408],[30.2861,63.5785,173.9185],[30.287,63.581,186.4831],[30.2765,63.5817,201.7815],[30.2698,63.5839,207.8229],[30.2686,63.5868,181.6693],[30.2665,63.587,204.6945],[30.2591,63.5938,197.4646],[30.2533,63.6011,203.3759],[30.2551,63.6059,210.2532],[30.2455,63.6066,186.9612],[30.2109,63.6252,270.3731],[30.2116,63.6272,216.0015],[30.2067,63.6275,229.6426],[30.1938,63.6346,170.1144],[30.1948,63.6374,182.7649],[30.1877,63.6379,162.4618],[30.1766,63.644,185.7155],[30.178,63.6477,185.0062],[30.1686,63.6483,190.5406],[30.1696,63.6528,217.5975],[30.1591,63.6535,200.0106],[30.1338,63.6674,174.7488],[30.1343,63.6689,169.874],[30.1252,63.6721,161.098],[30.1259,63.674,157.1421],[30.1211,63.6744,162.7241],[30.113,63.6788,144.0],[30.1076,63.6788,144.0],[30.0882,63.6883,144.0],[30.0811,63.6923,144.0],[30.0822,63.6952,173.3393],[30.0726,63.6971,144.0],[30.0737,63.7003,159.4505],[30.064,63.7019,152.4016],[30.0653,63.7055,148.8058],[30.0593,63.7059,147.6144],[30.0562,63.7088,157.0689],[30.0416,63.7113,154.8275],[30.0293,63.7199,167.1394],[30.0299,63.7215,156.4249],[30.0266,63.7218,157.0534],[30.0149,63.7303,166.7405],[30.0048,63.7338,185.2219],[30.0061,63.7413,182.6493],[30.0027,63.7416,184.7953],[29.9825,63.752,211.5514],[29.949,63.7543,186.7906],[29.9475,63.7499,181.2135],[29.9073,63.7526,167.4483],[29.9058,63.7481,158.7265],[29.8756,63.7501,160.6749],[29.8741,63.7457,186.5246],[29.864,63.7464,208.7911],[29.861,63.7375,182.8985],[29.8509,63.7382,187.6955],[29.8494,63.7337,186.1446],[29.8393,63.7344,178.5372],[29.8362,63.7255,199.3238],[29.8262,63.7262,207.1015],[29.8247,63.7218,187.072],[29.8146,63.7225,193.5197],[29.8131,63.718,179.4907],[29.8031,63.7187,168.088],[29.8,63.7098,174.5542],[29.7899,63.7105,192.7852],[29.7884,63.706,183.3844],[29.7684,63.7074,211.6996],[29.7699,63.7118,199.7817],[29.7599,63.7125,215.3593],[29.7629,63.7214,196.4324],[29.7529,63.722,203.124],[29.7544,63.7265,196.2912],[29.7444,63.7271,203.9176],[29.7459,63.7316,214.6439],[29.7359,63.7322,222.6702],[29.7389,63.7411,209.7],[29.7289,63.7418,224.3105],[29.7304,63.7462,219.7535],[29.7204,63.7469,234.8214],[29.725,63.7602,215.9427],[29.7149,63.7609,231.7957],[29.7211,63.7786,235.9059],[29.711,63.7793,233.3082],[29.7156,63.7926,219.9302],[29.7055,63.7933,230.62],[29.7116,63.811,197.3813],[29.7016,63.8117,210.5109],[29.7062,63.825,214.4088],[29.6961,63.8257,216.2567],[29.7007,63.839,224.586],[29.6906,63.8397,215.0418],[29.6967,63.8574,262.4823],[29.6867,63.8581,261.3399],[29.6913,63.8714,244.1955],[29.6812,63.8721,258.606],[29.6827,63.8765,244.0124],[29.6423,63.8792,269.6932],[29.6408,63.8747,271.0821],[29.6105,63.8767,220.1314],[29.609,63.8722,231.5311],[29.5687,63.8749,255.9764],[29.5672,63.8704,267.0462],[29.5369,63.8724,245.4445],[29.5354,63.8679,235.1346],[29.5051,63.8699,235.2866],[29.5036,63.8655,210.0],[29.4733,63.8674,242.0206],[29.4718,63.863,251.035],[29.4416,63.8649,246.8439],[29.4401,63.8605,250.5102],[29.4098,63.8624,231.8878],[29.4083,63.8579,247.7043],[29.378,63.8599,207.1421],[29.3766,63.8554,197.5482],[29.3463,63.8573,188.871],[29.3448,63.8529,189.8106],[29.3146,63.8548,195.2852],[29.3131,63.8504,191.3699],[29.2727,63.8529,189.9393],[29.2713,63.8485,239.8105],[29.2309,63.851,178.514],[29.2294,63.8465,185.7969],[29.179,63.8497,199.671],[29.1775,63.8453,194.8589],[29.1271,63.8484,171.9609],[29.1257,63.8439,176.9009],[29.0752,63.847,197.8112],[29.0738,63.8426,191.7475],[29.0334,63.8451,225.0838],[29.032,63.8406,196.8513],[28.9815,63.8437,177.1345],[28.9801,63.8393,176.2644],[28.9296,63.8423,209.828],[28.9282,63.8379,202.3222],[28.7768,63.847,196.1028],[28.7782,63.8514,196.0021],[28.7075,63.8556,181.6624],[28.7089,63.8601,185.3813],[28.6078,63.866,182.0681],[28.6092,63.8704,202.9229],[28.5283,63.8751,189.2677],[28.5296,63.8796,199.1721],[28.4993,63.8813,161.8135],[28.4979,63.8769,163.673],[28.4878,63.8774,193.3679],[28.4865,63.873,196.6415],[28.4663,63.8741,224.7541],[28.4636,63.8652,229.7494],[28.4737,63.8647,227.9687],[28.4683,63.8469,175.5217],[28.4582,63.8474,191.6222],[28.4542,63.8341,221.042],[28.4441,63.8347,216.7314],[28.4401,63.8213,201.1786],[28.43,63.8219,204.3693],[28.4261,63.8085,209.3862],[28.416,63.8091,225.5696],[28.412,63.7957,227.0504],[28.4019,63.7963,247.1226],[28.3979,63.7829,265.905],[28.3878,63.7835,292.3987],[28.3839,63.7701,319.0995],[28.3738,63.7707,289.9586],[28.3698,63.7574,305.9421],[28.3598,63.7579,261.7234],[28.3584,63.7535,259.0454],[28.3685,63.7529,281.3362],[28.3672,63.7485,275.3661],[28.3873,63.7473,266.9981],[28.386,63.7429,258.9014],[28.3961,63.7423,278.9332],[28.3948,63.7378,258.5499],[28.4048,63.7373,267.2002],[28.4035,63.7328,267.6823],[28.4236,63.731699999999996,263.9076],[28.4223,63.7272,260.0943],[28.4324,63.7266,246.866],[28.4311,63.7222,247.677],[28.4411,63.7216,233.7259],[28.4385,63.7127,242.5095],[28.4485,63.7121,232.282],[28.4472,63.7076,234.8703],[28.4572,63.7071,226.3147],[28.4559,63.7026,222.5674],[28.466,63.702,210.4887],[28.4646,63.6976,225.349],[28.5249,63.6941,217.8071],[28.5263,63.6986,192.5484],[28.5464,63.6974,166.3645],[28.5477,63.7018,156.4873],[28.5578,63.7013,168.6335],[28.5564,63.6968,151.0056],[28.5665,63.6962,152.6978],[28.5651,63.6918,150.8431],[28.5852,63.6906,149.2728],[28.5839,63.6861,149.957],[28.5939,63.6856,152.0509],[28.5926,63.6811,146.2366],[28.6026,63.6805,156.9221],[28.6013,63.6761,164.1055],[28.6113,63.6755,174.5168],[28.61,63.671,148.7385],[28.5999,63.6716,190.2307],[28.5972,63.6627,177.8341],[28.5872,63.6633,185.835],[28.5845,63.6544,175.3642],[28.5945,63.6538,174.3333],[28.5905,63.6404,213.6379],[28.6005,63.6399,188.6182],[28.5951,63.6221,243.3628],[28.6051,63.6215,254.799],[28.5984,63.5992,208.452],[28.6084,63.5986,196.9476],[28.6031,63.5808,230.7837],[28.6131,63.5802,241.5639],[28.6104,63.5713,179.5],[28.6204,63.5707,209.1773],[28.619,63.5663,179.5],[28.639,63.5651,214.9589],[28.6377,63.5606,197.8387],[28.6777,63.5583,198.5138],[28.6763,63.5539,196.2853],[28.6863,63.5532,185.6483],[28.685,63.5488,198.272],[28.675,63.5494,200.8108],[28.6736,63.5449,215.6138],[28.6636,63.5455,214.5163],[28.6623,63.5411,209.4433],[28.6423,63.5423,243.7919],[28.6436,63.5467,226.6016],[28.6336,63.5473,224.5997],[28.6323,63.5429,250.8504],[28.6223,63.5434,243.7902],[28.621,63.539,239.6871],[28.611,63.5396,235.0325],[28.6056,63.5218,199.4388],[28.6156,63.5212,217.9885],[28.6142,63.5167,214.4547],[28.6242,63.5161,226.1972],[28.6202,63.5028,214.3856],[28.6302,63.5022,220.7726],[28.6275,63.4933,218.1642],[28.6375,63.4927,242.5127],[28.6348,63.4838,231.8788],[28.6447,63.4832,240.9213],[28.6421,63.4743,247.0335],[28.652,63.4737,255.1735],[28.6493,63.4648,248.3892],[28.6593,63.4642,252.0101],[28.6553,63.4509,233.5989],[28.6652,63.4503,241.487],[28.6598,63.4325,216.57],[28.6698,63.4319,224.0522],[28.6671,63.423,199.056],[28.6771,63.4224,193.1211],[28.6757,63.4179,221.5369],[28.6956,63.4168,216.7028],[28.6943,63.4123,255.3282],[28.7042,63.4117,223.9788],[28.7029,63.4073,234.5405],[28.7228,63.4061,175.7129],[28.7214,63.4016,182.3648],[28.7313,63.401,173.7485],[28.73,63.3966,183.9483],[28.7499,63.3954,161.8315],[28.7485,63.3909,165.2232],[28.7585,63.3903,167.9763],[28.7571,63.3859,172.3577],[28.767,63.3853,161.4818],[28.7603,63.363,192.4041],[28.7503,63.3636,188.9146],[28.7463,63.3503,177.8187],[28.7436,63.3414,165.3165],[28.7535,63.3408,172.8372],[28.744,63.3096,235.9097],[28.7341,63.3102,228.0899],[28.7327,63.3058,228.9195],[28.7228,63.306399999999996,203.008],[28.7201,63.2975,213.1889],[28.7102,63.2981,190.1591],[28.7089,63.2936,194.9608],[28.699,63.2942,189.2911],[28.6963,63.2853,199.702],[28.7062,63.2847,200.7048],[28.7035,63.2758,242.7243],[28.7134,63.2752,237.5106],[28.7121,63.2708,228.5753],[28.7022,63.2714,225.4227],[28.7008,63.2669,213.4415],[28.6909,63.2675,214.2922],[28.6896,63.2631,218.5344],[28.6797,63.2637,204.1129],[28.6784,63.2592,199.442],[28.6685,63.2598,189.8281],[28.6671,63.2554,172.0223],[28.6572,63.256,174.8136],[28.6559,63.2515,167.9732],[28.646,63.2521,162.6121],[28.6447,63.2476,158.6368],[28.6546,63.247,161.5433],[28.6532,63.2426,155.6579],[28.6631,63.242,159.218],[28.6605,63.2331,138.7591],[28.6506,63.2337,115.3364],[28.6479,63.2248,140.5079],[28.638,63.2254,131.5491],[28.6354,63.2165,136.505],[28.6255,63.2171,135.2346],[28.6228,63.2082,144.8037],[28.6129,63.2088,142.6871],[28.6116,63.2043,142.6057],[28.6314,63.2031,138.0093],[28.6301,63.1987,146.4234],[28.6597,63.1969,147.0814],[28.6583,63.1925,156.3915],[28.6781,63.1913,151.1252],[28.6768,63.1868,180.2187],[28.6965,63.1856,191.728],[28.6952,63.1812,181.3265],[28.705,63.1806,170.947],[28.7024,63.1717,194.681],[28.7122,63.1711,201.8176],[28.7109,63.1666,192.2541],[28.7208,63.166,189.6504],[28.7194,63.1616,192.875],[28.7293,63.161,168.6387],[28.7279,63.1566,182.0938],[28.7378,63.156,167.9072],[28.7365,63.1515,163.0068],[28.7463,63.1509,152.7586],[28.745,63.1465,154.0035],[28.7548,63.1459,145.8532],[28.7535,63.1414,148.8889],[28.7633,63.1408,151.7249],[28.762,63.1364,147.3268],[28.7718,63.1358,146.9606],[28.7705,63.1313,150.4619],[28.7804,63.1307,149.436],[28.779,63.1263,143.9959],[28.7889,63.1257,143.1324],[28.7875,63.1212,144.881],[28.7974,63.1206,144.2725],[28.796,63.1162,143.082],[28.8059,63.1156,140.8109],[28.8045,63.1111,148.3756],[28.8144,63.1105,136.6902],[28.813,63.1061,135.2799],[28.8228,63.1055,136.4897],[28.8215,63.101,136.4266],[28.8313,63.1004,138.1949],[28.8286,63.0915,134.5822],[28.8385,63.0909,135.9674],[28.8371,63.0865,141.5643],[28.8469,63.0859,139.7647],[28.8442,63.077,135.8796],[28.8541,63.0764,137.3204],[28.8514,63.0675,128.9992],[28.8612,63.0669,145.848],[28.8585,63.058,129.5308],[28.8683,63.0574,135.979],[28.8669,63.0529,147.3116],[28.9062,63.0505,179.5751],[28.9049,63.046,153.207],[28.9147,63.0454,144.9169],[28.9133,63.041,164.2788],[28.9231,63.0404,178.2611],[28.9218,63.0359,195.3721],[28.9414,63.0347,186.577],[28.9401,63.0303,179.8288],[28.9695,63.0284,191.8507],[28.9681,63.024,181.1943],[28.9976,63.0221,199.0712],[28.9962,63.0177,198.7674],[29.0256,63.0159,204.7615],[29.0242,63.0114,204.8364],[29.0438,63.0102,242.7847],[29.0425,63.0057,250.029],[29.0523,63.0051,234.0453],[29.0495,62.9962,249.8656],[29.0593,62.9956,233.2948],[29.0579,62.9911,243.0291],[29.0677,62.9905,222.7112],[29.065,62.9816,224.536],[29.0552,62.9823,212.2021],[29.0538,62.9778,226.1587],[29.044,62.9784,201.9914],[29.0426,62.974,196.7575],[29.0328,62.9746,213.6289],[29.0315,62.9701,186.8624],[29.0119,62.9714,164.6399],[29.0105,62.9669,172.6087],[29.0007,62.9676,166.9151],[28.9993,62.9631,154.0653],[28.9895,62.9637,133.9424],[28.9882,62.9593,143.362],[28.9784,62.9599,146.0172],[28.977,62.9554,138.4511],[28.9672,62.9561,149.2898],[28.9645,62.9472,157.7714],[28.9743,62.9465,153.9279],[28.9729,62.9421,161.5373],[28.9827,62.9415,148.9375],[28.9813,62.937,151.8783],[28.9911,62.9364,147.1801],[28.9897,62.932,152.5471],[28.9995,62.931399999999996,143.5798],[28.9982,62.9269,144.5876],[28.9884,62.9275,145.0738],[28.987,62.9231,159.9058],[28.9577,62.9249,154.762],[28.959,62.9294,152.1617],[28.9493,62.93,152.8319],[28.9506,62.9344,148.2348],[28.9408,62.935,164.9373],[28.9422,62.9395,149.5999],[28.9324,62.9401,173.2771],[28.9297,62.9312,185.6864],[28.9395,62.9306,168.3245],[28.9354,62.9173,130.6114],[28.9452,62.9166,134.2094],[28.9438,62.9122,136.2225],[28.9536,62.9116,137.6677],[28.9522,62.9071,140.0295],[28.9718,62.9059,117.4676],[28.9704,62.9015,116.0],[28.9802,62.9009,122.0816],[28.9788,62.8964,131.7972],[28.9984,62.8952,116.0],[28.9943,62.8818,150.8604],[29.004,62.8812,144.2836],[29.0027,62.8768,153.9827],[29.0222,62.8755,125.6562],[29.0208,62.8711,135.5416],[29.0403,62.8699,113.8154],[29.039,62.8654,123.6943],[29.0487,62.8648,114.721],[29.0474,62.8604,122.1238],[29.0669,62.8591,109.5416],[29.0655,62.8547,116.4115],[29.085,62.8534,113.7181],[29.0836,62.849,114.3039],[29.1031,62.8478,110.6385],[29.1017,62.8433,112.7787],[29.092,62.8439,112.2044],[29.0906,62.8395,117.2566],[29.0809,62.8401,114.6249],[29.0795,62.8357,113.5783],[29.0697,62.8363,114.8588],[29.0684,62.8318,113.0293],[29.0489,62.8331,119.0055],[29.0475,62.8286,122.6574],[29.0378,62.8292,122.0828],[29.0364,62.8248,119.44],[29.0267,62.8254,119.7143],[29.0253,62.8209,118.4427],[29.0155,62.8216,118.2188],[29.0142,62.8171,105.8239],[29.0044,62.8177,108.0861],[29.0031,62.8133,107.0411],[28.9933,62.8139,107.5],[28.992,62.8095,107.5],[28.9822,62.8101,121.3923],[28.9809,62.8056,136.3971],[28.9711,62.8062,133.9851],[28.9684,62.7973,141.4584],[28.9587,62.798,128.8772],[28.9519,62.7757,130.9333],[28.9422,62.7763,130.7309],[28.9408,62.7719,118.0],[28.9311,62.7725,118.0],[28.9325,62.7769,132.5754],[28.9227,62.7775,128.8309],[28.9241,62.782,158.9712],[28.9046,62.7832,149.7566],[28.906,62.7877,144.1866],[28.8962,62.7883,141.0006],[28.8989,62.7972,126.0],[28.8794,62.7984,134.8006],[28.8808,62.8028,144.2605],[28.8516,62.8046,134.2574],[28.8529,62.8091,125.9324],[28.8432,62.8097,127.1093],[28.8445,62.8141,113.2881],[28.8347,62.8147,113.9405],[28.8361,62.8192,117.6424],[28.8263,62.8198,114.4555],[28.8277,62.8242,99.5],[28.8179,62.8248,99.5],[28.8193,62.8293,99.5],[28.7803,62.8317,109.7498],[28.7789,62.8272,111.6142],[28.7692,62.8278,99.5],[28.7665,62.8189,99.5],[28.7568,62.8195,99.5],[28.7555,62.8151,99.5],[28.7457,62.8157,99.5],[28.7431,62.8068,99.5],[28.7528,62.8062,99.5],[28.7488,62.7928,99.5],[28.7391,62.7934,99.5],[28.7365,62.7845,99.5],[28.7267,62.7851,99.5],[28.7228,62.7718,99.5],[28.6741,62.7747,99.5],[28.6728,62.7703,99.5],[28.6631,62.7709,99.5],[28.6617,62.7664,99.5],[28.652,62.767,99.5],[28.6494,62.7581,99.5],[28.6397,62.7587,99.5],[28.6345,62.7409,99.5],[28.6442,62.7403,99.5],[28.6416,62.7314,99.5],[28.6513,62.7308,99.5],[28.6487,62.7219,99.5],[28.6584,62.7214,99.5],[28.6571,62.7169,99.5],[28.6668,62.7163,99.5],[28.6655,62.7119,99.5],[28.6849,62.7107,99.5],[28.6836,62.7062,99.5],[28.6933,62.7056,106.6964],[28.692,62.7012,99.5],[28.7017,62.7006,99.5],[28.7004,62.6961,99.5],[28.7101,62.6955,99.5],[28.7088,62.6911,99.5],[28.6991,62.6917,99.5],[28.6978,62.6872,99.5],[28.6881,62.6878,99.5],[28.6855,62.6789,112.3778],[28.6758,62.6795,99.5],[28.6745,62.6751,99.5],[28.6648,62.6757,99.5],[28.6583,62.6534,99.5],[28.6777,62.6522,99.5],[28.6764,62.6478,99.5],[28.7926,62.6406,99.5],[28.7913,62.6362,99.5],[28.8107,62.635,99.5],[28.8094,62.6306,99.5],[28.8191,62.6299,99.5],[28.8177,62.6255,99.5],[28.8274,62.6249,99.5],[28.8261,62.6204,99.5],[28.8358,62.6198,99.5],[28.8344,62.6154,99.5],[28.8441,62.6148,99.5],[28.8428,62.6103,99.5],[28.8525,62.6097,99.5],[28.8511,62.6053,99.5],[28.8608,62.6047,99.5],[28.8595,62.6002,99.5],[28.8788,62.599,99.5],[28.8775,62.5946,99.5],[28.8969,62.5934,99.5],[28.8955,62.5889,99.5],[28.9149,62.5877,99.5],[28.9135,62.5833,99.5],[28.9328,62.582,99.5],[28.9315,62.5776,99.5],[28.9508,62.5764,99.5],[28.9468,62.563,99.5],[28.9565,62.5624,99.5],[28.9551,62.558,99.5],[28.9745,62.5568,101.554],[28.9731,62.5523,99.5],[28.9828,62.5517,102.2396],[28.9814,62.5473,99.5],[29.0007,62.546,99.5],[28.9994,62.5416,99.5],[29.0091,62.541,110.7185],[29.0077,62.5365,99.5],[29.027,62.5353,99.5],[29.0257,62.5308,99.5],[29.0353,62.5302,99.5],[29.0339,62.5258,119.304],[29.0436,62.5252,114.9843],[29.0422,62.5207,127.5817],[29.0326,62.5213,125.193],[29.0313,62.5169,109.3513],[29.012,62.5181,111.1227],[29.0106,62.5137,106.4073],[29.0203,62.5131,115.1796],[29.0189,62.5086,119.9355],[29.0382,62.5074,119.2207],[29.0368,62.5029,132.8929],[29.0561,62.5017,111.5],[29.0548,62.4972,111.5],[29.0837,62.4954,111.5],[29.0823,62.491,111.5],[29.092,62.4903,111.5],[29.0933,62.4948,111.5],[29.1126,62.4935,111.5],[29.1112,62.4891,111.5],[29.1209,62.4885,111.5],[29.1195,62.484,117.2989],[29.1099,62.4846,111.5],[29.1031,62.4624,111.5],[29.0935,62.463,111.5],[29.0813,62.423,110.5],[29.0909,62.4224,110.5],[29.0895,62.418,110.5],[29.1087,62.4167,110.5],[29.102,62.3945,131.3836],[29.1212,62.3932,114.6567],[29.1198,62.3888,112.5983],[29.1678,62.3857,111.1991],[29.1706,62.3946,105.0],[29.161,62.3952,109.7523],[29.1637,62.4041,117.1039],[29.1733,62.4035,117.9073],[29.1746,62.4079,106.3603],[29.1842,62.4073,107.1009],[29.1829,62.4028,104.597],[29.2021,62.4016,95.4325],[29.2035,62.406,111.0481],[29.2131,62.4054,119.8992],[29.2158,62.4143,73.5],[29.2254,62.4137,73.5],[29.2268,62.4181,73.5],[29.246,62.4169,73.5],[29.2446,62.4124,73.5],[29.2638,62.4112,73.5],[29.2625,62.4067,73.5],[29.2721,62.4061,73.5],[29.2707,62.4016,73.5],[29.2803,62.401,73.5],[29.2789,62.3966,73.5],[29.2885,62.3959,73.5],[29.2871,62.3915,73.5],[29.2967,62.3909,73.5],[29.294,62.382,73.5],[29.3036,62.3813,73.5],[29.2981,62.3636,73.5],[29.3076,62.3629,73.5],[29.3021,62.3451,73.5],[29.3117,62.3445,73.5],[29.3075,62.3312,73.5],[29.3171,62.3306,73.5],[29.3157,62.3261,73.5],[29.3253,62.3255,73.5],[29.3226,62.3166,73.5],[29.3321,62.3159,73.5],[29.3307,62.3115,73.5],[29.3403,62.3109,73.5],[29.3375,62.302,73.5],[29.3471,62.3013,73.5],[29.3457,62.2969,73.5],[29.3553,62.2963,73.5],[29.3525,62.2874,73.5],[29.3621,62.2867,73.5],[29.3607,62.2823,73.5],[29.3703,62.2817,73.5],[29.3675,62.2728,79.82],[29.3771,62.2721,81.7511],[29.3757,62.2677,73.5],[29.3852,62.2671,75.1697],[29.3825,62.2582,73.5],[29.392,62.2575,73.5],[29.3906,62.2531,73.5],[29.4002,62.2524,73.5],[29.3988,62.248,73.5],[29.4083,62.2474,73.5],[29.4069,62.2429,73.5],[29.4261,62.2416,73.5],[29.4247,62.2372,73.5],[29.4342,62.2366,73.5],[29.4314,62.2277,73.5],[29.4219,62.2283,73.5],[29.4094,62.1883,73.5],[29.4189,62.1877,73.5],[29.4161,62.1788,73.5],[29.4256,62.1782,73.5],[29.4215,62.1648,73.5],[29.431,62.1642,73.5],[29.4268,62.1509,73.5],[29.4364,62.1502,73.5],[29.4336,62.1413,73.5],[29.4431,62.1407,73.5],[29.4389,62.1274,73.5],[29.4485,62.1267,73.5],[29.4443,62.1134,73.5],[29.4538,62.1128,73.5],[29.451,62.1039,73.5],[29.4605,62.1032,73.5],[29.4564,62.0899,73.5],[29.4658,62.0893,73.5],[29.4631,62.0804,80.9999],[29.4726,62.0798,94.8488],[29.4698,62.0709,80.691],[29.4793,62.0702,83.4636],[29.4779,62.0658,81.9363],[29.4874,62.0651,82.1786],[29.4846,62.0563,76.0],[29.4941,62.0556,87.0754],[29.4927,62.0512,82.5191],[29.5022,62.0505,92.2572],[29.4994,62.0416,79.8708],[29.5184,62.0403,83.569],[29.517,62.0359,77.4202],[29.5454,62.034,142.0428],[29.544,62.0295,89.8666],[29.563,62.0282,85.8738],[29.5616,62.0238,93.1948],[29.5805,62.0225,91.0252],[29.5791,62.018,84.5951],[29.5886,62.0174,77.0],[29.5872,62.0129,81.1484],[29.6062,62.0116,72.5],[29.6034,62.0028,72.5],[29.6128,62.0021,72.5],[29.6114,61.9977,72.5],[29.6209,61.997,72.5],[29.6195,61.9926,72.5],[29.6384,61.9912,72.5],[29.637,61.9868,72.5],[29.6465,61.9862,72.5],[29.6451,61.9817,72.5],[29.664,61.9804,72.5],[29.6612,61.9715,72.5],[29.6517,61.9722,72.5],[29.6475,61.9589,72.5],[29.638,61.9595,72.5],[29.6338,61.9462,72.5],[29.6244,61.9468,72.5],[29.6201,61.9335,72.5]]]]}}