{"type": "Feature","bbox": [25.4431,61.0699,26.5161,61.7996],"geometry": {"type": "MultiPolygon","coordinates": [[[[26.1344,61.1515,76.5],[26.1353,61.156,76.5],[26.1446,61.1556,76.5],[26.1428,61.1466,76.5],[26.1521,61.1462,76.5],[26.1503,61.1373,76.5],[26.2245,61.1339,102.8484],[26.2236,61.1294,116.3669],[26.2421,61.1286,117.3128],[26.2439,61.1375,114.9788],[26.2531,61.1371,121.7021],[26.254,61.1416,142.8877],[26.2633,61.1411,126.0489],[26.2651,61.1501,104.1389],[26.2743,61.1497,108.8621],[26.277,61.1631,98.7458],[26.2863,61.1626,90.3859],[26.2872,61.1671,98.3211],[26.315,61.1658,92.2845],[26.3159,61.1703,75.0],[26.3437,61.169,75.0],[26.3446,61.1735,75.0],[26.3539,61.173,75.0],[26.3548,61.1775,75.0],[26.3641,61.1771,75.0],[26.365,61.1815,103.8758],[26.3742,61.1811,109.3301],[26.3751,61.1856,127.7859],[26.3844,61.1851,117.7453],[26.3871,61.1986,128.194],[26.3964,61.1981,124.0784],[26.4001,61.216,99.3846],[26.4093,61.2155,109.1239],[26.4112,61.2245,118.0039],[26.4205,61.224,108.0892],[26.4223,61.233,101.3028],[26.4316,61.2326,101.0787],[26.4343,61.246,100.0515],[26.425,61.2464,100.0028],[26.4259,61.2509,98.5872],[26.4352,61.2504,101.5152],[26.4371,61.2594,100.8429],[26.4464,61.2589,103.5815],[26.4473,61.2634,103.686],[26.4566,61.263,109.6163],[26.4575,61.2674,102.1063],[26.4854,61.2661,101.0],[26.4863,61.2706,130.7547],[26.5049,61.2697,105.5607],[26.5058,61.2742,109.0755],[26.5152,61.2737,94.0018],[26.5161,61.2782,97.8893],[26.5068,61.2786,91.5],[26.5096,61.292,97.669],[26.5002,61.2925,94.3374],[26.5021,61.3014,116.0175],[26.4928,61.3018,94.1666],[26.4956,61.3153,126.661],[26.4863,61.3157,122.0308],[26.4872,61.3202,97.2123],[26.394,61.3245,89.5699],[26.3949,61.329,91.0221],[26.3763,61.3299,102.0929],[26.3772,61.3344,113.7867],[26.3679,61.3348,137.7666],[26.3688,61.3392,130.7751],[26.3501,61.3401,135.4758],[26.351,61.3446,121.2022],[26.3417,61.345,140.7189],[26.3426,61.3495,128.4754],[26.3333,61.3499,113.3262],[26.3342,61.3544,121.393],[26.3249,61.3548,110.0],[26.3258,61.3593,130.1404],[26.3164,61.3597,117.1186],[26.3182,61.3687,123.5965],[26.2996,61.3695,80.5],[26.2987,61.365,146.5524],[26.2893,61.3655,80.5],[26.2929,61.3834,105.7593],[26.3023,61.3829,122.4342],[26.3032,61.3874,94.5],[26.3125,61.387,119.1474],[26.3143,61.3959,94.5],[26.3237,61.3955,133.2327],[26.3246,61.3999,129.1001],[26.3152,61.4004,119.4548],[26.3161,61.4048,146.3475],[26.2974,61.4057,146.7439],[26.2984,61.4102,147.8994],[26.289,61.4106,159.9974],[26.2899,61.4151,154.2839],[26.2806,61.4155,133.1533],[26.2815,61.42,144.3297],[26.2721,61.4204,131.9635],[26.273,61.4249,128.4842],[26.2637,61.4253,144.6746],[26.2646,61.4298,119.0],[26.2552,61.4302,126.8648],[26.257,61.4391,133.2887],[26.2477,61.4395,145.5148],[26.2494,61.4485,131.259],[26.2588,61.4481,128.5082],[26.2597,61.4525,129.3175],[26.269,61.4521,126.8857],[26.2699,61.4566,122.973],[26.2793,61.4562,119.2393],[26.2802,61.4606,112.7942],[26.2896,61.4602,104.0],[26.2923,61.4736,111.9435],[26.2829,61.474,122.1159],[26.2847,61.483,108.5],[26.2753,61.4834,123.6708],[26.2771,61.4923,131.2156],[26.2678,61.4928,119.0792],[26.2696,61.5017,117.1197],[26.2602,61.5021,109.0],[26.2638,61.52,145.9708],[26.2732,61.5196,130.3371],[26.2741,61.524,137.2049],[26.2928,61.5232,134.315],[26.2983,61.55,156.2779],[26.2889,61.5504,135.9747],[26.2907,61.5594,140.0993],[26.2813,61.5598,141.0136],[26.2831,61.5687,128.865],[26.2737,61.5692,117.1985],[26.2755,61.5781,112.0414],[26.3131,61.5764,126.4989],[26.3122,61.5719,132.0641],[26.3216,61.5715,134.939],[26.3244,61.5849,135.9145],[26.3149,61.5853,123.153],[26.3204,61.6122,108.5179],[26.311,61.6126,102.5],[26.3128,61.6215,102.5],[26.3034,61.622,102.5],[26.3062,61.6354,140.753],[26.3156,61.6349,137.9547],[26.3174,61.6439,127.8475],[26.308,61.6443,134.5002],[26.3089,61.6488,116.3788],[26.2995,61.6492,168.9565],[26.3004,61.6537,133.4417],[26.291,61.6541,162.866],[26.2919,61.6586,155.3411],[26.2825,61.659,147.5297],[26.2806,61.6501,191.2527],[26.2712,61.6505,179.7342],[26.2694,61.6415,121.1833],[26.2035,61.6445,125.3111],[26.2044,61.649,131.3269],[26.1856,61.6498,91.0],[26.182,61.6319,91.0],[26.1726,61.6324,91.0],[26.1699,61.618899999999996,91.0],[26.1605,61.6194,91.0],[26.1596,61.6149,91.0],[26.1502,61.6153,91.0],[26.1511,61.6198,91.0],[26.1417,61.6202,91.0],[26.1434,61.6292,91.0],[26.134,61.6296,91.0],[26.1349,61.634,91.0],[26.1255,61.6345,91.0],[26.1264,61.6389,91.0],[26.117,61.6394,91.0],[26.1178,61.6438,91.0],[26.099,61.6446,91.0],[26.1008,61.6536,91.0],[26.0914,61.654,91.0],[26.0922,61.6585,91.0],[26.0828,61.6589,91.0],[26.0846,61.6678,91.0],[26.0752,61.6683,91.0],[26.076,61.6727,91.0],[26.0666,61.6731,91.0],[26.0675,61.6776,91.0],[26.0769,61.6772,91.0],[26.0787,61.6861,110.5382],[26.0881,61.6857,109.5114],[26.0898,61.6947,114.1316],[26.0804,61.6951,91.0],[26.0831,61.7085,91.0],[26.0736,61.7089,91.0],[26.0745,61.7134,99.2651],[26.0651,61.7138,91.0],[26.0686,61.7317,96.1462],[26.0592,61.7321,91.0],[26.06,61.7365,95.8648],[26.0506,61.737,91.0],[26.0488,61.728,91.0],[26.0394,61.7284,99.2463],[26.0385,61.724,91.0],[26.0291,61.7244,124.7002],[26.028199999999998,61.7199,118.4975],[26.0093,61.7207,120.0081],[26.0102,61.7252,112.5277],[26.0007,61.7256,96.5459],[26.0016,61.7301,101.9397],[25.9922,61.7305,91.0],[25.9956,61.7484,109.0917],[25.9862,61.7488,104.8311],[25.9879,61.7577,113.9797],[25.9785,61.7581,117.7388],[25.9793,61.7626,118.2403],[25.9699,61.763,135.7705],[25.9707,61.7675,137.0026],[25.9518,61.7683,108.1146],[25.9527,61.7728,107.3786],[25.9432,61.7732,124.5275],[25.9441,61.7776,129.4577],[25.9346,61.778,135.3958],[25.9355,61.7825,123.9679],[25.926,61.7829,134.8882],[25.9269,61.7874,132.0689],[25.9174,61.7878,132.1707],[25.9131,61.7654,130.0861],[25.9037,61.7658,163.9736],[25.9028,61.7614,159.7316],[25.865,61.763,150.8824],[25.8676,61.7764,151.3074],[25.877,61.776,156.5779],[25.8804,61.7939,113.569],[25.871,61.7943,125.1888],[25.8718,61.7988,110.0357],[25.8529,61.7996,127.2531],[25.8512,61.7906,139.4049],[25.8606,61.7902,146.4133],[25.8581,61.7768,147.7797],[25.8486,61.7772,144.8825],[25.8478,61.7727,144.4837],[25.8383,61.7731,149.8127],[25.8366,61.7642,142.9268],[25.8272,61.7646,157.6901],[25.8238,61.7467,151.7276],[25.8143,61.7471,147.3347],[25.811,61.7292,163.9611],[25.8015,61.7296,188.1083],[25.7981,61.7117,165.6136],[25.7887,61.7121,144.8574],[25.7854,61.6942,130.1958],[25.7759,61.6946,141.0186],[25.7743,61.6856,120.3811],[25.7554,61.6864,132.267],[25.7562,61.6909,133.3935],[25.7468,61.6913,137.9935],[25.7484,61.7002,138.3228],[25.7579,61.6998,154.3639],[25.7587,61.7043,156.4082],[25.7209,61.7059,101.9575],[25.7218,61.7104,98.9483],[25.6934,61.7115,76.5],[25.6943,61.716,76.5],[25.6754,61.7168,86.5019],[25.6746,61.7123,102.4552],[25.6557,61.7131,82.8163],[25.654,61.7041,112.3131],[25.6446,61.7045,86.1186],[25.643,61.6955,76.5],[25.6335,61.6959,86.4832],[25.6319,61.687,76.5],[25.6225,61.6874,76.5],[25.6216,61.6829,76.5],[25.6122,61.6833,76.5],[25.6114,61.6788,76.5],[25.5925,61.6796,76.5],[25.5917,61.6751,85.3137],[25.5728,61.6758,76.5],[25.572,61.6714,76.5],[25.5626,61.6718,76.5],[25.5634,61.6762,76.5],[25.5068,61.6785,76.5],[25.502,61.6516,76.5],[25.5115,61.6513,76.5],[25.5051,61.6155,76.5],[25.4957,61.6158,76.5],[25.4901,61.5845,76.5],[25.4807,61.5849,76.5],[25.4752,61.5536,76.5],[25.4658,61.5539,76.5],[25.4595,61.5181,76.5],[25.4501,61.5185,76.5],[25.4431,61.4782,76.5],[25.4524,61.4779,76.5],[25.4516,61.4734,76.5],[25.461,61.473,76.5],[25.4595,61.4641,76.5],[25.4688,61.4637,76.5],[25.468,61.4592,76.5],[25.4774,61.4589,76.5],[25.4758,61.4499,76.5],[25.4852,61.4495,76.5],[25.4836,61.4406,76.5],[25.493,61.4402,76.5],[25.4906,61.4268,76.5],[25.4813,61.4272,76.5],[25.4758,61.3958,76.5],[25.4851,61.3955,76.5],[25.4843,61.391,76.5],[25.4937,61.3906,76.5],[25.4921,61.3816,76.5],[25.5015,61.3813,76.5],[25.4999,61.3723,76.5],[25.5092,61.372,76.5],[25.5077,61.363,76.5],[25.517,61.3626,76.5],[25.5162,61.3582,76.5],[25.5256,61.3578,76.5],[25.524,61.3488,76.5],[25.5333,61.3484,76.5],[25.5317,61.3395,76.5],[25.5411,61.3391,76.5],[25.5395,61.3302,76.5],[25.5581,61.3294,76.5],[25.5589,61.3339,76.5],[25.5776,61.3331,96.1134],[25.5784,61.3376,83.2784],[25.5877,61.3372,111.9138],[25.5885,61.3417,109.2294],[25.6819,61.3379,136.6983],[25.6827,61.3424,133.3931],[25.7107,61.3412,136.8176],[25.7115,61.3457,130.897],[25.7208,61.3453,136.5783],[25.7225,61.3542,154.8914],[25.7318,61.3538,131.9044],[25.7334,61.3628,154.752],[25.7521,61.362,135.0228],[25.7513,61.3575,124.701],[25.7606,61.3571,118.6355],[25.759,61.3482,127.1935],[25.7683,61.3478,117.8882],[25.7675,61.3433,105.0602],[25.7768,61.3429,96.2002],[25.776,61.3385,93.5147],[25.7853,61.3381,101.4031],[25.7837,61.3291,102.8293],[25.793,61.3287,106.7834],[25.7922,61.3242,115.9249],[25.8015,61.3239,110.2373],[25.8007,61.3194,109.3295],[25.81,61.319,91.8243],[25.8009,61.2698,101.0308],[25.8381,61.2682,99.2007],[25.8389,61.2727,114.9226],[25.8483,61.2723,86.5847],[25.8474,61.2678,98.9251],[25.8753,61.2666,76.5],[25.8745,61.2621,76.5],[25.8838,61.2617,76.5],[25.883,61.2573,76.5],[25.8923,61.2569,76.5],[25.8881,61.2345,76.5],[25.916,61.2333,76.5],[25.9151,61.2288,76.5],[25.9244,61.2284,76.5],[25.9219,61.215,76.5],[25.9126,61.2154,76.5],[25.9101,61.202,99.2327],[25.9008,61.2024,79.3536],[25.8991,61.1935,76.5],[25.8899,61.1939,93.0967],[25.8874,61.1804,91.9999],[25.8966,61.18,110.8814],[25.895,61.1711,92.3345],[25.9042,61.1707,104.4967],[25.9034,61.1662,95.2483],[25.9127,61.1658,114.6088],[25.911,61.1569,102.759],[25.9203,61.1565,137.233],[25.9186,61.1475,134.1869],[25.9093,61.1479,162.4125],[25.9077,61.139,140.6228],[25.8984,61.1394,152.2523],[25.8967,61.1304,125.0336],[25.8874,61.1308,128.8281],[25.8858,61.1219,150.8824],[25.8765,61.1223,158.5254],[25.8748,61.1133,126.7587],[25.8656,61.1138,142.8977],[25.8647,61.1093,132.6367],[25.8631,61.1003,127.7652],[25.8724,61.0999,140.8277],[25.8715,61.0955,140.5212],[25.8808,61.0951,150.268],[25.8799,61.0906,136.1285],[25.8892,61.0902,130.4022],[25.8884,61.0857,115.3458],[25.8976,61.0853,111.2027],[25.8968,61.0808,106.6635],[25.9245,61.0796,114.2153],[25.9237,61.0752,106.847],[25.933,61.0748,108.8097],[25.9321,61.0703,115.727],[25.9414,61.0699,112.1273],[25.9422,61.0744,123.1029],[25.9607,61.0736,104.2588],[25.9616,61.078,124.8607],[25.9708,61.0776,121.4232],[25.9716,61.0821,115.3912],[25.9902,61.0813,131.7841],[25.991,61.0858,136.7116],[26.0003,61.0853,124.127],[26.0011,61.0898,128.1088],[26.0196,61.089,118.9672],[26.0205,61.0935,136.0328],[26.0297,61.0931,130.1459],[26.0306,61.0975,142.2339],[26.0491,61.0967,145.7971],[26.0542,61.1235,150.9058],[26.0635,61.1231,147.6155],[26.0644,61.1276,136.4326],[26.0736,61.1272,129.9085],[26.0745,61.1316,125.1543],[26.0838,61.1312,113.8774],[26.0846,61.1357,112.2822],[26.0939,61.1353,98.1079],[26.0947,61.1398,84.0767],[26.104,61.1394,76.5],[26.1049,61.1438,86.2755],[26.1141,61.1434,76.5],[26.115,61.1479,76.5],[26.1243,61.1475,76.5],[26.1251,61.1519,76.5],[26.1344,61.1515,76.5]]]]}
,"properties": {"GID_2": "FIN.1.3_1","GID_0": "FIN","country": "Finland","GID_1": "FIN.1_1","province": "EasternFinland","NL_NAME_1": "NA","county": "PäijänneTavastia","VARNAME_2": "Päijät-Häme|PäijänneTavastland","NL_NAME_2": "NA","TYPE_2": "Maakunta|landskap","ENGTYPE_2": "Region","CC_2": "NA","HASC_2": "NA","name": "Päijänne_Tavastia.county","area_km2": 2427.665,"hist_schema_id": "Elevation0-9000","hist_area_km2": {"75": 467.3,"100": 1023.308,"125": 691.05,"150": 222.047,"175": 21.296,"200": 2.574,"225": 0.09}}}