{"type":"Feature","properties":{"featurecla":"River","scalerank":8,"rivernum":742,"dissolve":"742River","name":"Muonio1","name_alt":null,"note":null,"min_zoom":7.0,"strokeweig":0.2,"name_en":"Muonio","min_label":8.0},
"geometry":{"type": "LineString","coordinates": [[21.15234375,68.842059637494117,450.241],[21.216064453125,68.817499090619123,441.0],[21.275146484375,68.776727606244123,440.5412],[21.287744140625023,68.77033112186912,439.0],[21.293212890625,68.76850006718162,441.0214],[21.300439453125023,68.75946686405662,442.9933],[21.304931640625,68.75604889530662,447.4697],[21.314208984375,68.75433991093162,451.5687],[21.385400390625023,68.75409577030662,544.2112],[21.405908203125023,68.74921295780662,414.13],[21.414794921875,68.739032293744117,429.5526],[21.420800781250023,68.727801824994117,415.4894],[21.451074218750023,68.696795965619117,466.5633],[21.463134765625,68.68720123905662,417.1002],[21.495019531250023,68.67572662968162,405.657],[21.57177734375,68.66766998905662,398.83],[21.661035156250023,68.63385651249412,410.3132],[21.71630859375,68.619501043744123,392.8057],[21.736474609375023,68.58820221561912,382.7074],[21.918603515625023,68.56854889530662,369.0571],[21.96337890625,68.54718659061912,369.886],[21.969384765625023,68.541131903119123,369.9104],[21.997949218750023,68.52619049686912,367.8647],[22.011621093750023,68.516717840619123,367.3081],[22.023681640625,68.51080963749412,372.254],[22.028222656250023,68.509637762494123,381.9104],[22.035546875000023,68.506854559369117,390.8883],[22.036865234375,68.500360418744123,408.2624],[22.0361328125,68.493182684369117,398.3718],[22.037841796875,68.48859284061912,377.9014],[22.071679687500023,68.47724030155662,362.6682],[22.302490234375,68.47638580936912,332.1574],[22.37060546875,68.46869537968162,330.2775],[22.373925781250023,68.46649811405662,328.5078],[22.373437500000023,68.456659246869123,324.216],[22.377343750000023,68.45441315311912,321.5535],[22.456298828125,68.452167059369117,324.3375],[22.520751953125,68.43854401249412,320.6344],[22.564697265625,68.43659088749412,327.0683],[22.607177734375,68.425165106244123,322.7072],[22.625244140625,68.425409246869123,322.2379],[22.642822265625,68.427606512494123,314.1263],[22.66162109375,68.427752996869117,323.0799],[22.689697265625,68.417010809369117,318.4374],[22.718505859375,68.39899323124412,311.7101],[22.748046875,68.38580963749412,306.7605],[22.8076171875,68.39520905155662,305.5893],[22.832910156250023,68.38507721561912,305.7987],[22.874658203125023,68.35138580936912,296.1118],[22.903222656250023,68.33685944218162,297.8198],[23.051660156250023,68.29852936405662,277.9376],[23.066308593750023,68.29059479374412,271.362],[23.072998046875,68.282245184369117,278.6976],[23.075927734375,68.27411530155662,270.185],[23.0810546875,68.26557037968162,268.2435],[23.094384765625023,68.25580475468162,277.166],[23.139550781250023,68.23444244999412,268.0139],[23.154687500000023,68.217792059369117,265.2582],[23.14892578125,68.194354559369117,276.2645],[23.157958984375,68.187030340619117,281.2413],[23.1591796875,68.17902252811912,306.6651],[23.153955078125023,68.15399811405662,271.9748],[23.149316406250023,68.145135809369123,253.6076],[23.14892578125,68.13971588749412,253.8849],[23.151123046875,68.13056061405662,258.9073],[23.154052734375,68.12860748905662,263.3996],[23.158349609375023,68.12787506718162,258.4977],[23.1650390625,68.12238190311912,256.8392],[23.186767578125,68.12250397343162,263.5887],[23.271484375,68.14533112186912,271.245],[23.305908203125,68.14594147343162,245.8388],[23.3193359375,68.13861725468162,244.543],[23.330322265625,68.128045965619123,246.86],[23.37060546875,68.068719793744123,244.127],[23.374267578125,68.060321356244117,243.6796],[23.38232421875,68.051532293744117,243.5574],[23.456787109375,68.02460358280662,243.0044]]}}