{"type":"Feature","properties":{"featurecla":"River","scalerank":6,"rivernum":268,"dissolve":"268River","name":"Kemijoki1","name_alt":null,"note":null,"min_zoom":5.0,"strokeweig":0.2,"name_en":"Kemijoki","min_label":6.0},
"geometry":{"type": "LineString","coordinates": [[28.781005859375,68.104999090619117,422.6853],[28.795800781250023,68.08661530155662,324.08],[28.849609375,68.044794012494123,276.1529],[28.866943359375,68.03668854374412,267.1111],[28.893945312500023,68.009637762494123,257.8371],[28.904541015625,68.002557684369123,253.453],[28.964599609375,67.98773834843162,246.6897],[28.980224609375,67.98151276249412,254.4853],[28.980224609375,67.97528717655662,237.8294],[28.962988281250006,67.964374090619117,232.6902],[28.9501953125,67.94806549686912,235.7267],[28.934326171875,67.93329498905662,235.6651],[28.899316406250023,67.924823309369117,233.3113],[28.891357421875,67.91925690311912,229.7109],[28.884375,67.911151434369117,226.458],[28.878173828125,67.90143463749412,229.626]]}}