{"type":"Feature","properties":{"featurecla":"River","scalerank":7,"rivernum":576,"dissolve":"576River","name":"Tornelven2","name_alt":null,"note":null,"min_zoom":6.0,"strokeweig":0.3,"name_en":"Tornelven","min_label":7.0},
"geometry":{"type": "LineString","coordinates": [[23.88134765625,66.632098699994117,75.5167],[23.888574218750023,66.614374090619123,65.0269],[23.892578125,66.59638092655662,69.613],[23.891015625000023,66.57916901249412,67.3258],[23.88134765625,66.56378815311912,96.2376],[23.860742187500023,66.55487702030662,56.5],[23.807275390625023,66.539569403119117,58.4291],[23.8056640625,66.52838776249412,70.9715],[23.785400390625,66.51874420780662,68.6522],[23.754638671875,66.51215241093162,50.0],[23.730615234375023,66.503436590619117,49.0],[23.73046875,66.48749420780662,67.8607],[23.70556640625,66.483270574994123,57.4135],[23.676171875000023,66.47431061405662,53.1002],[23.65185546875,66.45917389530662,45.5],[23.641748046875023,66.43659088749412,45.5],[23.64599609375,66.42438385624412,45.0],[23.665283203125,66.405877996869123,45.0],[23.669677734375,66.39557526249412,45.0],[23.671142578125,66.382098699994117,45.0],[23.676513671875,66.36395905155662,48.1445],[23.675927734375023,66.35028717655662,45.0],[23.672509765625023,66.33978912968162,50.6953],[23.663964843750023,66.326678778119117,44.5],[23.662255859375023,66.316766668744123,44.5],[23.665429687500023,66.305780340619123,54.6707],[23.680078125000023,66.28327057499412,47.3827],[23.688867187500023,66.257342840619117,44.5],[23.7236328125,66.206903387494123,45.2339],[23.749414062500023,66.189960028119117,52.943],[23.784912109375,66.17706940311912,86.9695],[23.888818359375023,66.16132233280662,49.4242],[23.910888671875,66.14887116093162,39.501],[23.965087890625,66.081903387494123,28.6027],[23.97412109375,66.07318756718162,22.6507],[23.984619140625,66.066669012494117,21.0],[24.0087890625,66.055926824994117,30.6319],[24.019189453125023,66.04926178593162,38.6641],[24.029296875,66.035272528119123,42.6156],[24.0546875,65.98554108280662,20.5],[24.056396484375,65.970477606244117,33.7824],[24.05419921875,65.94818756718162,17.3868],[24.075585937500023,65.92829010624412,24.4059],[24.101806640625,65.90888092655662,10.5369],[24.123925781250023,65.869159246869117,8.2605],[24.162841796875,65.84113190311912,8.7358],[24.1630859375,65.82269928593162,18.1269]]}}