{"type":"Feature","properties":{"featurecla":"River","scalerank":6,"rivernum":268,"dissolve":"268River","name":"Kemijoki2","name_alt":null,"note":null,"min_zoom":5.0,"strokeweig":0.2,"name_en":"Kemijoki","min_label":6.0},
"geometry":{"type": "LineString","coordinates": [[28.878173828125,67.90143463749412,229.626],[28.861914062500006,67.87213776249412,223.3549],[28.856835937500023,67.86542389530662,226.7329],[28.827246093750006,67.84076569218162,222.1386],[28.822021484375,67.83124420780662,252.5773],[28.82080078125,67.82343170780662,230.954],[28.823632812500023,67.82184479374412,236.177],[28.829980468750023,67.820575262494117,247.554],[28.83935546875,67.81354401249412,293.4853],[28.848535156250023,67.79608795780662,254.0534],[28.841552734375,67.78412506718162,230.4413],[28.808349609375,67.762323309369123,224.095],[28.718017578125,67.67633698124412,209.7122],[28.685449218750023,67.65314362186912,208.7551],[28.564160156250011,67.607684637494117,215.5901],[28.52783203125,67.584247137494117,211.4108],[28.455761718750011,67.52411530155662,207.6259],[28.415136718750006,67.49921295780662,190.7645],[28.369531250000023,67.48114655155662,177.0],[28.321875,67.47553131718162,186.7831],[28.311718750000011,67.47125885624412,190.0168],[28.292382812500023,67.448993231244117,179.9786],[28.281640625000023,67.44086334843162,181.9764],[28.26708984375,67.43402741093162,187.092],[28.182714843750006,67.41205475468162,186.5202],[28.1572265625,67.39862702030662,182.33],[28.177734375,67.357684637494117,177.2274],[28.177832031250006,67.348260809369123,178.5506],[28.175195312500023,67.33966705936912,176.7257],[28.178125,67.333368231244123,176.3935],[28.2138671875,67.327899481244117,175.5864],[28.268310546875,67.31122467655662,200.3479],[28.28076171875,67.30304596561912,218.2978],[28.274316406250023,67.27850983280662,175.7954],[28.248437500000023,67.271356512494123,172.6709],[28.195068359375,67.27570221561912,178.1993],[28.181542968750023,67.28009674686912,166.0],[28.149511718750006,67.30194733280662,183.5282],[28.13046875,67.31049225468162,180.995],[28.106640625000011,67.31452057499412,191.4664],[28.08447265625,67.31220123905662,179.1605],[28.06796875,67.301141668744123,163.5],[28.061621093750006,67.27912018436912,170.4958],[28.066015625,67.269159246869123,181.3783],[28.085205078125,67.25629303593162,173.5144],[28.089599609375,67.24469635624412,169.0755],[28.0859375,67.23627350468162,164.4841],[28.076904296875,67.229364324994123,178.1944],[28.065820312500023,67.22431061405662,166.5951],[28.055419921875,67.22113678593162,169.4776],[27.991943359375,67.21442291874412,173.2814]]}}