{"type":"Feature","properties":{"featurecla":"River","scalerank":7,"rivernum":576,"dissolve":"576River","name":"Tornelven1","name_alt":null,"note":null,"min_zoom":6.0,"strokeweig":0.25,"name_en":"Tornelven","min_label":7.0},
"geometry":{"type": "LineString","coordinates": [[21.90234375,67.64032623905662,255.7422],[21.947167968750023,67.62433502811912,250.3589],[22.018798828125,67.60846588749412,232.0],[22.185205078125023,67.55097077030662,228.0265],[22.267333984375,67.501336981244123,219.9105],[22.284912109375,67.49481842655662,225.1947],[22.401611328125,67.474969793744123,211.3704],[22.469873046875023,67.44086334843162,207.775],[22.498779296875,67.43060944218162,210.6108],[22.557763671875023,67.419305731244123,211.2755],[22.586181640625,67.40949127811912,213.1707],[22.5947265625,67.40387604374412,209.3022],[22.605712890625,67.39154694218162,205.1671],[22.61328125,67.38556549686912,209.293],[22.624169921875023,67.38104889530662,204.1307],[22.6494140625,67.373651434369123,184.9972],[22.658349609375023,67.368524481244123,197.955],[22.67041015625,67.35101959843162,196.7469],[22.665429687500023,67.340838934369117,217.4071],[22.65087890625,67.33148834843162,187.049],[22.63427734375,67.31671784061912,188.6008],[22.680908203125,67.289178778119123,176.5733],[22.731835937500023,67.26740143436912,175.849],[22.787255859375023,67.25299713749412,172.2821],[22.9013671875,67.24347565311912,169.0351],[22.911865234375,67.24469635624412,168.7818],[22.919921875,67.25018952030662,167.6004],[22.945947265625023,67.26032135624412,171.0992],[22.956787109375,67.262079168744123,185.026],[23.296533203125023,67.248651434369123,165.8493],[23.360595703125,67.234735418744123,200.6631],[23.429101562500023,67.204217840619123,162.2549],[23.487695312500023,67.197381903119123,159.0264],[23.573486328125,67.17328522343162,151.0903],[23.580712890625023,67.15338776249412,132.5393],[23.598535156250023,67.14057037968162,138.6048],[23.619873046875,67.12958405155662,146.9489],[23.647216796875,67.10883209843162,123.3242],[23.657470703125,67.10431549686912,121.8945],[23.666015625,67.09821198124412,137.9554],[23.669677734375,67.08734772343162,121.7128],[23.670166015625,67.07453034061912,113.1824],[23.672119140625,67.066034246869123,107.0022],[23.676171875000023,67.05878327030662,117.1917],[23.683349609375,67.049823309369117,117.1485],[23.719873046875023,67.01715729374412,117.1989],[23.7431640625,67.00128815311912,115.3032],[23.761132812500023,66.99457428593162,107.8669],[23.79150390625,66.98920319218162,113.3779],[23.816162109375,66.97577545780662,96.5],[23.873046875,66.92499420780662,103.6564],[23.911865234375,66.90375397343162,102.2485],[23.932861328125,66.889032293744123,100.783],[23.960205078125,66.86225006718162,99.9694],[24.000634765625023,66.81268952030662,115.5578],[24.00341796875,66.80548737186912,113.1244],[23.998681640625023,66.79657623905662,98.3278],[23.98388671875,66.79328034061912,80.9316],[23.96044921875,66.79389069218162,82.079],[23.938623046875023,66.79144928593162,75.5],[23.924218750000023,66.77326080936912,82.6386],[23.891845703125,66.751239324994117,78.495],[23.89111328125,66.743915106244117,68.5],[23.902490234375023,66.70722077030662,78.7919],[23.902587890625,66.68671295780662,112.6514],[23.8984375,66.66669342655662,72.1617],[23.891015625000023,66.64826080936912,71.9284],[23.88134765625,66.632098699994117,75.5167]]}}