{"type":"Feature","properties":{"featurecla":"River","scalerank":6,"rivernum":268,"dissolve":"268River","name":"Kemijoki5","name_alt":null,"note":null,"min_zoom":5.0,"strokeweig":0.3,"name_en":"Kemijoki","min_label":6.0},
"geometry":{"type": "LineString","coordinates": [[25.302636718750023,66.192645574994117,55.2111],[25.26611328125,66.17963287968162,40.5],[25.17724609375,66.15851471561912,50.5569],[25.120996093750023,66.134393621869123,44.194],[24.875,66.10651276249412,33.4235],[24.826904296875,66.092792059369117,34.5192],[24.791015625,66.07111237186912,31.5214],[24.793701171875,66.04242584843162,45.1889],[24.753320312500023,66.01727936405662,53.3882],[24.737060546875,66.00287506718162,40.813],[24.724853515625,65.980975653119117,54.5955],[24.7119140625,65.929071356244123,12.5],[24.710595703125023,65.912127996869117,11.5]]}}