{"type":"Feature","properties":{"featurecla":"River","scalerank":8,"rivernum":742,"dissolve":"742River","name":"Muonio2","name_alt":null,"note":null,"min_zoom":7.0,"strokeweig":0.25,"name_en":"Muonio","min_label":8.0},
"geometry":{"type": "LineString","coordinates": [[23.456787109375,68.02460358280662,243.0044],[23.484130859375,68.01618073124412,231.4195],[23.573144531250023,67.973651434369117,230.9551],[23.642578125,67.963495184369123,231.505],[23.66162109375,67.95075104374412,236.7346],[23.66064453125,67.933221746869123,240.8056],[23.635498046875,67.91376373905662,225.4995],[23.602783203125,67.903338934369117,220.7855],[23.531982421875,67.89350006718162,216.2305],[23.498291015625,67.882440496869123,237.6387],[23.480712890625,67.86493561405662,210.3144],[23.47607421875,67.84162018436912,197.7953],[23.479248046875,67.817254949994123,205.8058],[23.484130859375,67.79645416874412,190.7838],[23.484033203125023,67.73749420780662,197.5054],[23.48779296875,67.725116278119117,195.153],[23.498925781250023,67.70929596561912,224.6956],[23.51025390625,67.669549871869123,215.9892],[23.518212890625023,67.65314362186912,200.6202],[23.5419921875,67.62702057499412,187.9229],[23.549951171875023,67.611200262494123,193.1042],[23.552978515625,67.587274481244123,186.7467],[23.534912109375,67.57733795780662,173.3026],[23.498925781250023,67.56659577030662,188.3136],[23.472802734375023,67.555292059369123,183.8246],[23.484130859375,67.54328034061912,180.3402],[23.465478515625023,67.52277252811912,183.7302],[23.44287109375,67.50495026249412,180.9337],[23.430810546875023,67.485858465619117,183.224],[23.443115234375,67.461297918744123,168.0914],[23.4765625,67.444110418744117,211.9894],[23.513671875,67.44513580936912,162.0395],[23.553369140625023,67.45233795780662,161.7272],[23.593994140625,67.453876043744117,156.5378],[23.662109375,67.43646881718162,168.4804],[23.730224609375,67.43170807499412,171.5146],[23.751953125,67.42755768436912,165.1892],[23.764550781250023,67.42035553593162,162.3884],[23.7626953125,67.397821356244123,159.4229],[23.750732421875,67.36981842655662,159.0582],[23.750878906250023,67.34650299686912,156.1291],[23.78515625,67.33783600468162,153.1956],[23.7626953125,67.30683014530662,151.0025],[23.73486328125,67.28998444218162,143.2871],[23.621728515625023,67.269305731244117,151.0151],[23.602197265625023,67.26056549686912,147.511],[23.593994140625,67.24469635624412,155.974],[23.5908203125,67.225360418744117,147.9237],[23.59619140625,67.218280340619117,144.2685],[23.614404296875023,67.21430084843162,142.3455],[23.606591796875023,67.201532293744123,142.5217],[23.597070312500023,67.19049713749412,143.9705],[23.5859375,67.181170965619117,146.3249],[23.573486328125,67.17328522343162,151.0903]]}}