{"type":"Feature","properties":{"featurecla":"River","scalerank":6,"rivernum":268,"dissolve":"268River","name":"Kemijoki3","name_alt":null,"note":null,"min_zoom":5.0,"strokeweig":0.25,"name_en":"Kemijoki","min_label":6.0},
"geometry":{"type": "LineString","coordinates": [[27.359472656250006,66.46698639530662,148.2169],[27.367919921875,66.44867584843162,145.0],[27.363037109375,66.438739324994117,187.1788],[27.3115234375,66.38507721561912,125.0],[27.2373046875,66.38251373905662,142.7457],[27.201416015625,66.37433502811912,125.0],[27.170996093750006,66.35712311405662,155.5405],[27.160400390625,66.345331121869123,132.151],[27.15673828125,66.338739324994123,121.2645],[27.14990234375,66.336444403119117,152.9651],[26.154394531250006,66.41474030155662,93.3298],[26.119140625,66.42572662968162,92.1937],[26.087890625,66.44025299686912,82.8503],[26.094824218750006,66.442987371869123,83.3994],[26.10888671875,66.45099518436912,120.9551],[26.11572265625,66.45392487186912,147.5018],[25.991455078125,66.50006744999412,90.6209],[25.927001953125,66.51605866093162,104.9369],[25.82763671875,66.52204010624412,79.2094],[25.800537109375,66.51923248905662,80.239],[25.775146484375,66.51007721561912,83.1404],[25.749267578125,66.49115631718162,73.5],[25.724609375,66.47931549686912,73.5],[25.663183593750006,66.47186920780662,83.8489],[25.635986328125,66.46015045780662,73.0],[25.595458984375,66.42865631718162,114.0635],[25.57275390625,66.42035553593162,72.5],[25.540429687500023,66.419208074994117,85.7148],[25.4703125,66.425555731244117,75.086],[25.4326171875,66.41925690311912,65.381],[25.416259765625,66.39557526249412,62.0],[25.411865234375,66.384784246869117,62.0],[25.401562500000011,66.37763092655662,62.0],[25.390039062500023,66.371698309369123,62.0],[25.382080078125,66.36456940311912,62.0],[25.378515625,66.35419342655662,62.0],[25.378808593750023,66.34625885624412,62.0],[25.382080078125,66.33380768436912,62.0],[25.370703125,66.29315827030662,73.0154],[25.369384765625,66.27423737186912,58.9249],[25.382080078125,66.26215241093162,49.9701],[25.3701171875,66.24787018436912,52.4464],[25.351464843750023,66.219842840619123,61.4087],[25.3349609375,66.206903387494123,41.0],[25.302636718750023,66.192645574994117,55.2111]]}}