{"type":"Feature","properties":{"featurecla":"River","scalerank":7,"rivernum":425,"dissolve":"425River","name":"Lotta2","name_alt":null,"note":"Version 1.2 edit in N. America and Europe","min_zoom":6.0,"strokeweig":0.2,"name_en":"Lotta","min_label":7.0},
"geometry":{"type": "LineString","coordinates": [[27.8916015625,68.47016022343162,173.124],[27.926513671875,68.482928778119117,151.223],[27.95166015625,68.49689362186912,152.9149],[27.981835937500023,68.521258856244117,148.6203],[28.00390625,68.528436590619123,161.4673],[28.035058593750023,68.52655670780662,145.5702],[28.075878906250011,68.515887762494117,202.3945],[28.091064453125,68.50787994999412,149.6994],[28.140380859375,68.49701569218162,224.7725],[28.19375,68.49164459843162,157.5377],[28.204980468750023,68.48908112186912,167.5656],[28.25341796875,68.47492096561912,137.9103],[28.305273437500006,68.46906159061912,195.1032],[28.507080078125,68.49506256718162,147.0038],[28.595117187500023,68.52362702030662,150.3393],[28.856835937500023,68.550653387494123,110.6638],[28.927734375,68.568866278119117,143.1239],[28.952539062500023,68.57111237186912,114.3319],[28.970703125,68.56769440311912,116.357],[29.028076171875,68.54376862186912,125.6713],[29.079345703125,68.53742096561912,170.6442],[29.271582031250006,68.562030340619117,105.4018],[29.398046875,68.597772528119123,120.8592],[29.7890625,68.66046784061912,109.1489],[29.905029296875,68.65302155155662,113.205],[30.309179687500006,68.701434637494117,82.4159],[30.362402343750006,68.69843170780662,84.5128],[30.386962890625,68.69318268436912,78.5],[30.41162109375,68.684100653119117,78.5],[30.46484375,68.676044012494117,78.5],[30.540722656250011,68.700067449994123,83.1367]]}}