{"type":"Feature","properties":{"featurecla":"River","scalerank":6,"rivernum":268,"dissolve":"268River","name":"Kemijoki4","name_alt":null,"note":null,"min_zoom":5.0,"strokeweig":0.25,"name_en":"Kemijoki","min_label":6.0},
"geometry":{"type": "LineString","coordinates": [[27.991943359375,67.21442291874412,173.2814],[27.753173828125,67.19379303593162,156.5181],[27.735595703125,67.18854401249412,171.9321],[27.687890625000023,67.163836981244117,162.8154],[27.66796875,67.14826080936912,157.8356],[27.60302734375,67.124872137494123,156.6073],[27.570898437500006,67.123065496869117,157.4855],[27.480078125,67.13922760624412,156.9342],[27.478515625,67.135614324994123,158.9626],[27.477929687500023,67.13202545780662,158.0047],[27.476464843750023,67.128436590619117,157.7045],[27.47265625,67.124872137494123,157.211],[27.48681640625,67.11847565311912,166.0346],[27.499609375,67.110711981244123,159.8721],[27.510839843750006,67.10150787968162,156.9032],[27.520410156250023,67.09076569218162,155.7945],[27.521386718750023,67.08515045780662,156.0023],[27.518652343750006,67.07916901249412,154.9983],[27.516992187500023,67.07208893436912,148.0],[27.520410156250023,67.06342194218162,148.0],[27.525488281250006,67.06000397343162,148.0],[27.541748046875,67.05377838749412,160.7408],[27.54833984375,67.049823309369117,149.9507],[27.564843750000023,67.025995184369123,148.0],[27.56005859375,67.005633856244117,178.7609],[27.466699218750023,66.897235418744117,155.5012],[27.465722656250023,66.89350006718162,148.7753],[27.465722656250023,66.88593170780662,147.0],[27.468164062500023,66.87763092655662,152.1316],[27.477929687500023,66.862665106244123,147.0],[27.480078125,66.85797760624412,147.0],[27.473535156250023,66.84113190311912,154.8237],[27.459228515625,66.83185455936912,147.0],[27.441503906250006,66.82550690311912,153.9735],[27.4248046875,66.81708405155662,149.0545],[27.415722656250011,66.808124090619117,153.9937],[27.384765625,66.764764715619123,147.0]]}}