{"type":"Feature","properties":{"featurecla":"River","scalerank":8,"rivernum":904,"dissolve":"904River","name":"Patsoyoki2","name_alt":null,"note":null,"min_zoom":7.0,"strokeweig":0.2,"name_en":"Patsoyoki","min_label":8.0},
"geometry":{"type": "LineString","coordinates": [[28.4111328125,68.89948151249412,117.5],[28.455761718750011,68.90045807499412,158.2573],[28.712792968750023,68.96832916874412,111.0],[28.8330078125,68.98480866093162,91.0],[28.97314453125,69.034540106244123,95.3312],[29.007519531250011,69.037225653119123,102.7817],[29.064160156250011,69.03497955936912,82.3648],[29.119726562500006,69.04718659061912,89.1269],[29.17236328125,69.069696356244123,75.3915],[29.220458984375,69.09870026249412,69.0],[29.239990234375,69.115350653119123,69.0],[29.25048828125,69.13104889530662,61.5853],[29.268310546875,69.16693756718162,51.0],[29.27587890625,69.17621491093162,51.0],[29.293847656250023,69.192010809369123,51.0],[29.3017578125,69.20111725468162,51.0],[29.304882812500011,69.209979559369117,51.0],[29.305078125000023,69.21832916874412,54.9542],[29.314697265625,69.231219793744117,51.0]]}}