{"type":"Feature","properties":{"featurecla":"River","scalerank":8,"rivernum":959,"dissolve":"959River","name":"Luirojoki","name_alt":null,"note":null,"min_zoom":7.0,"strokeweig":0.25,"name_en":"Luirojoki","min_label":8.0},
"geometry":{"type": "LineString","coordinates": [[27.743066406250023,67.826288153119123,242.0],[27.754150390625,67.81513092655662,236.4722],[27.757421875,67.80683014530662,241.0751],[27.753173828125,67.79645416874412,237.7876],[27.738867187500006,67.78961823124412,239.8475],[27.717187500000023,67.78790924686912,247.8548],[27.677734375,67.789667059369123,249.6684],[27.644433593750023,67.782831121869123,239.3896],[27.596289062500006,67.74860260624412,236.7084],[27.56875,67.73505280155662,238.4496],[27.514550781250023,67.72247955936912,236.3464],[27.5,67.72199127811912,253.0829],[27.495361328125,67.724237371869123,237.4825],[27.490332031250006,67.732196356244117,237.2739],[27.486328125,67.73505280155662,235.4555],[27.449951171875,67.74725983280662,243.4288],[27.437890625000023,67.748651434369123,237.9594],[27.423828125,67.75299713749412,237.3327],[27.40771484375,67.771747137494117,252.3966],[27.397216796875,67.775995184369123,248.4447],[27.222070312500023,67.74848053593162,225.7391],[27.194580078125,67.73163483280662,217.212],[27.179882812500011,67.72516510624412,213.555],[27.14892578125,67.72064850468162,216.3045],[27.14306640625,67.71112702030662,216.4819],[27.145898437500023,67.702752996869123,223.2721],[27.164160156250006,67.666766668744117,205.5765],[27.20361328125,67.62714264530662,207.145],[27.263085937500023,67.59699127811912,198.8675],[27.470117187500023,67.53717682499412,186.5],[27.4931640625,67.52277252811912,196.009],[27.509863281250006,67.50861237186912,197.9],[27.52490234375,67.498651434369123,194.5718],[27.592382812500006,67.471063543744123,190.3784],[27.650146484375,67.43402741093162,182.2835],[27.708886718750023,67.406512762494117,187.9811],[27.725830078125,67.39240143436912,197.2871],[27.713134765625,67.388055731244123,191.6909],[27.699804687500006,67.386102606244123,199.6513],[27.671142578125,67.38556549686912,206.2947],[27.668554687500006,67.36676666874412,190.1177],[27.6494140625,67.343768621869117,175.1488],[27.6240234375,67.32294342655662,173.3308],[27.60302734375,67.31049225468162,172.4423],[27.586523437500006,67.304950262494117,162.9809],[27.569433593750006,67.302264715619117,154.5],[27.552832031250006,67.304461981244117,162.271],[27.5375,67.31354401249412,167.5492],[27.522558593750006,67.319842840619117,160.8864],[27.500683593750011,67.32196686405662,161.6258],[27.481201171875,67.31818268436912,156.3201],[27.47265625,67.30683014530662,159.8199],[27.477929687500023,67.289813543744117,156.077],[27.501367187500023,67.254413153119117,157.4602],[27.506738281250023,67.231317449994123,156.9234],[27.509765625,67.22540924686912,157.2462],[27.515869140625,67.21698639530662,159.2289],[27.520898437500023,67.206415106244123,156.1227],[27.520410156250023,67.19379303593162,155.8022],[27.5126953125,67.18256256718162,154.6115],[27.500390625000023,67.17401764530662,156.9749],[27.47265625,67.159686590619117,156.6511],[27.477636718750006,67.15460846561912,158.2087],[27.478906250000023,67.150018621869123,157.4078],[27.478613281250006,67.145135809369123,156.2695],[27.480078125,67.13922760624412,156.9342]]}}