{"type":"Feature","properties":{"GID_3":"FIN.1.2.4_1","GID_0":"FIN","country":"Finland","GID_1":"FIN.1_1","province":"EasternFinland","NL_NAME_1":"NA","GID_2":"FIN.1.2_1","county":"NorthSavonia","NL_NAME_2":"NA","city":"Varkaus","VARNAME_3":"NA","NL_NAME_3":"NA","TYPE_3":"Seutukunta|Ekonomiskregion","ENGTYPE_3":"Sub-Region","CC_3":"NA","HASC_3":"FI.IS.VK","name":"Varkaus.city"},
"geometry":{"type": "MultiPolygon","coordinates": [[[[28.0628,62.2767,109.8453],[28.0663,62.2901,97.1853],[28.0759,62.2895,102.346],[28.0805,62.306399999999996,109.5],[28.0711,62.3079,121.4208],[28.0723,62.3123,123.1561],[28.0819,62.3118,137.8922],[28.0831,62.3162,132.8305],[28.1023,62.3151,128.3023],[28.1047,62.324,130.1574],[28.1335,62.3224,124.6744],[28.1359,62.3313,132.6117],[28.1743,62.3291,112.5424],[28.1755,62.3335,135.949],[28.1851,62.333,118.847],[28.1876,62.3419,99.3328],[28.1972,62.3413,107.1629],[28.2008,62.3547,97.6123],[28.2104,62.3541,103.5025],[28.2092,62.3497,106.4313],[28.2284,62.3485,91.5],[28.2296,62.353,113.4357],[28.2393,62.3524,105.198],[28.2417,62.3614,114.2883],[28.2513,62.3608,115.6096],[28.2525,62.3652,126.2595],[28.2622,62.3647,112.4341],[28.2609,62.3602,118.1282],[28.2801,62.3591,118.0601],[28.2789,62.3546,116.2698],[28.3173,62.3524,120.7802],[28.3235,62.3746,108.2731],[28.3331,62.3741,115.389],[28.3344,62.3785,111.0716],[28.3248,62.3791,114.0877],[28.326,62.3836,108.4772],[28.3068,62.3847,108.1228],[28.308,62.3891,98.6732],[28.2888,62.3903,83.5],[28.2925,62.4036,109.4874],[28.2828,62.4042,123.8954],[28.2853,62.4131,111.4969],[28.2757,62.4137,135.8516],[28.2769,62.4181,107.8853],[28.2577,62.4193,105.5],[28.2589,62.4237,134.8189],[28.2493,62.4243,115.9021],[28.2517,62.4332,116.2928],[28.2613,62.4326,93.8028],[28.2626,62.4371,115.8812],[28.2722,62.4365,98.0754],[28.2734,62.4409,109.9563],[28.2831,62.4404,104.7907],[28.2843,62.4449,109.4047],[28.2939,62.4443,113.0781],[28.2927,62.4398,135.2774],[28.3023,62.4393,135.2175],[28.3061,62.4526,141.2186],[28.2964,62.4532,106.9306],[28.2977,62.4576,102.4593],[28.288,62.4582,90.0],[28.2893,62.4627,93.3061],[28.2796,62.4632,90.0],[28.2821,62.4721,86.7004],[28.2917,62.4716,104.9204],[28.293,62.476,82.0],[28.3026,62.4755,91.8883],[28.3014,62.471,86.6706],[28.3496,62.4682,97.1627],[28.3483,62.4637,89.1926],[28.3869,62.4614,99.8724],[28.3944,62.4881,115.0564],[28.3848,62.4887,104.3264],[28.386,62.4932,119.2315],[28.3764,62.4937,112.9332],[28.3776,62.4982,129.4129],[28.368,62.4988,108.3147],[28.3705,62.5077,97.0],[28.3898,62.5065,111.6119],[28.3935,62.5199,116.7306],[28.403199999999998,62.5193,152.2491],[28.4095,62.5416,96.5],[28.3998,62.5421,96.5],[28.4023,62.5511,96.5],[28.4061,62.5644,101.2008],[28.4158,62.5638,97.5156],[28.417,62.5683,93.8401],[28.4074,62.5689,87.2729],[28.4086,62.5733,91.489],[28.4183,62.5727,103.402],[28.4196,62.5772,109.2166],[28.4292,62.5766,101.4157],[28.428,62.5722,99.7648],[28.4473,62.571,104.3555],[28.4461,62.5666,113.954],[28.4944,62.5637,93.5],[28.4931,62.5592,99.7239],[28.5028,62.5587,93.5],[28.5015,62.5542,121.5838],[28.5209,62.553,119.1407],[28.5196,62.5486,93.5],[28.5292,62.548,120.5022],[28.5331,62.5614,109.7445],[28.5427,62.5608,105.1413],[28.5453,62.5697,82.6621],[28.5163,62.5714,110.4833],[28.5176,62.5759,89.113],[28.4789,62.5782,76.0],[28.4802,62.5826,76.0],[28.4608,62.5838,76.0],[28.4621,62.5882,76.0],[28.4524,62.5888,76.0],[28.4537,62.5933,76.0],[28.444,62.5939,76.0],[28.4452,62.5983,76.0],[28.4356,62.5989,76.0],[28.4368,62.6033,76.0],[28.3884,62.6062,94.8654],[28.3897,62.6107,76.0],[28.3509,62.6129,102.4914],[28.3522,62.6174,99.6999],[28.3328,62.6185,86.2206],[28.3315,62.6141,76.0],[28.3412,62.6135,76.0],[28.3387,62.6046,76.0],[28.3484,62.604,76.0],[28.3472,62.5996,76.0],[28.3568,62.599,91.8249],[28.3556,62.5946,76.0],[28.3265,62.5963,89.2938],[28.3278,62.6007,76.0],[28.3084,62.6018,88.6896],[28.3097,62.6063,92.678],[28.2612,62.6091,76.0],[28.26,62.6047,76.0],[28.2503,62.6052,76.0],[28.2491,62.6008,76.0],[28.2394,62.6013,76.0],[28.2381,62.5969,76.0],[28.2285,62.5975,76.0],[28.2297,62.6019,76.0],[28.22,62.6025,76.0],[28.2249,62.6203,76.0],[28.2153,62.6208,76.0],[28.2177,62.6298,76.0],[28.208,62.6303,76.0],[28.2117,62.6437,76.0],[28.202,62.6442,76.0],[28.2033,62.6487,76.0],[28.1936,62.6493,76.0],[28.1948,62.6537,76.0],[28.1366,62.6571,76.0],[28.1378,62.6615,76.0],[28.1184,62.6626,76.0],[28.1196,62.6671,76.0],[28.0905,62.6687,76.0],[28.0917,62.6732,76.0],[28.0625,62.6748,108.6041],[28.0613,62.6704,87.0],[28.0516,62.6709,90.4706],[28.0225,62.6726,97.93],[28.0237,62.677,99.8827],[28.014,62.6776,102.8448],[28.0128,62.6731,108.5429],[28.0031,62.6737,115.3281],[28.0019,62.6692,120.076],[27.9921,62.6698,104.0],[27.9909,62.6653,112.4886],[27.9715,62.6664,130.0855],[27.9727,62.6708,140.595],[27.9436,62.6725,160.4712],[27.946,62.681399999999996,132.0574],[27.9557,62.6809,163.0848],[27.9581,62.6898,122.2404],[27.9289,62.6914,137.289],[27.9277,62.6869,123.6817],[27.918,62.6875,132.7143],[27.9168,62.683,135.5613],[27.9071,62.6836,122.8706],[27.9059,62.6791,116.783],[27.8865,62.6802,121.8463],[27.8853,62.6757,113.0677],[27.8756,62.6763,94.4506],[27.8768,62.6807,95.7555],[27.8573,62.6818,100.7466],[27.8561,62.6773,113.1816],[27.8464,62.6779,113.5761],[27.8452,62.6734,113.0454],[27.8161,62.675,92.0],[27.8149,62.6706,93.6946],[27.7663,62.6732,78.0],[27.7675,62.6777,78.0],[27.7481,62.6787,78.0],[27.7492,62.6832,78.0],[27.7103,62.6853,78.0],[27.708,62.6764,78.0],[27.64,62.68,78.0],[27.6411,62.6845,78.0],[27.6022,62.6866,78.0],[27.6034,62.691,78.0],[27.5645,62.6931,101.7295],[27.5656,62.6976,100.0595],[27.5462,62.6986,114.1826],[27.545,62.6941,155.4386],[27.5061,62.6962,144.4156],[27.5072,62.7006,141.0551],[27.4975,62.7012,139.3013],[27.4986,62.7056,148.8424],[27.4792,62.7066,148.7171],[27.4814,62.7156,154.3172],[27.462,62.7166,152.3111],[27.4608,62.7121,142.8719],[27.4511,62.7126,154.1077],[27.4489,62.7037,147.0489],[27.4391,62.7042,156.1677],[27.438,62.6998,138.6789],[27.4185,62.7008,128.6086],[27.4174,62.6963,122.556],[27.3785,62.6983,108.5],[27.3796,62.7028,108.5],[27.3699,62.7033,108.5],[27.371,62.7078,119.9563],[27.3515,62.7088,129.0351],[27.3526,62.7132,125.332],[27.3234,62.7147,129.0],[27.3223,62.7103,142.195],[27.3028,62.7113,144.5578],[27.3017,62.7068,142.5198],[27.292,62.7073,145.7032],[27.2909,62.7028,140.6421],[27.2714,62.7038,149.0508],[27.2725,62.7083,142.6806],[27.2531,62.7093,145.664],[27.2542,62.7137,144.8353],[27.2444,62.7142,152.1015],[27.2455,62.7187,150.3953],[27.2358,62.7192,147.3251],[27.2369,62.7237,145.0706],[27.2271,62.7242,140.1899],[27.2282,62.7286,140.4207],[27.2087,62.7296,137.7951],[27.2098,62.7341,139.8815],[27.1903,62.7351,137.1805],[27.1914,62.7395,137.4228],[27.1816,62.74,138.9813],[27.1827,62.7445,143.5357],[27.1632,62.7454,131.5344],[27.1643,62.7499,128.8865],[27.1448,62.7509,119.5263],[27.1459,62.7554,129.0224],[27.1361,62.7558,116.5021],[27.1372,62.7603,117.4424],[27.0884,62.7627,102.9865],[27.0874,62.7583,103.8105],[27.0776,62.7588,105.2459],[27.0765,62.7543,109.7536],[27.0668,62.7548,110.7871],[27.0657,62.7503,106.5],[27.017,62.7527,169.5702],[27.018,62.7572,137.8744],[27.0082,62.7576,146.6627],[27.0093,62.7621,133.3525],[26.9996,62.7626,153.2697],[27.0006,62.7671,139.6818],[26.9909,62.7675,144.3861],[26.9919,62.772,130.8078],[26.9821,62.7725,154.4576],[26.9864,62.7903,101.9661],[26.9766,62.7908,97.5],[26.9808,62.8087,97.5],[26.9711,62.8092,97.5],[26.9732,62.8181,97.5],[26.9634,62.8186,97.5],[26.9645,62.823,97.5],[26.9547,62.8235,97.5],[26.9557,62.828,97.5],[26.9459,62.8284,97.5],[26.947,62.8329,97.5],[26.9372,62.8334,97.5],[26.9383,62.8378,97.5],[26.9285,62.8383,97.5],[26.9295,62.8428,97.5],[26.9197,62.8433,97.5],[26.9208,62.8477,97.5],[26.911,62.8482,97.5],[26.9226,62.8973,119.1505],[26.9128,62.8978,110.9503],[26.9138,62.9023,113.6122],[26.9236,62.9018,108.5196],[26.9257,62.9107,111.9707],[26.9355,62.9102,113.9497],[26.9397,62.9281,100.5],[26.9299,62.9286,100.5],[26.932,62.9375,100.5],[26.9222,62.938,100.5],[26.9243,62.9469,100.5],[26.9145,62.9474,100.5],[26.9156,62.9519,100.5],[26.9057,62.9523,100.5],[26.9068,62.9568,100.5],[26.897,62.9573,100.5],[26.898,62.9617,100.5],[26.8882,62.9622,100.5],[26.8903,62.9711,100.5],[26.9001,62.9707,100.5],[26.9012,62.9751,100.5],[26.9033,62.9841,100.5],[26.8934,62.9845,100.5],[26.8945,62.989,100.5],[26.9142,62.988,100.5],[26.9152,62.9925,104.7356],[26.9349,62.9916,128.0312],[26.936,62.996,104.0],[26.9458,62.9956,104.0],[26.9447,62.9911,104.0],[26.9644,62.9902,112.3204],[26.9633,62.9857,104.0],[27.0027,62.9838,116.7186],[27.0037,62.9882,117.1165],[27.0234,62.9873,152.9605],[27.0277,63.0051,110.6638],[27.0769,63.0027,114.3947],[27.079,63.0117,124.65],[27.0889,63.0112,136.9866],[27.09,63.0156,126.6251],[27.0998,63.0152,132.4904],[27.0987,63.0107,138.5039],[27.1184,63.0097,140.2917],[27.1173,63.0053,134.151],[27.1271,63.0048,142.5012],[27.1282,63.0092,147.6067],[27.1381,63.0088,147.9661],[27.1402,63.0177,150.1698],[27.1304,63.0182,149.6512],[27.1315,63.0226,146.6259],[27.1118,63.0236,144.8083],[27.1129,63.0281,164.504],[27.0932,63.029,142.335],[27.0943,63.0335,138.5173],[27.0845,63.034,131.4103],[27.0866,63.0429,131.3097],[27.0768,63.0434,131.0636],[27.08,63.0568,141.3129],[27.0603,63.0578,150.4916],[27.0614,63.0622,140.8048],[27.0417,63.0632,185.5189],[27.0427,63.0676,134.0],[27.023,63.0686,152.9038],[27.0241,63.0731,138.4331],[27.0142,63.0736,145.2498],[27.0153,63.078,156.4055],[26.9956,63.079,140.4709],[26.9977,63.0879,160.0424],[26.9879,63.0884,138.4002],[26.9889,63.0928,148.9776],[26.9791,63.0933,134.6616],[26.9801,63.0978,134.7261],[26.9703,63.0983,135.671],[26.9724,63.1072,133.5483],[26.9625,63.1077,132.1819],[26.9647,63.1166,128.4937],[26.9449,63.1176,141.1558],[26.9438,63.1131,141.577],[26.9142,63.1145,146.8542],[26.9131,63.1101,137.0496],[26.9033,63.1105,130.5102],[26.9043,63.115,145.2685],[26.8945,63.1155,143.6143],[26.8955,63.1199,147.7686],[26.8856,63.1204,144.3535],[26.8867,63.1249,156.2407],[26.8768,63.1253,132.31],[26.8779,63.1298,129.5624],[26.8581,63.1307,126.8123],[26.857,63.1263,125.5778],[26.8472,63.1267,117.4369],[26.8451,63.1178,116.5354],[26.855,63.1173,119.84],[26.8528,63.1084,128.7306],[26.8726,63.1075,120.4753],[26.8715,63.103,115.4155],[26.8814,63.1025,124.8862],[26.8804,63.0981,119.5983],[26.9001,63.0971,124.9809],[26.899,63.0927,116.7242],[26.9089,63.0922,118.1663],[26.9079,63.0877,126.387],[26.898,63.0882,119.3759],[26.8969,63.0837,119.8731],[26.8871,63.0842,121.8809],[26.886,63.0797,122.7164],[26.8268,63.0825,107.2083],[26.8258,63.0781,106.6044],[26.8159,63.0785,116.3732],[26.8149,63.0741,109.6262],[26.805,63.0745,107.8101],[26.804,63.0701,106.8984],[26.7546,63.0724,103.0],[26.7526,63.0634,103.0],[26.7427,63.0639,103.0],[26.7396,63.0505,112.3483],[26.7297,63.051,113.6047],[26.7287,63.0465,116.8761],[26.7189,63.047,116.3086],[26.7199,63.0514,114.1303],[26.6903,63.0528,141.1401],[26.6893,63.0483,132.7078],[26.6301,63.0511,110.8118],[26.6291,63.0466,102.2117],[26.6193,63.0471,101.6975],[26.6183,63.0426,102.1859],[26.6084,63.043,101.6114],[26.6074,63.0386,101.7654],[26.6172,63.0381,101.7971],[26.6152,63.0292,102.2869],[26.6251,63.0287,101.8382],[26.623,63.0198,101.7738],[26.6132,63.0202,101.877],[26.6122,63.0158,103.289],[26.6023,63.0162,102.776],[26.6013,63.0118,113.6286],[26.5915,63.0122,102.1807],[26.5905,63.0077,102.0104],[26.5806,63.0082,102.0949],[26.5796,63.0037,102.1856],[26.5599,63.0046,113.0948],[26.5589,63.0001,110.1655],[26.5491,63.0006,114.0838],[26.5481,62.9961,120.5533],[26.5284,62.997,114.7395],[26.5274,62.9926,115.711],[26.5077,62.9935,125.2684],[26.5087,62.9979,120.5854],[26.4989,62.9984,128.9143],[26.4999,63.0028,131.4301],[26.49,63.0033,134.9771],[26.491,63.0077,129.1326],[26.4812,63.0082,147.0275],[26.4822,63.0126,131.6566],[26.4526,63.014,118.8997],[26.4536,63.0185,131.084],[26.424,63.0198,131.6057],[26.425,63.0242,122.7044],[26.3955,63.0256,139.0878],[26.3965,63.03,141.3033],[26.3669,63.0313,147.7311],[26.3678,63.0358,150.1167],[26.2397,63.0414,151.3229],[26.2378,63.0325,152.4977],[26.2279,63.0329,145.616],[26.226,63.0239,136.0836],[26.2359,63.0235,149.4532],[26.2339,63.0146,141.0428],[26.2438,63.0141,154.8327],[26.2428,63.0097,139.9486],[26.2527,63.0093,145.0878],[26.2517,63.0048,179.8144],[26.2616,63.0043,164.381],[26.2606,62.9999,157.9209],[26.2705,62.9995,149.0239],[26.2695,62.995,141.1193],[26.2794,62.9946,142.3291],[26.2784,62.9901,134.419],[26.2883,62.9897,144.4853],[26.2863,62.9807,146.8937],[26.306,62.9799,139.7165],[26.307,62.9843,141.0237],[26.3365,62.983,185.746],[26.3355,62.9786,173.2337],[26.3257,62.979,143.8312],[26.3209,62.9566,129.5676],[26.3111,62.9571,120.5],[26.3091,62.9481,124.6373],[26.2993,62.9486,133.3154],[26.2974,62.9396,124.1916],[26.2876,62.9401,133.7542],[26.2856,62.9311,123.4715],[26.266,62.932,107.5],[26.2669,62.9364,119.7173],[26.2571,62.9369,109.625],[26.2581,62.9413,127.1052],[26.2482,62.9418,120.4927],[26.2492,62.9462,131.5559],[26.2394,62.9467,130.9272],[26.2403,62.9511,143.9059],[26.1518,62.9549,127.7064],[26.1509,62.9505,137.1918],[26.1214,62.9517,115.4676],[26.1204,62.9473,125.4366],[26.1106,62.9477,121.9601],[26.1097,62.9432,127.956],[26.0999,62.9436,111.2451],[26.0989,62.9392,117.3195],[26.0694,62.9404,98.0],[26.0685,62.9359,98.0],[26.039,62.9372,98.0],[26.0381,62.9327,98.0],[26.0479,62.9323,98.0],[26.0461,62.9233,98.0],[26.0559,62.9229,98.0],[26.0532,62.9095,98.0],[26.063,62.9091,98.0],[26.0602,62.8957,98.0],[26.07,62.8953,98.0],[26.0691,62.8908,98.0],[26.0789,62.8904,98.0],[26.078,62.8859,98.0],[26.1074,62.8847,98.0],[26.1065,62.8802,98.0],[26.1457,62.8785,98.0],[26.1448,62.874,98.0],[26.1742,62.8728,98.0],[26.1733,62.8683,98.0],[26.1831,62.8679,98.0],[26.1821,62.8634,98.0],[26.192,62.863,98.0],[26.191,62.8585,110.819],[26.1812,62.8589,110.3986],[26.1803,62.8545,118.3124],[26.1705,62.8549,124.3354],[26.1695,62.8504,136.2792],[26.1597,62.8508,117.2059],[26.1579,62.8419,98.0],[26.1677,62.8415,105.4123],[26.1667,62.837,98.0],[26.1765,62.8366,98.0],[26.1756,62.8321,98.0],[26.1854,62.8317,98.0],[26.1845,62.8272,98.0],[26.204,62.8264,126.4593],[26.205,62.8308,130.0918],[26.2148,62.8304,128.8069],[26.2138,62.8259,119.3967],[26.2334,62.8251,117.5639],[26.2324,62.8206,110.6128],[26.2422,62.8202,111.7815],[26.2413,62.8157,98.0],[26.2511,62.8153,98.0],[26.2501,62.8108,98.0],[26.2599,62.8104,98.0],[26.259,62.8059,98.0],[26.2687,62.8055,98.0],[26.2678,62.801,98.0],[26.2776,62.8006,98.0],[26.2757,62.7917,98.0],[26.2855,62.7912,98.0],[26.2845,62.7868,98.0],[26.2943,62.7864,98.0],[26.2933,62.7819,98.0],[26.3031,62.7814,98.0],[26.3022,62.777,98.0],[26.3119,62.7765,98.0],[26.311,62.7721,98.0],[26.3207,62.7716,98.0],[26.3198,62.7672,98.0],[26.3296,62.7667,98.0],[26.3286,62.7623,98.0],[26.3384,62.7618,98.0],[26.3374,62.7574,98.0],[26.3472,62.7569,98.0],[26.3462,62.7525,98.0],[26.356,62.752,98.0],[26.355,62.7476,98.0],[26.3648,62.7471,98.0],[26.3657,62.7516,98.0],[26.3755,62.7512,98.0],[26.3765,62.7556,98.0],[26.3862,62.7552,98.0],[26.3882,62.7641,98.0],[26.3979,62.7637,98.0],[26.3999,62.7726,115.8225],[26.3901,62.7731,113.0588],[26.3911,62.7775,116.0643],[26.4008,62.7771,94.0],[26.4018,62.7816,94.0],[26.4214,62.7807,94.0],[26.4223,62.7852,94.0],[26.4419,62.7843,94.0],[26.4428,62.7888,94.0],[26.4526,62.7883,94.0],[26.4516,62.7839,94.0],[26.4614,62.7834,94.0],[26.4595,62.7745,94.0],[26.4692,62.774,94.0],[26.4683,62.7696,94.0],[26.478,62.7691,94.0],[26.4761,62.7602,94.0],[26.4858,62.7597,94.0],[26.4848,62.7553,94.0],[26.4946,62.7548,94.0],[26.4936,62.7504,94.0],[26.5034,62.7499,94.0],[26.5014,62.741,94.0],[26.5112,62.7405,94.0],[26.5102,62.7361,94.0],[26.52,62.7356,94.0],[26.519,62.7311,94.0],[26.5287,62.7307,94.0],[26.5268,62.7218,94.0],[26.5365,62.7213,94.0],[26.5345,62.7124,94.0],[26.5443,62.7119,94.0],[26.5423,62.703,94.0],[26.5521,62.7025,94.0],[26.5491,62.6891,94.0],[26.5588,62.6887,94.0],[26.5569,62.6797,94.0],[26.5666,62.6793,94.0],[26.5646,62.6704,94.0],[26.5744,62.6699,104.2273],[26.5724,62.661,94.0],[26.5821,62.6605,110.9501],[26.5801,62.6516,102.5673],[26.5899,62.6512,108.0817],[26.5879,62.6422,94.0],[26.5976,62.6418,94.0],[26.5936,62.6239,94.0],[26.6033,62.6235,94.0],[26.6004,62.6101,94.0],[26.590699999999998,62.6105,94.0],[26.5897,62.606,94.0],[26.58,62.6065,94.0],[26.579,62.602,116.4972],[26.5887,62.6016,94.0],[26.5877,62.5971,94.0],[26.5974,62.5966,103.4527],[26.5954,62.5877,94.0],[26.576,62.5886,94.0],[26.573,62.5752,94.0],[26.5633,62.5756,94.0],[26.5594,62.5578,141.0059],[26.5497,62.5582,133.8976],[26.5478,62.5493,153.3203],[26.538,62.5497,155.7511],[26.5361,62.5408,165.2382],[26.5264,62.5412,114.0362],[26.5254,62.5368,139.0338],[26.5157,62.5372,108.355],[26.5148,62.5327,123.794],[26.4857,62.5341,114.5],[26.4837,62.5251,132.6137],[26.474,62.5256,131.2121],[26.4721,62.5167,147.553],[26.4818,62.5162,140.8534],[26.4808,62.5117,144.3897],[26.5002,62.5109,143.6448],[26.4992,62.5064,122.0],[26.5186,62.5055,156.9709],[26.5176,62.501,143.1196],[26.5273,62.5006,175.8079],[26.5263,62.4961,181.9271],[26.5457,62.4952,165.4617],[26.5447,62.4907,158.9852],[26.5544,62.4903,157.809],[26.5534,62.4858,144.3473],[26.5727,62.4849,116.6211],[26.5718,62.4805,110.1199],[26.5814,62.48,105.0],[26.5805,62.4756,105.0],[26.5901,62.4751,105.0],[26.5891,62.4706,105.0],[26.5988,62.4702,105.0],[26.5978,62.4657,116.1506],[26.6075,62.4653,105.0],[26.6065,62.4608,105.0],[26.6162,62.4604,112.1582],[26.6152,62.4559,105.0],[26.6345,62.455,151.9429],[26.6335,62.4505,185.4816],[26.6432,62.4501,199.1407],[26.6442,62.4545,154.5982],[26.6538,62.4541,166.0268],[26.6548,62.4585,128.8062],[26.6742,62.4576,117.3108],[26.6751,62.4621,106.0],[26.7041,62.4607,112.9466],[26.7031,62.4563,106.0],[26.7128,62.4558,106.0],[26.7118,62.4513,106.0],[26.7215,62.4509,106.0],[26.7205,62.4464,106.0],[26.7301,62.446,106.0],[26.7291,62.4415,125.8659],[26.7388,62.441,117.9337],[26.7378,62.4366,112.9827],[26.7474,62.4361,114.88],[26.7464,62.4316,116.4799],[26.7561,62.4312,123.2256],[26.7551,62.4267,126.9463],[26.7744,62.4258,153.4128],[26.7754,62.4303,152.9187],[26.7947,62.4293,166.0061],[26.7957,62.4338,185.4171],[26.8054,62.4333,170.654],[26.8064,62.4378,151.2487],[26.8257,62.4369,167.8424],[26.8267,62.4413,138.2576],[26.8364,62.4409,148.8944],[26.8374,62.4453,158.5954],[26.8277,62.4458,122.1216],[26.8287,62.4503,128.8927],[26.8191,62.4507,119.723],[26.8201,62.4552,107.5],[26.8298,62.4547,143.8968],[26.8318,62.4637,107.5],[26.8415,62.4632,142.5319],[26.8425,62.4677,107.5],[26.8521,62.4672,147.0905],[26.8542,62.4761,107.5],[26.8639,62.4757,107.5],[26.8649,62.4801,116.4301],[26.8746,62.4797,113.6929],[26.8756,62.4841,110.5],[26.8853,62.4837,118.8314],[26.8842,62.4792,113.1642],[26.8939,62.4787,117.1938],[26.8929,62.4743,122.5788],[26.9025,62.4738,120.9724],[26.9015,62.4693,110.5],[26.9112,62.4688,112.8031],[26.9101,62.4644,110.5],[26.9198,62.4639,110.5],[26.9188,62.4594,114.3943],[26.9284,62.459,110.5],[26.9274,62.4545,126.249],[26.937,62.454,112.4323],[26.936,62.4496,117.5799],[26.9457,62.4491,115.7882],[26.9446,62.4446,115.7913],[26.9639,62.4437,119.6279],[26.9691,62.466,146.492],[26.9595,62.4665,143.654],[26.9605,62.4709,152.1202],[26.9509,62.4714,136.0263],[26.954,62.4848,116.5],[26.9637,62.4843,138.2996],[26.9647,62.4888,119.2591],[26.9744,62.4883,132.4799],[26.9733,62.4839,128.9467],[26.983,62.4834,133.3363],[26.9819,62.4789,124.5],[26.9916,62.4784,130.5006],[26.9906,62.474,128.1671],[27.0002,62.4735,133.1788],[26.9992,62.469,126.8887],[27.028199999999998,62.4676,134.3439],[27.0292,62.4721,134.7895],[27.0679,62.4701,139.5549],[27.071,62.4835,134.9348],[27.0807,62.4831,126.6731],[27.0818,62.4875,126.3585],[27.1011,62.4865,124.1775],[27.1022,62.491,112.6039],[27.1118,62.4905,120.5476],[27.115,62.5039,101.5],[27.1247,62.5034,101.2692],[27.1236,62.499,111.1906],[27.1333,62.4985,104.9432],[27.1322,62.494,109.414],[27.1419,62.4935,101.5],[27.1408,62.4891,106.9009],[27.1505,62.4886,101.5],[27.1494,62.4841,112.416],[27.1591,62.4836,101.5],[27.158,62.4792,112.571],[27.1773,62.4782,101.5],[27.1731,62.4603,103.6649],[27.1827,62.4599,107.2061],[27.1816,62.4554,112.8051],[27.1913,62.4549,112.8943],[27.1956,62.4728,113.2917],[27.2053,62.4723,114.605],[27.2063,62.4767,114.9233],[27.216,62.4762,108.6969],[27.2171,62.4807,117.0085],[27.2557,62.4787,99.0],[27.2547,62.4743,111.5709],[27.2643,62.4738,99.0],[27.2621,62.4648,101.7721],[27.2911,62.4633,99.0],[27.2944,62.4767,99.0],[27.304,62.4762,99.0],[27.3073,62.4896,99.0],[27.317,62.4891,99.0],[27.3181,62.4936,99.0],[27.3374,62.4926,99.0],[27.3385,62.4971,99.0],[27.3482,62.4965,99.0],[27.3493,62.501,113.7966],[27.3589,62.5005,99.0],[27.36,62.505,114.505],[27.3504,62.5055,109.4755],[27.3537,62.5189,99.0],[27.344,62.5194,99.0],[27.3451,62.5238,99.0],[27.3548,62.5233,99.0],[27.3559,62.5278,99.0],[27.3752,62.5268,99.0],[27.3741,62.5223,99.0],[27.3838,62.5218,99.0],[27.3816,62.5129,99.0],[27.3913,62.5124,99.0],[27.389,62.5035,99.0],[27.418,62.5019,99.0],[27.4169,62.4975,99.0],[27.4266,62.497,109.8325],[27.4255,62.4925,99.0],[27.4352,62.492,111.1639],[27.434,62.4876,99.0],[27.4437,62.487,127.8974],[27.4426,62.4826,99.0],[27.4523,62.4821,105.9831],[27.4511,62.4776,127.2042],[27.4608,62.4771,121.2171],[27.4597,62.4726,113.9366],[27.4693,62.4721,106.0953],[27.4682,62.4677,96.5],[27.5068,62.4656,96.5],[27.5057,62.4612,96.5],[27.5443,62.4591,107.371],[27.5432,62.4546,96.5],[27.5625,62.4536,96.5],[27.5614,62.4492,96.5],[27.5807,62.4481,96.5],[27.5795,62.4437,96.5],[27.5892,62.4431,96.5],[27.5881,62.4387,96.5],[27.5977,62.4382,96.5],[27.5966,62.4337,96.5],[27.6062,62.4332,96.5],[27.6051,62.4287,96.5],[27.6147,62.4282,96.5],[27.6136,62.4238,96.5],[27.6329,62.4227,111.3165],[27.6306,62.4138,113.3909],[27.6402,62.4133,118.9455],[27.6391,62.4088,109.5896],[27.6487,62.4083,120.8198],[27.6476,62.4038,100.3115],[27.6572,62.4033,154.7203],[27.6561,62.3989,109.773],[27.6657,62.3983,157.1501],[27.6646,62.3939,110.6776],[27.6742,62.3934,139.6152],[27.673,62.3889,125.1647],[27.6923,62.3879,126.6971],[27.6889,62.3745,122.6713],[27.737,62.3718,106.1453],[27.7358,62.3674,110.4288],[27.7647,62.3658,91.0033],[27.7635,62.3613,102.315],[27.7731,62.3608,96.7021],[27.772,62.3563,98.0773],[27.7624,62.3569,84.9259],[27.7612,62.3524,89.4093],[27.7516,62.353,85.5771],[27.7493,62.344,91.0254],[27.7397,62.3446,101.581],[27.7362,62.3312,117.4071],[27.7458,62.3307,103.0397],[27.7436,62.3217,124.0161],[27.7628,62.3207,94.0488],[27.7616,62.3162,103.5042],[27.7808,62.3152,84.9772],[27.7797,62.3107,81.3854],[27.7989,62.3097,82.4629],[27.7977,62.3052,87.8258],[27.8073,62.3047,107.5388],[27.8062,62.3002,88.3835],[27.8158,62.2997,99.8567],[27.8134,62.2907,102.0659],[27.823,62.2902,81.6527],[27.8219,62.2858,78.0702],[27.8315,62.2852,82.0621],[27.8291,62.2763,100.1174],[27.8387,62.2758,95.8142],[27.8399,62.2802,83.3235],[27.8495,62.2797,77.0793],[27.8506,62.2842,77.2185],[27.8698,62.2831,78.2815],[27.8687,62.2786,78.0094],[27.8974,62.277,76.2432],[27.8987,62.282,82.6725],[27.8944,62.2862,72.5],[27.8902,62.2865,72.5],[27.8913,62.2909,72.5],[27.9009,62.2904,72.5],[27.9005,62.2887,72.5],[27.9041,62.2857,72.5],[27.9189,62.2849,72.5],[27.9178,62.2804,72.5],[27.9274,62.2799,72.5],[27.9262,62.2754,72.5],[27.9358,62.2749,72.5],[27.9346,62.2704,72.5],[27.9442,62.2699,72.5],[27.943,62.2654,72.5],[27.9526,62.2649,72.5],[27.9514,62.2604,72.5],[27.961,62.2599,72.5],[27.9598,62.2554,72.5],[27.9694,62.2549,72.5],[27.9718,62.2638,79.2178],[27.9813,62.2632,87.0667],[27.9849,62.2766,91.3454],[27.9561,62.2782,94.7691],[27.9573,62.2827,92.7726],[27.9765,62.2816,109.8973],[27.9777,62.2861,115.095],[27.9872,62.2855,104.0],[28.0064,62.2844,119.2749],[28.0052,62.28,113.8276],[28.0244,62.2789,106.4475],[28.0256,62.2833,120.4125],[28.0544,62.2817,116.6345],[28.0532,62.2772,114.2153],[28.0628,62.2767,109.8453]]]]}}