{"type":"Feature","properties":{"GID_3":"FIN.5.7.2_1","GID_0":"FIN","country":"Finland","GID_1":"FIN.5_1","province":"WesternFinland","NL_NAME_1":"NA","GID_2":"FIN.5.7_1","county":"Satakunta","NL_NAME_2":"NA","city":"Pori","VARNAME_3":"NA","NL_NAME_3":"NA","TYPE_3":"Seutukunta|Ekonomiskregion","ENGTYPE_3":"Sub-Region","CC_3":"NA","HASC_3":"FI.LS.PI","name":"Pori.city"},
"geometry":{"type": "MultiPolygon","coordinates": [[[[21.4474,61.3297,1.0508],[21.4474,61.3307,0.0],[21.4443,61.3307,2.5951],[21.4443,61.3297,0.7909],[21.4474,61.3297,1.0508]]],
[[[21.4792,61.3542,2.9537],[21.4807,61.3557,0.0],[21.4729,61.3583,0.0],[21.4672,61.3578,11.6982],[21.475,61.3542,0.0],[21.4792,61.3542,2.9537]]],
[[[21.438,61.3672,0.0],[21.4411,61.3724,0.0],[21.4359,61.3755,0.0],[21.437,61.3786,0.0],[21.425,61.3771,0.0],[21.4214,61.3745,5.5339],[21.4307,61.3703,9.0104],[21.4276,61.3651,0.0],[21.4339,61.3609,0.0],[21.437,61.3609,8.2586],[21.4411,61.3651,0.0],[21.438,61.3672,0.0]]],
[[[21.425,61.3833,11.8268],[21.4234,61.3818,10.8388],[21.4271,61.3792,0.0],[21.4328,61.3797,9.8453],[21.4349,61.3818,6.0601],[21.4333,61.3833,6.5331],[21.425,61.3833,11.8268]]],
[[[21.3828,61.3755,2.3688],[21.3813,61.3771,0.0],[21.3797,61.3766,1.442],[21.3797,61.3755,1.6251],[21.3828,61.3755,2.3688]]],
[[[21.4057,61.3964,9.1993],[21.4057,61.3974,10.139],[21.4026,61.3974,12.7228],[21.4026,61.3964,10.5469],[21.4057,61.3964,9.1993]]],
[[[21.3979,61.4021,0.0],[21.3964,61.4005,8.3418],[21.4,61.3979,9.2392],[21.4036,61.4005,0.0],[21.4021,61.4021,0.0],[21.3979,61.4021,0.0]]],
[[[21.3818,61.4057,0.0],[21.3828,61.4078,2.98],[21.3813,61.4083,1.8991],[21.3771,61.4083,7.2157],[21.3729,61.4104,8.1408],[21.3672,61.4099,4.3105],[21.3693,61.4068,7.3333],[21.375,61.4042,2.7507],[21.3818,61.4057,0.0]]],
[[[21.4193,61.3911,14.8347],[21.425,61.3875,3.337],[21.4271,61.3896,7.5944],[21.425,61.3917,2.7339],[21.4193,61.3911,14.8347]]],
[[[21.4646,61.4021,0.0],[21.4542,61.4063,0.0],[21.4422,61.4057,0.0],[21.4438,61.4042,0.0],[21.4521,61.4042,0.0],[21.4641,61.3995,7.8582],[21.463,61.3964,0.0],[21.4729,61.3896,0.0],[21.4771,61.3896,0.0],[21.4813,61.3875,0.0],[21.4995,61.388,0.0],[21.4974,61.3932,7.6748],[21.4896,61.3958,0.0],[21.4813,61.3958,15.3193],[21.4734,61.3984,13.551],[21.4703,61.4016,0.0],[21.4646,61.4021,0.0]]],
[[[21.475,61.4146,0.0],[21.4708,61.4146,8.6653],[21.4693,61.413,9.443],[21.4786,61.413,8.8561],[21.475,61.4146,0.0]]],
[[[21.4646,61.4396,0.0],[21.4609,61.4391,0.0],[21.4609,61.438,0.0],[21.4646,61.4375,0.0],[21.4646,61.4396,0.0]]],
[[[21.3547,61.412,10.0779],[21.3604,61.4083,0.0],[21.3641,61.4109,0.0],[21.3583,61.4146,0.0],[21.3547,61.412,10.0779]]],
[[[21.3583,61.425,8.9766],[21.3547,61.4245,3.9976],[21.3547,61.4214,2.4349],[21.3661,61.4214,11.1504],[21.3641,61.4245,11.9981],[21.3583,61.425,8.9766]]],
[[[21.3792,61.425,10.7301],[21.375,61.425,9.1802],[21.3734,61.4234,0.0],[21.3807,61.4234,0.9426],[21.3792,61.425,10.7301]]],
[[[21.3396,61.475,1.2007],[21.3443,61.4714,1.573],[21.35,61.4708,0.1919],[21.3641,61.4755,0.2076],[21.3661,61.4786,4.5634],[21.3599,61.4828,0.2698],[21.3542,61.4833,5.9435],[21.3479,61.4792,9.8027],[21.3401,61.4786,0.0],[21.338,61.4766,6.3911],[21.3396,61.475,1.2007]]],
[[[21.5083,61.3458,2.4285],[21.5026,61.3464,3.782],[21.4964,61.3505,9.4351],[21.4974,61.3536,12.7735],[21.4938,61.3563,0.0],[21.4875,61.3563,2.4432],[21.4792,61.3521,0.0],[21.4688,61.3521,0.0],[21.4651,61.3495,0.0],[21.4688,61.3458,11.0647],[21.475,61.3458,0.0],[21.4792,61.3479,0.8676],[21.4807,61.3474,3.5636],[21.4797,61.3443,0.0],[21.4896,61.3438,7.7919],[21.4938,61.3417,0.0],[21.5104,61.3417,0.0],[21.5141,61.3443,0.0],[21.5125,61.3458,0.0],[21.5083,61.3458,2.4285]]],
[[[21.5146,61.3708,6.1459],[21.5146,61.3729,0.0],[21.5109,61.3724,0.0],[21.5109,61.3714,7.5176],[21.5146,61.3708,6.1459]]],
[[[21.4958,61.4,9.5597],[21.5021,61.3979,7.0329],[21.5042,61.4,15.7247],[21.5016,61.4036,10.9205],[21.4958,61.4063,0.0],[21.4839,61.4036,0.0],[21.4896,61.4,0.0],[21.4958,61.4,9.5597]]],
[[[21.4797,61.4099,0.0],[21.4854,61.4063,0.0],[21.4891,61.4089,11.4002],[21.4875,61.4104,11.7291],[21.4797,61.4099,0.0]]],
[[[22.2047,61.3927,34.5573],[22.2056,61.4062,40.4149],[22.215,61.406,38.342],[22.2153,61.4105,54.9452],[22.2247,61.4104,63.003],[22.225,61.4148,41.3582],[22.2438,61.4145,46.0034],[22.2441,61.419,61.4357],[22.291,61.4182,59.6002],[22.2914,61.4227,67.3736],[22.3007,61.4226,72.6259],[22.3011,61.4271,77.0313],[22.3105,61.4269,67.4135],[22.3108,61.431399999999996,79.6861],[22.3202,61.4312,77.9444],[22.3205,61.4357,75.3967],[22.3299,61.4356,76.995],[22.3302,61.44,89.4002],[22.3396,61.4399,83.6153],[22.3399,61.4444,84.7717],[22.3493,61.4442,84.4631],[22.3497,61.4487,93.4873],[22.3591,61.4486,83.4256],[22.3594,61.453,83.8624],[22.3688,61.4529,79.4375],[22.3691,61.4574,86.7684],[22.3785,61.4572,74.5727],[22.3789,61.4617,88.2848],[22.3883,61.4615,83.0045],[22.389,61.4705,84.56],[22.3984,61.4703,77.6896],[22.3987,61.4748,87.8907],[22.4081,61.4747,82.181],[22.4084,61.4792,79.948],[22.4178,61.479,76.7142],[22.4182,61.4835,82.8576],[22.4276,61.4833,85.8855],[22.4283,61.4923,78.9219],[22.4189,61.4925,90.8155],[22.4192,61.497,85.4525],[22.4098,61.4971,84.4096],[22.4102,61.5016,95.296],[22.4008,61.5018,90.9249],[22.4011,61.5062,92.2978],[22.3917,61.5064,84.7023],[22.392,61.5109,84.0413],[22.3826,61.5111,84.9717],[22.383,61.5156,84.8796],[22.3642,61.5159,88.4202],[22.3645,61.5204,87.1093],[22.3551,61.5205,99.0762],[22.3554,61.525,102.2869],[22.346,61.5252,102.0654],[22.3463,61.5297,93.396],[22.3369,61.5298,81.683],[22.3373,61.5343,77.9509],[22.3279,61.5345,80.2478],[22.3282,61.539,79.923],[22.3094,61.5393,70.1244],[22.3097,61.5438,62.3638],[22.3003,61.5439,58.7792],[22.3006,61.5484,58.9885],[22.2912,61.5486,69.5949],[22.2915,61.5531,65.4345],[22.2821,61.5532,69.1241],[22.2824,61.5577,66.4396],[22.273,61.5579,69.5648],[22.2733,61.5624,70.8332],[22.2639,61.5625,66.1226],[22.2642,61.567,75.744],[22.2454,61.5673,58.9292],[22.246,61.5763,74.4403],[22.2554,61.5761,70.0724],[22.2564,61.5896,64.9927],[22.2659,61.5895,68.6143],[22.2665,61.5984,51.2573],[22.2854,61.5981,68.6709],[22.2857,61.6026,71.9785],[22.3046,61.6023,65.909],[22.3052,61.6113,71.2758],[22.3147,61.6111,73.354],[22.315,61.6156,73.8919],[22.3245,61.6154,72.2474],[22.3248,61.6199,72.9175],[22.3342,61.6198,66.8545],[22.3346,61.6242,71.987799999999993],[22.344,61.6241,63.6781],[22.3444,61.6286,74.4851],[22.3538,61.6284,63.008],[22.3541,61.6329,60.172],[22.3636,61.6328,67.977],[22.3639,61.6372,61.7806],[22.3734,61.6371,68.2247],[22.3741,61.646,64.7001],[22.3835,61.6459,78.8315],[22.3839,61.6504,76.1573],[22.3933,61.6502,86.748],[22.394,61.6592,86.8599],[22.4035,61.659,93.1115],[22.4042,61.668,87.8591],[22.3947,61.6682,90.861],[22.3951,61.6727,87.1502],[22.3856,61.6728,78.3884],[22.386,61.6773,76.4984],[22.3765,61.6775,88.8663],[22.3772,61.6865,80.2995],[22.3677,61.6866,83.3695],[22.368,61.6911,88.0674],[22.3586,61.6913,90.8589],[22.3589,61.6958,78.545],[22.3495,61.6959,79.9633],[22.3498,61.7004,73.3879],[22.3403,61.7006,64.4092],[22.3414,61.714,80.265],[22.3698,61.7135,84.5777],[22.3705,61.7225,94.3081],[22.361,61.7227,87.0354],[22.3613,61.7272,98.0563],[22.3518,61.7273,92.1411],[22.3522,61.7318,89.4866],[22.3427,61.732,96.4895],[22.3431,61.7365,96.1229],[22.3336,61.7366,96.6826],[22.3339,61.7411,93.98],[22.3244,61.7413,100.2518],[22.3251,61.7503,93.0832],[22.2682,61.7512,95.9027],[22.2685,61.7557,89.2026],[22.2306,61.7563,69.6049],[22.2296,61.7428,59.74],[22.2202,61.743,58.973],[22.2179,61.7116,54.5469],[22.2084,61.7117,53.0],[22.2078,61.7027,53.0],[22.1889,61.703,71.3279],[22.1917,61.7434,63.8355],[22.1727,61.7437,62.5726],[22.174,61.7617,83.7544],[22.1645,61.7619,77.0179],[22.1652,61.7708,76.0309],[22.1557,61.771,79.4152],[22.156,61.7755,84.651],[22.118,61.776,71.1287],[22.1183,61.7805,82.8324],[22.0803,61.7811,53.4424],[22.08,61.7766,53.0899],[22.0705,61.7767,70.5242],[22.0702,61.7723,52.4246],[22.0608,61.7724,57.9718],[22.0602,61.7634,69.799],[22.0507,61.7636,54.1148],[22.0498,61.7501,65.5305],[22.0213,61.7505,48.5],[22.0216,61.755,48.5],[22.0121,61.7551,48.5],[22.0124,61.7596,48.5],[21.9935,61.7599,48.5],[21.9938,61.7644,48.5],[21.9843,61.7645,55.3954],[21.9845,61.769,65.0231],[21.9656,61.7693,65.7036],[21.9653,61.7648,56.3624],[21.8989,61.7657,56.1372],[21.8986,61.7612,61.5879],[21.8701,61.7616,45.2843],[21.8699,61.7571,54.7991],[21.8509,61.7574,48.627],[21.8506,61.7529,50.5081],[21.8316,61.7531,44.0241],[21.8314,61.7486,34.0],[21.727,61.75,42.6332],[21.7268,61.7455,42.8057],[21.7173,61.7456,39.918],[21.717,61.7411,42.2123],[21.7076,61.7412,38.3392],[21.7073,61.7367,37.7992],[21.6884,61.737,37.4195],[21.6886,61.7415,30.3908],[21.6127,61.7424,9.263],[21.613,61.7469,14.2006],[21.5656,61.7474,5.7354],[21.5654,61.7435,16.4911],[21.5724,61.7391,11.0746],[21.5714,61.7359,9.6541],[21.5766,61.7328,0.0],[21.5755,61.7297,0.0],[21.587,61.7286,8.8928],[21.5901,61.7255,0.0],[21.5995,61.7214,0.0],[21.5917,61.7188,2.3858],[21.5661,61.7307,0.0],[21.5547,61.7318,5.3968],[21.55,61.7354,3.8661],[21.5401,61.7307,0.0],[21.5417,61.7292,15.9009],[21.5474,61.7286,6.4861],[21.55,61.725,0.0],[21.5453,61.7172,0.0],[21.5375,61.7104,16.6782],[21.5245,61.7203,4.5421],[21.5146,61.7229,18.203],[21.5089,61.7224,0.1103],[21.5182,61.7182,19.8431],[21.5172,61.7151,0.0],[21.5245,61.7141,4.8057],[21.5266,61.712,0.0],[21.5255,61.7089,0.0],[21.5286,61.7078,3.4785],[21.5318,61.7026,0.0],[21.537,61.7016,8.7145],[21.5359,61.6964,13.7914],[21.5411,61.6943,0.0],[21.5318,61.6932,4.064],[21.5318,61.6901,0.0],[21.5411,61.687,10.7805],[21.538,61.6818,0.0],[21.5438,61.6813,14.3731],[21.5484,61.6776,0.0],[21.5557,61.6766,1.1827],[21.5526,61.6724,8.9966],[21.5557,61.6693,4.07],[21.5526,61.6651,0.0],[21.5604,61.6604,0.2071],[21.5688,61.6604,0.0],[21.575,61.6563,0.0],[21.5849,61.6557,3.5655],[21.5839,61.6526,0.0],[21.5932,61.6495,0.0],[21.5901,61.6453,3.5329],[21.5901,61.6422,0.6171],[21.5984,61.6359,0.0],[21.6026,61.6297,0.0],[21.6141,61.6286,11.0631],[21.613,61.6255,0.0],[21.6151,61.6234,0.0],[21.6328,61.6182,0.0],[21.6313,61.6167,0.0],[21.6229,61.6167,18.5547],[21.6161,61.6203,0.0],[21.613,61.6203,0.0],[21.6109,61.6172,0.0],[21.6141,61.6151,0.0],[21.6109,61.6109,0.0],[21.6167,61.6104,1.3402],[21.6286,61.6057,0.0],[21.6193,61.6026,8.8147],[21.6229,61.6,0.0],[21.6328,61.5995,2.6461],[21.6453,61.5911,0.0],[21.6401,61.5891,18.5136],[21.638,61.5859,0.0],[21.6479,61.5854,0.4977],[21.6557,61.5828,0.0],[21.6536,61.5776,0.2345],[21.65,61.575,0.0],[21.6458,61.575,0.0],[21.6417,61.5771,0.0],[21.6313,61.5771,0.3058],[21.6313,61.575,0.0],[21.6453,61.5724,0.0],[21.6495,61.5682,0.0],[21.6479,61.5667,0.0],[21.6437,61.5667,0.0],[21.6396,61.5687,0.0],[21.6339,61.5682,0.0],[21.6359,61.5651,0.0],[21.6495,61.562,0.0],[21.6495,61.5589,0.0],[21.6479,61.5583,0.1178],[21.6437,61.5604,0.0],[21.6354,61.5604,0.2002],[21.6292,61.5646,0.0],[21.6193,61.5651,4.3622],[21.6161,61.5703,0.0],[21.6125,61.5729,2.8895],[21.6,61.5729,0.0],[21.5938,61.5771,0.0],[21.5875,61.5729,0.0],[21.5833,61.575,3.0324],[21.575,61.575,0.0],[21.5646,61.5792,0.7349],[21.5443,61.5839,0.8124],[21.538,61.588,0.0],[21.5391,61.5911,0.0],[21.5339,61.5943,0.0],[21.5349,61.5974,0.0],[21.5271,61.6021,0.0],[21.5208,61.6021,0.29],[21.5146,61.6042,0.0],[21.5104,61.6021,0.0],[21.5,61.6021,0.0],[21.4984,61.6005,1.3679],[21.5016,61.5995,2.0413],[21.5036,61.5964,2.5851],[21.4958,61.5938,4.6812],[21.4917,61.5958,0.0],[21.4875,61.5958,0.0],[21.4833,61.5938,7.4179],[21.4786,61.5974,2.6334],[21.4755,61.5974,2.869],[21.4766,61.5943,3.0832],[21.4734,61.588,0.0],[21.4896,61.5917,6.4608],[21.4974,61.587,0.0],[21.4953,61.5839,0.0],[21.4901,61.5828,5.1889],[21.4911,61.5776,3.9967],[21.488,61.5714,3.866],[21.4901,61.5672,0.0],[21.4995,61.5693,0.0],[21.5021,61.5729,4.3224],[21.5063,61.5708,0.0],[21.5161,61.5703,5.9212],[21.5151,61.5672,0.0],[21.5182,61.5661,0.0],[21.5229,61.5604,0.0],[21.5214,61.5568,0.0],[21.5245,61.5516,0.0],[21.5234,61.5464,0.0],[21.5286,61.5432,2.0988],[21.5276,61.5401,0.0],[21.5349,61.5349,0.0],[21.5339,61.5318,0.0],[21.5396,61.5292,0.0],[21.5521,61.5292,0.0],[21.5563,61.5271,0.0],[21.5604,61.5292,0.0],[21.5792,61.5292,0.0],[21.5854,61.5333,0.0],[21.587,61.5328,0.0],[21.5859,61.5297,0.1642],[21.5943,61.5234,0.0],[21.6016,61.5224,0.0],[21.6208,61.5146,0.0],[21.6307,61.5141,0.0],[21.6245,61.5047,0.1876],[21.6188,61.5062,0.7852],[21.6083,61.5062,5.1479],[21.6042,61.5021,0.2343],[21.6,61.5042,0.0],[21.5896,61.5,1.3099],[21.5818,61.4995,0.0],[21.5828,61.4964,0.1937],[21.5812,61.4958,0.0],[21.5729,61.4958,0.0],[21.5625,61.5,0.4022],[21.5458,61.5,7.8009],[21.5313,61.5062,0.0],[21.5187,61.5062,9.8585],[21.5042,61.5104,0.0],[21.4979,61.5104,2.3253],[21.4938,61.5083,10.7282],[21.4813,61.5083,9.912],[21.4771,61.5104,3.5726],[21.4526,61.5099,0.0],[21.4583,61.5062,0.0],[21.4745,61.5036,8.4452],[21.4828,61.4974,0.4188],[21.4818,61.4943,0.0],[21.4833,61.4938,0.3165],[21.5057,61.4932,8.1036],[21.5057,61.4901,0.0],[21.5005,61.488,0.8568],[21.5026,61.4859,0.9221],[21.5099,61.4849,4.3139],[21.5172,61.4797,7.9842],[21.5229,61.4813,2.1757],[21.5354,61.4813,1.056],[21.537,61.4807,0.6944],[21.5359,61.4776,0.0],[21.5432,61.4766,0.0],[21.5464,61.4734,0.0],[21.5578,61.4724,13.1983],[21.5661,61.4661,0.0],[21.5651,61.463,0.0],[21.5682,61.462,0.0],[21.5672,61.4589,0.0],[21.5682,61.4568,0.0],[21.5651,61.4557,0.0],[21.5672,61.4526,0.0],[21.5812,61.4521,4.8607],[21.5875,61.4479,0.0],[21.5974,61.4474,8.9325],[21.5964,61.4443,0.0],[21.5974,61.4422,3.3822],[21.5911,61.438,2.6437],[21.5859,61.437,0.0],[21.5891,61.4339,0.0],[21.5849,61.4297,0.0],[21.5729,61.4292,2.3399],[21.5625,61.425,0.0],[21.5583,61.425,0.0],[21.5542,61.4271,0.0],[21.5333,61.4271,10.673],[21.5271,61.4313,3.8249],[21.5187,61.4313,7.535],[21.5042,61.4354,0.0],[21.4958,61.4354,2.5566],[21.4917,61.4375,0.0],[21.4792,61.4354,7.1377],[21.475,61.4375,0.0],[21.4646,61.4375,0.0],[21.4646,61.4354,0.0],[21.4729,61.4354,0.0],[21.4828,61.4328,5.5138],[21.4792,61.4292,1.365],[21.475,61.4292,6.5496],[21.4625,61.4333,0.0],[21.4542,61.4333,0.6369],[21.4505,61.4307,0.0],[21.4568,61.4255,0.0],[21.4745,61.4224,8.6192],[21.4771,61.4188,0.0],[21.4875,61.4188,8.5155],[21.5063,61.4125,0.0],[21.5161,61.412,0.0],[21.5193,61.4089,9.1932],[21.5286,61.4057,1.037],[21.5307,61.4036,0.0],[21.5297,61.3984,3.9784],[21.537,61.3932,0.0],[21.5318,61.3911,14.5038],[21.5328,61.3859,0.0],[21.5255,61.3859,3.239],[21.5266,61.3891,0.0],[21.5167,61.3958,0.0],[21.5089,61.3953,1.8869],[21.5089,61.3922,1.6136],[21.5193,61.3839,5.253],[21.5375,61.3833,7.6799],[21.5411,61.3797,0.0],[21.5354,61.3771,0.0],[21.5208,61.3771,3.722],[21.5146,61.3812,0.0],[21.5068,61.3786,0.0],[21.5047,61.3755,5.2197],[21.5161,61.3745,3.0845],[21.5182,61.3714,0.3097],[21.5146,61.3708,6.1459],[21.5146,61.3688,3.0337],[21.525,61.3646,0.0],[21.5307,61.3641,6.8786],[21.5328,61.3609,0.0],[21.5234,61.3599,0.9474],[21.5297,61.3547,2.8976],[21.5396,61.3542,5.4724],[21.55,61.35,0.0],[21.5583,61.35,4.6764],[21.5661,61.3474,3.8099],[21.5651,61.3422,2.5414],[21.5703,61.338,0.0],[21.5583,61.3375,3.6308],[21.5516,61.3318,0.0],[21.5422,61.3286,2.6446],[21.5502,61.3208,4.9556],[21.5453,61.3174,4.3344],[21.5671,61.3107,9.974],[21.5653,61.3071,4.7791],[21.5904,61.3068,19.3353],[21.5902,61.3023,13.5414],[21.6182,61.302,28.6293],[21.618,61.2975,38.717],[21.646,61.2972,43.6765],[21.6458,61.2927,34.2487],[21.6925,61.2921,43.5117],[21.6923,61.2876,40.5543],[21.7016,61.2875,40.826],[21.7019,61.292,39.9734],[21.7112,61.2919,30.4663],[21.7114,61.2964,29.5487],[21.7302,61.2961,30.6677],[21.7304,61.3006,32.8513],[21.7491,61.3004,34.5995],[21.7498,61.3139,39.5836],[21.7592,61.3137,41.5635],[21.7597,61.3227,55.3784],[21.769,61.3226,51.9998],[21.7698,61.3361,53.6272],[21.7885,61.3358,45.4995],[21.7883,61.3313,49.0824],[21.807,61.3311,51.1341],[21.8067,61.3266,48.0128],[21.8161,61.3265,58.5437],[21.8158,61.322,57.0171],[21.8252,61.3219,49.3352],[21.8249,61.3174,62.9594],[21.8343,61.3172,57.0156],[21.834,61.3128,60.3725],[21.8434,61.3126,51.8321],[21.8431,61.3081,62.6049],[21.8525,61.308,55.2764],[21.8522,61.3035,59.5335],[21.8709,61.3033,62.7032],[21.8706,61.2988,54.2979],[21.88,61.2986,58.2921],[21.8802,61.3031,55.5694],[21.8896,61.303,50.6704],[21.8899,61.3075,52.7355],[21.9086,61.3072,36.7491],[21.9083,61.3027,44.5818],[21.9363,61.3024,42.7777],[21.9361,61.2979,49.8471],[21.9454,61.2977,43.6465],[21.9457,61.3022,46.8712],[21.9644,61.302,43.5378],[21.9647,61.3064,23.8256],[21.9834,61.3062,23.7382],[21.9836,61.3107,21.7045],[22.0117,61.3103,32.3884],[22.0111,61.3013,24.3833],[22.0205,61.3011,50.5957],[22.0199,61.2922,41.5272],[22.0292,61.292,27.6061],[22.0287,61.2831,50.6752],[22.038,61.2829,40.7215],[22.0374,61.2739,44.6356],[22.0468,61.2738,31.4614],[22.0465,61.2693,41.4206],[22.0745,61.2689,28.547],[22.0748,61.2734,30.0836],[22.1028,61.2729,46.3444],[22.1025,61.2685,42.5038],[22.1305,61.268,42.8061],[22.1308,61.2725,53.1925],[22.1121,61.2728,43.8398],[22.1124,61.2773,45.0439],[22.1218,61.2771,44.6811],[22.1227,61.2906,39.436],[22.132,61.2905,47.1784],[22.1317,61.286,45.1691],[22.1691,61.2854,51.5122],[22.1688,61.2809,49.4884],[22.2062,61.2803,39.014],[22.2058,61.2758,42.5603],[22.2245,61.2755,44.7389],[22.2255,61.289,29.0],[22.2161,61.2891,35.3005],[22.2174,61.3071,37.7354],[22.2268,61.3069,39.8315],[22.228,61.3249,42.3913],[22.2374,61.3247,38.2641],[22.2383,61.3382,44.3933],[22.2477,61.3381,35.7947],[22.248,61.3426,38.2975],[22.2574,61.3424,41.1516],[22.2577,61.3469,36.6019],[22.2671,61.3467,38.4481],[22.2677,61.3557,33.9798],[22.2584,61.3559,35.8275],[22.2587,61.3604,33.1478],[22.2493,61.3605,39.1776],[22.25,61.3695,40.471],[22.2406,61.3696,35.662],[22.2409,61.3741,38.3524],[22.2315,61.3743,35.273],[22.2319,61.3788,40.0781],[22.2225,61.3789,33.5169],[22.2231,61.3879,44.8089],[22.2137,61.388,31.3118],[22.2141,61.3925,41.2789],[22.2047,61.3927,34.5573]]],
[[[21.6245,61.5797,1.3448],[21.6234,61.5776,0.0],[21.6313,61.5771,0.3058],[21.6286,61.5807,0.0],[21.6245,61.5797,1.3448]]],
[[[21.6063,61.5917,12.0161],[21.6099,61.5932,9.5121],[21.6005,61.5953,14.1746],[21.6026,61.5922,6.5736],[21.6063,61.5917,12.0161]]],
[[[21.5995,61.5964,12.0858],[21.5979,61.5979,5.3315],[21.5964,61.5974,7.4859],[21.5964,61.5964,2.7386],[21.5995,61.5964,12.0858]]],
[[[21.6021,61.6208,7.3218],[21.6078,61.6193,5.7435],[21.6057,61.6224,0.0],[21.6,61.625,0.0],[21.5964,61.6224,4.1269],[21.5979,61.6208,3.638],[21.6021,61.6208,7.3218]]],
[[[21.4391,61.5401,2.5096],[21.4391,61.5411,8.4356],[21.4359,61.5411,3.1045],[21.4359,61.5401,0.8832],[21.4391,61.5401,2.5096]]],
[[[21.4234,61.6359,4.3052],[21.4083,61.6396,0.0],[21.4042,61.6354,2.7025],[21.4141,61.6266,2.5624],[21.4161,61.6224,9.4077],[21.4151,61.6193,0.0],[21.4224,61.6182,11.7239],[21.4286,61.6141,21.2893],[21.4276,61.6109,0.0],[21.4536,61.6047,1.9043],[21.4557,61.6099,0.0],[21.4297,61.6193,0.0],[21.4234,61.6234,0.0],[21.4255,61.6286,0.0],[21.4313,61.6271,0.0],[21.4375,61.6292,3.9454],[21.4417,61.6271,2.6703],[21.4432,61.6276,1.4754],[21.4432,61.6307,8.4988],[21.4354,61.6312,3.5776],[21.4234,61.6359,4.3052]]],
[[[21.4339,61.6391,9.3548],[21.4318,61.6359,0.0],[21.4432,61.6359,0.0],[21.4411,61.6391,4.1329],[21.4339,61.6391,9.3548]]],
[[[21.4536,61.6516,0.0],[21.4604,61.6479,0.0],[21.4646,61.6479,0.0],[21.4724,61.6526,0.4916],[21.4745,61.6557,0.0],[21.4724,61.6599,0.0],[21.4672,61.663,3.0834],[21.4682,61.6661,1.3368],[21.4661,61.6682,0.0],[21.4604,61.6688,0.0],[21.4526,61.6661,1.2671],[21.4495,61.663,5.4848],[21.4443,61.662,0.0],[21.4516,61.6557,3.0074],[21.4536,61.6516,0.0]]],
[[[21.3911,61.6297,1.0955],[21.3896,61.6312,2.7139],[21.388,61.6307,3.065],[21.3896,61.6292,0.0],[21.3911,61.6297,1.0955]]],
[[[21.4224,61.6443,7.4599],[21.4208,61.6458,0.0],[21.4193,61.6453,4.4845],[21.4208,61.6437,0.0],[21.4224,61.6443,7.4599]]],
[[[21.4099,61.6505,2.6466],[21.4099,61.6516,0.0],[21.4068,61.6516,3.4678],[21.4083,61.65,0.0],[21.4099,61.6505,2.6466]]],
[[[21.3766,61.6783,5.9591],[21.375,61.6792,0.0],[21.3734,61.6776,9.3208],[21.375,61.6771,9.0625],[21.3766,61.6783,5.9591]]],
[[[21.4453,61.6766,0.0],[21.438,61.6776,7.7557],[21.4391,61.6807,0.0],[21.4333,61.6813,3.8887],[21.4271,61.6771,11.2687],[21.4229,61.6771,7.4439],[21.4188,61.6792,0.0],[21.4151,61.6755,2.5291],[21.4208,61.6729,2.9485],[21.4286,61.6724,8.3434],[21.4276,61.6693,0.0],[21.4375,61.6667,0.0],[21.4516,61.6672,5.672],[21.4464,61.6693,4.8501],[21.4479,61.6729,0.0],[21.4453,61.6766,0.0]]],
[[[21.3661,61.6818,1.5508],[21.3651,61.6797,1.7863],[21.3667,61.6792,3.23],[21.3703,61.6828,15.5884],[21.3667,61.6854,9.7943],[21.3651,61.6849,8.48],[21.3661,61.6818,1.5508]]],
[[[21.5161,61.6068,0.1602],[21.5161,61.6078,1.7812],[21.513,61.6078,1.7053],[21.513,61.6068,0.0],[21.5161,61.6068,0.1602]]],
[[[21.5859,61.6234,1.6471],[21.575,61.6271,0.0],[21.5625,61.6271,0.0],[21.5547,61.6245,15.4725],[21.5646,61.6208,0.2609],[21.575,61.6208,1.6674],[21.5792,61.6188,4.4464],[21.5849,61.6193,6.9661],[21.587,61.6214,0.0],[21.5859,61.6234,1.6471]]],
[[[21.4917,61.6426,0.4321],[21.4792,61.6458,0.0],[21.4714,61.6432,0.0],[21.4724,61.638,0.0],[21.463,61.637,7.753],[21.4786,61.6286,1.3301],[21.4766,61.6255,2.1195],[21.4562,61.625,6.1306],[21.4521,61.6271,0.0],[21.4484,61.6234,0.1272],[21.4557,61.6224,8.8919],[21.4604,61.6188,0.0],[21.4708,61.6188,3.0261],[21.475,61.6208,0.0473],[21.4958,61.6208,1.0652],[21.5,61.6188,0.0],[21.5104,61.6188,1.358],[21.512,61.6193,0.0],[21.5141,61.6234,0.5674],[21.513,61.6266,0.0],[21.5146,61.6271,1.4339],[21.5187,61.6271,2.0878],[21.5229,61.625,0.0],[21.5313,61.625,2.6643],[21.5354,61.6271,0.0],[21.55,61.6271,0.0],[21.5557,61.6318,1.4182],[21.5458,61.6354,0.0],[21.5333,61.6333,0.0],[21.5292,61.6354,0.0],[21.5208,61.6354,4.4269],[21.5161,61.6391,0.0],[21.5042,61.6437,0.0],[21.5,61.6437,0.0],[21.4958,61.6417,8.6764],[21.4917,61.6426,0.4321]]],
[[[21.5807,61.637,3.8812],[21.5771,61.6375,7.5017],[21.5755,61.6359,1.4127],[21.5792,61.6354,0.0],[21.5807,61.637,3.8812]]],
[[[21.5229,61.6646,0.0],[21.5193,61.6609,4.1491],[21.525,61.6604,9.0673],[21.5286,61.663,9.01],[21.5271,61.6646,0.0],[21.5229,61.6646,0.0]]],
[[[21.5016,61.6672,7.3518],[21.5,61.6688,0.0],[21.4984,61.6682,0.0],[21.5,61.6667,8.6729],[21.5016,61.6672,7.3518]]],
[[[21.5026,61.6703,6.3196],[21.5083,61.6667,3.2972],[21.512,61.6693,6.4377],[21.5104,61.6708,10.1404],[21.5026,61.6703,6.3196]]],
[[[21.4974,61.6693,4.0313],[21.4974,61.6703,7.6144],[21.4943,61.6703,9.6535],[21.4943,61.6693,16.1903],[21.4974,61.6693,4.0313]]],
[[[21.4901,61.7068,11.2173],[21.4922,61.7047,6.7906],[21.4979,61.7042,0.0],[21.5016,61.7078,0.0],[21.4917,61.7083,11.7274],[21.4901,61.7068,11.2173]]]]}}