{"type":"Feature","properties":{"GID_3":"FIN.2.1.1_1","GID_0":"FIN","country":"Finland","GID_1":"FIN.2_1","province":"Lapland","NL_NAME_1":"NA","GID_2":"FIN.2.1_1","county":"Lapland","NL_NAME_2":"NA","city":"EasternLapland","VARNAME_3":"NA","NL_NAME_3":"NA","TYPE_3":"Seutukunta|Ekonomiskregion","ENGTYPE_3":"Sub-Region","CC_3":"NA","HASC_3":"NA","name":"Eastern_Lapland.city"},
"geometry":{"type": "MultiPolygon","coordinates": [[[[28.6925,66.482,418.7546],[28.694,66.4864,413.4755],[28.7163,66.4852,326.1458],[28.7148,66.4808,326.3985],[28.7705,66.4778,287.9012],[28.7689,66.4733,300.5916],[28.8357,66.4696,264.6997],[28.8341,66.4652,265.8653],[28.8898,66.4621,254.0962],[28.8882,66.4577,256.795],[28.9438,66.4546,252.0727],[28.9422,66.4502,260.7344],[28.9978,66.4471,250.936],[28.9962,66.4426,244.234],[29.0518,66.4395,243.0669],[29.0502,66.4351,237.7687],[29.1058,66.4319,225.1746],[29.1041,66.4275,227.3132],[29.1597,66.4243,219.8007],[29.1581,66.4199,224.3468],[29.2136,66.4167,208.9325],[29.2119,66.4123,218.1967],[29.2563,66.4097,226.1855],[29.2645,66.432,231.9011],[29.2978,66.4301,241.8729],[29.2995,66.4345,247.3952],[29.3772,66.43,287.8393],[29.3789,66.4344,273.6994],[29.4455,66.4306,273.5362],[29.4472,66.435,271.6267],[29.5249,66.4304,271.8515],[29.5266,66.4349,277.7773],[29.571,66.4323,284.5237],[29.573,66.4376,289.729],[29.565,66.4463,301.4625],[29.5666,66.4507,309.1427],[29.5606,66.451,310.4795],[29.5569,66.455,314.2201],[29.5589,66.4602,309.7965],[29.5517,66.4607,305.652],[29.5408,66.4724,324.3343],[29.5418,66.4749,332.8427],[29.5384,66.4751,325.7072],[29.5328,66.4811,317.0504],[29.534,66.4844,314.0749],[29.5295,66.4847,312.1658],[29.5247,66.4898,307.5417],[29.5263,66.494,307.968],[29.5206,66.4943,309.7211],[29.5167,66.4986,302.386],[29.5186,66.5035,292.5485],[29.5117,66.5039,290.6951],[29.5006,66.516,297.5158],[29.5014,66.5182,302.1999],[29.4984,66.5184,301.7912],[29.4844,66.5335,305.3397],[29.4858,66.5373,297.181],[29.4807,66.5376,301.4483],[29.4673,66.5485,307.6287],[29.4686,66.5519,307.8188],[29.4621,66.5523,314.7938],[29.4583,66.5549,319.0787],[29.4592,66.557,320.2787],[29.4545,66.5573,322.5323],[29.4491,66.5607,323.4278],[29.4497,66.5621,321.9998],[29.4465,66.5623,321.9849],[29.4392,66.567,326.5186],[29.4311,66.5733,327.7996],[29.4324,66.5768,315.2161],[29.4263,66.5771,319.5582],[29.4223,66.5803,310.5126],[29.4229,66.5819,313.5059],[29.4201,66.582,311.4709],[29.4135,66.5872,292.6162],[29.4151,66.5914,289.4922],[29.407,66.5919,288.9387],[29.4043,66.593,286.5416],[29.4056,66.5965,279.6928],[29.3942,66.5972,276.0959],[29.3772,66.6062,280.1068],[29.3754,66.612,279.0366],[29.3647,66.6231,277.6194],[29.361,66.6296,282.2404],[29.3631,66.6353,299.8274],[29.3546,66.6358,291.5063],[29.3525,66.6375,293.8297],[29.3536,66.6404,292.5288],[29.3478,66.6407,291.7096],[29.3277,66.6533,298.1183],[29.3349,66.6515,305.9305],[29.3362,66.655,316.1013],[29.3076,66.6703,304.7047],[29.3093,66.6748,313.4565],[29.2999,66.6753,301.9504],[29.2984,66.6763,304.0604],[29.2997,66.6798,321.9935],[29.2926,66.6803,337.4099],[29.2893,66.6825,331.2693],[29.2902,66.6849,312.874],[29.2852,66.6852,314.64],[29.2613,66.7006,300.5548],[29.2349,66.721,307.8436],[29.2361,66.7244,309.8947],[29.2293,66.7248,310.524],[29.2257,66.7272,316.0504],[29.2266,66.7295,312.3226],[29.2221,66.7297,317.9633],[29.2166,66.7335,307.7643],[29.217,66.7345,308.6302],[29.2148,66.7347,311.0506],[29.1708,66.7647,303.6822],[29.1723,66.7689,307.4334],[29.1626,66.7703,299.8669],[29.1627,66.7739,305.63],[29.1574,66.7742,302.6743],[29.1436,66.7846,292.0467],[29.1451,66.7886,292.1354],[29.1378,66.789,291.1666],[29.1346,66.7913,290.5569],[29.1355,66.7936,291.1152],[29.1312,66.7939,290.5967],[29.1256,66.7981,290.778],[29.1275,66.8032,291.1632],[29.1182,66.8037,290.744],[29.098,66.8167,300.7315],[29.0986,66.8184,302.8272],[29.0951,66.8186,305.7214],[29.0863,66.8243,318.0079],[29.0827,66.8384,299.4711],[29.0745,66.8468,316.5867],[29.0762,66.8514,334.2684],[29.0697,66.8518,308.5122],[29.0495,66.8727,312.1704],[29.0522,66.88,340.8997],[29.0449,66.8804,325.9958],[29.0358,66.8984,272.2942],[29.0394,66.908,234.0214],[29.0325,66.9084,227.0241],[29.0297,66.9166,221.5295],[29.031,66.9441,233.4433],[29.0392,66.9608,229.9612],[29.044,66.9668,217.8044],[29.0494,66.9665,206.6318],[29.0536,66.978,187.3118],[29.0761,66.9939,187.6227],[29.1043,67.0106,193.2942],[29.1374,67.036,278.0281],[29.1416,67.0386,260.4027],[29.1457,67.0384,243.4655],[29.1471,67.0421,231.7594],[29.1549,67.047,239.3117],[29.1605,67.0467,232.1388],[29.1623,67.0516,243.2831],[29.1683,67.0553,246.3674],[29.1752,67.0549,242.4326],[29.1775,67.0611,267.3181],[29.2484,67.1054,198.8926],[29.2524,67.1052,198.7288],[29.2537,67.1087,198.1159],[29.2618,67.1137,216.3293],[29.2672,67.1134,224.1301],[29.269,67.1183,249.357],[29.2751,67.1221,263.7603],[29.282,67.1217,297.4871],[29.2843,67.1278,316.2182],[29.2951,67.1346,384.2689],[29.2985,67.1344,385.6602],[29.2997,67.1374,349.2242],[29.3552,67.1721,293.0931],[29.3596,67.1719,291.1535],[29.3612,67.1758,312.7509],[29.3685,67.1804,329.5832],[29.3745,67.1801,325.3738],[29.3766,67.1855,373.1136],[29.4019,67.2013,268.9117],[29.406,67.2011,277.133],[29.4075,67.2048,273.1867],[29.4486,67.2304,318.4823],[29.4525,67.2302,320.4512],[29.454,67.2338,297.131],[29.4619,67.2388,324.6105],[29.4675,67.2385,322.3114],[29.4695,67.2435,335.106],[29.4752,67.2471,356.0551],[29.4824,67.2467,358.8055],[29.485,67.2532,317.8463],[29.5086,67.268,305.0417],[29.5141,67.2676,299.4225],[29.5161,67.2727,289.5743],[29.5402,67.2877,286.679],[29.5389,67.297,279.6932],[29.5399,67.3031,276.9464],[29.5777,67.3095,288.2437],[29.5903,67.3151,288.9404],[29.5981,67.331,291.6041],[29.624,67.3296,294.5057],[29.6352,67.3335,291.6467],[29.6459,67.3328,293.6287],[29.6502,67.3436,294.5291],[29.642,67.3491,305.9072],[29.6426,67.354,295.1913],[29.6662,67.3681,314.5855],[29.6717,67.3677,322.628],[29.6736,67.3725,312.151],[29.6939,67.3847,323.1952],[29.7019,67.3842,323.3711],[29.7047,67.3912,334.6617],[29.712,67.3955,347.64],[29.7302,67.4053,363.9605],[29.734,67.4051,380.8415],[29.7352,67.408,369.2619],[29.7455,67.4135,366.3208],[29.7492,67.4133,369.7467],[29.7503,67.4161,363.5028],[29.7608,67.4217,344.2943],[29.7643,67.4215,351.4413],[29.7654,67.4242,337.4],[29.7761,67.4299,333.9301],[29.7795,67.4297,346.5137],[29.7806,67.4323,332.2082],[29.7877,67.4362,332.8569],[29.7947,67.438,357.0889],[29.7955,67.4398,395.7279],[29.8175,67.4502,292.9352],[29.8233,67.4499,299.4812],[29.8249,67.4538,288.9015],[29.8346,67.4583,292.859],[29.8385,67.4581,292.6521],[29.8396,67.4607,297.8128],[29.8944,67.4867,318.1865],[29.8976,67.4865,320.9862],[29.8985,67.4886,336.2119],[29.903,67.4907,358.9038],[29.911,67.4903,345.5147],[29.9133,67.4956,381.3679],[29.9372,67.5069,340.1525],[29.9416,67.5067,342.0302],[29.9428,67.5096,348.8631],[29.9592,67.5173,256.6034],[29.9901,67.594,289.8425],[30.0129,67.631,329.8708],[30.0181,67.632,326.532],[30.0359,67.6741,279.9408],[30.0318,67.6744,288.7184],[30.0273,67.6824,399.896],[30.0061,67.6884,394.1292],[30.0066,67.6895,399.9839],[30.001,67.6898,386.1496],[29.974,67.6975,289.4246],[29.9753,67.7005,306.3015],[29.9558,67.7026,282.4001],[29.9214,67.7146,219.473],[29.9225,67.7172,221.2564],[29.9121,67.7179,211.8428],[29.8901,67.7255,219.6902],[29.8912,67.7282,222.2764],[29.8808,67.7288,211.8324],[29.8379,67.7438,249.4419],[29.8383,67.7449,251.4188],[29.8337,67.7452,250.424],[29.8065,67.7547,286.2176],[29.8069,67.7559,289.3884],[29.8025,67.7561,286.4975],[29.775,67.7657,305.917],[29.7755,67.7668,317.0139],[29.7646,67.7693,321.2664],[29.7656,67.7719,318.6001],[29.7555,67.7725,273.8633],[29.7121,67.7876,238.9811],[29.7126,67.7886,240.1168],[29.6945,67.7937,221.9632],[29.6734,67.8101,408.5711],[29.6748,67.8135,388.4787],[29.6686,67.8139,403.352],[29.6552,67.8243,406.4644],[29.6568,67.8282,392.462],[29.6496,67.8286,392.4108],[29.637,67.8384,358.4752],[29.6388,67.8429,333.0325],[29.6306,67.8433,351.4064],[29.6187,67.8526,368.4269],[29.6208,67.8575,344.4237],[29.6116,67.8581,342.0359],[29.6,67.8655,297.2639],[29.6009,67.8678,308.278],[29.5943,67.8681,291.7325],[29.5898,67.8702,274.7491],[29.591,67.8729,270.8654],[29.5831,67.8733,249.2957],[29.5737,67.8777,213.6029],[29.5701,67.8808,187.9036],[29.571,67.8831,205.5033],[29.5671,67.8833,181.5054],[29.5523,67.8961,219.1937],[29.5529,67.8978,216.5987],[29.5502,67.8979,220.6228],[29.5434,67.9038,254.3524],[29.5448,67.9073,241.0797],[29.5389,67.9077,250.7048],[29.5164,67.9264,228.0181],[29.5185,67.9316,252.5433],[29.5096,67.9321,255.7972],[29.4983,67.9414,272.1526],[29.5003,67.9462,242.7368],[29.492,67.9467,240.7607],[29.4797,67.955,201.7985],[29.4803,67.9564,194.8871],[29.477,67.9566,198.6248],[29.4633,67.9647,217.9643],[29.4522,67.9765,201.0776],[29.4539,67.9806,203.2448],[29.447,67.981,197.1756],[29.4343,67.9921,221.884],[29.4356,67.9953,224.2066],[29.4302,67.9956,231.6696],[29.418,68.0062,259.915],[29.42,68.0147,243.1192],[29.4081,68.0169,260.0417],[29.4091,68.0195,270.5732],[29.4016,68.0199,310.9044],[29.3892,68.0301,341.4798],[29.3908,68.0341,337.0241],[29.3837,68.0345,343.2936],[29.3709,68.045,325.1801],[29.3725,68.0488,288.4406],[29.3659,68.0492,284.3192],[29.3436,68.0674,258.3375],[29.3458,68.073,291.2869],[29.3361,68.0735,344.2458],[29.2216,68.0963,221.2785],[29.2222,68.0979,223.9067],[29.2094,68.0986,264.4561],[29.1877,68.1027,250.4468],[29.1883,68.1042,252.1361],[29.1746,68.105,212.4638],[29.1195,68.1146,206.5715],[29.1205,68.117,230.9677],[29.1,68.118,234.6759],[29.0854,68.1206,244.6185],[29.0865,68.1233,262.2428],[29.0626,68.1246,264.0898],[29.0058,68.1345,311.6377],[29.0066,68.1366,327.3191],[28.9887,68.1375,298.1155],[28.8235,68.1665,154.7544],[28.8243,68.1688,155.1733],[28.8045,68.1698,195.6978],[28.7892,68.1724,254.4074],[28.7902,68.175,269.8586],[28.768,68.1762,348.8344],[28.6636,68.1944,565.7493],[28.6622,68.1906,558.749],[28.6502,68.1912,543.3484],[28.6469,68.1823,468.2278],[28.6349,68.1829,470.5835],[28.6316,68.174,415.1723],[28.6197,68.1746,354.5215],[28.6163,68.1656,249.1322],[28.6044,68.1662,305.7663],[28.6011,68.1573,480.7993],[28.5891,68.1579,515.8611],[28.5858,68.149,356.2672],[28.5739,68.1496,356.1515],[28.5706,68.1407,315.3437],[28.5586,68.1413,357.3519],[28.5554,68.1323,287.1928],[28.5434,68.1329,289.6403],[28.5401,68.124,202.166],[28.5282,68.1246,227.2439],[28.5249,68.1157,286.9712],[28.513,68.1163,292.6312],[28.5097,68.1074,264.9608],[28.4978,68.108,279.4276],[28.4929,68.0946,227.1734],[28.481,68.0952,243.132],[28.4778,68.0862,276.6602],[28.4659,68.0868,269.1962],[28.4626,68.0779,282.3857],[28.4507,68.0785,268.5862],[28.4459,68.0651,297.5981],[28.434,68.0657,287.1616],[28.4307,68.0568,310.7888],[28.4188,68.0574,309.6184],[28.4156,68.0484,300.4933],[28.4037,68.049,289.2622],[28.4005,68.0401,286.7651],[28.3886,68.0407,276.6743],[28.3838,68.0273,284.6544],[28.3719,68.0279,275.7704],[28.3687,68.019,266.0717],[28.3568,68.0195,264.291],[28.3536,68.0106,289.8602],[28.3418,68.0112,282.6338],[28.337,67.9978,268.735],[28.3251,67.9984,260.4662],[28.3219,67.9895,253.0674],[28.3101,67.99,252.7971],[28.3069,67.9811,256.198],[28.295,67.9817,256.1388],[28.2903,67.9683,248.264],[28.2784,67.9689,246.6998],[28.2753,67.9599,256.063],[28.2634,67.9605,251.1006],[28.2603,67.9516,268.2031],[28.2484,67.9522,270.7897],[28.2437,67.9388,298.1306],[28.2319,67.9394,265.8978],[28.2288,67.9304,265.9095],[28.2169,67.931,258.7263],[28.2138,67.9221,259.693],[28.202,67.9226,276.4898],[28.1973,67.9093,276.2264],[28.1855,67.9098,269.2726],[28.1823,67.9009,273.75],[28.1705,67.9015,270.279],[28.1674,67.8925,287.1676],[28.1556,67.8931,293.0213],[28.1525,67.8842,352.9233],[28.1407,67.8847,334.5102],[28.136,67.8714,322.4082],[28.1242,67.8719,348.8082],[28.1211,67.863,320.9879],[28.1094,67.8635,314.3389],[28.1063,67.8546,314.6857],[28.0945,67.8552,309.09],[28.0899,67.8418,326.4861],[28.0781,67.8424,325.4753],[28.075,67.8334,427.1299],[28.0632,67.834,400.6691],[28.0602,67.8251,352.6688],[28.0484,67.8256,341.8151],[28.0438,67.8122,315.0075],[28.032,67.8128,307.7561],[28.029,67.8038,308.4923],[28.0172,67.8044,293.0622],[28.0142,67.7955,320.303],[28.0024,67.796,289.5354],[27.9979,67.7826,321.2642],[27.9861,67.7832,279.745],[27.9831,67.7743,270.7721],[27.9713,67.7748,266.6381],[27.9683,67.7659,247.2198],[27.9565,67.7664,248.2698],[27.952,67.753,271.0328],[27.9403,67.7536,275.2302],[27.9373,67.7447,304.0856],[27.9256,67.7452,300.3997],[27.9226,67.7363,319.5912],[27.9108,67.7368,328.9657],[27.9063,67.7234,302.4913],[27.8946,67.724,298.0563],[27.8916,67.715,308.3025],[27.8799,67.7156,315.9334],[27.8769,67.7067,318.1884],[27.8652,67.7072,331.9883],[27.8592,67.6894,298.6171],[27.8475,67.6899,294.8845],[27.8431,67.6765,290.0933],[27.8314,67.677,280.0233],[27.8255,67.6592,332.6436],[27.8138,67.6597,326.243],[27.8094,67.6463,386.9282],[27.786,67.6474,331.837],[27.7845,67.6429,325.269],[27.7728,67.6435,308.1745],[27.7713,67.639,297.5576],[27.7596,67.6395,290.8532],[27.7582,67.6351,295.4777],[27.7465,67.6356,292.967],[27.7451,67.6311,280.8385],[27.7217,67.6322,269.6896],[27.7202,67.6277,260.5163],[27.7085,67.6283,258.4149],[27.7071,67.6238,262.1812],[27.6954,67.6244,259.5494],[27.6939,67.6199,257.9106],[27.6822,67.6204,253.455],[27.6808,67.616,252.655],[27.6574,67.617,248.10059999999999],[27.656,67.6125,248.6727],[27.6443,67.6131,239.3919],[27.6429,67.6086,236.54],[27.6312,67.6091,244.714],[27.6297,67.6047,248.4556],[27.6181,67.6052,256.1611],[27.6166,67.6007,247.5601],[27.5933,67.6018,250.1999],[27.5918,67.5973,242.2981],[27.5801,67.5978,245.9048],[27.5787,67.5934,238.9847],[27.5671,67.5939,249.2022],[27.5656,67.5894,235.8676],[27.554,67.59,219.1923],[27.5525,67.5855,216.2667],[27.5292,67.5865,249.5699],[27.5278,67.5821,240.8456],[27.5161,67.5826,245.5644],[27.5147,67.5781,229.1716],[27.503,67.5786,236.039],[27.5016,67.5742,225.0317],[27.4783,67.5752,212.1061],[27.4769,67.5707,221.858],[27.4652,67.5713,231.9052],[27.4638,67.5668,232.9888],[27.4521,67.5673,225.8344],[27.4507,67.5628,208.7907],[27.4274,67.5639,197.6598],[27.4302,67.5728,218.8997],[27.4068,67.5738,199.1238],[27.3999,67.5515,199.6181],[27.3882,67.552,206.5063],[27.3841,67.5386,220.312],[27.3724,67.5391,225.1325],[27.3697,67.5302,220.2981],[27.358,67.5307,224.6799],[27.3539,67.5173,228.5644],[27.3423,67.5178,236.3455],[27.3382,67.5044,225.97559999999999],[27.3265,67.5049,226.7027],[27.3238,67.4959,228.8939],[27.3121,67.4964,227.4361],[27.3081,67.483,227.9435],[27.2964,67.4835,229.9448],[27.2923,67.4701,240.7813],[27.2807,67.4706,247.4153],[27.278,67.4617,296.4894],[27.2664,67.4622,278.1645],[27.2623,67.4488,327.4699],[27.2507,67.4493,292.5678],[27.2466,67.4359,250.4462],[27.235,67.4364,248.715],[27.2323,67.4274,284.2513],[27.2207,67.4279,285.4308],[27.2194,67.4234,238.3799],[27.231,67.423,268.1389],[27.2283,67.414,213.2015],[27.2399,67.4135,215.3181],[27.2386,67.409,209.9494],[27.2502,67.4086,206.3189],[27.2475,67.3996,219.9175],[27.2591,67.3991,207.8611],[27.2564,67.3902,327.3118],[27.268,67.3897,314.6527],[27.2599,67.3628,247.1362],[27.2367,67.3639,255.5753],[27.2354,67.3594,257.7727],[27.2122,67.3604,251.8703],[27.2109,67.3559,237.3847],[27.1762,67.3574,286.432],[27.1748,67.3529,283.2446],[27.1401,67.3544,308.3851],[27.1388,67.3499,337.0529],[27.1157,67.3509,310.638],[27.1143,67.3465,334.3802],[27.1028,67.3469,318.32],[27.1001,67.338,265.1847],[27.0886,67.3385,231.042],[27.0442,67.1865,181.6537],[27.0327,67.187,185.6397],[27.0275,67.1691,206.6248],[27.0161,67.1696,212.3296],[27.0135,67.1606,203.9614],[27.002,67.1611,198.2778],[26.9994,67.1522,206.8014],[26.9879,67.1526,220.9139],[26.9867,67.1482,234.4931],[26.9752,67.1487,257.9518],[26.9739,67.1442,247.0473],[26.9624,67.1447,236.9105],[26.9599,67.1357,250.35059999999999],[26.9484,67.1362,268.7362],[26.9471,67.1317,283.5372],[26.9357,67.1322,290.716],[26.9331,67.1233,324.7084],[26.9216,67.1237,318.6336],[26.9204,67.1193,290.244],[26.9089,67.1198,272.569],[26.9076,67.1153,256.4338],[26.8962,67.1158,250.4533],[26.8937,67.1068,260.7329],[26.8822,67.1073,258.9247],[26.8809,67.1028,262.0797],[26.8695,67.1033,257.2371],[26.867,67.0944,258.2751],[26.8555,67.0948,255.927],[26.8542,67.0903,249.9252],[26.8428,67.0908,249.8793],[26.8403,67.0819,247.8823],[26.8288,67.0823,262.4851],[26.8276,67.0779,269.0426],[26.8161,67.0784,283.4519],[26.8149,67.0739,273.1674],[26.8034,67.0743,253.7229],[26.801,67.0654,263.8352],[26.7895,67.0659,246.0619],[26.7883,67.0614,230.7698],[26.7768,67.0619,227.7019],[26.7743,67.0529,217.4044],[26.7629,67.0534,216.0419],[26.7617,67.0489,223.444],[26.7502,67.0494,219.6015],[26.7478,67.0404,224.0314],[26.7363,67.0409,234.073],[26.7351,67.0364,246.3346],[26.7237,67.0369,243.7622],[26.7225,67.0324,238.817],[26.711,67.0329,230.8806],[26.7086,67.0239,228.7468],[26.6971,67.0244,227.3972],[26.6959,67.0199,228.1156],[26.6845,67.0204,226.7629],[26.6821,67.0114,219.6568],[26.6706,67.0119,216.5089],[26.6694,67.0074,214.8846],[26.658,67.0079,212.8401],[26.6556,66.9989,215.12],[26.6442,66.9994,211.0234],[26.643,66.9949,208.0967],[26.6315,66.9954,205.1443],[26.6303,66.9909,205.9687],[26.6189,66.9914,205.4572],[26.6165,66.9824,208.4763],[26.6051,66.9829,213.5207],[26.6039,66.9784,214.4114],[26.5925,66.9789,220.7958],[26.5901,66.9699,226.5554],[26.5787,66.9704,219.183],[26.5775,66.9659,210.9823],[26.5661,66.9663,210.4424],[26.5649,66.9619,216.2961],[26.5535,66.9623,224.6839],[26.5511,66.9534,246.5085],[26.5397,66.9538,248.3184],[26.5385,66.9493,275.4637],[26.5271,66.9498,260.1364],[26.5248,66.9408,319.3346],[26.502,66.9417,265.4122],[26.5008,66.9373,228.9771],[26.478,66.9382,196.6243],[26.4757,66.9292,196.9546],[26.487,66.9288,190.6102],[26.4859,66.9243,203.8366],[26.4973,66.9239,186.4778],[26.4949,66.9149,211.7736],[26.5063,66.9145,247.7352],[26.5051,66.91,267.4951],[26.5165,66.9095,229.0715],[26.5153,66.9051,239.7296],[26.5267,66.9046,249.6967],[26.5255,66.9001,246.9798],[26.5368,66.8997,259.5825],[26.5345,66.8907,238.1844],[26.5458,66.8903,242.6587],[26.5447,66.8858,281.542],[26.556,66.8854,292.6095],[26.5548,66.8809,279.2419],[26.5662,66.8804,293.0509],[26.5638,66.8715,220.1874],[26.5752,66.871,222.8436],[26.574,66.8665,243.5376],[26.5853,66.8661,242.9197],[26.583,66.8571,270.7675],[26.5943,66.8567,251.4201],[26.5931,66.8522,256.7893],[26.6045,66.8518,242.0479],[26.6021,66.8428,280.4598],[26.6134,66.8424,252.5633],[26.6122,66.8379,247.2073],[26.6349,66.837,210.0089],[26.6337,66.8325,202.5082],[26.645,66.832,200.3497],[26.6438,66.8276,196.8233],[26.6552,66.8271,197.8029],[26.654,66.8226,199.222],[26.6653,66.8222,193.4575],[26.6593,66.7998,215.903],[26.6706,66.7993,204.7649],[26.6646,66.777,187.4704],[26.6759,66.7765,190.1525],[26.6711,66.7586,188.9186],[26.6824,66.7582,186.7891],[26.6764,66.7358,202.5706],[26.6877,66.7353,198.8867],[26.6828,66.7174,183.4932],[26.6941,66.717,190.8659],[26.6917,66.708,198.9922],[26.6692,66.709,175.6379],[26.6668,66.7,212.539],[26.678,66.6995,174.1906],[26.6768,66.6951,185.1941],[26.6881,66.6946,176.1848],[26.6857,66.6857,180.8858],[26.697,66.6852,174.6691],[26.6946,66.6762,180.0354],[26.7058,66.6758,176.0116],[26.6998,66.6534,179.455],[26.7111,66.653,182.9671],[26.7063,66.6351,182.7036],[26.7175,66.6346,190.4926],[26.7007,66.572,169.7014],[26.7119,66.5715,170.6651],[26.7107,66.567,176.4413],[26.722,66.5666,174.6118],[26.7208,66.5621,178.4569],[26.732,66.5617,183.799],[26.7308,66.5572,182.5379],[26.742,66.5567,182.9927],[26.7408,66.5523,182.6568],[26.752,66.5518,187.1758],[26.7508,66.5473,187.6118],[26.762,66.5468,192.2894],[26.7608,66.5424,204.7686],[26.772,66.5419,219.1813],[26.7708,66.5374,241.5154],[26.782,66.537,248.3405],[26.7808,66.5325,220.2996],[26.792,66.532,222.6898],[26.7908,66.5275,189.9182],[26.802,66.5271,199.046],[26.8008,66.5226,196.4859],[26.8119,66.5221,199.675],[26.8107,66.5177,199.0852],[26.8219,66.5172,190.8309],[26.8207,66.5127,198.3705],[26.8319,66.5123,191.1555],[26.8307,66.5078,200.4365],[26.8531,66.5068,191.3513],[26.8518,66.5024,187.4507],[26.863,66.5019,184.0199],[26.8618,66.4974,194.8251],[26.873,66.497,196.5383],[26.8718,66.4925,193.0772],[26.883,66.492,192.9899],[26.8817,66.4875,180.6342],[26.8929,66.4871,189.5589],[26.8917,66.4826,179.9871],[26.9029,66.4821,178.6767],[26.9016,66.4777,188.9018],[26.9128,66.4772,193.8117],[26.9116,66.4727,196.2904],[26.9228,66.4722,194.6067],[26.9215,66.4678,206.6052],[26.9327,66.4673,202.4196],[26.9315,66.4628,201.7046],[26.9426,66.4623,208.8042],[26.9414,66.4579,203.0807],[26.9526,66.4574,209.0682],[26.9513,66.4529,203.2442],[26.9625,66.4524,217.7629],[26.9613,66.448,207.1609],[26.9724,66.4475,208.1297],[26.9712,66.443,204.6076],[26.9823,66.4425,209.8078],[26.9811,66.4381,221.3948],[26.9922,66.4376,210.8266],[26.991,66.4331,216.1623],[27.0022,66.4326,221.5275],[27.0009,66.4281,228.6335],[27.0121,66.4277,233.956],[27.0108,66.4232,222.4867],[27.022,66.4227,218.3604],[27.0207,66.4182,194.7819],[27.043,66.4173,201.1503],[27.0418,66.4128,216.1362],[27.0529,66.4123,225.6855],[27.0517,66.4078,243.7305],[27.0628,66.4074,240.901],[27.0616,66.4029,228.3874],[27.0727,66.4024,219.4877],[27.0714,66.3979,264.0837],[27.0826,66.3974,227.0317],[27.0813,66.393,254.2744],[27.0924,66.3925,232.4084],[27.0912,66.388,248.2829],[27.1023,66.3875,205.694],[27.1011,66.3831,218.8076],[27.1122,66.3826,195.4925],[27.1109,66.3781,204.5327],[27.1221,66.3776,187.778],[27.1208,66.3731,188.539],[27.1319,66.3726,178.7018],[27.1307,66.3682,175.4772],[27.1418,66.3677,166.9254],[27.1405,66.3632,157.7368],[27.1516,66.3627,143.7069],[27.1504,66.3583,143.9046],[27.1615,66.3578,125.0],[27.1602,66.3533,125.0],[27.1825,66.3523,225.5254],[27.1812,66.3478,190.9852],[27.2034,66.3468,198.1995],[27.2021,66.3424,202.446],[27.2244,66.3414,258.0261],[27.2231,66.3369,256.6926],[27.2453,66.3359,265.9054],[27.244,66.3314,264.0947],[27.2551,66.3309,254.9308],[27.2538,66.3265,260.8153],[27.2427,66.327,258.2723],[27.2363,66.3046,214.8669],[27.2474,66.3041,210.9761],[27.2462,66.2997,219.3749],[27.2573,66.2992,207.1202],[27.2547,66.2902,225.7956],[27.2658,66.2897,204.3519],[27.2632,66.2808,188.2495],[27.2743,66.2803,180.0419],[27.2666,66.2535,123.7264],[27.2888,66.2525,193.4952],[27.2875,66.248,126.2879],[27.3096,66.247,135.5339],[27.3083,66.2426,154.5962],[27.3194,66.2421,123.2436],[27.3181,66.2376,168.1765],[27.3292,66.2371,124.583],[27.3279,66.2326,126.3823],[27.3168,66.2331,176.7059],[27.3142,66.2242,172.1317],[27.3032,66.2247,167.0745],[27.3006,66.2158,183.1087],[27.2896,66.2163,175.1015],[27.287,66.2073,208.5816],[27.276,66.2078,222.222],[27.2747,66.2034,240.4995],[27.2636,66.2039,201.2809],[27.2573,66.1815,245.9329],[27.2683,66.181,253.4196],[27.2632,66.1631,224.5698],[27.2742,66.1627,217.6526],[27.2691,66.1448,198.4022],[27.2802,66.1443,199.161],[27.2789,66.1398,195.1918],[27.3119,66.1383,211.2699],[27.3107,66.1338,219.8237],[27.3327,66.1328,236.7947],[27.3314,66.1284,249.1116],[27.3645,66.1268,237.4929],[27.3632,66.1224,233.351],[27.3962,66.1208,238.905],[27.3949,66.1164,226.5159],[27.4279,66.1149,223.1472],[27.4266,66.1104,223.5969],[27.4597,66.1088,278.8019],[27.4584,66.1044,262.7727],[27.4694,66.1039,247.5621],[27.4641,66.086,234.024],[27.4751,66.0855,232.5244],[27.4595,66.0319,221.1101],[27.4705,66.0314,236.9812],[27.4562,65.9823,228.2299],[27.4671,65.9818,228.2327],[27.4633,65.9684,242.9629],[27.4523,65.9689,238.5224],[27.4497,65.96,223.1596],[27.4607,65.9594,218.2788],[27.4594,65.955,210.9661],[27.4703,65.9545,219.5761],[27.469,65.95,216.2194],[27.4799,65.9495,224.1739],[27.4786,65.945,206.822],[27.5005,65.944,233.0975],[27.4992,65.9395,212.0623],[27.5102,65.939,217.9622],[27.5089,65.9345,205.5967],[27.5198,65.934,209.1566],[27.5185,65.9296,202.4453],[27.5403,65.9285,204.5715],[27.539,65.9241,205.5886],[27.5609,65.923,208.7523],[27.5622,65.9275,210.5256],[27.5731,65.927,226.614],[27.5738,65.9291,215.6626],[27.5744,65.9314,211.9977],[27.5635,65.9319,210.8334],[27.5648,65.9364,211.2701],[27.5757,65.9359,222.8453],[27.5784,65.9448,213.4672],[27.5893,65.9443,222.1688],[27.5919,65.9532,212.7075],[27.6138,65.9522,213.7644],[27.6151,65.9566,216.3929],[27.637,65.9556,211.504],[27.6383,65.96,213.2038],[27.6602,65.959,215.1451],[27.6575,65.9501,230.7081],[27.6685,65.9495,229.3792],[27.6658,65.9406,240.6832],[27.6767,65.9401,244.613],[27.6727,65.9267,231.8517],[27.6837,65.9262,237.9819],[27.681,65.9172,278.2],[27.6919,65.9167,262.2739],[27.6879,65.9033,314.3535],[27.6988,65.9028,319.1129],[27.6975,65.8983,329.4488],[27.7084,65.8978,308.5754],[27.7057,65.8889,271.44],[27.7167,65.8883,257.1675],[27.7153,65.8839,251.0255],[27.7262,65.8834,257.7879],[27.7235,65.8744,260.1462],[27.7344,65.8739,284.7688],[27.7318,65.865,322.1474],[27.7427,65.8644,332.0033],[27.7413,65.86,313.2581],[27.7522,65.8594,341.9236],[27.7495,65.8505,283.1982],[27.7604,65.85,336.8394],[27.7591,65.8455,325.3537],[27.77,65.845,341.2729],[27.7646,65.8271,337.9713],[27.8951,65.8207,283.0827],[27.8965,65.8251,275.7104],[28.1574,65.8119,247.6058],[28.156,65.8074,264.1495],[28.2103,65.8046,263.7361],[28.2089,65.8001,299.4381],[28.2306,65.799,274.0196],[28.232,65.8035,262.7668],[28.2429,65.8029,318.6323],[28.2443,65.8074,251.1226],[28.266,65.8062,259.5792],[28.2675,65.8107,243.6215],[28.2892,65.8095,243.4494],[28.2906,65.814,253.1046],[28.3015,65.8134,282.4894],[28.3029,65.8179,259.6518],[28.3246,65.8167,284.6612],[28.3261,65.8212,313.4495],[28.3478,65.8201,277.1369],[28.3492,65.8245,296.312],[28.3601,65.8239,295.4563],[28.3615,65.8284,274.5303],[28.3833,65.8272,269.9167],[28.3847,65.8317,256.8448],[28.4065,65.8305,256.0658],[28.4079,65.835,256.5352],[28.4188,65.8344,241.7876],[28.4202,65.8389,242.3263],[28.442,65.8377,231.5],[28.4434,65.8422,231.5],[28.4652,65.841,245.9289],[28.4666,65.8455,236.5644],[28.4993,65.8437,243.5966],[28.5007,65.8482,247.5636],[28.5116,65.8476,253.2521],[28.5175,65.8654,276.116],[28.5189,65.8699,285.9669],[28.5081,65.8704,293.96],[28.5154,65.8927,243.5751],[28.5045,65.8933,238.1451],[28.506,65.8978,239.0567],[28.4951,65.8983,237.0582],[28.4966,65.9028,240.7835],[28.4857,65.9034,240.9366],[28.4872,65.9078,250.6003],[28.4763,65.9084,247.3353],[28.4777,65.9129,258.5437],[28.4668,65.9135,251.0029],[28.4683,65.9179,244.1391],[28.4574,65.9185,243.9264],[28.4588,65.923,249.3265],[28.4479,65.9235,243.4283],[28.4509,65.9324,241.2647],[28.44,65.933,237.7051],[28.4429,65.9419,252.5197],[28.432,65.9425,237.9428],[28.4334,65.947,243.7451],[28.4225,65.9476,239.093],[28.424,65.952,251.1695],[28.4021,65.9532,244.8629],[28.4036,65.9576,267.3138],[28.3818,65.9588,259.8805],[28.3832,65.9632,289.7404],[28.3723,65.9638,255.9243],[28.3752,65.9727,250.4328],[28.397,65.9716,256.7542],[28.3985,65.976,262.5246],[28.3876,65.9766,252.5465],[28.3949,65.9989,243.7291],[28.3839,65.9995,244.325],[28.3854,66.0039,243.6015],[28.4182,66.0022,243.5642],[28.4138,65.9888,257.7298],[28.4576,65.9865,253.0506],[28.459,65.991,244.5829],[28.4809,65.9898,258.0412],[28.4853,66.0032,260.7916],[28.5072,66.002,267.9913],[28.5087,66.0064,250.7325],[28.5962,66.0017,258.8694],[28.5947,65.9973,263.5455],[28.6056,65.9967,281.3818],[28.6026,65.9878,307.3255],[28.6573,65.9848,321.2678],[28.6618,65.9982,334.8608],[28.6727,65.9976,338.5674],[28.6742,66.002,357.2188],[28.7179,65.9996,366.6644],[28.7195,66.0041,322.3167],[28.7523,66.0023,335.2986],[28.7568,66.0156,323.3538],[28.7459,66.0162,333.4958],[28.7565,66.0474,279.7189],[28.7456,66.048,288.9391],[28.7441,66.0436,274.9696],[28.7112,66.0454,250.0635],[28.7142,66.0543,250.816],[28.7033,66.0549,247.0766],[28.7048,66.0593,249.4694],[28.6829,66.0605,239.5],[28.6844,66.065,239.5],[28.6406,66.0674,239.5],[28.6421,66.0718,239.5],[28.6311,66.0724,239.5],[28.6326,66.0769,239.5],[28.6436,66.0763,239.5],[28.6466,66.0852,239.5],[28.6356,66.0858,249.0733],[28.6371,66.0902,244.0615],[28.6262,66.0908,239.5],[28.6292,66.0997,282.3842],[28.6182,66.1003,290.1769],[28.6227,66.1137,239.5],[28.6117,66.1143,239.5],[28.6147,66.1232,239.5],[28.6038,66.1238,239.5],[28.6053,66.1282,239.5],[28.6712,66.1247,239.5],[28.6727,66.1291,239.5],[28.6947,66.1279,239.5],[28.6962,66.1324,239.5],[28.7072,66.1318,239.5],[28.7087,66.1362,239.5],[28.7197,66.1356,239.5],[28.7227,66.1446,239.5],[28.7117,66.1451,239.5],[28.7178,66.163,239.5],[28.7288,66.1624,239.5],[28.7304,66.1668,239.5],[28.7414,66.1662,239.5],[28.7444,66.1751,239.5],[28.7554,66.1745,239.5],[28.757,66.179,239.5],[28.768,66.1784,239.5],[28.7711,66.1873,239.5],[28.7601,66.1879,239.5],[28.7616,66.1923,239.5],[28.7506,66.1929,239.5],[28.7521,66.1974,239.5],[28.7411,66.198,239.5],[28.7426,66.2025,239.5],[28.7316,66.203,239.5],[28.7331,66.2075,239.5],[28.7442,66.2069,239.5],[28.7518,66.2292,264.7401],[28.7629,66.2286,257.8032],[28.7659,66.2375,248.9509],[28.7549,66.2381,254.8301],[28.7565,66.2425,253.1807],[28.7454,66.2431,260.3177],[28.75,66.2565,275.74],[28.7169,66.2583,272.7417],[28.7184,66.2627,278.3398],[28.7074,66.2634,282.5701],[28.7059,66.2589,269.7438],[28.6838,66.2601,291.5282],[28.6822,66.2556,296.5078],[28.6712,66.2562,298.1262],[28.6682,66.2473,295.4757],[28.6461,66.2485,302.564],[28.6506,66.2619,308.09],[28.6396,66.2625,320.039],[28.6411,66.2669,287.2245],[28.619,66.2681,309.2067],[28.6175,66.2637,303.1403],[28.5954,66.2648,304.2487],[28.5969,66.2693,296.0308],[28.5859,66.2699,293.7548],[28.5889,66.2788,301.6748],[28.5778,66.2794,303.4421],[28.5809,66.2883,314.6721],[28.5698,66.2889,335.7997],[28.5728,66.2978,292.0898],[28.5618,66.2984,290.4712],[28.5648,66.3073,292.0259],[28.5537,66.3079,286.6264],[28.5567,66.3168,303.2028],[28.5457,66.3174,303.1036],[28.5487,66.3263,311.968],[28.5376,66.3269,311.8567],[28.5557,66.3804,279.7295],[28.5779,66.3792,287.0647],[28.5855,66.4015,278.2934],[28.5966,66.4009,278.7039],[28.5981,66.4053,301.9045],[28.6092,66.4047,305.0522],[28.6123,66.4137,311.8015],[28.6679,66.4107,360.3471],[28.6925,66.482,418.7546]]]]}}