{"type": "Feature","bbox": [28.2493,61.5318,29.6962,62.654],"geometry": {"type": "MultiPolygon","coordinates": [[[[29.6217,61.9107,72.5],[29.6131,61.9113,72.5],[29.6244,61.9468,72.5],[29.6338,61.9462,72.5],[29.638,61.9595,72.5],[29.6475,61.9589,72.5],[29.6517,61.9722,72.5],[29.6612,61.9715,72.5],[29.664,61.9804,72.5],[29.6451,61.9817,72.5],[29.6465,61.9862,72.5],[29.637,61.9868,72.5],[29.6384,61.9912,72.5],[29.6195,61.9926,72.5],[29.6209,61.997,72.5],[29.6114,61.9977,72.5],[29.6128,62.0021,72.5],[29.6034,62.0028,72.5],[29.6062,62.0116,72.5],[29.5872,62.0129,81.1484],[29.5886,62.0174,77.0],[29.5791,62.018,84.5951],[29.5805,62.0225,91.0252],[29.5616,62.0238,93.1948],[29.563,62.0282,85.8738],[29.544,62.0295,89.8666],[29.5454,62.034,142.0428],[29.517,62.0359,77.4202],[29.5184,62.0403,83.569],[29.4994,62.0416,79.8708],[29.5022,62.0505,92.2572],[29.4927,62.0512,82.5191],[29.4941,62.0556,87.0754],[29.4846,62.0563,76.0],[29.4874,62.0651,82.1786],[29.4779,62.0658,81.9363],[29.4793,62.0702,83.4636],[29.4698,62.0709,80.691],[29.4726,62.0798,94.8488],[29.4631,62.0804,80.9999],[29.4658,62.0893,73.5],[29.4564,62.0899,73.5],[29.4605,62.1032,73.5],[29.451,62.1039,73.5],[29.4538,62.1128,73.5],[29.4443,62.1134,73.5],[29.4485,62.1267,73.5],[29.4389,62.1274,73.5],[29.4431,62.1407,73.5],[29.4336,62.1413,73.5],[29.4364,62.1502,73.5],[29.4268,62.1509,73.5],[29.431,62.1642,73.5],[29.4215,62.1648,73.5],[29.4256,62.1782,73.5],[29.4161,62.1788,73.5],[29.4189,62.1877,73.5],[29.4094,62.1883,73.5],[29.4219,62.2283,73.5],[29.4314,62.2277,73.5],[29.4342,62.2366,73.5],[29.4247,62.2372,73.5],[29.4261,62.2416,73.5],[29.4069,62.2429,73.5],[29.4083,62.2474,73.5],[29.3988,62.248,73.5],[29.4002,62.2524,73.5],[29.3906,62.2531,73.5],[29.392,62.2575,73.5],[29.3825,62.2582,73.5],[29.3852,62.2671,75.1697],[29.3757,62.2677,73.5],[29.3771,62.2721,81.7511],[29.3675,62.2728,79.82],[29.3703,62.2817,73.5],[29.3607,62.2823,73.5],[29.3621,62.2867,73.5],[29.3525,62.2874,73.5],[29.3553,62.2963,73.5],[29.3457,62.2969,73.5],[29.3471,62.3013,73.5],[29.3375,62.302,73.5],[29.3403,62.3109,73.5],[29.3307,62.3115,73.5],[29.3321,62.3159,73.5],[29.3226,62.3166,73.5],[29.3253,62.3255,73.5],[29.3157,62.3261,73.5],[29.3171,62.3306,73.5],[29.3075,62.3312,73.5],[29.3117,62.3445,73.5],[29.3021,62.3451,73.5],[29.3076,62.3629,73.5],[29.2981,62.3636,73.5],[29.3036,62.3813,73.5],[29.294,62.382,73.5],[29.2967,62.3909,73.5],[29.2871,62.3915,73.5],[29.2885,62.3959,73.5],[29.2789,62.3966,73.5],[29.2803,62.401,73.5],[29.2707,62.4016,73.5],[29.2721,62.4061,73.5],[29.2625,62.4067,73.5],[29.2638,62.4112,73.5],[29.2446,62.4124,73.5],[29.246,62.4169,73.5],[29.2268,62.4181,73.5],[29.2254,62.4137,73.5],[29.2158,62.4143,73.5],[29.2131,62.4054,119.8992],[29.2035,62.406,111.0481],[29.2021,62.4016,95.4325],[29.1829,62.4028,104.597],[29.1842,62.4073,107.1009],[29.1746,62.4079,106.3603],[29.1733,62.4035,117.9073],[29.1637,62.4041,117.1039],[29.161,62.3952,109.7523],[29.1706,62.3946,105.0],[29.1678,62.3857,111.1991],[29.1198,62.3888,112.5983],[29.1212,62.3932,114.6567],[29.102,62.3945,131.3836],[29.1087,62.4167,110.5],[29.0895,62.418,110.5],[29.0909,62.4224,110.5],[29.0813,62.423,110.5],[29.0935,62.463,111.5],[29.1031,62.4624,111.5],[29.1099,62.4846,111.5],[29.1195,62.484,117.2989],[29.1209,62.4885,111.5],[29.1112,62.4891,111.5],[29.1126,62.4935,111.5],[29.1029,62.4942,111.5],[29.0933,62.4948,111.5],[29.092,62.4903,111.5],[29.0823,62.491,111.5],[29.0837,62.4954,111.5],[29.0548,62.4972,111.5],[29.0561,62.5017,111.5],[29.0368,62.5029,132.8929],[29.0382,62.5074,119.2207],[29.0189,62.5086,119.9355],[29.0203,62.5131,115.1796],[29.0106,62.5137,106.4073],[29.012,62.5181,111.1227],[29.0313,62.5169,109.3513],[29.0326,62.5213,125.193],[29.0422,62.5207,127.5817],[29.0436,62.5252,114.9843],[29.0339,62.5258,119.304],[29.0353,62.5302,99.5],[29.0257,62.5308,99.5],[29.027,62.5353,99.5],[29.0077,62.5365,99.5],[29.0091,62.541,110.7185],[28.9994,62.5416,99.5],[29.0007,62.546,99.5],[28.9814,62.5473,99.5],[28.9828,62.5517,102.2396],[28.9731,62.5523,99.5],[28.9745,62.5568,101.554],[28.9551,62.558,99.5],[28.9565,62.5624,99.5],[28.9468,62.563,99.5],[28.9508,62.5764,99.5],[28.9315,62.5776,99.5],[28.9328,62.582,99.5],[28.9135,62.5833,99.5],[28.9149,62.5877,99.5],[28.8955,62.5889,99.5],[28.8969,62.5934,99.5],[28.8775,62.5946,99.5],[28.8788,62.599,99.5],[28.8595,62.6002,99.5],[28.8608,62.6047,99.5],[28.8511,62.6053,99.5],[28.8525,62.6097,99.5],[28.8428,62.6103,99.5],[28.8441,62.6148,99.5],[28.8344,62.6154,99.5],[28.8358,62.6198,99.5],[28.8261,62.6204,99.5],[28.8274,62.6249,99.5],[28.8177,62.6255,99.5],[28.8191,62.6299,99.5],[28.8094,62.6306,99.5],[28.8107,62.635,99.5],[28.7913,62.6362,99.5],[28.7926,62.6406,99.5],[28.6764,62.6478,99.5],[28.6777,62.6522,99.5],[28.6486,62.654,99.5],[28.6382,62.6184,126.6381],[28.6188,62.6196,123.1681],[28.6175,62.6151,152.5242],[28.6078,62.6157,140.9695],[28.6053,62.6068,120.1281],[28.6343,62.605,114.4406],[28.633,62.6006,121.1784],[28.6233,62.6012,111.0],[28.622,62.5967,109.8819],[28.6124,62.5973,130.7572],[28.6111,62.5929,110.6215],[28.6014,62.5935,115.8645],[28.5988,62.5846,114.9721],[28.5891,62.5851,115.0803],[28.5878,62.5807,108.014],[28.5782,62.5813,124.0758],[28.5795,62.5857,95.8311],[28.5698,62.5863,94.1064],[28.5711,62.5908,110.4823],[28.5517,62.5919,103.1253],[28.5504,62.5875,98.2352],[28.5408,62.5881,87.686],[28.5395,62.5836,76.0],[28.4717,62.5877,76.0],[28.4705,62.5832,76.0],[28.4802,62.5826,76.0],[28.4789,62.5782,76.0],[28.5176,62.5759,89.113],[28.5163,62.5714,110.4833],[28.5453,62.5697,82.6621],[28.5427,62.5608,105.1413],[28.5331,62.5614,109.7445],[28.5292,62.548,120.5022],[28.5196,62.5486,93.5],[28.5209,62.553,119.1407],[28.5015,62.5542,121.5838],[28.5028,62.5587,93.5],[28.4931,62.5592,99.7239],[28.4944,62.5637,93.5],[28.4461,62.5666,113.954],[28.4473,62.571,104.3555],[28.428,62.5722,99.7648],[28.4292,62.5766,101.4157],[28.4196,62.5772,109.2166],[28.4183,62.5727,103.402],[28.4086,62.5733,91.489],[28.4074,62.5689,87.2729],[28.417,62.5683,93.8401],[28.4158,62.5638,97.5156],[28.4061,62.5644,101.2008],[28.4023,62.5511,96.5],[28.3998,62.5421,96.5],[28.4095,62.5416,96.5],[28.403199999999998,62.5193,152.2491],[28.3935,62.5199,116.7306],[28.3898,62.5065,111.6119],[28.3705,62.5077,97.0],[28.368,62.4988,108.3147],[28.3776,62.4982,129.4129],[28.3764,62.4937,112.9332],[28.386,62.4932,119.2315],[28.3848,62.4887,104.3264],[28.3944,62.4881,115.0564],[28.3869,62.4614,99.8724],[28.3483,62.4637,89.1926],[28.3496,62.4682,97.1627],[28.3014,62.471,86.6706],[28.3026,62.4755,91.8883],[28.293,62.476,82.0],[28.2917,62.4716,104.9204],[28.2821,62.4721,86.7004],[28.2796,62.4632,90.0],[28.2893,62.4627,93.3061],[28.288,62.4582,90.0],[28.2977,62.4576,102.4593],[28.2964,62.4532,106.9306],[28.3061,62.4526,141.2186],[28.3023,62.4393,135.2175],[28.2927,62.4398,135.2774],[28.2939,62.4443,113.0781],[28.2843,62.4449,109.4047],[28.2831,62.4404,104.7907],[28.2734,62.4409,109.9563],[28.2722,62.4365,98.0754],[28.2626,62.4371,115.8812],[28.2613,62.4326,93.8028],[28.2517,62.4332,116.2928],[28.2493,62.4243,115.9021],[28.2589,62.4237,134.8189],[28.2577,62.4193,105.5],[28.2769,62.4181,107.8853],[28.2757,62.4137,135.8516],[28.2853,62.4131,111.4969],[28.2828,62.4042,123.8954],[28.2925,62.4036,109.4874],[28.2888,62.3903,83.5],[28.308,62.3891,98.6732],[28.3068,62.3847,108.1228],[28.326,62.3836,108.4772],[28.3248,62.3791,114.0877],[28.3344,62.3785,111.0716],[28.3331,62.3741,115.389],[28.3235,62.3746,108.2731],[28.3173,62.3524,120.7802],[28.3557,62.3501,131.1153],[28.357,62.3546,135.2637],[28.3858,62.3529,138.3638],[28.387,62.3573,131.3621],[28.4159,62.3556,135.2593],[28.4146,62.3511,141.648],[28.4338,62.35,117.8375],[28.4263,62.3233,101.5],[28.4359,62.3227,101.5],[28.4347,62.3182,111.0407],[28.4538,62.3171,123.3139],[28.4526,62.3126,126.5622],[28.4909,62.3103,119.5986],[28.4922,62.3148,129.6284],[28.521,62.313,112.9312],[28.5197,62.3086,101.875],[28.5293,62.308,110.0883],[28.528,62.3036,98.0534],[28.5376,62.303,102.2415],[28.5363,62.2985,93.6203],[28.5459,62.298,99.3],[28.5447,62.2935,101.0322],[28.5638,62.2923,77.5096],[28.5625,62.2879,92.736],[28.5721,62.2873,79.5109],[28.5709,62.2829,72.5],[28.5804,62.2823,88.5844],[28.5779,62.2734,72.5],[28.5875,62.2728,72.5],[28.5862,62.2683,72.5],[28.5958,62.2677,72.5],[28.5945,62.2633,72.5],[28.6041,62.2627,72.5],[28.6028,62.2583,72.5],[28.6124,62.2577,88.7625],[28.6098,62.2488,84.269],[28.629,62.2476,72.5],[28.6277,62.2431,72.5],[28.6372,62.2425,72.5],[28.636,62.2381,89.8473],[28.6551,62.2369,72.5],[28.6513,62.2236,80.5469],[28.6608,62.223,72.5],[28.6557,62.2052,72.5],[28.6366,62.2064,72.5],[28.6353,62.2019,85.5879],[28.6328,62.193,90.0176],[28.6519,62.1918,72.5],[28.6442,62.1651,72.5],[28.6347,62.1657,72.5],[28.6283,62.1435,72.5],[28.6092,62.1446,72.5],[28.6105,62.1491,90.9755],[28.601,62.1497,72.5],[28.6022,62.1541,93.0616],[28.5927,62.1547,72.5],[28.594,62.1592,72.5],[28.5844,62.1598,72.5],[28.5857,62.1642,72.5],[28.5762,62.1648,72.5],[28.5774,62.1692,72.5],[28.5679,62.1698,72.5],[28.5704,62.1787,96.0185],[28.5609,62.1793,72.5],[28.5621,62.1838,72.5],[28.5526,62.1843,72.5],[28.5539,62.1888,94.2296],[28.5347,62.19,72.5],[28.5335,62.1855,72.5],[28.5239,62.1861,72.5],[28.5252,62.1905,82.256],[28.5156,62.1911,72.5],[28.5169,62.1956,72.5],[28.5073,62.1962,72.5],[28.5086,62.2006,72.5],[28.4513,62.2041,82.0301],[28.4525,62.2085,84.1024],[28.3952,62.212,72.5],[28.3939,62.2075,72.5],[28.4035,62.2069,72.5],[28.4023,62.2025,72.5],[28.4118,62.2019,72.5],[28.4093,62.193,92.309],[28.3998,62.1936,72.5],[28.3985,62.1891,72.5],[28.389,62.1897,72.5],[28.3816,62.163,72.5],[28.4006,62.1618,72.5],[28.3994,62.1574,96.5923],[28.409,62.1568,72.5],[28.4065,62.1479,72.5],[28.3969,62.1485,72.5],[28.3945,62.1396,72.5],[28.404,62.139,72.5],[28.4015,62.1301,72.5],[28.4111,62.1295,87.064],[28.4098,62.1251,72.5],[28.4194,62.1245,72.5],[28.4181,62.12,72.5],[28.4467,62.1183,72.5],[28.448,62.1228,99.5601],[28.4765,62.1211,72.5],[28.4778,62.1255,72.5],[28.5064,62.1238,72.5],[28.5076,62.1282,72.5],[28.5267,62.1271,84.3619],[28.5254,62.1226,72.5],[28.5445,62.1214,72.5],[28.5432,62.117,72.5],[28.5623,62.1158,91.6565],[28.561,62.1114,72.5],[28.5706,62.1108,72.5],[28.5693,62.1064,72.5],[28.5883,62.1052,72.5],[28.5871,62.1007,72.5],[28.5966,62.1001,72.5],[28.5953,62.0957,72.5],[28.6048,62.0951,72.5],[28.6036,62.0907,72.5],[28.6131,62.0901,72.5],[28.6118,62.0856,72.5],[28.6214,62.085,72.5],[28.6201,62.0806,72.5],[28.6296,62.08,77.7583],[28.6258,62.0667,72.5],[28.6163,62.0672,72.5],[28.6125,62.0539,72.5],[28.641,62.0521,72.5],[28.6385,62.0432,72.5],[28.648,62.0426,72.5],[28.6454,62.0337,72.5],[28.6549,62.0331,72.5],[28.6524,62.0242,72.5],[28.6429,62.0248,72.5],[28.6416,62.0204,72.5],[28.6321,62.021,72.5],[28.6309,62.0165,72.5],[28.6878,62.013,72.5],[28.6815,61.9907,72.5],[28.6625,61.9919,72.5],[28.6587,61.9786,72.5],[28.6682,61.978,89.912],[28.6669,61.9735,72.5],[28.6764,61.9729,72.5],[28.6859,61.9724,72.5],[28.6872,61.9768,72.5],[28.7346,61.9738,72.5],[28.7307,61.9605,72.5],[28.7212,61.9611,72.5],[28.72,61.9566,72.5],[28.7105,61.9572,72.5],[28.7092,61.9528,92.6145],[28.6903,61.954,72.5],[28.689,61.9495,72.5],[28.6795,61.9501,94.5418],[28.6783,61.9457,85.9744],[28.6688,61.9462,87.7435],[28.6637,61.9284,72.5],[28.6259,61.9308,103.9039],[28.6297,61.9441,116.2107],[28.5539,61.9488,121.0518],[28.5526,61.9444,128.831],[28.5431,61.945,146.5359],[28.5419,61.9405,147.1662],[28.5324,61.9411,135.0405],[28.5299,61.9322,111.6762],[28.5205,61.9328,106.3275],[28.5192,61.9283,95.0],[28.5097,61.9289,95.0],[28.511,61.9333,102.3017],[28.5015,61.9339,95.0],[28.5003,61.9295,106.0667],[28.4908,61.93,107.5464],[28.4896,61.9256,122.6904],[28.4801,61.9262,126.6361],[28.4789,61.9217,115.0],[28.4694,61.9223,142.7661],[28.4682,61.9179,141.8466],[28.4587,61.9184,152.6451],[28.4575,61.914,120.1969],[28.448,61.9146,115.0],[28.4468,61.9101,142.014],[28.4373,61.9107,115.0],[28.4385,61.9151,115.0],[28.4196,61.9163,127.1018],[28.4208,61.9207,119.3157],[28.4114,61.9213,121.4079],[28.4126,61.9257,131.6076],[28.3936,61.9269,138.3569],[28.3949,61.9313,121.8358],[28.3854,61.9319,124.9136],[28.3842,61.9275,122.2825],[28.3747,61.928,119.6069],[28.3735,61.9236,130.169],[28.3829,61.923,136.5505],[28.3817,61.9186,137.3011],[28.3912,61.918,142.4948],[28.39,61.9135,131.9509],[28.3994,61.913,144.8722],[28.3982,61.9085,109.3125],[28.4077,61.9079,119.988],[28.4065,61.9035,105.9929],[28.4159,61.9029,116.1338],[28.4147,61.8985,105.6729],[28.4242,61.8979,89.5],[28.418,61.8756,107.8248],[28.4369,61.8745,119.9016],[28.4357,61.87,119.3997],[28.464,61.8683,84.5863],[28.4628,61.8638,107.3924],[28.4723,61.8633,102.8947],[28.4698,61.8544,88.1512],[28.4792,61.8538,75.0],[28.478,61.8493,95.9615],[28.4874,61.8488,75.0],[28.4862,61.8443,102.9448],[28.4957,61.8437,85.824],[28.4944,61.8393,135.4673],[28.5039,61.8387,111.1466],[28.5026,61.8343,103.6102],[28.5121,61.8337,102.5888],[28.5108,61.8292,98.6654],[28.5203,61.8286,112.1102],[28.519,61.8242,72.5],[28.5473,61.8224,83.9815],[28.5461,61.818,89.2216],[28.565,61.8168,72.5],[28.5637,61.8124,95.4192],[28.5826,61.8112,100.8294],[28.5813,61.8068,72.5],[28.6002,61.8056,72.5],[28.5989,61.8012,72.5],[28.5895,61.8017,72.5],[28.5858,61.7884,72.5],[28.5952,61.7878,72.5],[28.5915,61.7745,72.5],[28.6009,61.7739,72.5],[28.5971,61.7605,72.5],[28.6066,61.7599,80.8763],[28.6041,61.751,72.5],[28.5852,61.7522,80.3131],[28.584,61.7477,72.5],[28.5746,61.7483,72.5],[28.5733,61.7439,72.5],[28.5639,61.7445,72.5],[28.5627,61.74,72.5],[28.5533,61.7406,72.5],[28.552,61.7361,72.5],[28.5614,61.7356,72.5],[28.559,61.7267,72.5],[28.5778,61.7255,94.2765],[28.5765,61.721,72.5],[28.5859,61.7205,79.7141],[28.5847,61.716,80.0899],[28.5941,61.7154,72.5],[28.5928,61.711,72.5],[28.6022,61.7104,72.5],[28.601,61.7059,72.5],[28.5916,61.7065,72.5],[28.5904,61.7021,72.5],[28.5998,61.7015,80.9452],[28.5985,61.697,72.5],[28.6173,61.6959,84.1352],[28.6186,61.7003,72.5],[28.6373,61.6991,72.5],[28.6361,61.6947,72.5],[28.6455,61.6941,72.5],[28.6442,61.6897,72.5],[28.6348,61.6902,72.5],[28.6336,61.6858,72.5],[28.6242,61.6864,72.5],[28.6167,61.6597,72.5],[28.6261,61.6591,77.9742],[28.6211,61.6413,97.8681],[28.7243,61.6348,86.6133],[28.723,61.6304,94.805],[28.7324,61.6298,83.0585],[28.7311,61.6253,85.5627],[28.7405,61.6247,89.0055],[28.7393,61.6203,83.0843],[28.7486,61.6197,94.8148],[28.7499,61.6241,83.5133],[28.7593,61.6235,97.3849],[28.7605,61.628,97.9243],[28.7886,61.6262,99.1659],[28.7874,61.6217,103.3146],[28.7967,61.6211,102.4706],[28.7955,61.6167,114.8274],[28.8049,61.6161,110.4085],[28.8023,61.6072,83.0],[28.8679,61.603,83.0],[28.8653,61.5941,105.9024],[28.8747,61.5935,133.4441],[28.8721,61.5846,112.9951],[28.8534,61.5858,121.647],[28.8521,61.5814,128.0152],[28.8428,61.582,112.3155],[28.8415,61.5775,112.8587],[28.8321,61.5781,109.6106],[28.8309,61.5737,98.1244],[28.8402,61.5731,107.4756],[28.839,61.5686,89.2866],[28.8577,61.5674,118.0231],[28.8564,61.563,110.801],[28.8844,61.5611,114.9412],[28.8832,61.5567,85.4913],[28.9019,61.5555,104.8311],[28.9006,61.5511,101.0625],[28.9286,61.5492,109.8936],[28.9273,61.5448,91.3986],[28.9554,61.543,85.7479],[28.9541,61.5385,91.7068],[29.0568,61.5318,124.1067],[29.0581,61.5362,117.1123],[29.0768,61.535,119.5262],[29.0781,61.5394,112.6614],[29.0968,61.5382,139.2399],[29.0981,61.5427,129.8816],[29.1168,61.5414,111.9325],[29.1181,61.5459,122.2344],[29.1368,61.5446,108.3344],[29.1381,61.5491,106.767],[29.1568,61.5478,103.0044],[29.1581,61.5523,108.9331],[29.1768,61.551,115.5684],[29.1781,61.5555,109.6287],[29.1968,61.5542,137.857],[29.1981,61.5587,118.6947],[29.2168,61.5574,149.0055],[29.2181,61.5619,141.2579],[29.2649,61.5587,110.5163],[29.2675,61.5676,119.756],[29.2769,61.567,136.1503],[29.2835,61.5892,104.1501],[29.2929,61.5886,102.8142],[29.2956,61.5974,82.4773],[29.3049,61.5968,91.7363],[29.3076,61.6057,103.0586],[29.317,61.6051,107.6379],[29.3183,61.6095,127.3215],[29.3277,61.6089,121.8614],[29.3304,61.6178,109.177],[29.3397,61.6171,106.6976],[29.3411,61.6216,109.0619],[29.3504,61.6209,102.6799],[29.3531,61.6298,103.2337],[29.3625,61.6292,115.9685],[29.3638,61.6336,107.7957],[29.3732,61.633,110.969],[29.3759,61.6419,108.2358],[29.3853,61.6412,106.3425],[29.3866,61.6457,113.9504],[29.396,61.645,103.3665],[29.3987,61.6539,152.6886],[29.4081,61.6533,107.1415],[29.4094,61.6577,114.6815],[29.4282,61.6564,102.4948],[29.4295,61.6609,112.4389],[29.4389,61.6602,119.083],[29.4403,61.6647,109.7387],[29.4496,61.664,115.9746],[29.451,61.6685,110.3112],[29.4697,61.6672,105.0738],[29.4711,61.6716,117.753],[29.4898,61.6703,131.1796],[29.4912,61.6748,105.1183],[29.51,61.6735,101.3759],[29.5113,61.6779,102.3533],[29.5207,61.6773,112.4442],[29.5221,61.6817,113.7433],[29.5408,61.6804,93.7829],[29.5436,61.6893,88.5289],[29.553,61.6887,92.0365],[29.5668,61.7331,138.1973],[29.5762,61.7324,110.6665],[29.579,61.7413,107.9212],[29.5884,61.7407,130.8868],[29.5898,61.7451,127.0869],[29.5991,61.7444,106.7668],[29.6005,61.7489,119.9098],[29.6099,61.7482,114.852],[29.6127,61.7571,103.0981],[29.6315,61.7558,94.800299999999993],[29.6329,61.7602,113.4517],[29.6423,61.7596,118.482],[29.6451,61.7685,111.1824],[29.6545,61.7678,104.5375],[29.6573,61.7767,113.0201],[29.6667,61.776,112.0533],[29.6709,61.7893,104.2532],[29.6803,61.7887,117.9984],[29.6958,61.8375,72.5],[29.6864,61.8382,72.5],[29.6878,61.8426,72.5],[29.6783,61.8433,72.5],[29.6798,61.8477,72.5],[29.6703,61.8484,82.5539],[29.6731,61.8573,72.5],[29.6826,61.8566,72.5],[29.684,61.861,72.5],[29.6934,61.8604,72.5],[29.6962,61.8693,72.5],[29.6868,61.8699,72.5],[29.6882,61.8744,72.5],[29.6788,61.875,72.5],[29.6802,61.8795,72.5],[29.6707,61.8801,72.5],[29.6722,61.8845,72.5],[29.6627,61.8852,72.5],[29.6641,61.8896,72.5],[29.6453,61.891,72.5],[29.6467,61.8954,72.5],[29.6372,61.896,72.5],[29.6386,61.9005,72.5],[29.6292,61.9011,72.5],[29.632,61.91,72.5],[29.6217,61.9107,72.5]]]]}
,"properties": {"GID_3": "FIN.1.4.4_1","GID_0": "FIN","country": "Finland","GID_1": "FIN.1_1","province": "EasternFinland","NL_NAME_1": "NA","GID_2": "FIN.1.4_1","county": "SouthernSavonia","NL_NAME_2": "NA","city": "Savonlinna","VARNAME_3": "NA","NL_NAME_3": "NA","TYPE_3": "Seutukunta|Ekonomiskregion","ENGTYPE_3": "Sub-Region","CC_3": "NA","HASC_3": "FI.IS.SL","name": "Savonlinna.city","area_km2": 5307.217,"hist_schema_id": "Elevation0-9000","hist_area_km2": {"75": 2014.419,"100": 2094.464,"125": 937.943,"150": 228.13,"175": 31.248,"200": 1.014}}}