{"type":"Feature","properties":{"featurecla":"Geoarea","name":"Finnish Lake Region","namealt":null,"region":"Europe","subregion":null,"min_label":5.4,"max_label":10.0,"scalerank":5},
"geometry":{"type": "Polygon","coordinates": [[[28.427021321217239,60.946098074270566,58.3609],[28.984385612896233,61.432806707806577,122.0014],[29.371226433208705,61.876837469525327,72.5],[29.700450066021205,62.365668035931577,73.5],[29.963633659771261,62.883429266400327,221.5409],[30.042491081646261,63.112311102337827,117.5126],[30.086192253521261,63.3297183289003,115.6069],[30.097451089661007,63.413918339173904,137.9977],[30.048716667583705,63.430487371869106,128.4379],[29.226084831646205,63.574896551556634,166.813],[27.980235222271205,63.680731512494106,168.2688],[27.189219597271261,63.686346746869106,98.0689],[26.404063347271261,63.620489813275384,134.3476],[25.65821373789629,63.456244207806606,118.6187],[25.41749108164629,63.366522528119134,124.4955],[24.01941979258379,62.681830145306577,170.6517],[23.677256706646205,62.465643621869106,136.9191],[23.438975456646261,62.192999578900356,175.5537],[23.401011589458761,62.090643621869077,180.8807],[23.380503776958733,61.977545477337827,173.6389],[23.354380730083761,61.754278875775327,130.2514],[23.317149284771205,61.544256903119049,60.0],[23.309458855083761,61.428229071087827,150.3073],[23.325938347271233,61.330267645306577,136.6268],[23.390391472271205,61.216742254681634,109.5],[23.485240105083761,61.098273016400356,103.9585],[23.68323815195879,60.887030340619106,125.2762],[23.795176628521261,60.794134832806577,96.0],[23.92261803477129,60.733648992962827,102.631],[24.06128990977129,60.7017886414003,135.7454],[24.206919792583705,60.694769598431606,111.3728],[27.988536003521233,60.842596746869106,49.1611],[28.311778191021261,60.896795965619134,70.4991],[28.427021321217239,60.946098074270566,58.3609]]]}}