{"type": "Feature","bbox": [28.023570183208761,59.900304296183975,36.2235872481796,67.351690985150327],"geometry": {"type": "Polygon","coordinates": [[[28.427021321217239,60.946098074270566,58.3609],[28.112437370708733,60.671393133587827,28.6465],[28.023570183208761,60.485052801556606,0.0],[28.12659752695879,60.404547430462827,0.0],[28.26612389414629,60.343878485150327,0.0],[28.52991783945879,60.230658270306549,0.0],[28.859751823833761,60.180487371869134,0.0],[29.201304558208705,60.150213934369077,0.0],[29.500376823833705,60.097113348431606,0.0],[29.760011652248664,60.019652175088424,1.4844],[30.029307487896205,59.995184637494134,0.0],[30.570933464458761,59.902411199994049,11.5771],[30.921246740271073,59.900304296183975,19.4455],[31.219004753521205,60.000799871869106,3.5],[31.428965691021261,60.127081610150384,3.5],[31.625743034771205,60.215399481244049,3.5],[31.831065300396205,60.251288153119077,3.5],[32.066294792583761,60.220404364056577,4.2616],[32.203152637647662,60.192653231161643,3.5],[32.223887566021205,60.203070379681606,3.5],[32.349986198833761,60.277838446087856,3.5],[32.428721550396205,60.308600164837827,3.5],[32.522959831646205,60.328924871869077,3.5],[32.642272188797023,60.346646041433132,3.5],[32.755259636333705,60.440863348431549,6.4413],[32.935923698833761,60.554144598431549,8.1082],[33.153086784771261,60.653876043744106,5.0],[33.591197136333761,60.806097723431634,42.054],[34.023936394146205,60.924994207806606,76.328],[34.246836784771205,60.964300848431606,100.1154],[34.382819920289165,60.973376096947675,31.6573],[34.833384636333761,61.041205145306577,55.1039],[35.034049785804285,61.05667550039945,48.5457],[35.871348503521261,61.284125067181577,31.5],[36.127818230083705,61.395514227337827,31.5],[36.2235872481796,61.601978096502535,46.488],[36.223200766390079,61.604339879494376,50.7255],[36.127834564155393,61.938282860487675,51.8097],[36.063824354301488,62.056963500505134,74.5225],[36.046204943116464,62.082694718676606,108.232],[35.865244987896261,62.274542547650356,70.7337],[35.638072136333761,62.466681219525327,31.5],[35.525401237896205,62.587652899212884,31.5],[35.433848503521205,62.7329165710878,100.7948],[35.424680355362483,62.751665748879361,150.1035],[35.346079948833761,62.827215887494134,124.5],[35.128550651958761,63.1405093445253,140.5494],[35.068125847271205,63.330755926556634,97.3967],[35.048238820857904,63.521501612826057,101.1353],[34.971690300396205,63.678045965619077,112.2661],[34.869029167583761,64.052069403119077,171.1967],[34.968028191021261,64.332831121869077,26.6777],[34.992009894247616,64.342149854864374,18.6212],[34.958994987896205,64.464422918744077,6.9708],[34.906748894146205,64.552252508587827,0.0],[34.772715691021261,64.723211981244134,5.2057],[34.721202019146261,64.8251406921816,16.3785],[34.580088737896261,65.1455142273378,7.8741],[34.536509636333761,65.310187078900356,0.0],[34.554820183208761,65.481085516400356,20.6043],[34.609263542583761,65.562933660931549,21.5404],[34.765879753521205,65.723822332806549,0.0],[34.798106316021261,65.808111883587884,2.178],[34.697642448833705,65.982977606244077,0.0],[34.462779167583761,66.111334539837827,0.0],[34.191172722271261,66.199896551556549,0.0],[33.818369987896261,66.2921206726503,0.0],[33.653697136333761,66.322516180462856,0.0],[33.490977409771261,66.363287664837827,23.5561],[33.335215691021205,66.4308535828066,39.6813],[33.227061394146205,66.5158145203066,24.3418],[33.065928581646261,66.716681219525384,0.0],[32.973521355083761,66.8052432312441,0.0],[32.748667839458705,66.921576239056577,0.0],[32.479136589458761,67.000799871869049,119.2286],[31.160533073833705,67.2734439148378,406.5329],[30.760874870708705,67.328680731244049,245.4043],[29.736460808208761,67.351690985150327,347.6487],[29.499155556562954,67.308910564132219,287.0576],[29.409068230083761,67.2926699890566,265.9769],[29.288596702803517,67.1886542294798,232.3664],[29.216929558208705,67.126776434369049,216.8599],[29.211680534771205,66.962836004681549,185.6865],[29.299327019146205,66.829474188275356,318.3695],[29.432139519146261,66.719122625775327,356.8436],[29.561778191021205,66.6243350281191,325.7157],[29.823374870708705,66.378790594525384,224.295],[29.959361198833705,66.140753485150384,295.4038],[29.969493034771205,65.8797061218691,254.6327],[29.853648308208761,65.5650088562441,259.8327],[29.736460808208761,65.329413153119077,233.8654],[29.701670769146261,65.2009341492128,226.1639],[29.709849480083761,65.0701358093691,264.8838],[29.792735222271261,64.930975653119077,241.7362],[29.922007683208705,64.842474676556577,227.5457],[30.064829948833761,64.771429754681577,227.1285],[30.188487175396261,64.684881903119134,245.372],[30.310313347271205,64.464300848431549,226.4404],[30.294810417583705,64.240851141400384,259.9805],[30.146006706646205,63.777044989056606,202.8524],[30.097451089661007,63.413918339173904,137.9977],[30.086192253521261,63.3297183289003,115.6069],[30.042491081646261,63.112311102337827,117.5126],[29.963633659771261,62.883429266400327,221.5409],[29.700450066021205,62.365668035931577,73.5],[29.371226433208705,61.876837469525327,72.5],[28.984385612896233,61.432806707806577,122.0014],[28.427021321217239,60.946098074270566,58.3609]]]}
,"properties": {"featurecla": "Geoarea","name": "Karelia","namealt": null,"region": "Europe","subregion": null,"min_label": 5.4,"max_label": 10.0,"scalerank": 5,"area_km2": 200357.65,"hist_schema_id": "Elevation0-9000","hist_area_km2": {"0": 21473.0,"25": 19332.82,"50": 14965.36,"75": 18272.04,"100": 26747.08,"125": 25640.92,"150": 22141.86,"175": 18748.18,"200": 12607.77,"225": 8082.88,"250": 4910.23,"275": 2929.0,"300": 1527.04,"325": 962.33,"350": 694.85,"375": 480.24,"400": 308.27,"425": 193.22,"450": 129.22,"475": 90.86,"500": 61.48,"525": 34.21,"550": 15.52,"575": 5.93}}}