{"type":"Feature","properties":{"featurecla":"Island","name":"Åland","namealt":null,"region":"Europe","subregion":null,"min_label":5.4,"max_label":10.0,"scalerank":5},
"geometry":{"type": "Polygon","coordinates": [[[19.91822350352129,60.371344305462827,32.5903],[19.91346276133379,60.390082098431606,21.9662],[19.906260612896233,60.403387762494077,26.6698],[19.882212761333733,60.406805731244049,65.8727],[19.85938561289629,60.406805731244049,49.79],[19.83802330820879,60.401617742962856,31.9084],[19.81751549570879,60.389715887494134,10.7484],[19.808116081646233,60.379767157025356,2.5452],[19.801524284771205,60.3700015320253,15.8826],[19.792857292583733,60.361761785931606,3.391],[19.777110222271205,60.356268621869049,15.398],[19.80189049570879,60.355414129681549,11.7095],[19.818980339458733,60.347967840619049,0.0],[19.833140495708761,60.335211492962827,14.1356],[19.848277214458733,60.318365789837856,0.0],[19.857432487896233,60.314459539837856,16.2033],[19.865000847271261,60.320807196087827,9.5491],[19.875865105083761,60.338812567181549,16.1244],[19.885020378521261,60.346380926556577,21.9562],[19.889414909771261,60.345831610150356,0.0],[19.893077019146205,60.340826727337827,0.7437],[19.900035026958705,60.335150457806606,0.0],[19.912852409771261,60.326910711712827,20.5761],[19.923838737896261,60.315436102337884,15.4504],[19.93140709727129,60.300909735150356,-1.0],[19.934214714458761,60.283636785931606,18.438],[19.928843620708733,60.278326727337884,21.9884],[19.917124870708733,60.274115301556606,34.1273],[19.905406120708733,60.273016668744049,14.3417],[19.900035026958705,60.276800848431634,23.8105],[19.899424675396261,60.285834051556606,23.4767],[19.89783776133379,60.293158270306577,16.0329],[19.89258873789629,60.307806707806634,0.0],[19.886241081646233,60.294806219525356,0.0],[19.884410026958733,60.273688055462827,9.2396],[19.879649284771233,60.260077215619077,28.4639],[19.85853112070879,60.246405340619049,13.3321],[19.851695183208733,60.218451239056549,9.9299],[19.835215691021233,60.227606512494049,26.1162],[19.81751549570879,60.233343817181549,5.2476],[19.821177605083733,60.223700262494049,6.6516],[19.823374870708733,60.209662176556634,5.9855],[19.82154381602129,60.197211004681577,10.7285],[19.81409752695879,60.191778875775327,6.6921],[19.798472526958705,60.194281317181606,20.5397],[19.79188073008379,60.2013003601503,2.484],[19.78394615977129,60.225897528119049,0.7148],[19.776255730083733,60.234564520306634,16.4188],[19.76783287852129,60.241583563275356,17.4085],[19.765025261333733,60.250189520306606,25.3906],[19.780650261333733,60.272101141400356,0.0],[19.796397331646233,60.301031805462884,8.8977],[19.786021355083761,60.304754949994134,19.2284],[19.783213737896205,60.304205633587827,16.8744],[19.777110222271205,60.301031805462884,0.7348],[19.769908073833761,60.304510809369077,11.24],[19.749278191021233,60.307806707806634,9.2182],[19.757578972271233,60.296637274212884,5.9537],[19.762705925396205,60.291693426556549,21.0086],[19.770396355083761,60.287359930462856,22.6874],[19.731944206646261,60.275152899212856,15.4216],[19.718760612896233,60.273688055462827,15.869],[19.709117058208733,60.270086981244077,12.73],[19.702403191021261,60.261236883587856,25.8006],[19.696177605083761,60.249945379681577,18.3281],[19.688365105083761,60.239508367962856,13.4639],[19.691294792583733,60.257696844525356,20.3977],[19.682749870708761,60.265570379681549,6.6389],[19.666514519146233,60.267218328900327,23.5147],[19.646861198833733,60.266852117962856,0.0],[19.668711784771261,60.225897528119049,15.6641],[19.67066490977129,60.218451239056549,16.6882],[19.682139519146233,60.213202215619134,8.6612],[19.687876823833733,60.200445867962827,13.5739],[19.69459069102129,60.171271063275327,0.0],[19.710215691021261,60.146429754681606,0.0],[19.747447136333705,60.102606512494077,0.0],[19.762950066021261,60.075079657025356,0.0],[19.773203972271233,60.087713934369049,0.0],[19.78882897227129,60.097418524212884,0.0],[19.806895378521233,60.101019598431606,0.0],[19.824351433208761,60.095526434369049,11.9091],[19.823008659771233,60.085516668744049,0.0],[19.83155358164629,60.080694891400356,0.0],[19.84498131602129,60.079840399212856,0.0],[19.85853112070879,60.081915594525327,0.0],[19.86817467539629,60.086737371869134,0.0],[19.870127800396261,60.092230535931577,11.8448],[19.873179558208761,60.097601629681606,21.96],[19.886363151958761,60.102362371869106,7.5286],[19.910166862896233,60.102240301556577,22.6373],[19.923838737896261,60.092779852337827,0.0],[19.94092858164629,60.061468817181634,12.571],[19.93751061289629,60.051581121869077,0.0],[19.94837487070879,60.048895574994049,0.0],[19.958018425396205,60.054999090619049,2.1901],[19.951304558208761,60.071356512494106,7.7091],[19.948863151958705,60.085089422650356,18.0825],[19.96583092539629,60.0922915710878,0.0],[20.006236198833761,60.095526434369049,0.0],[20.031504753521261,60.088568426556549,0.0],[20.04468834727129,60.088690496869077,0.0],[20.050181511333761,60.098944403119134,0.0],[20.04737389414629,60.106634832806606,0.0],[20.04078209727129,60.110357977337856,17.1514],[20.033946159771233,60.112616278119077,13.6893],[20.030406120708705,60.116034246869049,14.6562],[20.030039909771233,60.130194403119106,0.0],[20.032847526958761,60.145575262494134,0.0],[20.044077995708761,60.177496649212856,0.0],[20.03467858164629,60.171210028119106,14.4988],[20.02723229258379,60.164557196087884,0.5064],[20.019786003521261,60.159247137494077,12.0738],[20.009898308208705,60.156988836712856,25.5804],[20.00367272227129,60.160162664837856,4.9835],[19.99634850352129,60.167181707806577,10.6648],[19.98719323008379,60.174261785931606,5.5213],[19.958750847271261,60.180243231244077,25.926],[19.943492058208761,60.187445379681634,10.6443],[19.929453972271261,60.197516180462827,8.8572],[19.917124870708733,60.208807684369134,24.5723],[19.914439323833705,60.219427801556577,18.7366],[19.927500847271205,60.223944403119106,14.8105],[19.954722526958761,60.225897528119049,26.7214],[19.955577019146261,60.214056707806634,34.2028],[19.953745964458733,60.210638739056549,26.9863],[19.94788658945879,60.205389715619049,-1.0],[19.96399987070879,60.195990301556577,7.1678],[20.016123894146233,60.184942938275356,31.753],[20.013072136333733,60.194647528119077,0.0],[20.014781120708733,60.203558660931634,0.0],[20.020640495708761,60.211493231244049,0.0],[20.030406120708705,60.218451239056549,18.1964],[20.01282799570879,60.226263739056634,14.8373],[19.993907097271233,60.242621160931577,36.4334],[19.979624870708761,60.262213446087884,21.0478],[19.97584069102129,60.279852606244134,0.0],[20.003184441021261,60.268255926556577,5.0046],[20.02466881602129,60.2775943054628,6.3305],[20.033702019146261,60.295111395306634,2.3145],[20.023570183208733,60.307806707806634,2.0808],[20.023570183208733,60.314642645306606,-1.5],[20.061167839458761,60.311224676556606,33.231],[20.057017448833733,60.294378973431549,27.3981],[20.036143425396233,60.273077703900356,37.9489],[20.023570183208733,60.256293035931606,44.892],[20.031748894146233,60.237616278119134,0.0],[20.048106316021261,60.227728582806577,18.3348],[20.06080162852129,60.215887762494049,52.5837],[20.057627800396261,60.191778875775327,0.0],[20.064585808208761,60.191778875775327,0.0],[20.08179772227129,60.224615789837856,0.0],[20.110850456646261,60.240668035931634,37.3785],[20.14759362070879,60.245917059369049,21.9322],[20.18812096445879,60.246405340619049,13.5777],[20.172129753521233,60.233954168744106,32.3305],[20.122813347271205,60.232001043744049,47.7369],[20.102061394146261,60.2221743835878,30.5061],[20.095347526958705,60.212042547650356,18.3375],[20.088633659771261,60.197027899212827,28.2774],[20.086924675396261,60.183417059369106,0.0],[20.09522545664629,60.177496649212856,0.0],[20.136851433208733,60.177496649212856,0.0],[20.147715691021233,60.175177313275327,0.0],[20.15455162852129,60.170904852337827,0.0],[20.161875847271261,60.168280340619134,0.0],[20.174449089458761,60.171271063275327,0.0],[20.177867058208733,60.174750067181606,0.0],[20.186289909771261,60.188544012494077,0.0],[20.191538933208761,60.194891668744134,9.6565],[20.20081627695879,60.200628973431549,0.0],[20.20948326914629,60.202093817181577,9.5081],[20.218760612896233,60.202460028119077,10.6833],[20.229624870708705,60.205389715619049,8.346],[20.221934441021233,60.211127020306577,20.2102],[20.208506706646261,60.225897528119049,23.5335],[20.235850456646233,60.233343817181549,0.0],[20.24268639414629,60.246405340619049,26.1084],[20.277354362896261,60.279852606244134,0.0],[20.237925651958705,60.282721258587884,26.0364],[20.217417839458705,60.287420965619077,49.1296],[20.201792839458733,60.294195867962827,48.758],[20.196177605083733,60.291449285931577,55.1349],[20.181285026958733,60.287359930462856,0.0],[20.191905144146261,60.313482977337827,24.253],[20.177989128521261,60.324164129681577,26.7436],[20.125987175396233,60.335150457806606,45.4436],[20.104502800396205,60.351141668744077,0.0],[20.092784050396233,60.356329657025356,12.8321],[20.081919792583733,60.352484442181577,28.0676],[20.07178795664629,60.351141668744077,38.5132],[20.038340691021233,60.360785223431577,14.8625],[20.023570183208733,60.362494207806577,0.0],[20.028330925396233,60.355292059369134,20.6299],[20.036631706646233,60.335150457806606,39.8808],[20.019541862896233,60.347479559369134,31.9253],[19.99549401133379,60.357672430462884,29.1177],[19.969859245708733,60.362616278119106,45.5444],[19.92737877695879,60.357672430462884,10.4619],[19.91822350352129,60.371344305462827,32.5903]]]}}