{"type": "Feature","bbox": [23.6548,66.1539,25.0541,67.0103],"geometry": {"type": "MultiPolygon","coordinates": [[[[24.7982,66.3369,135.2526],[24.8093,66.3366,134.3826],[24.811,66.3456,139.8753],[24.8221,66.3453,137.4289],[24.823,66.3497,130.1938],[24.8342,66.3494,131.887],[24.8359,66.3584,130.5264],[24.847,66.358,132.8984],[24.8479,66.3625,135.4502],[24.859,66.3622,139.845],[24.8608,66.3711,145.3319],[24.8719,66.3708,142.7619],[24.8728,66.3753,143.1635],[24.8839,66.375,142.8099],[24.8857,66.3839,149.1556],[24.8968,66.3836,145.4742],[24.8977,66.3881,148.2153],[24.9089,66.3877,164.2039],[24.9106,66.3967,157.0604],[24.9218,66.3964,156.9314],[24.9235,66.4053,184.1707],[24.9347,66.405,175.3643],[24.9356,66.4095,157.9183],[24.9467,66.4091,159.5612],[24.9485,66.4181,162.9889],[24.9597,66.4178,158.0804],[24.9614,66.4267,177.8396],[24.9726,66.4264,151.6701],[24.9735,66.4309,156.3509],[24.9847,66.4305,150.5933],[24.9864,66.4395,161.9066],[24.9976,66.4392,166.274],[24.9994,66.4481,174.5414],[25.0106,66.4478,176.656],[25.0124,66.4567,187.5222],[25.0236,66.4564,184.7919],[25.0245,66.4609,188.8629],[25.0357,66.4605,187.323],[25.0375,66.4695,176.9481],[25.0487,66.4691,181.1302],[25.0541,66.4961,187.549],[25.0428,66.4964,180.0823],[25.0491,66.5278,166.9652],[25.0379,66.5281,170.5569],[25.0433,66.5551,157.6977],[25.0321,66.5554,180.4162],[25.0375,66.5823,147.0014],[25.0262,66.5826,144.929],[25.0325,66.614,209.3032],[25.0213,66.6144,206.6858],[25.0267,66.6413,131.624],[25.0154,66.6416,139.5219],[25.0208,66.6685,172.9961],[25.0095,66.6689,154.3386],[25.0149,66.6958,158.6343],[25.0036,66.6961,150.3421],[25.0081,66.7186,129.1998],[24.9968,66.7189,156.9135],[25.0013,66.7413,182.9357],[24.99,66.7417,172.9336],[24.9936,66.7596,258.7084],[24.9823,66.76,201.2789],[24.9841,66.7689,212.9764],[24.9727,66.7693,177.9861],[24.9754,66.7827,171.0035],[24.9641,66.7831,160.875],[24.9668,66.7965,177.186],[24.9554,66.7969,179.5316],[24.9581,66.8103,189.728],[24.9467,66.8107,212.9918],[24.9494,66.8241,218.4765],[24.9381,66.8245,260.3395],[24.9408,66.8379,272.163],[24.9294,66.8383,250.8698],[24.9321,66.8517,225.7608],[24.9207,66.8521,192.9554],[24.9234,66.8655,135.8107],[24.912,66.8658,133.2256],[24.9147,66.8793,156.9325],[24.9033,66.8797,167.2835],[24.9059,66.8931,174.1228],[24.8946,66.8934,168.8935],[24.8972,66.9069,173.1097],[24.8858,66.9072,152.8384],[24.8885,66.9207,124.257],[24.8771,66.921,178.585],[24.8797,66.9345,144.5565],[24.8683,66.9348,201.5147],[24.8692,66.9393,141.3031],[24.8007,66.9413,167.4651],[24.8016,66.9458,168.2504],[24.7217,66.9481,188.2129],[24.7225,66.9526,196.7724],[24.6312,66.9552,277.8153],[24.632,66.9597,251.5802],[24.5406,66.9622,172.8844],[24.5414,66.9667,178.5131],[24.4614,66.9689,201.5733],[24.4622,66.9734,232.4786],[24.3707,66.9758,195.3265],[24.3715,66.9803,182.5744],[24.2914,66.9824,227.7542],[24.2922,66.9869,210.6226],[24.2006,66.9892,163.4944],[24.2014,66.9937,163.9478],[24.19,66.994,159.7798],[24.1907,66.9985,164.7882],[24.1793,66.9988,161.1885],[24.18,67.0033,170.0908],[24.1686,67.0036,166.5335],[24.1693,67.008,175.0572],[24.0777,67.0103,152.4671],[24.0762,67.0014,132.4344],[24.0075,67.003,124.8933],[24.0082,67.0075,123.6871],[23.9739,67.0084,124.746],[23.9731,67.0039,123.2384],[23.87,67.0063,106.7255],[23.8693,67.0018,122.2548],[23.7777,67.0039,112.3809],[23.777,66.9994,99.0],[23.7885,66.9992,115.3068],[23.7878,66.9947,98.5],[23.7763,66.9949,113.2298],[23.7756,66.9905,104.9325],[23.7985,66.9899,98.0],[23.7978,66.9854,97.5],[23.8093,66.9852,110.3897],[23.8079,66.9762,114.2894],[23.8193,66.9759,96.5],[23.8186,66.9714,96.0],[23.8301,66.9712,110.6863],[23.8287,66.9622,95.0],[23.8401,66.9619,107.7102],[23.8387,66.9529,108.2749],[23.8501,66.9527,93.5],[23.8494,66.9482,98.1457],[23.8609,66.9479,93.0],[23.8602,66.9434,93.0],[23.8716,66.9432,103.2885],[23.8695,66.9297,92.0],[23.8809,66.9294,97.6967],[23.8774,66.907,102.4],[23.8888,66.9067,90.0],[23.8881,66.9022,102.2792],[23.8995,66.9019,89.5],[23.8981,66.893,102.5777],[23.9095,66.8927,99.1527],[23.9088,66.8882,102.559],[23.9202,66.8879,87.5],[23.9195,66.8834,104.21],[23.9309,66.8832,93.4949],[23.9294,66.8742,103.7291],[23.9522,66.8736,95.9256],[23.9501,66.8602,104.3292],[23.9615,66.8599,97.82],[23.96,66.8509,100.8848],[23.9714,66.8506,82.5],[23.97,66.8417,81.5],[23.9814,66.8414,99.752],[23.9799,66.8324,92.0474],[23.9913,66.8321,93.9263],[23.9898,66.8231,88.0716],[24.0012,66.8229,92.535],[23.9998,66.8139,93.654],[24.0111,66.8136,130.8948],[24.0082,66.7957,98.5459],[23.9969,66.7959,96.0964],[23.9933,66.7735,84.4281],[23.9819,66.7738,81.2807],[23.9812,66.7693,78.2897],[23.9698,66.7695,82.7962],[23.9706,66.774,84.0336],[23.9592,66.7743,84.1254],[23.9599,66.7788,83.5406],[23.9486,66.7791,85.1805],[23.9493,66.7836,80.8298],[23.9266,66.7841,85.1035],[23.9223,66.7572,86.6507],[23.8997,66.7577,81.2577],[23.8982,66.7487,82.5292],[23.8869,66.749,69.5],[23.8862,66.7445,68.5],[23.8975,66.7442,81.5267],[23.8947,66.7263,65.5],[23.9061,66.726,72.4693],[23.9047,66.717,77.2597],[23.916,66.7168,76.759],[23.9125,66.6943,164.9764],[23.9011,66.6946,100.6841],[23.8955,66.6586,72.1769],[23.8842,66.6589,73.3356],[23.8794,66.6275,74.7748],[23.8906,66.6272,77.9526],[23.8795,66.5554,87.3512],[23.8684,66.5556,63.0734],[23.8669,66.5467,65.5536],[23.8556,66.5469,63.8768],[23.855,66.5424,63.6133],[23.8437,66.5427,65.0152],[23.843,66.5382,87.7359],[23.8318,66.5385,71.6188],[23.8311,66.534,96.0458],[23.8086,66.5345,65.5595],[23.8045,66.5076,185.6436],[23.7933,66.5078,170.409],[23.7926,66.5033,194.9468],[23.7814,66.5036,191.6651],[23.7807,66.4991,171.7943],[23.7695,66.4994,144.1422],[23.7688,66.4949,130.1928],[23.7576,66.4951,78.6026],[23.7569,66.4907,81.5414],[23.7457,66.4909,73.0957],[23.745,66.4864,79.4671],[23.7338,66.4867,72.1804],[23.7325,66.4777,64.4143],[23.7213,66.478,47.5],[23.7193,66.4645,80.6304],[23.7081,66.4647,48.5921],[23.7074,66.4603,54.1865],[23.685,66.4608,46.0],[23.6843,66.4563,54.7335],[23.6731,66.4565,53.2007],[23.6725,66.452,52.2223],[23.6613,66.4523,50.3874],[23.6548,66.4074,45.0],[23.666,66.4071,46.3045],[23.6647,66.3982,47.9082],[23.6758,66.3979,45.0],[23.6745,66.3889,45.0],[23.6857,66.3887,45.0],[23.6811,66.3572,45.0],[23.67,66.3575,47.4963],[23.6596,66.2856,44.5],[23.6707,66.2854,44.5],[23.6675,66.2629,44.5],[23.6786,66.2627,55.4008],[23.6767,66.2492,55.5991],[23.6878,66.2489,44.5],[23.6865,66.24,44.0],[23.6976,66.2397,44.0],[23.6957,66.2262,43.5],[23.7068,66.226,46.5368],[23.7048,66.2125,52.1923],[23.7159,66.2123,43.0],[23.7153,66.2078,43.0],[23.7264,66.2075,46.1112],[23.7257,66.203,45.5972],[23.7368,66.2028,43.0],[23.7348,66.1893,42.5],[23.7459,66.189,49.4652],[23.7453,66.1846,83.7357],[23.7785,66.1838,42.5],[23.7779,66.1793,82.1606],[23.8001,66.1788,42.0],[23.7994,66.1743,77.48],[23.8105,66.174,60.7581],[23.8098,66.1695,96.3041],[23.8209,66.1693,75.7194],[23.8202,66.1648,85.2902],[23.8424,66.1642,54.2872],[23.8417,66.1598,64.5325],[23.8749,66.159,57.0622],[23.8742,66.1545,52.6286],[23.8964,66.1539,37.2651],[23.8985,66.1674,32.2192],[23.8874,66.1676,30.5],[23.8922,66.1991,48.05],[23.903199999999998,66.1988,57.6509],[23.9039,66.2033,57.6666],[23.9261,66.2028,99.3657],[23.9268,66.2073,74.9808],[23.949,66.2067,75.1133],[23.9497,66.2112,62.6819],[23.983,66.2104,65.3149],[23.9837,66.2149,66.3671],[24.0059,66.2143,82.2855],[24.0066,66.2188,67.219],[24.0288,66.2183,70.7827],[24.0295,66.2227,69.7881],[24.0517,66.2222,73.7895],[24.0524,66.2267,73.0176],[24.0746,66.2261,73.502],[24.0754,66.2306,72.6926],[24.1087,66.2298,86.4094],[24.1094,66.2342,86.7055],[24.1316,66.2337,95.4907],[24.1323,66.2382,90.9642],[24.1545,66.2376,90.5222],[24.1553,66.2421,92.3025],[24.1775,66.2415,92.8478],[24.1782,66.246,97.0466],[24.2116,66.2451,97.0293],[24.2123,66.2496,96.5287],[24.2012,66.2499,94.5345],[24.2019,66.2544,93.5511],[24.1908,66.2547,91.4369],[24.193,66.2681,95.9593],[24.2153,66.2676,97.9995],[24.2145,66.2631,95.5147],[24.2257,66.2628,100.9313],[24.2249,66.2583,105.8546],[24.236,66.258,112.4678],[24.2353,66.2535,102.1708],[24.2575,66.2529,106.0093],[24.2583,66.2574,118.8],[24.2805,66.2568,118.5147],[24.2813,66.2613,128.0695],[24.3146,66.2604,120.7455],[24.3154,66.2649,120.0264],[24.3376,66.2643,120.6662],[24.3384,66.2688,118.4357],[24.3606,66.2682,122.1604],[24.3614,66.2727,130.2238],[24.3947,66.2718,137.4051],[24.3955,66.2763,138.9679],[24.4177,66.2757,137.1861],[24.4185,66.2801,134.8143],[24.4408,66.2795,125.1348],[24.4416,66.284,121.6637],[24.4638,66.2834,120.5812],[24.4646,66.2879,126.185],[24.498,66.287,132.5354],[24.4988,66.2915,130.1884],[24.521,66.2908,119.8065],[24.5218,66.2953,118.4141],[24.5441,66.2947,127.5557],[24.5449,66.2992,115.2012],[24.5783,66.2982,118.9344],[24.5791,66.3027,122.1316],[24.6013,66.3021,137.863],[24.6022,66.3066,135.7034],[24.6244,66.3059,157.3142],[24.6252,66.3104,148.1985],[24.6475,66.3098,147.4645],[24.6483,66.3143,154.4486],[24.6817,66.3133,136.4876],[24.6826,66.3178,143.5574],[24.7048,66.3171,147.0612],[24.7057,66.3216,139.6433],[24.7279,66.321,145.0658],[24.7288,66.3254,146.1718],[24.7622,66.3245,132.4249],[24.763,66.329,133.4597],[24.7853,66.3283,139.4287],[24.7862,66.3328,135.1681],[24.7973,66.3325,139.3645],[24.7982,66.3369,135.2526]]]]}
,"properties": {"GID_3": "FIN.2.1.5_1","GID_0": "FIN","country": "Finland","GID_1": "FIN.2_1","province": "Lapland","NL_NAME_1": "NA","GID_2": "FIN.2.1_1","county": "Lapland","NL_NAME_2": "NA","city": "TornioValley","VARNAME_3": "NA","NL_NAME_3": "NA","TYPE_3": "Seutukunta|Ekonomiskregion","ENGTYPE_3": "Sub-Region","CC_3": "NA","HASC_3": "NA","name": "Tornio_Valley.city","area_km2": 4016.793,"hist_schema_id": "Elevation0-9000","hist_area_km2": {"25": 0.66,"50": 122.17,"75": 489.034,"100": 876.312,"125": 836.845,"150": 659.22,"175": 514.624,"200": 260.731,"225": 143.374,"250": 72.006,"275": 30.309,"300": 8.411,"325": 2.691,"350": 0.407}}}