{"type": "Feature","bbox": [25.0056,60.8643,25.2997,61.1167],"geometry": {"type": "MultiPolygon","coordinates": [[[[25.2407,61.1167,166.0352],[25.24,61.1122,171.7167],[25.2307,61.1126,135.5183],[25.23,61.1081,150.2036],[25.2207,61.1084,121.6439],[25.22,61.104,122.0659],[25.2107,61.1043,127.0143],[25.207,61.0819,114.9182],[25.1978,61.0823,132.998],[25.1963,61.0733,102.0],[25.1685,61.0744,102.0],[25.1678,61.0699,102.0],[25.1585,61.0703,102.0],[25.1571,61.0613,102.0],[25.1386,61.062,102.0],[25.1378,61.0575,102.0],[25.1101,61.0586,102.0],[25.1094,61.0541,102.0],[25.0816,61.0551,102.0],[25.0809,61.0507,102.0],[25.0624,61.0514,102.0],[25.0617,61.0469,138.877],[25.0524,61.0472,144.3042],[25.0517,61.0428,152.951],[25.0424,61.0431,155.9262],[25.041,61.0341,144.8688],[25.0318,61.0345,147.9879],[25.0311,61.03,150.4811],[25.0403,61.0297,153.2117],[25.0389,61.0207,141.1095],[25.0481,61.0204,131.7521],[25.0467,61.0114,154.9027],[25.0375,61.0117,156.2677],[25.0368,61.0073,149.6739],[25.0275,61.0076,143.2107],[25.0254,60.9942,142.9671],[25.0439,60.9935,142.0734],[25.0446,60.998,137.4442],[25.0538,60.9976,138.4935],[25.0524,60.9887,124.4282],[25.0616,60.9883,147.0795],[25.0602,60.9794,137.1123],[25.051,60.9797,130.4479],[25.0502,60.9753,118.6587],[25.041,60.9756,123.0833],[25.0396,60.9666,141.9922],[25.0304,60.967,139.9093],[25.0275,60.9491,139.2992],[25.0183,60.9494,128.7832],[25.0155,60.9315,103.5131],[25.0063,60.9318,113.2707],[25.0056,60.9274,113.4587],[25.0793,60.9246,93.7147],[25.0786,60.9201,118.8658],[25.097,60.9194,113.817],[25.0949,60.906,101.9944],[25.1041,60.9057,127.6819],[25.1005,60.8833,97.5046],[25.1097,60.8829,99.0973],[25.1068,60.8651,90.7328],[25.1252,60.8643,84.5554],[25.1317,60.9046,90.5415],[25.1409,60.9043,116.5977],[25.1424,60.9132,124.6993],[25.1516,60.9129,104.5576],[25.1523,60.9174,118.5856],[25.1615,60.917,110.98],[25.1622,60.9215,127.2113],[25.1715,60.9211,99.5595],[25.1736,60.9346,141.822],[25.1829,60.9342,119.2047],[25.1858,60.9521,128.6098],[25.195,60.9518,120.1504],[25.1957,60.9562,145.9373],[25.205,60.9559,121.8902],[25.2057,60.9604,99.3904],[25.2149,60.96,92.2739],[25.215699999999998,60.9645,93.4227],[25.2249,60.9641,105.0062],[25.2256,60.9686,102.5725],[25.2348,60.9683,115.6446],[25.2356,60.9727,119.4678],[25.254,60.972,114.7337],[25.2563,60.9855,145.4899],[25.247,60.9858,157.1415],[25.2478,60.9903,142.5314],[25.2385,60.9906,156.2411],[25.2393,60.9951,135.1778],[25.23,60.9955,149.6618],[25.2315,61.0044,130.694],[25.2223,61.0048,117.1076],[25.223,61.0093,135.1921],[25.2045,61.01,118.298],[25.2053,61.0144,161.7836],[25.2145,61.0141,154.8896],[25.2152,61.0186,164.6418],[25.2337,61.0178,121.3201],[25.233,61.0134,118.5055],[25.2422,61.013,116.6062],[25.2452,61.0309,126.4499],[25.2544,61.0306,118.6296],[25.2552,61.035,114.0195],[25.2644,61.0347,110.2427],[25.2659,61.0436,109.102],[25.2752,61.0433,114.9626],[25.2766,61.0522,142.9261],[25.2859,61.0519,127.5607],[25.2874,61.0608,125.5994],[25.2966,61.0605,124.893],[25.2997,61.0784,110.7508],[25.2904,61.0787,110.8272],[25.2911,61.0832,112.106],[25.2819,61.0836,127.4237],[25.2841,61.097,114.6562],[25.2748,61.0974,103.272],[25.2764,61.1063,121.9349],[25.2671,61.1067,128.7859],[25.2678,61.1111,134.3227],[25.2585,61.1115,136.595],[25.2593,61.116,158.1243],[25.2407,61.1167,166.0352]]]]}
,"properties": {"GID_3": "FIN.5.9.3_1","GID_0": "FIN","country": "Finland","GID_1": "FIN.5_1","province": "WesternFinland","NL_NAME_1": "NA","GID_2": "FIN.5.9_1","county": "TavastiaProper","NL_NAME_2": "NA","city": "Lahti","VARNAME_3": "NA","NL_NAME_3": "NA","TYPE_3": "Seutukunta|Ekonomiskregion","ENGTYPE_3": "Sub-Region","CC_3": "NA","HASC_3": "FI.ES.LT","name": "Lahti.city","area_km2": 195.1165,"hist_schema_id": "Elevation0-9000","hist_area_km2": {"75": 0.8978,"100": 50.8522,"125": 90.5097,"150": 46.8898,"175": 5.9671}}}