{"type": "Feature","id": 86867.0,"bbox": [24.112315300396233,60.341803289837827,24.305186394146233,60.419623114056577],"geometry": {"type": "Polygon","coordinates": [[[24.148570183208733,60.392279364056577,31.5],[24.148570183208733,60.392279364056577,31.5],[24.157115105083733,60.396551824994077,31.5],[24.166270378521233,60.389837957806577,31.5],[24.163828972271233,60.371588446087827,52.8931],[24.153819206646233,60.360968328900327,51.136],[24.149180534771233,60.352789617962827,31.5],[24.152842644146233,60.341803289837827,31.5],[24.164317253521233,60.348761297650327,31.5],[24.172862175396233,60.364630438275327,31.5],[24.179942253521233,60.374640203900327,31.5],[24.211802605083733,60.375555731244077,31.5],[24.240977409771233,60.370123602337827,31.5],[24.257701042583733,60.363714910931577,31.5],[24.277354362896233,60.355841375775327,31.5],[24.291392448833733,60.354254461712827,31.5],[24.301158073833733,60.364264227337827,33.0758],[24.293833855083733,60.377081610150327,57.7367],[24.287364128521233,60.387701727337827,51.41],[24.285411003521233,60.397711492962827,31.5],[24.293955925396233,60.408331610150327,31.5],[24.305186394146233,60.419623114056577,46.6913],[24.292613151958733,60.416876532025327,45.5845],[24.276499870708733,60.409552313275327,69.722],[24.268321159771233,60.401068426556577,52.7783],[24.277354362896233,60.385626532025327,31.5],[24.284190300396233,60.373419500775327,68.169],[24.271006706646233,60.369147039837827,85.3112],[24.262461784771233,60.375555731244077,71.8177],[24.245371941021233,60.382330633587827,56.2665],[24.216319206646233,60.388312078900327,89.8618],[24.179942253521233,60.396246649212827,63.7309],[24.148203972271233,60.403815008587827,83.733],[24.126719597271233,60.409552313275327,53.4844],[24.112315300396233,60.409308172650327,72.8701],[24.122080925396233,60.395270086712827,31.5],[24.139170769146233,60.387701727337827,31.5],[24.148570183208733,60.392279364056577,31.5]]]}
,"properties": {"name": "Hiidenvesi syvnne 90","lge_id": null,"pfafstette": 51.0,"lke_type": "N","altitude": 32,"objectid": 45414,"scalerank": 12,"featurecla": "Lake","note": null,"funkyname": 0,"min_zoom": 7.0,"min_label": 8.0,"area_km2": 23.70227,"hist_schema_id": "Elevation0-9000","hist_area_km2": {"25": 11.99894,"50": 7.04088,"75": 3.99177,"100": 0.67067}}}