{"type":"Feature","properties":{"GID_3":"FIN.4.5.3_1","GID_0":"FIN","country":"Finland","GID_1":"FIN.4_1","province":"SouthernFinland","NL_NAME_1":"NA","GID_2":"FIN.4.5_1","county":"Uusimaa","NL_NAME_2":"NA","city":"Lohja","VARNAME_3":"NA","NL_NAME_3":"NA","TYPE_3":"Seutukunta|Ekonomiskregion","ENGTYPE_3":"Sub-Region","CC_3":"NA","HASC_3":"FI.ES.LJ","name":"Lohja.city"},
"geometry":{"type": "MultiPolygon","coordinates": [[[[24.0782,60.225,55.6042],[24.0818,60.2249,59.0407],[24.0824,60.2294,50.9289],[24.1185,60.2283,52.5597],[24.119,60.2327,37.7421],[24.1281,60.2325,40.7552],[24.1371,60.2322,61.3129],[24.1365,60.2277,34.0379],[24.1456,60.2274,35.2135],[24.145,60.2229,23.6064],[24.154,60.2227,59.7491],[24.1546,60.2271,24.3397],[24.1636,60.2269,39.1523],[24.1642,60.2314,26.2817],[24.1732,60.2311,29.9561],[24.1738,60.2355,43.8646],[24.1828,60.2353,55.2661],[24.184,60.2442,81.7369],[24.193,60.2439,63.4125],[24.1936,60.2484,83.8297],[24.2026,60.2481,68.459],[24.2032,60.2526,76.5937],[24.2122,60.2523,65.0437],[24.2134,60.2613,66.665],[24.2495,60.2602,83.8223],[24.2501,60.2646,71.497],[24.2591,60.2643,67.1067],[24.2597,60.2688,83.2504],[24.2688,60.2685,56.0],[24.2699,60.2775,62.1676],[24.279,60.2772,41.1278],[24.2802,60.2862,60.2516],[24.2892,60.2859,33.2867],[24.2898,60.2904,46.2817],[24.2988,60.2901,73.4225],[24.2994,60.2945,54.0205],[24.3085,60.2943,77.0332],[24.3079,60.2898,62.0677],[24.3169,60.2895,79.1659],[24.3157,60.2805,69.7193],[24.3248,60.2802,42.5969],[24.3236,60.2713,74.9801],[24.3326,60.271,90.0231],[24.3314,60.262,56.9839],[24.3405,60.2617,88.112],[24.3387,60.2483,38.855],[24.3568,60.2477,57.4249],[24.3574,60.2522,63.1101],[24.3664,60.2519,52.4753],[24.367,60.2563,61.097],[24.376,60.2561,46.2232],[24.3778,60.2695,62.0667],[24.3869,60.2692,64.166],[24.3881,60.2781,63.503],[24.3971,60.2779,57.3666],[24.3977,60.2823,65.8616],[24.4068,60.282,74.8847],[24.4074,60.2865,69.1391],[24.4164,60.2862,74.7192],[24.4176,60.2952,81.6723],[24.4357,60.2946,77.8515],[24.4363,60.2991,82.8254],[24.4544,60.2985,93.3005],[24.4538,60.294,74.9235],[24.4809,60.2931,93.6584],[24.4797,60.2841,86.1341],[24.5159,60.2829,57.5851],[24.5177,60.2963,100.2043],[24.5087,60.2966,97.7778],[24.5112,60.3145,99.8538],[24.5021,60.3149,72.8709],[24.5033,60.3238,76.8629],[24.5305,60.3229,99.2294],[24.5299,60.3184,79.1159],[24.557,60.3175,100.517],[24.5564,60.313,86.4527],[24.5655,60.3127,90.1047],[24.5661,60.3172,101.2734],[24.5842,60.3166,102.1504],[24.5848,60.321,83.7833],[24.5939,60.3207,104.242],[24.5945,60.3252,107.701],[24.6035,60.3249,90.9447],[24.6048,60.3339,96.7464],[24.6139,60.3335,92.4331],[24.6164,60.3515,99.2045],[24.6255,60.3512,89.5311],[24.628,60.3691,63.238],[24.6189,60.3694,48.9332],[24.6202,60.3783,68.9079],[24.6111,60.3787,41.2677],[24.6124,60.3876,82.1988],[24.6033,60.3879,57.3773],[24.6046,60.3969,58.5983],[24.5955,60.3972,71.8012],[24.5962,60.4017,86.0776],[24.5871,60.402,81.3696],[24.5903,60.4244,78.1927],[24.5812,60.4247,66.2001],[24.5843,60.4471,98.5879],[24.5753,60.4474,99.4307],[24.5765,60.4564,117.1222],[24.5674,60.4567,114.6597],[24.5693,60.4701,106.4087],[24.542,60.471,64.7026],[24.5427,60.4755,83.121],[24.5336,60.4758,92.6617],[24.5348,60.4848,114.8948],[24.5439,60.4845,98.0223],[24.5446,60.489,101.1997],[24.5537,60.4887,115.3154],[24.5549,60.4976,121.1373],[24.564,60.4973,101.7876],[24.5646,60.5018,96.712],[24.5737,60.5015,93.1127],[24.5744,60.506,97.341],[24.5835,60.5056,107.7608],[24.5841,60.5101,89.6308],[24.6023,60.5095,124.9277],[24.603,60.514,104.7215],[24.6121,60.5137,100.4277],[24.6127,60.5181,86.5],[24.6491,60.5169,130.8764],[24.6498,60.5214,89.4189],[24.6407,60.5217,86.5],[24.6413,60.5262,114.4649],[24.6322,60.5265,121.5816],[24.6335,60.5354,109.4574],[24.6244,60.5358,117.2269],[24.625,60.5402,115.654],[24.6159,60.5405,118.2268],[24.6165,60.545,121.0038],[24.6074,60.5453,134.0667],[24.6081,60.5498,136.0115],[24.5989,60.5501,129.2887],[24.6002,60.5591,125.3658],[24.5911,60.5594,126.0601],[24.593,60.5728,91.0139],[24.5839,60.5732,89.6946],[24.5852,60.5821,102.3571],[24.576,60.5824,115.9037],[24.5754,60.5779,87.9728],[24.5663,60.5783,96.2156],[24.565,60.5693,107.686],[24.5559,60.5696,117.623],[24.5546,60.5606,117.3734],[24.5364,60.5613,102.498],[24.5358,60.5568,112.0958],[24.4902,60.5583,140.4213],[24.4896,60.5538,136.1806],[24.444,60.5554,128.3083],[24.4434,60.5509,117.389],[24.4251,60.5515,105.9115],[24.4257,60.556,108.3092],[24.4166,60.5563,117.1905],[24.4178,60.5652,115.8978],[24.4087,60.5655,112.4478],[24.4093,60.57,115.3769],[24.4002,60.5703,111.6651],[24.402,60.5837,126.4523],[24.4112,60.5834,122.1694],[24.4124,60.5924,124.3046],[24.4033,60.5927,126.5315],[24.4039,60.5972,123.3049],[24.3947,60.5975,118.2199],[24.3954,60.602,141.2727],[24.3771,60.6026,141.5045],[24.3777,60.607,130.8847],[24.3594,60.6076,135.2564],[24.3601,60.6121,135.5225],[24.3509,60.6124,149.0335],[24.3503,60.6079,133.9754],[24.3412,60.6082,148.1622],[24.3406,60.6037,138.3093],[24.3314,60.604,144.3472],[24.3308,60.5996,130.2508],[24.3217,60.5998,133.0054],[24.3205,60.5909,135.9212],[24.3114,60.5912,118.6887],[24.3108,60.5867,134.6859],[24.3016,60.587,107.1173],[24.2999,60.5735,131.438],[24.309,60.5732,133.7805],[24.3084,60.5688,118.1157],[24.2902,60.5694,107.9587],[24.2895,60.5649,95.098],[24.2804,60.5652,93.6319],[24.2816,60.5741,134.0632],[24.2725,60.5744,109.8443],[24.2731,60.5789,124.8029],[24.264,60.5792,148.553],[24.2645,60.5837,116.265],[24.2554,60.584,134.3738],[24.256,60.5884,115.4771],[24.2469,60.5887,125.0113],[24.2475,60.5932,104.7496],[24.2383,60.5935,118.4375],[24.2413,60.6159,120.7959],[24.2321,60.6162,136.2664],[24.2327,60.6207,124.8339],[24.1962,60.6218,124.6718],[24.1968,60.6263,134.3507],[24.1602,60.6274,148.0266],[24.1596,60.623,153.6753],[24.1231,60.6241,121.5432],[24.1236,60.6286,123.8131],[24.0779,60.63,147.5047],[24.0785,60.6344,127.2759],[24.0602,60.635,111.0],[24.0608,60.6395,111.0],[24.0516,60.6398,111.0],[24.0522,60.6442,118.6875],[24.0065,60.6456,121.9965],[24.0059,60.6411,127.8267],[23.9876,60.6417,128.315],[23.9871,60.6372,131.7518],[23.9688,60.6377,116.0463],[23.9693,60.6422,138.0254],[23.951,60.6427,115.8998],[23.9516,60.6472,133.2165],[23.9333,60.6478,114.148],[23.9338,60.6522,136.7751],[23.9064,60.653,107.5],[23.9059,60.6486,118.644],[23.8967,60.6488,107.5],[23.8956,60.6399,125.6668],[23.8865,60.6401,114.3807],[23.8854,60.6312,126.2184],[23.8763,60.6314,111.0],[23.8746,60.618,155.6047],[23.8838,60.6177,128.2134],[23.8832,60.6132,141.0606],[23.9015,60.6127,120.6191],[23.901,60.6082,117.5],[23.9192,60.6077,122.7701],[23.9171,60.5898,121.4058],[23.9079,60.59,131.7806],[23.9069,60.5811,130.8553],[23.8977,60.5813,121.5822],[23.8972,60.5768,129.5868],[23.8881,60.5771,126.7072],[23.8859,60.5592,125.0],[23.8677,60.5597,110.0634],[23.8671,60.5552,89.0],[23.8489,60.5557,89.0],[23.8478,60.5468,105.1322],[23.8569,60.5465,114.5118],[23.8553,60.5331,93.0512],[23.8644,60.5328,105.9894],[23.8628,60.5193,123.7733],[23.872,60.5191,119.1437],[23.8698,60.5012,122.0517],[23.8607,60.5014,124.0284],[23.8602,60.4969,127.0521],[23.8329,60.4977,96.3359],[23.8323,60.4932,76.5721],[23.7777,60.4948,85.7246],[23.7772,60.4903,83.634],[23.7407,60.4913,121.3167],[23.7402,60.4868,127.8873],[23.7311,60.4871,120.2006],[23.7306,60.4826,118.5315],[23.7215,60.4829,129.738],[23.7205,60.4739,124.2567],[23.7114,60.4741,129.7415],[23.7093,60.4562,144.1269],[23.7002,60.4565,128.3653],[23.6997,60.452,120.7413],[23.7907,60.4494,87.946],[23.7886,60.4315,87.4995],[23.7976,60.4312,75.9077],[23.7966,60.4223,91.4056],[23.7875,60.4225,73.3894],[23.7865,60.4136,90.1764],[23.7844,60.3956,103.1111],[23.7935,60.3954,88.2888],[23.7924,60.3864,67.5394],[23.7834,60.3867,66.7021],[23.7828,60.3822,86.7052],[23.7738,60.3824,84.4475],[23.7732,60.3779,91.0592],[23.7642,60.3782,96.1881],[23.7636,60.3737,119.3551],[23.7546,60.374,70.7203],[23.754,60.3695,103.5096],[23.7268,60.3703,66.5],[23.7253,60.3568,57.0],[23.7344,60.3566,57.0],[23.7287,60.3072,57.0],[23.7197,60.3075,88.81],[23.7192,60.303,57.0],[23.7101,60.3033,57.0],[23.7096,60.2988,78.1274],[23.7006,60.299,73.7825],[23.7,60.2945,100.6863],[23.6819,60.295,83.3996],[23.6824,60.2995,92.9202],[23.6643,60.3,58.6662],[23.6638,60.2955,57.0],[23.6548,60.2958,80.8317],[23.6543,60.2913,64.3059],[23.6452,60.2915,57.0],[23.6447,60.2871,59.2855],[23.6357,60.2873,80.9204],[23.6347,60.2784,71.8904],[23.6256,60.2786,79.4678],[23.6241,60.2651,84.0394],[23.6332,60.2649,88.8344],[23.6327,60.2604,51.5],[23.6146,60.2609,57.3574],[23.6151,60.2654,96.4366],[23.597,60.2659,30.8322],[23.5965,60.2614,31.2805],[23.5875,60.2616,30.6701],[23.587,60.2571,29.1243],[23.596,60.2569,46.3171],[23.5955,60.2524,38.8133],[23.6136,60.2519,79.7208],[23.6131,60.2475,68.1239],[23.6222,60.2472,78.7616],[23.6217,60.2427,73.0956],[23.6397,60.2422,68.5359],[23.6382,60.2288,72.0249],[23.6473,60.2285,83.9108],[23.6448,60.2061,56.2518],[23.6538,60.2059,78.5455],[23.6533,60.2014,86.633],[23.6443,60.2016,85.9723],[23.6438,60.1971,69.6389],[23.6257,60.1976,50.6446],[23.6252,60.1931,40.5],[23.6162,60.1934,40.5],[23.6152,60.1844,40.5],[23.6062,60.1847,40.5],[23.6047,60.1712,71.3202],[23.6228,60.1707,71.7103],[23.6223,60.1662,68.4328],[23.6403,60.1657,73.0711],[23.6408,60.1702,71.5417],[23.6678,60.1695,61.5486],[23.6684,60.174,71.5274],[23.7134,60.1727,37.3242],[23.7129,60.1682,65.3184],[23.74,60.1675,69.4638],[23.7405,60.172,72.3718],[23.7495,60.1717,75.1011],[23.75,60.1762,62.9617],[23.768,60.1757,55.7444],[23.7686,60.1802,31.0],[23.7776,60.1799,31.0],[23.7781,60.1844,31.0],[23.7871,60.1841,31.0],[23.7876,60.1886,31.0],[23.8147,60.1879,42.4708],[23.8152,60.1923,31.0],[23.8242,60.1921,57.8259],[23.8248,60.1966,31.0],[23.8338,60.1963,46.5754],[23.8333,60.1918,61.5971],[23.8603,60.191,68.2825],[23.8608,60.1955,54.0588],[23.8789,60.195,66.2315],[23.8794,60.1995,31.0],[23.9065,60.1987,31.0],[23.9017,60.1583,43.5138],[23.9107,60.1581,68.1068],[23.9096,60.1491,57.9848],[23.9186,60.1488,65.6195],[23.9181,60.1444,69.5472],[23.9271,60.1441,56.0666],[23.9266,60.1396,57.1157],[23.9356,60.1393,62.6262],[23.935,60.1348,52.9099],[23.9441,60.1346,47.9701],[23.9435,60.1301,59.652],[23.9705,60.1293,69.4423],[23.9711,60.1338,54.0132],[24.0161,60.1324,53.1802],[24.0166,60.1369,46.7238],[24.0346,60.1364,31.9862],[24.0357,60.1453,41.4674],[24.0448,60.1451,45.3592],[24.0453,60.1495,33.3551],[24.0183,60.1503,63.5967],[24.0227,60.1862,45.3082],[24.0137,60.1865,40.5884],[24.0142,60.191,36.7477],[24.0232,60.1907,31.395],[24.0243,60.1997,67.3082],[24.0333,60.1994,73.1326],[24.0339,60.2039,64.7248],[24.0429,60.2036,62.492],[24.0435,60.2081,54.0776],[24.0525,60.2078,72.8429],[24.0536,60.2168,51.9382],[24.0626,60.2165,58.1304],[24.0632,60.221,54.3381],[24.0722,60.2207,68.4213],[24.0728,60.2252,56.8613],[24.0782,60.225,55.6042]]],
[[[23.6905,60.4513,108.8444],[23.6901,60.4477,111.2128],[23.6992,60.4475,102.3025],[23.6997,60.452,120.7413],[23.6905,60.4513,108.8444]]]]}}