{"type": "Feature","bbox": [26.9543,60.6664,28.4094,61.4053],"geometry": {"type": "MultiPolygon","coordinates": [[[[27.9925,60.6706,39.5236],[27.9983,60.6703,45.7594],[27.998,60.669,45.7347],[28.0001,60.6702,40.0638],[28.0074,60.6697,30.6888],[28.0087,60.6749,37.3311],[28.0652,60.707,37.7915],[28.0721,60.7066,46.3898],[28.0733,60.7114,43.4454],[28.0876,60.7183,57.5181],[28.1032,60.7289,34.6805],[28.1119,60.7332,56.6785],[28.1456,60.742,33.1235],[28.1494,60.7449,57.9937],[28.162,60.7634,35.9034],[28.1746,60.7758,33.0],[28.1826,60.7768,37.3651],[28.1835,60.7801,40.7875],[28.1873,60.782,43.5383],[28.2409,60.7868,50.0584],[28.2422,60.792,49.7442],[28.2493,60.7989,57.619],[28.2535,60.7996,42.3686],[28.254,60.8017,50.883],[28.2575,60.8039,56.8686],[28.2638,60.8035,31.4453],[28.2651,60.8085,55.8381],[28.2764,60.8162,42.4108],[28.2775,60.8207,53.6865],[28.2318,60.8236,54.3424],[28.233,60.828,55.7042],[28.2421,60.8274,52.0305],[28.2444,60.8363,41.4143],[28.2536,60.8358,53.5457],[28.2559,60.8447,47.234],[28.2467,60.8452,46.8037],[28.2479,60.8497,47.8628],[28.2296,60.8508,55.5066],[28.2307,60.8553,62.4617],[28.2124,60.8564,62.1742],[28.2136,60.8609,70.0916],[28.1952,60.862,53.7555],[28.1941,60.8575,52.2169],[28.1666,60.8592,49.4557],[28.1678,60.8636,51.443],[28.1403,60.8653,47.6443],[28.1414,60.8697,64.5462],[28.1231,60.8708,72.0354],[28.1242,60.8753,67.3826],[28.1059,60.8764,60.3927],[28.107,60.8809,69.1367],[28.0887,60.882,58.9492],[28.0876,60.8775,55.23],[28.0601,60.8792,65.8887],[28.059,60.8747,70.6334],[28.0315,60.8763,71.5216],[28.0326,60.8808,72.1358],[28.0234,60.8813,74.5923],[28.0257,60.8902,77.6777],[28.0348,60.8897,88.925299999999993],[28.0371,60.8986,67.3539],[28.0187,60.8997,70.5241],[28.0176,60.8952,79.7227],[28.0084,60.8958,71.3613],[28.0073,60.8913,64.6361],[27.9982,60.8919,61.8825],[27.997,60.8874,62.5346],[27.9879,60.888,72.0174],[27.9867,60.8835,75.0566],[27.9409,60.8862,83.1511],[27.9398,60.8818,83.0034],[27.9306,60.8823,57.5726],[27.9317,60.8867,75.6697],[27.9042,60.8884,74.0394],[27.9053,60.8928,77.5159],[27.8962,60.8934,70.0248],[27.8995,60.9067,79.1203],[27.8903,60.9073,80.6067],[27.9125,60.9964,79.8632],[27.9033,60.9969,83.1594],[27.9044,61.0014,75.4407],[27.886,61.0025,88.9501],[27.8849,60.998,74.5],[27.8757,60.9985,84.85],[27.8746,60.9941,82.8717],[27.8562,60.9952,74.5],[27.8595,61.0085,84.1962],[27.8687,61.008,81.7127],[27.8732,61.0258,74.5],[27.8916,61.0247,105.6719],[27.8927,61.0292,74.5],[27.948,61.026,104.5224],[27.9491,61.0304,87.428],[27.9399,61.031,79.8088],[27.941,61.0354,104.0429],[27.9318,61.036,103.8325],[27.9329,61.0404,117.6064],[27.9513,61.0393,84.4342],[27.9524,61.0438,93.1704],[27.9617,61.0433,95.9267],[27.9628,61.0477,98.8944],[27.972,61.0472,85.9949],[27.9731,61.0516,84.9481],[27.9823,61.0511,84.5261],[27.9846,61.06,94.9843],[27.9938,61.0595,89.1549],[27.9949,61.0639,100.4735],[28.0042,61.0634,104.8333],[28.0053,61.0678,99.1922],[28.0237,61.0667,72.5],[28.0248,61.0712,96.81],[28.0341,61.0706,99.9192],[28.0352,61.0751,83.2218],[28.0444,61.0746,80.4543],[28.0467,61.0835,84.4172],[28.0559,61.0829,82.1494],[28.0616,61.1052,82.686],[28.0708,61.1046,86.4108],[28.0731,61.1136,72.5],[28.0824,61.113,72.5],[28.0812,61.1086,95.4732],[28.0997,61.1074,72.5],[28.0974,61.0985,72.5],[28.1066,61.098,72.5],[28.1055,61.0935,72.5],[28.1239,61.0924,72.5],[28.1251,61.0969,72.5],[28.1435,61.0958,78.1952],[28.1447,61.1002,72.5],[28.1539,61.0997,80.2667],[28.1574,61.113,72.5],[28.1481,61.1136,72.5],[28.1493,61.1181,72.5],[28.1401,61.1186,72.5],[28.1435,61.132,72.5],[28.1712,61.1303,92.8246],[28.1701,61.1259,72.5],[28.1793,61.1253,89.7254],[28.1781,61.1208,72.5],[28.1874,61.1203,103.0803],[28.1839,61.1069,72.5],[28.1931,61.1064,72.5],[28.192,61.1019,72.5],[28.2012,61.1014,72.5],[28.2024,61.1058,86.7024],[28.2116,61.1053,102.4072],[28.2128,61.1097,89.1133],[28.2404,61.108,80.9566],[28.2428,61.117,85.3979],[28.252,61.1164,93.4819],[28.2543,61.1253,97.3794],[28.2636,61.1247,88.3493],[28.2647,61.1292,85.9347],[28.274,61.1286,94.1007],[28.2751,61.1331,84.6786],[28.3028,61.1314,72.5],[28.3017,61.1269,72.5],[28.3294,61.1253,72.5],[28.3317,61.1341,72.5],[28.341,61.1336,72.5],[28.3433,61.1425,72.5],[28.3526,61.1419,72.5],[28.3549,61.1508,72.5],[28.3642,61.1502,72.5],[28.3653,61.1547,72.5],[28.3746,61.1541,72.5],[28.377,61.163,72.5],[28.3862,61.1625,72.5],[28.3874,61.1669,72.5],[28.3966,61.1664,72.5],[28.3978,61.1708,72.5],[28.4071,61.1702,72.5],[28.4094,61.1791,72.5],[28.3909,61.1803,72.5],[28.3921,61.1847,72.5],[28.3736,61.1859,72.5],[28.3748,61.1903,72.5],[28.3563,61.1915,72.5],[28.3575,61.1959,72.5],[28.3483,61.1965,72.5],[28.3494,61.2009,72.5],[28.3309,61.2021,72.5],[28.3321,61.2065,72.5],[28.3136,61.2076,72.5],[28.3172,61.221,72.5],[28.3079,61.2216,72.5],[28.3114,61.2349,72.5],[28.3022,61.2355,72.5],[28.3045,61.2444,72.5],[28.3138,61.2438,81.2428],[28.3162,61.2527,72.5],[28.3254,61.2522,72.5],[28.3266,61.2566,72.5],[28.3359,61.2561,72.5],[28.3371,61.2605,72.5],[28.3463,61.2599,72.5],[28.3475,61.2644,72.5],[28.3568,61.2638,72.5],[28.358,61.2683,72.5],[28.3673,61.2677,72.5],[28.3685,61.2722,72.5],[28.3777,61.2716,72.5],[28.3789,61.2761,72.5],[28.3882,61.2755,72.5],[28.3906,61.2844,72.5],[28.3999,61.2838,72.5],[28.401,61.2883,72.5],[28.3918,61.2888,72.5],[28.393,61.2933,72.5],[28.3837,61.2939,72.5],[28.3849,61.2983,72.5],[28.3756,61.2989,72.5],[28.378,61.3078,72.5],[28.3687,61.3084,72.5],[28.3699,61.3128,72.5],[28.3606,61.3134,72.5],[28.3618,61.3178,72.5],[28.3525,61.3184,72.5],[28.3549,61.3273,72.5],[28.3363,61.3284,72.5],[28.3375,61.3329,93.8181],[28.3096,61.3346,72.5],[28.3108,61.3391,72.5],[28.3015,61.3396,72.5],[28.3039,61.3485,72.5],[28.2946,61.3491,72.5],[28.2958,61.3535,72.5],[28.2865,61.3541,72.5],[28.2888,61.363,72.5],[28.2795,61.3636,72.5],[28.2807,61.368,89.2329],[28.2714,61.3686,72.5],[28.2726,61.373,89.5342],[28.2633,61.3736,72.5],[28.2645,61.3781,72.5],[28.2365,61.3797,92.193],[28.2354,61.3753,72.5],[28.2167,61.3764,72.5],[28.2156,61.3719,72.5],[28.1877,61.3736,72.5],[28.1865,61.3692,72.5],[28.1679,61.3703,72.5],[28.1667,61.3658,72.5],[28.1481,61.3669,72.5],[28.1469,61.3625,72.5],[28.1097,61.3647,72.5],[28.1086,61.3602,72.5],[28.0899,61.3613,72.5],[28.0888,61.3569,72.5],[28.0702,61.358,72.5],[28.069,61.3535,72.5],[28.0132,61.3568,72.5],[28.0121,61.3523,72.5],[27.9562,61.3556,72.5],[27.9551,61.3511,72.5],[27.9272,61.3528,72.5],[27.9261,61.3483,72.5],[27.8237,61.3542,72.5],[27.8248,61.3587,72.5],[27.7876,61.3608,72.5],[27.7887,61.3652,72.5],[27.7328,61.3684,72.5],[27.7317,61.3639,72.5],[27.7131,61.365,72.5],[27.712,61.3605,93.1625],[27.6934,61.3616,72.5],[27.6923,61.3571,88.5689],[27.6643,61.3587,86.3824],[27.6633,61.3542,72.5],[27.626,61.3563,92.8112],[27.6249,61.3518,72.5],[27.5597,61.3555,105.5011],[27.5608,61.3599,115.13],[27.5329,61.3615,101.9699],[27.534,61.3659,112.6898],[27.506,61.3675,105.8008],[27.5071,61.3719,88.418],[27.4884,61.3729,96.5],[27.4895,61.3774,105.5468],[27.4522,61.3794,102.2751],[27.4533,61.3839,84.3977],[27.416,61.3859,124.8277],[27.4171,61.3904,106.7529],[27.3798,61.3924,118.8576],[27.3808,61.3969,107.0413],[27.2222,61.4053,96.5067],[27.2212,61.4008,117.916],[27.1652,61.4038,95.3099],[27.1621,61.3904,102.1917],[27.1528,61.3909,90.0],[27.1498,61.3775,92.6233],[27.1404,61.378,85.3629],[27.1384,61.369,80.5],[27.0918,61.3714,105.3184],[27.0928,61.3759,103.9082],[27.0741,61.3769,129.3548],[27.0752,61.3813,125.2033],[27.0192,61.3842,108.5381],[27.0182,61.3797,119.6546],[27.0089,61.3802,120.7749],[27.0079,61.3758,106.7748],[26.9985,61.3762,103.9766],[26.9975,61.3718,108.5043],[26.9882,61.3722,105.6413],[26.9872,61.3678,110.8697],[26.9779,61.3683,114.2265],[26.9759,61.3593,132.6784],[26.9666,61.3598,117.4135],[26.9656,61.3554,84.5],[26.9563,61.3558,84.5],[26.9543,61.3469,82.5],[27.0009,61.3445,110.1799],[27.0019,61.349,85.6879],[27.0205,61.348,90.8012],[27.0215,61.3525,83.5],[27.0401,61.3515,83.5],[27.0391,61.3471,83.5],[27.0578,61.3461,83.5],[27.0567,61.3417,83.5],[27.0754,61.3407,83.5],[27.0744,61.3362,83.5],[27.093,61.3353,119.9385],[27.092,61.3308,83.5],[27.1106,61.3298,98.4199],[27.1096,61.3254,103.5172],[27.1282,61.3244,97.1176],[27.1272,61.3199,83.0],[27.1458,61.319,83.0],[27.1478,61.3279,81.5],[27.1851,61.3259,96.0133],[27.1861,61.3304,102.0515],[27.2047,61.3294,100.4199],[27.2057,61.3339,85.5],[27.2337,61.3324,102.9443],[27.2326,61.3279,113.9308],[27.2606,61.3265,93.8028],[27.2575,61.3131,104.5048],[27.2296,61.3146,118.6122],[27.2306,61.319,103.7028],[27.2213,61.3195,96.2318],[27.2192,61.3106,130.9147],[27.2285,61.3101,119.4078],[27.2275,61.3056,118.2872],[27.274,61.3032,98.0738],[27.273,61.2987,92.5892],[27.2916,61.2977,87.2708],[27.2905,61.2933,87.3683],[27.2998,61.2928,104.7122],[27.2977,61.2838,87.3398],[27.307,61.2834,92.5099],[27.3039,61.27,96.2942],[27.3132,61.2695,99.2317],[27.3122,61.265,101.1519],[27.3214,61.2645,91.1857],[27.3204,61.26,99.5349],[27.3297,61.2595,83.4825],[27.3286,61.2551,86.9314],[27.3379,61.2546,83.6296],[27.3369,61.2501,85.9168],[27.3462,61.2496,83.5784],[27.3441,61.2407,86.5274],[27.3255,61.2417,89.254],[27.3214,61.2239,83.0055],[27.3306,61.2234,86.388],[27.3296,61.2189,82.2344],[27.3389,61.2184,89.2556],[27.3378,61.2139,80.8372],[27.3564,61.2129,89.3245],[27.3553,61.2085,93.1684],[27.3739,61.2075,84.7816],[27.376,61.2164,78.6029],[27.3852,61.2159,85.3412],[27.3831,61.207,79.0398],[27.3924,61.2065,96.2859],[27.3914,61.202,78.5691],[27.3821,61.2025,87.3909],[27.3811,61.198,80.3751],[27.3718,61.1986,79.4871],[27.3707,61.1941,79.6389],[27.3615,61.1946,79.9735],[27.3583,61.1812,82.4946],[27.3676,61.1807,84.3504],[27.3666,61.1762,87.1759],[27.3573,61.1767,99.9747],[27.3562,61.1723,104.5723],[27.3377,61.1733,100.7406],[27.3367,61.1688,96.0909],[27.3089,61.1703,95.3676],[27.3099,61.1748,106.0309],[27.2914,61.1758,126.6516],[27.2904,61.1713,102.2314],[27.2811,61.1718,110.0637],[27.2801,61.1673,97.0],[27.2708,61.1678,97.0],[27.2698,61.1634,119.5463],[27.2142,61.1663,127.5687],[27.2102,61.1485,122.7089],[27.2194,61.148,126.8418],[27.2163,61.1346,127.5339],[27.2071,61.1351,123.5212],[27.2061,61.1306,117.4035],[27.1968,61.1311,107.1742],[27.1948,61.1222,106.7762],[27.1855,61.1227,110.0646],[27.1815,61.1048,102.6224],[27.1999,61.1039,97.0],[27.201,61.1083,97.0],[27.2102,61.1078,116.1751],[27.2092,61.1034,97.0],[27.2184,61.1029,114.7097],[27.2174,61.0984,125.7572],[27.2267,61.0979,107.2663],[27.2256,61.0934,118.3219],[27.2349,61.093,110.2903],[27.2338,61.0885,97.5],[27.2061,61.09,122.1359],[27.2051,61.0855,108.88],[27.1866,61.0865,110.4025],[27.1856,61.082,111.9662],[27.1764,61.0825,114.4776],[27.1754,61.078,117.7672],[27.1661,61.0785,120.5005],[27.1641,61.0696,96.7488],[27.1549,61.0701,92.0926],[27.1488,61.0433,122.4843],[27.158,61.0428,126.3496],[27.155,61.0294,112.3885],[27.1642,61.029,121.6967],[27.1632,61.0245,107.3378],[27.154,61.025,120.0527],[27.152,61.0161,95.6687],[27.1428,61.0165,89.3444],[27.1418,61.0121,83.0],[27.151,61.0116,100.1318],[27.15,61.0071,83.0],[27.1592,61.0066,83.0],[27.1582,61.0022,113.237],[27.1858,61.0007,117.6338],[27.1868,61.0052,106.251],[27.2053,61.0042,86.081],[27.2032,60.9953,114.2809],[27.2124,60.9948,77.3052],[27.2114,60.9903,74.7575],[27.2207,60.9898,72.8274],[27.2176,60.9765,85.6417],[27.2268,60.976,91.343],[27.2258,60.9715,82.0007],[27.2534,60.97,102.802],[27.2524,60.9656,73.0],[27.2432,60.966,80.0814],[27.2422,60.9616,82.4206],[27.233,60.9621,64.5],[27.2319,60.9576,79.973],[27.2135,60.9586,91.5112],[27.2125,60.9541,83.7281],[27.1941,60.9551,71.181],[27.1931,60.9506,82.0089],[27.1747,60.9516,63.0],[27.1757,60.9561,81.7327],[27.1573,60.9571,80.9373],[27.1583,60.9615,83.1985],[27.1399,60.9625,67.7291],[27.1409,60.967,80.6205],[27.1317,60.9674,86.7944],[27.1287,60.9541,73.0],[27.1379,60.9536,84.8486],[27.1369,60.9491,88.5163],[27.1461,60.9486,86.7555],[27.1451,60.9442,87.7712],[27.1543,60.9437,93.4389],[27.1533,60.9392,83.7486],[27.1625,60.9387,108.5691],[27.1615,60.9343,83.2798],[27.1707,60.9338,85.8676],[27.1697,60.9293,76.0],[27.1789,60.9288,79.6988],[27.1779,60.9244,78.2058],[27.1871,60.9239,79.7607],[27.186,60.9194,78.0062],[27.1952,60.9189,86.2527],[27.1942,60.9145,82.7477],[27.2034,60.914,74.8869],[27.2024,60.9095,96.1918],[27.2116,60.909,116.0813],[27.2106,60.9046,116.4493],[27.2381,60.9031,85.4236],[27.2371,60.8986,77.8474],[27.3106,60.8947,100.2773],[27.3095,60.8902,69.0063],[27.3463,60.8882,97.5932],[27.3452,60.8838,100.7456],[27.3728,60.8823,89.6952],[27.3717,60.8778,109.9022],[27.3809,60.8773,95.4298],[27.3799,60.8728,110.325],[27.389,60.8723,118.3795],[27.387,60.8634,92.5022],[27.3961,60.8629,92.5922],[27.3951,60.8585,88.4386],[27.4043,60.858,79.682],[27.403199999999998,60.8535,92.1586],[27.4124,60.853,84.5158],[27.4114,60.8485,79.3806],[27.4205,60.848,82.0241],[27.4195,60.8436,68.6943],[27.4287,60.8431,75.3055],[27.4276,60.8386,73.3178],[27.4368,60.8381,82.9901],[27.4357,60.8336,84.994],[27.4449,60.8331,89.665],[27.4439,60.8287,79.9433],[27.453,60.8282,85.4342],[27.4509,60.8192,79.1717],[27.4693,60.8182,63.7108],[27.4682,60.8138,83.2722],[27.4774,60.8132,64.1312],[27.4763,60.8088,82.2833],[27.4946,60.8078,80.6658],[27.4936,60.8033,90.2898],[27.5027,60.8028,75.1301],[27.5017,60.7984,62.7174],[27.5474,60.7958,67.3452],[27.5485,60.8002,82.4117],[27.5759,60.7987,69.7132],[27.577,60.8032,70.5239],[27.5953,60.8021,67.171],[27.5964,60.8066,69.2343],[27.6879,60.8014,73.3659],[27.6868,60.797,66.0068],[27.7142,60.7954,57.456],[27.711,60.782,63.6285],[27.7202,60.7815,70.9243],[27.718,60.7726,73.4351],[27.7271,60.772,79.2685],[27.725,60.7631,58.726],[27.7433,60.7621,65.2476],[27.7422,60.7576,55.5],[27.7696,60.756,62.856],[27.7707,60.7605,72.3514],[27.7798,60.76,66.7554],[27.7809,60.7644,66.3718],[27.79,60.7639,61.5684],[27.7911,60.7683,49.4017],[27.8551,60.7646,44.8564],[27.8529,60.7557,36.7794],[27.862,60.7552,58.6021],[27.8576,60.7374,30.0],[27.8667,60.7368,59.6995],[27.8657,60.7324,49.7509],[27.8748,60.7318,69.1955],[27.8726,60.7229,46.2575],[27.8817,60.7224,54.6916],[27.8795,60.7135,59.3321],[27.8886,60.7129,52.9099],[27.8875,60.7085,37.5],[27.8967,60.708,58.1395],[27.8945,60.699,50.2271],[27.9036,60.6985,29.7841],[27.9025,60.694,29.0],[27.9298,60.6924,37.8504],[27.9287,60.688,29.0],[27.9561,60.6864,20.5],[27.9539,60.6775,25.2408],[27.963,60.6769,20.5],[27.9618,60.6725,20.5],[27.9527,60.673,27.3719],[27.9516,60.6685,29.7657],[27.9881,60.6664,28.3028],[27.9892,60.6708,30.0166],[27.9925,60.6706,39.5236]]]]}
,"properties": {"GID_3": "FIN.4.4.3_1","GID_0": "FIN","country": "Finland","GID_1": "FIN.4_1","province": "SouthernFinland","NL_NAME_1": "NA","GID_2": "FIN.4.4_1","county": "SouthKarelia","NL_NAME_2": "NA","city": "WesternSaimaa","VARNAME_3": "NA","NL_NAME_3": "NA","TYPE_3": "Seutukunta|Ekonomiskregion","ENGTYPE_3": "Sub-Region","CC_3": "NA","HASC_3": "NA","name": "Western_Saimaa.city","area_km2": 3330.073,"hist_schema_id": "Elevation0-9000","hist_area_km2": {"25": 41.164,"50": 299.042,"75": 1534.931,"100": 1167.512,"125": 283.018,"150": 4.406}}}