{"type":"Feature","properties":{"GID_3":"FIN.3.2.2_1","GID_0":"FIN","country":"Finland","GID_1":"FIN.3_1","province":"Oulu","NL_NAME_1":"NA","GID_2":"FIN.3.2_1","county":"NorthernOstrobothnia","NL_NAME_2":"NA","city":"Nivala-Haapajärvi","VARNAME_3":"NA","NL_NAME_3":"NA","TYPE_3":"Seutukunta|Ekonomiskregion","ENGTYPE_3":"Sub-Region","CC_3":"NA","HASC_3":"FI.OU.NH","name":"Nivala-Haapajärvi.city"},
"geometry":{"type": "MultiPolygon","coordinates": [[[[25.2375,63.6085,142.4767],[25.2476,63.6082,145.9364],[25.2484,63.6126,143.1632],[25.2585,63.6123,149.3883],[25.2577,63.6078,148.5618],[25.2778,63.6071,138.4322],[25.277,63.6026,137.9175],[25.2971,63.6019,135.576],[25.2963,63.5974,128.4032],[25.3063,63.597,127.7493],[25.3055,63.5926,126.7531],[25.3256,63.5918,127.7331],[25.3248,63.5873,124.2277],[25.3449,63.5866,124.2439],[25.3441,63.5821,133.119],[25.3541,63.5818,124.6079],[25.3533,63.5773,132.4118],[25.3734,63.5765,149.6061],[25.3726,63.5721,122.8475],[25.3826,63.5717,142.5445],[25.3818,63.5672,126.1413],[25.4019,63.5665,139.4845],[25.401,63.562,125.4894],[25.4111,63.5617,134.6591],[25.4103,63.5572,125.4415],[25.4203,63.5568,133.7103],[25.4195,63.5523,132.6902],[25.4396,63.5516,138.0479],[25.4387,63.5471,135.2082],[25.4487,63.5467,140.3366],[25.4479,63.5423,139.2412],[25.468,63.5415,148.3336],[25.4671,63.537,147.2803],[25.4772,63.5367,149.8512],[25.4763,63.5322,147.5267],[25.5064,63.5311,146.5805],[25.5056,63.5266,139.0],[25.7363,63.5177,152.5206],[25.7355,63.5133,148.709],[25.7555,63.5125,152.3907],[25.7546,63.508,143.2092],[25.7747,63.5072,152.2792],[25.7738,63.5027,139.2925],[25.7938,63.5019,154.8024],[25.7929,63.4975,148.5351],[25.813,63.4967,144.5976],[25.8121,63.4922,143.0201],[25.8221,63.4918,146.3023],[25.8203,63.4829,151.9823],[25.8303,63.4825,153.162],[25.8294,63.478,154.7772],[25.8394,63.4776,154.2387],[25.8385,63.4731,154.899],[25.8485,63.4727,169.0382],[25.8476,63.4682,156.9171],[25.8576,63.4678,178.184],[25.8567,63.4634,169.7807],[25.8667,63.463,180.4739],[25.8649,63.454,161.4632],[25.8749,63.4536,161.6678],[25.874,63.4491,158.2794],[25.884,63.4487,159.8173],[25.8831,63.4443,157.5216],[25.8931,63.4439,164.9507],[25.8921,63.4394,154.5268],[25.9321,63.4378,161.8169],[25.9312,63.4333,157.4922],[26.0112,63.43,179.2979],[26.0121,63.4345,179.5761],[26.0321,63.4337,185.1162],[26.0331,63.4381,181.3821],[26.0531,63.4373,179.8771],[26.054,63.4418,179.0521],[26.074,63.441,166.7979],[26.075,63.4454,170.5691],[26.085,63.445,164.4256],[26.0859,63.4495,167.9031],[26.1059,63.4487,166.8713],[26.1069,63.4531,168.5948],[26.1269,63.4523,175.2125],[26.1278,63.4568,178.8726],[26.1378,63.4563,182.0476],[26.1388,63.4608,170.9698],[26.1488,63.4604,166.8367],[26.1507,63.4693,153.1629],[26.1607,63.4689,160.4613],[26.1636,63.4823,162.8551],[26.1736,63.4819,161.0396],[26.1755,63.4909,154.4485],[26.1855,63.4904,150.3711],[26.203,63.5709,196.3734],[26.213,63.5705,184.5875],[26.214,63.575,175.998],[26.224,63.5745,176.3003],[26.225,63.579,166.0622],[26.2451,63.5782,182.8655],[26.2461,63.5826,189.3238],[26.2661,63.5818,195.7512],[26.2671,63.5863,192.2599],[26.2872,63.5854,185.4269],[26.2882,63.5899,179.1266],[26.2983,63.5894,180.1765],[26.2992,63.5939,173.133],[26.2892,63.5943,183.4335],[26.2941,63.6167,173.2044],[26.2841,63.6171,174.2957],[26.289,63.6395,169.4073],[26.2789,63.6399,169.2881],[26.2838,63.6623,144.6765],[26.2738,63.6627,150.5257],[26.2787,63.685,144.916],[26.2686,63.6855,155.034],[26.2736,63.7078,154.4899],[26.2635,63.7083,159.4012],[26.2684,63.7306,127.8483],[26.2583,63.731,133.4967],[26.2632,63.7534,142.7849],[26.2531,63.7538,137.7055],[26.258,63.7762,152.1652],[26.2479,63.7766,147.2557],[26.2519,63.7945,141.9075],[26.2418,63.7949,162.296],[26.2447,63.8083,163.8506],[26.2346,63.8088,170.4702],[26.2365,63.8177,161.5547],[26.2264,63.8181,164.4925],[26.2284,63.8271,164.4734],[26.2183,63.8275,167.4382],[26.2192,63.832,164.8076],[26.2294,63.8316,161.5824],[26.2304,63.836,149.596],[26.2405,63.8356,142.2305],[26.2563,63.9072,153.1612],[26.2462,63.9076,148.9815],[26.2551,63.9478,181.4027],[26.2449,63.9482,151.0924],[26.2469,63.9572,147.1465],[26.2367,63.9576,138.9082],[26.2377,63.9621,138.4258],[26.2275,63.9625,135.3412],[26.2295,63.9715,136.3496],[26.2193,63.9719,134.095],[26.2203,63.9764,140.6249],[26.2101,63.9768,136.7342],[26.2111,63.9813,140.8674],[26.2009,63.9817,139.6385],[26.2029,63.9906,138.4798],[26.1927,63.9911,138.0775],[26.1937,63.9955,138.4446],[26.1835,63.9959,141.9542],[26.1845,64.0004,146.9453],[26.1743,64.0008,142.4565],[26.1753,64.0053,139.9829],[26.1651,64.0058,136.8486],[26.1661,64.0102,137.035],[26.1559,64.0106,140.048],[26.1568,64.0151,137.1453],[26.1467,64.0155,129.9592],[26.1457,64.0111,135.1853],[26.1253,64.0119,128.3985],[26.1262,64.0164,124.6475],[26.1058,64.0172,121.5236],[26.1068,64.0217,122.6184],[26.0966,64.0221,122.7344],[26.0995,64.0355,122.4342],[26.0893,64.0359,121.4865],[26.0903,64.0404,128.6709],[26.0698,64.0412,122.0503],[26.0708,64.0457,127.232],[26.0504,64.0465,128.0573],[26.0514,64.051,132.6896],[26.0411,64.0514,138.5253],[26.0421,64.0559,130.5434],[26.0217,64.0567,134.2872],[26.0226,64.0612,131.8682],[26.0022,64.062,135.9803],[26.0031,64.0665,133.9249],[25.9827,64.0673,134.3967],[25.9837,64.0718,133.3266],[25.9223,64.0742,121.4768],[25.9232,64.0787,128.0609],[25.9028,64.0795,125.2201],[25.9037,64.084,127.1549],[25.873,64.0852,138.7899],[25.874,64.0897,128.6737],[25.8433,64.0909,115.9875],[25.8442,64.0954,117.1115],[25.8237,64.0962,111.4256],[25.8247,64.1006,110.3398],[25.8042,64.1014,108.8132],[25.8051,64.1059,108.6802],[25.7846,64.1067,107.6882],[25.7856,64.1112,107.0826],[25.7753,64.1116,106.3275],[25.7744,64.1071,108.7196],[25.7642,64.1075,107.3767],[25.7632,64.103,109.0237],[25.753,64.1034,110.5181],[25.7521,64.099,115.3146],[25.7316,64.0997,113.3592],[25.7307,64.0953,115.107],[25.7204,64.0957,109.9863],[25.7195,64.0912,115.5337],[25.6991,64.092,118.1072],[25.6981,64.0875,121.6908],[25.6879,64.0879,127.4015],[25.687,64.0834,121.395],[25.6461,64.085,102.9629],[25.6452,64.0805,111.312],[25.6554,64.0801,110.7696],[25.6545,64.0756,118.0427],[25.6647,64.0752,113.3438],[25.6638,64.0708,123.5192],[25.6741,64.0704,120.6361],[25.6731,64.0659,131.3287],[25.6834,64.0655,125.3426],[25.6816,64.0565,120.3631],[25.6713,64.0569,116.6899],[25.6704,64.0525,119.0155],[25.6602,64.0528,130.0305],[25.6593,64.0484,116.1737],[25.6491,64.0488,120.2726],[25.6482,64.0443,115.8588],[25.638,64.0447,118.1564],[25.6371,64.0402,128.0378],[25.6269,64.0406,124.3707],[25.6259,64.0361,125.1763],[25.6157,64.0365,116.3107],[25.6131,64.0231,110.2614],[25.5722,64.0246,101.9062],[25.5713,64.0201,104.511],[25.5611,64.0205,98.3903],[25.5602,64.016,101.7599],[25.5806,64.0153,109.7671],[25.5797,64.0108,112.1528],[25.6002,64.01,99.2965],[25.601,64.0145,109.8962],[25.6215,64.0137,114.7378],[25.6206,64.0092,114.9472],[25.6308,64.0089,109.0891],[25.6299,64.0044,113.2663],[25.6197,64.0048,120.074],[25.6188,64.0003,112.0261],[25.5984,64.0011,103.318],[25.5975,63.9966,94.1046],[25.5873,63.997,93.0091],[25.5864,63.9925,101.7242],[25.5966,63.9921,96.5783],[25.5957,63.9876,98.958],[25.6059,63.9873,94.7218],[25.6032,63.9738,122.6985],[25.593,63.9742,133.5299],[25.5939,63.9787,116.5518],[25.5837,63.9791,122.738],[25.5855,63.988,102.487],[25.5753,63.9884,110.3168],[25.5762,63.9929,104.8451],[25.5456,63.994,124.5947],[25.5447,63.9896,124.9766],[25.5345,63.9899,128.2235],[25.5327,63.981,138.5365],[25.5429,63.9806,140.0078],[25.542,63.9761,137.1092],[25.5522,63.9757,135.9226],[25.5514,63.9713,135.6261],[25.5616,63.9709,136.0007],[25.5607,63.9664,137.2815],[25.5709,63.966,132.7437],[25.57,63.9615,127.5636],[25.5598,63.9619,140.4128],[25.5562,63.944,135.0223],[25.5461,63.9444,136.9535],[25.5417,63.922,139.2462],[25.3686,63.9284,137.3255],[25.3695,63.9328,126.3264],[25.3593,63.9332,126.4832],[25.3601,63.9377,121.8556],[25.35,63.9381,129.7149],[25.3508,63.9425,125.6456],[25.3406,63.9429,122.0643],[25.3415,63.9474,118.0116],[25.3313,63.9478,121.923],[25.3321,63.9522,110.842],[25.322,63.9526,124.2232],[25.3228,63.9571,119.7452],[25.3126,63.9574,115.6398],[25.3135,63.9619,124.0924],[25.3032,63.9623,111.9996],[25.3041,63.9668,118.4686],[25.2837,63.9675,116.5455],[25.2845,63.972,110.4509],[25.2743,63.9723,103.5834],[25.2752,63.9768,111.4585],[25.265,63.9772,108.6685],[25.2658,63.9816,116.354],[25.2556,63.982,108.955],[25.2565,63.9865,105.9077],[25.2463,63.9868,106.8163],[25.2471,63.9913,111.4826],[25.2369,63.9917,108.3585],[25.2377,63.9962,129.1984],[25.2275,63.9965,121.6927],[25.2283,64.001,121.5636],[25.2181,64.0014,125.7209],[25.219,64.0058,129.0899],[25.2088,64.0062,131.4726],[25.2096,64.0107,127.5993],[25.1994,64.011,131.843],[25.2002,64.0155,138.9548],[25.19,64.0159,130.2341],[25.1908,64.0203,126.8802],[25.201,64.02,136.5299],[25.2035,64.0334,129.0941],[25.1933,64.0338,121.3818],[25.1941,64.0383,128.8043],[25.1839,64.0386,129.9976],[25.1847,64.0431,129.6042],[25.195,64.0427,133.0327],[25.1966,64.0517,135.4989],[25.1762,64.0524,134.8567],[25.1753,64.0479,130.6462],[25.1549,64.0486,128.9362],[25.1508,64.0262,108.1069],[25.1303,64.0269,114.0611],[25.1311,64.0314,119.2073],[25.1209,64.0318,123.5748],[25.1217,64.0362,117.4302],[25.1013,64.0369,122.8948],[25.1021,64.0414,117.5457],[25.0919,64.0418,110.8112],[25.0927,64.0463,113.9199],[25.0723,64.047,114.9172],[25.0731,64.0514,108.8622],[25.0628,64.0518,117.5802],[25.0636,64.0563,113.4317],[25.0432,64.057,118.3818],[25.044,64.0614,113.8696],[25.0337,64.0618,119.4798],[25.0346,64.0663,124.1119],[25.0243,64.0666,119.0536],[25.0235,64.0621,116.5561],[25.0133,64.0625,116.0742],[25.0117,64.0535,119.6246],[25.0014,64.0538,109.1946],[24.9998,64.0449,108.9307],[24.9896,64.0452,110.402],[24.988,64.0363,110.9979],[24.9778,64.0366,109.345],[24.9762,64.0277,118.0278],[24.966,64.028,114.4083],[24.9644,64.019,110.8568],[24.9542,64.0194,111.1064],[24.9518,64.0059,108.3135],[24.9416,64.0063,104.8998],[24.94,63.9973,105.8041],[24.9298,63.9977,100.7594],[24.9283,63.9887,102.9294],[24.918,63.989,98.155],[24.9173,63.9846,97.4223],[24.8867,63.9856,100.3163],[24.8874,63.99,106.0904],[24.8772,63.9904,97.3847],[24.8764,63.9859,97.963],[24.856,63.9866,83.8655],[24.8552,63.9821,88.2867],[24.8451,63.9824,76.2784],[24.8443,63.9779,75.4729],[24.8137,63.9789,71.5135],[24.8144,63.9834,70.4353],[24.794,63.9841,69.2995],[24.7948,63.9885,68.2371],[24.7641,63.9895,68.204],[24.7634,63.9851,67.3969],[24.7532,63.9854,70.7267],[24.7524,63.9809,70.3173],[24.7422,63.9812,70.4912],[24.7407,63.9723,77.0698],[24.7305,63.9726,71.9902],[24.7275,63.9547,71.3879],[24.7071,63.9553,78.2371],[24.7078,63.9598,80.4927],[24.6466,63.9617,108.3656],[24.6474,63.9662,105.6068],[24.6372,63.9665,112.8422],[24.635,63.9531,108.451],[24.6452,63.9527,106.6299],[24.6437,63.9438,95.2043],[24.6743,63.9428,93.3135],[24.6728,63.9339,85.1969],[24.6626,63.9342,86.2205],[24.6618,63.9297,84.937],[24.6822,63.9291,85.2806],[24.6815,63.9246,86.6002],[24.7426,63.9226,88.7831],[24.7418,63.9182,91.4663],[24.752,63.9178,96.3412],[24.7505,63.9089,108.3268],[24.7607,63.9086,99.8924],[24.76,63.9041,106.8729],[24.7701,63.9037,114.7257],[24.7694,63.8993,116.5431],[24.7796,63.8989,118.8358],[24.7788,63.8944,120.5481],[24.7992,63.8938,109.7489],[24.7984,63.8893,118.534],[24.8086,63.889,118.3395],[24.8078,63.8845,118.0414],[24.8281,63.8838,113.9286],[24.8258,63.8704,110.7561],[24.8157,63.8707,112.1825],[24.8149,63.8662,112.4097],[24.8251,63.8659,111.5046],[24.8243,63.8614,112.0977],[24.8345,63.8611,112.6175],[24.8352,63.8656,110.6396],[24.8861,63.8639,114.145],[24.8853,63.8594,113.9017],[24.8954,63.8591,113.8407],[24.8947,63.8546,116.6745],[24.915,63.854,114.5075],[24.9142,63.8495,122.8802],[24.9244,63.8491,116.3332],[24.9228,63.8402,121.9721],[24.933,63.8398,116.3494],[24.9306,63.8264,126.3562],[24.9408,63.826,124.1249],[24.94,63.8216,126.89],[24.9603,63.8209,129.4702],[24.9587,63.8119,128.6902],[24.9689,63.8116,133.5271],[24.9532,63.722,146.1195],[24.9431,63.7223,147.1212],[24.9346,63.6731,138.0166],[24.8942,63.6744,144.7418],[24.8949,63.6789,144.3026],[24.8647,63.6799,139.9404],[24.8654,63.6844,146.6235],[24.8452,63.685,148.9491],[24.846,63.6895,148.1134],[24.8258,63.6902,147.0578],[24.8265,63.6947,144.9636],[24.7962,63.6957,140.5468],[24.797,63.7001,142.7745],[24.7768,63.7008,142.0701],[24.7775,63.7053,139.4847],[24.7472,63.7062,125.4125],[24.7479,63.7107,139.3153],[24.7378,63.7111,125.6646],[24.7371,63.7066,128.2461],[24.727,63.7069,129.8003],[24.7255,63.6979,128.7233],[24.7154,63.6982,131.7204],[24.7146,63.6938,134.8585],[24.7045,63.6941,129.9],[24.7038,63.6896,129.8979],[24.6937,63.6899,133.7902],[24.6922,63.681,130.1864],[24.6821,63.6813,127.3285],[24.6814,63.6768,135.6253],[24.6713,63.6771,134.7247],[24.6705,63.6726,135.0869],[24.6605,63.673,131.9736],[24.659,63.664,143.5049],[24.6489,63.6643,142.145],[24.6474,63.6554,143.593],[24.6373,63.6557,145.8575],[24.6366,63.6512,140.8704],[24.6265,63.6515,136.0746],[24.6258,63.647,135.2012],[24.646,63.6464,141.2421],[24.6452,63.6419,149.7783],[24.6553,63.6416,143.1841],[24.6546,63.6371,143.196],[24.6748,63.6365,152.1857],[24.674,63.632,158.6641],[24.6942,63.6314,149.7445],[24.6935,63.6269,150.2078],[24.7136,63.6262,150.5684],[24.7129,63.6217,150.9972],[24.733,63.6211,143.8568],[24.7323,63.6166,148.896],[24.7424,63.6163,138.1476],[24.7416,63.6118,150.4607],[24.7618,63.6112,144.158],[24.761,63.6067,138.38],[24.7711,63.6064,144.8935],[24.7704,63.6019,137.5137],[24.7905,63.6012,133.7353],[24.7898,63.5968,137.2704],[24.7998,63.5964,134.0069],[24.7991,63.5919,130.8595],[24.8192,63.5913,128.1653],[24.8185,63.5868,130.938],[24.8285,63.5865,130.0399],[24.8278,63.582,131.2466],[24.8378,63.5817,131.9114],[24.8363,63.5727,135.7297],[24.8464,63.5724,128.586],[24.8456,63.5679,131.7068],[24.8557,63.5676,130.8059],[24.8549,63.5631,132.9092],[24.865,63.5627,129.6382],[24.8642,63.5583,132.9534],[24.8743,63.5579,130.3506],[24.8727,63.549,136.6462],[24.8828,63.5486,134.0106],[24.882,63.5442,137.5887],[24.8921,63.5438,138.4214],[24.8913,63.5393,141.5841],[24.9014,63.539,143.1816],[24.8998,63.53,147.1134],[24.9099,63.5297,144.0426],[24.9091,63.5252,164.997],[24.9192,63.5249,150.7431],[24.9184,63.5204,155.2478],[24.9284,63.5201,152.2171],[24.9277,63.5156,154.4896],[24.9377,63.5153,151.356],[24.9369,63.5108,165.672],[24.947,63.5104,161.7532],[24.9462,63.506,163.527],[24.9562,63.5056,162.8363],[24.9555,63.5011,163.6674],[24.9655,63.5008,160.912],[24.9647,63.4963,162.2395],[24.9748,63.496,164.3446],[24.974,63.4915,164.9704],[24.984,63.4912,168.6428],[24.9832,63.4867,169.2638],[24.9933,63.4863,171.4941],[24.9925,63.4819,172.859],[25.0025,63.4815,172.8692],[25.0017,63.477,170.69],[25.0118,63.4767,174.9408],[25.011,63.4722,171.4277],[25.021,63.4719,182.4337],[25.0202,63.4674,180.0115],[25.0302,63.467,175.1569],[25.0287,63.4581,170.8551],[25.0487,63.4574,168.1351],[25.0495,63.4619,167.1649],[25.0695,63.4612,173.5355],[25.0703,63.4657,173.0425],[25.0804,63.4653,173.4536],[25.0812,63.4698,168.2113],[25.0912,63.4695,172.8167],[25.0936,63.4829,178.3204],[25.1036,63.4825,186.7261],[25.106,63.496,182.4016],[25.116,63.4956,182.7148],[25.1232,63.5359,157.218],[25.1332,63.5356,154.5963],[25.1405,63.5759,144.2006],[25.1505,63.5755,133.6884],[25.1513,63.58,134.8411],[25.1614,63.5797,134.359],[25.1622,63.5841,135.4439],[25.1722,63.5838,141.8162],[25.1731,63.5883,135.5249],[25.1932,63.5876,141.0949],[25.194,63.592,143.8624],[25.2041,63.5917,140.3289],[25.2049,63.5961,142.1767],[25.2149,63.5958,149.9672],[25.2158,63.6003,134.4],[25.2258,63.5999,152.0792],[25.2266,63.6044,144.6075],[25.2367,63.604,146.9154],[25.2375,63.6085,142.4767]]]]}}