{"type":"Feature","properties":{"GID_3":"FIN.1.1.1_1","GID_0":"FIN","country":"Finland","GID_1":"FIN.1_1","province":"EasternFinland","NL_NAME_1":"NA","GID_2":"FIN.1.1_1","county":"NorthKarelia","NL_NAME_2":"NA","city":"Ilomantsi","VARNAME_3":"NA","NL_NAME_3":"NA","TYPE_3":"Seutukunta|Ekonomiskregion","ENGTYPE_3":"Sub-Region","CC_3":"NA","HASC_3":"FI.IS.IM","name":"Ilomantsi.city"},
"geometry":{"type": "MultiPolygon","coordinates": [[[[31.0478,62.4006,145.8282],[31.0495,62.405,150.9031],[31.0567,62.4045,151.5142],[31.0638,62.4085,161.4305],[31.0702,62.4079,172.7585],[31.0723,62.4135,166.1009],[31.0774,62.4165,170.5315],[31.0831,62.416,168.1754],[31.086,62.4216,161.0657],[31.0927,62.4232,161.9205],[31.1011,62.4304,166.3651],[31.1341,62.4455,170.3911],[31.1627,62.4528,144.0],[31.1697,62.459,144.0],[31.1831,62.4855,144.0],[31.1879,62.4851,144.0],[31.1918,62.4953,144.0],[31.2298,62.5071,147.2596],[31.2471,62.526,144.0],[31.2526,62.5256,144.0],[31.2602,62.5453,156.3635],[31.2625,62.5458,148.3101],[31.2615,62.5472,149.7323],[31.2687,62.5516,157.4651],[31.2723,62.5513,155.7453],[31.275,62.5584,167.5474],[31.3182,62.6069,155.8213],[31.3231,62.6065,154.6442],[31.3279,62.618899999999996,156.9073],[31.3365,62.6282,150.3185],[31.3413,62.6278,149.5905],[31.3454,62.6385,149.6923],[31.3484,62.6421,149.2029],[31.3533,62.6451,151.4605],[31.3577,62.6447,149.843],[31.3604,62.6518,148.4766],[31.3746,62.6627,160.9059],[31.3803,62.6749,147.7855],[31.3835,62.6877,153.5031],[31.4187,62.7509,183.4927],[31.4243,62.7575,184.5402],[31.43,62.7722,166.0075],[31.435,62.7803,159.8124],[31.4394,62.7821,165.0295],[31.4549,62.7816,168.8848],[31.4612,62.7835,155.476],[31.4635,62.7879,172.916],[31.458,62.7965,172.155],[31.4588,62.8011,165.2871],[31.4951,62.8311,192.2955],[31.4978,62.8353,192.7169],[31.5111,62.8465,178.0447],[31.516,62.8461,189.3582],[31.5187,62.853,170.365],[31.5257,62.859,166.3224],[31.5309,62.8586,166.0415],[31.5338,62.8659,164.5464],[31.5618,62.8905,179.6458],[31.5708,62.9004,181.5901],[31.5775,62.9004,177.4789],[31.5828,62.9137,175.3146],[31.5761,62.9153,174.9877],[31.5685,62.9282,184.8862],[31.5704,62.9329,192.051],[31.5638,62.9335,196.1002],[31.5615,62.9358,198.2634],[31.5624,62.9381,199.3093],[31.5583,62.9385,196.5473],[31.5542,62.9417,197.6056],[31.5562,62.9478,210.0275],[31.5491,62.9483,223.3778],[31.5407,62.9593,203.7356],[31.542,62.9626,185.3408],[31.5377,62.9629,191.2327],[31.5334,62.9663,186.2962],[31.534,62.9678,197.74],[31.5298,62.9691,188.4657],[31.5291,62.973,192.7157],[31.5127,62.9901,215.4263],[31.5136,62.9922,204.5697],[31.5104,62.9925,206.8342],[31.5045,62.9986,182.9638],[31.4966,63.0003,175.7535],[31.4976,63.0026,181.0299],[31.4872,63.0035,182.5121],[31.479,63.0064,180.762],[31.4798,63.0086,177.9263],[31.4604,63.0105,186.3012],[31.4621,63.0146,184.9601],[31.4561,63.0155,182.7708],[31.4592,63.0228,182.5506],[31.4575,63.0286,185.9967],[31.4593,63.033,185.7004],[31.4521,63.0336,193.3017],[31.45,63.035,203.1471],[31.4513,63.0382,193.7232],[31.4409,63.0391,188.5959],[31.415,63.0485,178.0],[31.4157,63.0502,178.0],[31.4024,63.0513,186.4308],[31.3876,63.0549,186.3095],[31.38,63.0618,188.1116],[31.3818,63.0666,187.8172],[31.3765,63.067,191.6916],[31.3736,63.0713,189.4208],[31.3658,63.077,206.5699],[31.3473,63.0814,205.8909],[31.3479,63.0829,208.1962],[31.3387,63.0837,207.9841],[31.3188,63.0889,197.3817],[31.3054,63.0947,191.3583],[31.3028,63.0964,191.3854],[31.3042,63.1,196.2946],[31.2968,63.1006,190.2359],[31.279,63.113,204.4948],[31.2801,63.1156,220.253],[31.2761,63.1159,216.6106],[31.2718,63.1204,214.579],[31.2737,63.1252,206.0009],[31.2667,63.1258,199.8127],[31.2647,63.1279,194.8063],[31.2656,63.1304,194.321],[31.2623,63.1307,190.6722],[31.2586,63.1356,188.9436],[31.2627,63.1489,197.4498],[31.2577,63.1495,199.1741],[31.259,63.1781,189.5331],[31.2544,63.1867,197.4554],[31.2422,63.1998,195.9013],[31.2407,63.1961,194.2634],[31.2309,63.1969,200.202],[31.2292,63.1925,205.6466],[31.1997,63.1948,242.1872],[31.198,63.1903,225.5474],[31.1686,63.1926,240.6318],[31.1669,63.1882,229.5063],[31.1472,63.1897,248.9217],[31.1455,63.1853,246.0122],[31.116,63.1876,253.1011],[31.1143,63.1832,241.7561],[31.0849,63.1854,219.758],[31.0832,63.181,210.6811],[31.0636,63.1825,216.1248],[31.0619,63.1781,220.7469],[31.0422,63.1796,227.0702],[31.0405,63.1752,216.325],[31.0209,63.1767,213.2743],[31.0192,63.1723,206.6638],[30.9996,63.1738,180.7527],[30.9979,63.1693,176.7362],[30.9783,63.1708,193.4996],[30.9766,63.1664,194.7527],[30.9668,63.1672,175.1413],[30.9651,63.1627,181.4181],[30.9553,63.1635,187.0297],[30.9519,63.1546,181.994],[30.9421,63.1554,181.2749],[30.9387,63.1465,160.885],[30.9289,63.1473,163.6483],[30.9256,63.1384,156.4594],[30.9158,63.1392,148.184],[30.9124,63.1303,149.4971],[30.8928,63.1318,164.7837],[30.8912,63.1274,155.6159],[30.8813,63.1281,156.7218],[30.8797,63.1237,157.8354],[30.8601,63.1252,170.9568],[30.8584,63.1208,172.8076],[30.8388,63.1222,172.1021],[30.8371,63.1178,163.417],[30.8273,63.1185,168.1044],[30.8257,63.1141,157.9602],[30.8061,63.1156,156.3255],[30.8044,63.1112,152.7078],[30.7946,63.1119,153.7014],[30.793,63.1075,156.3445],[30.7734,63.109,155.5235],[30.7717,63.1045,151.0059],[30.7521,63.106,151.8757],[30.7505,63.1016,151.5768],[30.7407,63.1023,152.0981],[30.739,63.0979,151.2682],[30.7195,63.0993,152.8396],[30.7178,63.0949,152.3632],[30.6982,63.0964,153.1093],[30.6966,63.0919,152.5332],[30.6868,63.0927,154.0161],[30.6852,63.0882,165.9753],[30.6264,63.0926,167.399],[30.6247,63.0882,163.3308],[30.6149,63.0889,166.9002],[30.6133,63.0845,157.8677],[30.6035,63.0852,163.4484],[30.6019,63.0807,154.86],[30.5921,63.0815,164.8297],[30.5905,63.077,164.3431],[30.5807,63.0778,162.0089],[30.5775,63.0689,173.4511],[30.5677,63.0696,166.3264],[30.5644,63.0608,169.7044],[30.5546,63.0615,168.8517],[30.553,63.0571,182.4992],[30.5432,63.0578,185.6062],[30.54,63.0489,232.5658],[30.5302,63.0496,200.8171],[30.527,63.0408,193.2845],[30.5173,63.0415,193.1885],[30.5157,63.0371,175.7476],[30.5059,63.0378,179.5004],[30.5027,63.0289,175.9738],[30.4929,63.0296,187.6367],[30.4897,63.0208,170.0987],[30.4701,63.0222,174.4496],[30.4685,63.0178,184.2199],[30.4587,63.0185,185.3222],[30.4572,63.0141,187.9782],[30.4474,63.0148,180.3667],[30.4458,63.0103,195.5412],[30.4262,63.0118,177.4372],[30.4246,63.0073,174.4743],[30.4149,63.008,179.9023],[30.4133,63.0036,181.7952],[30.3937,63.005,186.6154],[30.3921,63.0006,193.833],[30.3726,63.002,232.841],[30.371,62.9976,226.4673],[30.3613,62.9983,206.4246],[30.3597,62.9939,198.0317],[30.3694,62.9931,209.3125],[30.3663,62.9843,171.0404],[30.3761,62.9836,189.9377],[30.3745,62.9791,144.5],[30.3842,62.9784,180.7731],[30.3827,62.974,183.1934],[30.3924,62.9733,177.0972],[30.3909,62.9689,206.7077],[30.4006,62.9682,197.7381],[30.399,62.9637,199.7461],[30.4088,62.963,189.6227],[30.4072,62.9586,192.1094],[30.417,62.9579,197.1622],[30.4154,62.9534,190.95],[30.4251,62.9527,198.7412],[30.4236,62.9483,195.6572],[30.4333,62.9476,186.8446],[30.4301,62.9387,189.9345],[30.4399,62.938,188.4302],[30.4335,62.9203,180.7697],[30.4433,62.9196,177.8138],[30.4417,62.9151,186.1066],[30.4515,62.9144,195.202],[30.4483,62.9056,185.2004],[30.458,62.9049,181.7122],[30.4564,62.9004,167.5],[30.4662,62.8997,167.5],[30.463,62.8909,174.7107],[30.4727,62.8901,172.1851],[30.4664,62.8724,168.9949],[30.4761,62.8717,186.0496],[30.4714,62.8584,142.5767],[30.4811,62.8577,154.0664],[30.4763,62.8444,146.6863],[30.4958,62.843,132.5212],[30.4942,62.8386,154.0217],[30.5039,62.8378,171.5235],[30.5023,62.8334,156.1327],[30.5217,62.832,155.3714],[30.5201,62.8275,146.4353],[30.5299,62.8268,162.0195],[30.5235,62.8091,142.0],[30.5332,62.8084,151.6387],[30.5316,62.804,145.8741],[30.5413,62.8032,153.3221],[30.5397,62.7988,157.8942],[30.5494,62.7981,154.495],[30.5462,62.7892,157.7457],[30.556,62.7885,154.4939],[30.5528,62.7797,168.5811],[30.5625,62.7789,166.784],[30.5513,62.7479,158.5367],[30.561,62.7472,171.8458],[30.5594,62.7428,174.5107],[30.5497,62.7435,168.0586],[30.5434,62.7258,129.9747],[30.5337,62.7265,152.2711],[30.5289,62.7132,162.0917],[30.5193,62.7139,162.4673],[30.5129,62.6962,153.6184],[30.5226,62.6955,151.0065],[30.521,62.6911,152.8072],[30.55,62.6889,165.9916],[30.5484,62.6845,174.0194],[30.5581,62.6838,164.2601],[30.5597,62.6882,182.3553],[30.5887,62.686,166.4585],[30.5855,62.6772,164.5972],[30.5952,62.6764,170.0947],[30.5904,62.6632,151.7557],[30.6,62.6624,166.3483],[30.5921,62.6403,160.3995],[30.6017,62.6396,162.5379],[30.5954,62.6218,175.6008],[30.5857,62.6226,163.9725],[30.5826,62.6137,156.7127],[30.5729,62.6144,146.6976],[30.5745,62.618899999999996,148.5861],[30.5552,62.6203,158.3451],[30.5521,62.6115,160.9863],[30.5424,62.6122,144.9896],[30.5392,62.6033,143.0959],[30.5296,62.604,135.0],[30.528,62.5996,163.2992],[30.5184,62.6003,152.7721],[30.5168,62.5959,134.3835],[30.4879,62.598,129.2129],[30.4816,62.5803,124.3382],[30.472,62.581,139.2874],[30.4673,62.5677,126.2145],[30.4576,62.5684,131.4377],[30.4561,62.564,122.7699],[30.4464,62.5647,122.0373],[30.4449,62.5603,114.9355],[30.4353,62.561,129.4867],[30.4337,62.5566,117.3565],[30.4241,62.5573,137.2479],[30.4225,62.5528,127.9848],[30.4033,62.5543,129.3535],[30.4017,62.5498,129.1619],[30.3921,62.5505,154.0197],[30.3905,62.5461,150.09],[30.4002,62.5454,129.2082],[30.3986,62.541,139.1817],[30.4082,62.5403,120.3141],[30.4067,62.5358,119.9091],[30.397,62.5365,135.7679],[30.3955,62.5321,117.191],[30.4051,62.5314,117.8653],[30.402,62.5225,115.5331],[30.4116,62.5218,115.0028],[30.4101,62.5174,118.6963],[30.4197,62.5167,122.396],[30.4166,62.5078,122.2676],[30.4262,62.5071,122.4836],[30.4246,62.5027,125.733],[30.4342,62.502,130.51],[30.4327,62.4975,126.3047],[30.4423,62.4968,138.6474],[30.4392,62.488,177.753],[30.4488,62.4873,184.0793],[30.4457,62.4784,208.5934],[30.4553,62.4777,208.7863],[30.4537,62.4733,196.4306],[30.5497,62.4661,108.0],[30.5481,62.4617,117.8631],[30.5673,62.4602,108.0],[30.5642,62.4514,108.0],[30.5738,62.4507,108.0],[30.5722,62.4462,122.2522],[30.5818,62.4455,117.7793],[30.5786,62.4367,116.0302],[30.5882,62.4359,108.0],[30.5866,62.4315,112.3248],[30.6058,62.4301,108.0],[30.6042,62.4256,108.0],[30.6138,62.4249,108.0],[30.6122,62.4205,121.4265],[30.6218,62.4198,123.595],[30.6202,62.4153,121.9669],[30.6394,62.4139,116.1246],[30.6378,62.4095,123.8839],[30.6474,62.4087,113.647],[30.6458,62.4043,123.9007],[30.6554,62.4036,116.2257],[30.6538,62.3992,119.0798],[30.6634,62.3984,115.1316],[30.6618,62.394,116.183],[30.6809,62.3925,118.7345],[30.6762,62.3793,112.7883],[30.6857,62.3785,111.062],[30.6842,62.3741,113.2575],[30.6794,62.3608,144.1642],[30.6698,62.3615,143.0247],[30.6667,62.3527,164.3417],[30.6762,62.352,149.6249],[30.6731,62.3431,135.2603],[30.6826,62.3424,155.7394],[30.6794,62.3335,139.6083],[30.689,62.3328,154.8421],[30.6858,62.3239,146.167],[30.6954,62.3232,143.5262],[30.697,62.3276,167.2131],[30.7161,62.3262,146.3918],[30.7176,62.3306,137.3301],[30.7272,62.3299,132.0465],[30.7256,62.3255,135.3883],[30.7352,62.3247,125.593],[30.732,62.3159,131.5419],[30.7415,62.3151,129.8829],[30.7383,62.3063,121.55],[30.7479,62.3056,135.0189],[30.7463,62.3011,120.6865],[30.7558,62.3004,143.2157],[30.7526,62.2915,125.0566],[30.7622,62.2908,135.0805],[30.759,62.282,118.9126],[30.7685,62.2812,147.105],[30.7669,62.2768,114.0],[30.7765,62.2761,140.3135],[30.7733,62.2672,117.0253],[30.7828,62.2665,114.4792],[30.7812,62.2621,126.4329],[30.7908,62.2613,137.8981],[30.7892,62.2569,137.7856],[30.7987,62.2562,122.2772],[30.8053,62.2591,133.4261],[30.8109,62.2633,141.1752],[30.8149,62.2748,130.0685],[30.8423,62.2816,134.2644],[30.8551,62.2882,159.1401],[30.8591,62.2879,182.6814],[30.8611,62.2931,165.1851],[30.891,62.3072,129.0],[30.9136,62.3122,129.0],[30.9398,62.3094,136.5964],[30.9484,62.3127,129.0],[30.9537,62.3169,129.0],[30.9579,62.3166,129.0],[30.9644,62.3343,139.7455],[30.9545,62.3351,146.6624],[30.9437,62.3389,167.1093],[30.9671,62.3523,156.8118],[30.9709,62.352,163.3731],[30.972,62.3551,161.6719],[30.9881,62.3643,181.4729],[30.9949,62.3638,190.091],[30.9971,62.3698,179.5935],[31.042,62.3965,158.5643],[31.0462,62.3962,150.992],[31.0478,62.4006,145.8282]]]]}}