{"type":"Feature","properties":{"GID_3":"FIN.4.4.1_1","GID_0":"FIN","country":"Finland","GID_1":"FIN.4_1","province":"SouthernFinland","NL_NAME_1":"NA","GID_2":"FIN.4.4_1","county":"SouthKarelia","NL_NAME_2":"NA","city":"Imatra","VARNAME_3":"NA","NL_NAME_3":"NA","TYPE_3":"Seutukunta|Ekonomiskregion","ENGTYPE_3":"Sub-Region","CC_3":"NA","HASC_3":"FI.ES.IT","name":"Imatra.city"},
"geometry":{"type": "MultiPolygon","coordinates": [[[[28.7769,61.0809,64.36],[28.7759,61.0774,71.3832],[28.7928,61.087,87.8192],[28.7973,61.0867,91.2863],[28.7982,61.0901,82.9601],[28.809,61.095,42.8234],[28.8139,61.0992,71.7333],[28.8195,61.0988,69.4549],[28.8259,61.1219,64.7332],[28.8289,61.1258,51.5579],[28.8404,61.1315,61.2783],[28.8576,61.1371,89.3929],[28.8676,61.1365,96.5384],[28.8686,61.1401,94.8066],[28.8855,61.1443,50.1464],[28.8978,61.1435,63.0307],[28.8984,61.1458,67.0546],[28.936,61.1456,78.3673],[28.9363,61.1469,81.158],[28.9465,61.1484,88.3554],[28.9541,61.1517,89.8873],[28.9844,61.1771,100.0689],[28.9923,61.1781,93.8393],[29.0064,61.1862,114.68],[29.0133,61.1858,112.5147],[29.0146,61.1902,67.0],[29.0238,61.1896,96.6604],[29.025,61.1937,105.6582],[29.0343,61.1934,92.5014],[29.0353,61.1968,82.4136],[29.066,61.2049,72.3203],[29.0751,61.2043,114.698],[29.0761,61.2077,107.1656],[29.0857,61.2081,79.7724],[29.087,61.2126,75.5191],[29.0962,61.212,79.8216],[29.097,61.2148,84.7199],[29.1005,61.2162,86.9239],[29.1067,61.2158,110.1435],[29.1077,61.2192,96.2008],[29.1195,61.224,102.3531],[29.1278,61.2234,94.418],[29.1292,61.2279,95.7891],[29.1768,61.2473,70.5],[29.1819,61.247,84.7235],[29.1826,61.2496,87.7543],[29.1866,61.2512,82.1906],[29.1924,61.2508,74.4338],[29.1933,61.2538,86.9886],[29.1964,61.2551,70.9749],[29.203,61.2546,69.5],[29.204,61.2581,77.9858],[29.2062,61.2589,86.4243],[29.2135,61.2585,94.629],[29.2146,61.2623,75.4772],[29.2217,61.2668,72.8452],[29.2456,61.2734,55.3728],[29.2489,61.2849,64.7479],[29.2661,61.2957,93.0067],[29.2717,61.2953,73.0244],[29.2735,61.3012,67.4054],[29.302,61.325,108.0172],[29.3088,61.3245,92.1431],[29.3101,61.3291,77.0],[29.3156,61.3331,106.3534],[29.3207,61.3328,113.1861],[29.3226,61.3392,94.3503],[29.3284,61.3441,114.72],[29.3262,61.3466,111.2726],[29.334,61.353,86.966],[29.3431,61.3585,105.8013],[29.3472,61.3582,85.0015],[29.3482,61.3615,90.7859],[29.3634,61.3707,83.0762],[29.3698,61.3702,99.4499],[29.3713,61.3753,79.6923],[29.3937,61.3867,73.6371],[29.3967,61.3903,80.1785],[29.4044,61.3905,107.9305],[29.4056,61.3945,109.0023],[29.432,61.4113,70.8781],[29.439,61.4108,59.6157],[29.4408,61.4167,55.8662],[29.4457,61.4194,66.5774],[29.451,61.4191,57.4602],[29.4522,61.4231,76.395],[29.4596,61.4275,100.6189],[29.463,61.4273,77.8704],[29.4638,61.43,72.1738],[29.4664,61.4316,79.0323],[29.4736,61.4311,77.3477],[29.4754,61.4369,81.7567],[29.5016,61.4533,98.9101],[29.5058,61.4586,91.9354],[29.5051,61.4717,93.4981],[29.5072,61.4786,100.2061],[29.503,61.4789,79.5674],[29.5028,61.4885,68.5],[29.5319,61.4905,68.5],[29.5486,61.4894,98.8196],[29.5493,61.4918,83.603],[29.5643,61.4928,81.5],[29.5779,61.4919,101.2304],[29.5785,61.4938,92.7639],[29.629,61.4977,105.6053],[29.6363,61.5011,105.7704],[29.6522,61.5175,101.5489],[29.6507,61.5218,110.7393],[29.6611,61.5269,104.7371],[29.6649,61.5266,99.5014],[29.6682,61.5325,104.4064],[29.6827,61.539,88.9353],[29.6877,61.5386,83.7587],[29.689,61.5426,78.213],[29.7037,61.5511,89.5865],[29.7106,61.5506,96.1932],[29.7125,61.5568,70.0],[29.7247,61.5636,70.0],[29.7473,61.5724,101.8375],[29.7554,61.6018,90.4533],[29.7736,61.6142,105.3605],[29.7783,61.6139,110.3299],[29.7795,61.6176,97.7808],[29.7905,61.6221,73.2815],[29.7977,61.6305,72.8085],[29.8106,61.6363,78.7641],[29.814,61.6451,86.0853],[29.8204,61.6521,110.584],[29.8273,61.6555,112.5188],[29.8371,61.6641,110.0351],[29.842,61.6638,98.6139],[29.8433,61.6678,105.096],[29.8465,61.6694,113.1298],[29.8637,61.6715,92.0905],[29.8679,61.6846,101.4518],[29.8773,61.684,116.773],[29.8788,61.6888,134.7793],[29.8854,61.6925,116.3896],[29.8895,61.6922,112.0263],[29.8905,61.6953,118.0178],[29.9017,61.7004,103.9096],[29.9061,61.7046,95.6892],[29.9125,61.7041,99.2275],[29.9135,61.7072,96.9732],[29.9297,61.712,112.4495],[29.9342,61.7117,107.9675],[29.9353,61.7152,101.3529],[29.9397,61.718,101.025],[29.9467,61.7197,101.2105],[29.9613,61.7279,117.9618],[29.968,61.7274,111.7503],[29.9694,61.7316,132.0501],[29.9803,61.7356,94.7561],[29.9867,61.7396,83.368],[29.9911,61.7393,81.9777],[29.9921,61.7421,94.1401],[29.9985,61.7458,94.8323],[30.0209,61.7553,84.1222],[30.0251,61.755,98.2876],[30.0259,61.7575,79.5],[30.0299,61.7592,79.5],[30.0359,61.7588,79.5],[30.0371,61.7623,79.5],[30.0507,61.7693,79.5],[30.0573,61.7912,79.5],[30.0582,61.8015,79.5],[30.0629,61.8073,79.5],[30.0798,61.8192,79.5],[30.0846,61.8188,79.5],[30.0855,61.8217,79.5],[30.0887,61.8231,79.5],[30.0954,61.8226,79.5],[30.0969,61.827,79.5],[30.1145,61.8348,79.5],[30.1187,61.8345,79.5],[30.1195,61.8371,79.5],[30.1431,61.8502,79.5],[30.1463,61.8597,79.5],[30.1369,61.8604,79.5],[30.1384,61.8648,79.5],[30.129,61.8655,79.5],[30.1275,61.8611,79.5],[30.1181,61.8618,79.5],[30.1166,61.8574,79.5],[30.0978,61.8587,79.5],[30.0963,61.8543,100.8548],[30.0869,61.855,79.5],[30.0854,61.8506,79.5],[30.0666,61.8519,111.6903],[30.0651,61.8475,101.4713],[30.0557,61.8482,121.7764],[30.0542,61.8437,115.6685],[30.0448,61.8444,115.3264],[30.0434,61.84,116.4388],[30.0245,61.8414,93.0507],[30.0231,61.8369,79.5],[30.0137,61.8376,79.5],[30.0122,61.8332,79.5],[30.0028,61.8338,79.5],[30.0013,61.8294,79.5],[29.9919,61.8301,94.4972],[29.9905,61.8256,79.5],[29.9811,61.8263,79.5],[29.9796,61.8219,79.5],[29.9608,61.8232,91.4586],[29.9594,61.8188,79.5],[29.9499,61.8195,79.5],[29.9485,61.8151,89.38],[29.9391,61.8157,79.5],[29.9376,61.8113,79.5],[29.9188,61.8126,108.1077],[29.9174,61.8082,79.5],[29.908,61.8089,79.5],[29.9066,61.8044,79.5],[29.8877,61.8058,79.5],[29.8863,61.8013,79.5],[29.8769,61.802,79.5],[29.8755,61.7976,79.5],[29.8661,61.7983,79.5],[29.8646,61.7938,93.9562],[29.8458,61.7952,79.5],[29.8444,61.7907,90.2083],[29.835,61.7914,94.449],[29.8336,61.7869,88.0086],[29.8242,61.7876,83.7553],[29.8228,61.7832,87.4531],[29.8039,61.7845,90.5003],[29.8025,61.7801,93.5821],[29.7931,61.7807,95.9588],[29.7917,61.7763,110.1657],[29.7823,61.777,111.8905],[29.7809,61.7725,98.7367],[29.7621,61.7739,91.4323],[29.7607,61.7694,89.4674],[29.7513,61.7701,95.7825],[29.7499,61.7657,107.8001],[29.7405,61.7663,105.9156],[29.7391,61.7619,107.0932],[29.7203,61.7632,100.6359],[29.7189,61.7588,105.4678],[29.7095,61.7594,97.1875],[29.7081,61.755,94.2019],[29.6893,61.7563,97.7268],[29.6879,61.7519,96.9025],[29.6785,61.7525,97.5341],[29.6771,61.7481,110.6641],[29.6677,61.7487,103.5046],[29.6663,61.7443,99.8975],[29.6475,61.7456,111.8469],[29.6461,61.7412,100.2403],[29.6367,61.7418,110.6222],[29.6353,61.7374,101.6884],[29.6259,61.738,102.6035],[29.6245,61.7336,104.6817],[29.6057,61.7349,108.8351],[29.6044,61.7305,125.4779],[29.595,61.7311,106.1373],[29.5936,61.7267,104.8755],[29.5748,61.728,110.4052],[29.5734,61.7235,108.1243],[29.564,61.7242,110.37],[29.553,61.6887,92.0365],[29.5436,61.6893,88.5289],[29.5408,61.6804,93.7829],[29.5221,61.6817,113.7433],[29.5207,61.6773,112.4442],[29.5113,61.6779,102.3533],[29.51,61.6735,101.3759],[29.4912,61.6748,105.1183],[29.4898,61.6703,131.1796],[29.4711,61.6716,117.753],[29.4697,61.6672,105.0738],[29.451,61.6685,110.3112],[29.4496,61.664,115.9746],[29.4403,61.6647,109.7387],[29.4389,61.6602,119.083],[29.4295,61.6609,112.4389],[29.4282,61.6564,102.4948],[29.4094,61.6577,114.6815],[29.4081,61.6533,107.1415],[29.3987,61.6539,152.6886],[29.396,61.645,103.3665],[29.3866,61.6457,113.9504],[29.3853,61.6412,106.3425],[29.3759,61.6419,108.2358],[29.3732,61.633,110.969],[29.3638,61.6336,107.7957],[29.3625,61.6292,115.9685],[29.3531,61.6298,103.2337],[29.3504,61.6209,102.6799],[29.3411,61.6216,109.0619],[29.3397,61.6171,106.6976],[29.3304,61.6178,109.177],[29.3277,61.6089,121.8614],[29.3183,61.6095,127.3215],[29.317,61.6051,107.6379],[29.3076,61.6057,103.0586],[29.3049,61.5968,91.7363],[29.2956,61.5974,82.4773],[29.2929,61.5886,102.8142],[29.2835,61.5892,104.1501],[29.2769,61.567,136.1503],[29.2675,61.5676,119.756],[29.2649,61.5587,110.5163],[29.2181,61.5619,141.2579],[29.2168,61.5574,149.0055],[29.1981,61.5587,118.6947],[29.1968,61.5542,137.857],[29.1781,61.5555,109.6287],[29.1768,61.551,115.5684],[29.1581,61.5523,108.9331],[29.1568,61.5478,103.0044],[29.1381,61.5491,106.767],[29.1368,61.5446,108.3344],[29.1181,61.5459,122.2344],[29.1168,61.5414,111.9325],[29.0981,61.5427,129.8816],[29.0968,61.5382,139.2399],[29.0781,61.5394,112.6614],[29.0768,61.535,119.5262],[29.0581,61.5362,117.1123],[29.0568,61.5318,124.1067],[28.9447,61.5391,93.402],[28.9435,61.5347,105.3779],[28.9248,61.5359,113.5188],[28.9235,61.5314,123.7557],[28.9048,61.5327,128.7321],[28.9035,61.5282,122.5082],[28.8381,61.5324,87.9213],[28.8394,61.5369,86.372],[28.8207,61.5381,98.3747],[28.8144,61.5158,116.6167],[28.8237,61.5152,122.0835],[28.8199,61.5019,113.4499],[28.8106,61.5025,115.5912],[28.8093,61.498,136.4822],[28.8,61.4986,109.3592],[28.7937,61.4764,121.1979],[28.7097,61.4818,99.7241],[28.7085,61.4773,107.3411],[28.6991,61.4779,105.5223],[28.6979,61.4734,116.2789],[28.6886,61.474,113.252],[28.6873,61.4696,118.4489],[28.6687,61.4708,113.5077],[28.6674,61.4663,103.9615],[28.5835,61.4716,95.3888],[28.5847,61.4761,89.2798],[28.5287,61.4795,72.5],[28.5312,61.4884,95.007],[28.5218,61.489,102.6299],[28.5255,61.5024,81.2336],[28.5068,61.5035,72.5],[28.508,61.508,72.5],[28.4987,61.5086,72.5],[28.4999,61.513,72.5],[28.4906,61.5136,72.5],[28.4894,61.5091,105.1147],[28.48,61.5097,86.0498],[28.4788,61.5053,105.0811],[28.4694,61.5058,120.7872],[28.4682,61.5014,83.1599],[28.4589,61.502,87.2993],[28.4601,61.5064,72.5],[28.4508,61.507,82.542],[28.452,61.5114,72.5],[28.4426,61.512,72.5],[28.4402,61.5031,88.9754],[28.4309,61.5037,124.9473],[28.426,61.4859,113.6135],[28.4212,61.4681,127.4165],[28.4305,61.4675,100.6071],[28.4269,61.4541,97.0719],[28.4082,61.4553,86.5],[28.4058,61.4464,101.7874],[28.3965,61.4469,107.9579],[28.3953,61.4425,90.0534],[28.3767,61.4436,86.0],[28.3755,61.4392,99.2393],[28.3568,61.4403,86.0],[28.3544,61.431399999999996,93.183],[28.3451,61.432,80.7452],[28.3403,61.4142,72.5],[28.3124,61.4159,72.5],[28.3112,61.4114,72.5],[28.3019,61.412,72.5],[28.2971,61.3942,94.0006],[28.2878,61.3947,72.5],[28.2866,61.3903,72.5],[28.2773,61.3909,72.5],[28.2761,61.3864,72.5],[28.2668,61.387,72.5],[28.2656,61.3825,88.6007],[28.2563,61.3831,72.5],[28.2552,61.3786,72.5],[28.2645,61.3781,72.5],[28.2633,61.3736,72.5],[28.2726,61.373,89.5342],[28.2714,61.3686,72.5],[28.2807,61.368,89.2329],[28.2795,61.3636,72.5],[28.2888,61.363,72.5],[28.2865,61.3541,72.5],[28.2958,61.3535,72.5],[28.2946,61.3491,72.5],[28.3039,61.3485,72.5],[28.3015,61.3396,72.5],[28.3108,61.3391,72.5],[28.3096,61.3346,72.5],[28.3375,61.3329,93.8181],[28.3363,61.3284,72.5],[28.3549,61.3273,72.5],[28.3525,61.3184,72.5],[28.3618,61.3178,72.5],[28.3606,61.3134,72.5],[28.3699,61.3128,72.5],[28.3687,61.3084,72.5],[28.378,61.3078,72.5],[28.3756,61.2989,72.5],[28.3849,61.2983,72.5],[28.3837,61.2939,72.5],[28.393,61.2933,72.5],[28.3918,61.2888,72.5],[28.401,61.2883,72.5],[28.3999,61.2838,72.5],[28.4091,61.2832,72.5],[28.4079,61.2788,72.5],[28.4172,61.2782,72.5],[28.416,61.2738,72.5],[28.4346,61.2726,72.5],[28.4334,61.2682,72.5],[28.4519,61.267,72.5],[28.4507,61.2626,72.5],[28.46,61.262,72.5],[28.4588,61.2575,72.5],[28.4773,61.2564,72.5],[28.4761,61.2519,72.5],[28.4946,61.2508,72.5],[28.4958,61.2552,72.5],[28.5144,61.2541,72.5],[28.5156,61.2585,84.0979],[28.5341,61.2574,72.5],[28.5353,61.2618,85.4006],[28.5446,61.2612,72.5],[28.5458,61.2657,72.5],[28.5551,61.2651,72.5],[28.5563,61.2696,72.5],[28.5656,61.269,72.5],[28.5644,61.2645,72.5],[28.5736,61.264,72.5],[28.5724,61.2595,72.5],[28.5817,61.2589,72.5],[28.5805,61.2545,72.5],[28.599,61.2533,72.5],[28.5978,61.2489,72.5],[28.607,61.2483,72.5],[28.6058,61.2438,72.5],[28.6243,61.2426,72.5],[28.6231,61.2382,72.5],[28.6324,61.2376,72.5],[28.6311,61.2332,72.5],[28.6404,61.2326,72.5],[28.6392,61.2281,72.5],[28.6484,61.2276,72.5],[28.6497,61.232,72.5],[28.6682,61.2308,93.6505],[28.6694,61.2353,72.5],[28.6879,61.2341,72.5],[28.6891,61.2385,72.5],[28.6984,61.2379,72.5],[28.6972,61.2335,72.5],[28.7064,61.2329,72.5],[28.7052,61.2285,90.5269],[28.6867,61.2296,72.5],[28.6854,61.2252,72.5],[28.6762,61.2258,72.5],[28.675,61.2213,72.5],[28.6842,61.2207,72.5],[28.683,61.2163,72.5],[28.7015,61.2151,72.5],[28.7002,61.2107,72.5],[28.7188,61.2095,72.5],[28.715,61.1961,106.8608],[28.7335,61.195,85.8325],[28.7273,61.1727,60.3604],[28.7366,61.1721,62.2754],[28.7292,61.1454,65.8139],[28.7384,61.1448,57.8722],[28.731,61.1181,67.661],[28.7402,61.1175,54.6241],[28.7353,61.0997,49.5488],[28.7445,61.0991,72.4106],[28.7432,61.0947,34.5769],[28.7617,61.0935,59.2978],[28.7604,61.0891,67.5575],[28.7697,61.0885,42.5654],[28.7684,61.084,39.5507],[28.7776,61.0834,69.7135],[28.7769,61.0809,64.36]]]]}}