{"type":"Feature","properties":{"GID_3":"FIN.1.4.3_1","GID_0":"FIN","country":"Finland","GID_1":"FIN.1_1","province":"EasternFinland","NL_NAME_1":"NA","GID_2":"FIN.1.4_1","county":"SouthernSavonia","NL_NAME_2":"NA","city":"Pieksämäki","VARNAME_3":"NA","NL_NAME_3":"NA","TYPE_3":"Seutukunta|Ekonomiskregion","ENGTYPE_3":"Sub-Region","CC_3":"NA","HASC_3":"FI.IS.PM","name":"Pieksämäki.city"},
"geometry":{"type": "MultiPolygon","coordinates": [[[[27.1239,61.966,105.7619],[27.1208,61.9526,99.5],[27.1398,61.9516,104.3336],[27.1387,61.9471,99.5],[27.1482,61.9466,99.5],[27.1472,61.9422,99.5],[27.1567,61.9417,99.5],[27.1556,61.9372,99.5],[27.1651,61.9367,99.5],[27.1641,61.9323,99.5],[27.1736,61.9318,99.5],[27.1725,61.9273,99.5],[27.182,61.9268,99.5],[27.181,61.9224,99.5],[27.1905,61.9219,99.5],[27.1884,61.913,99.5],[27.1978,61.9125,99.5],[27.1968,61.908,99.5],[27.2158,61.907,103.8126],[27.2168,61.9115,107.3408],[27.2453,61.91,118.8912],[27.2463,61.9145,115.8059],[27.2653,61.9135,120.0082],[27.2664,61.9179,126.5374],[27.2853,61.917,131.5051],[27.2864,61.9214,131.7588],[27.3054,61.9204,145.927],[27.3064,61.9249,153.5607],[27.3254,61.9239,137.4858],[27.3265,61.9283,148.0431],[27.3454,61.9273,135.3367],[27.3465,61.9318,134.4427],[27.356,61.9313,134.0495],[27.3603,61.9492,141.6595],[27.3698,61.9487,127.2631],[27.3741,61.9665,115.5517],[27.3646,61.967,120.7153],[27.3668,61.9759,113.0746],[27.3573,61.9764,115.1023],[27.3605,61.9898,105.1683],[27.351,61.9903,105.0283],[27.3532,61.9992,105.3561],[27.3627,61.9987,105.3209],[27.3637,62.0032,105.3214],[27.3733,62.0027,104.9387],[27.3743,62.0072,104.7119],[27.3934,62.0061,105.3605],[27.3988,62.0285,107.6801],[27.3893,62.029,107.5615],[27.3925,62.0423,105.198],[27.383,62.0429,109.6812],[27.3841,62.0473,105.2376],[27.3746,62.0478,109.4622],[27.3767,62.0567,105.0409],[27.3862,62.0562,105.1239],[27.3873,62.0607,106.5442],[27.3969,62.0602,114.1266],[27.3979,62.0647,105.0923],[27.4075,62.0642,105.1044],[27.4064,62.0597,104.8802],[27.4159,62.0592,104.7061],[27.4148,62.0547,104.8765],[27.4244,62.0542,110.8159],[27.4233,62.0498,111.9098],[27.4328,62.0493,116.1701],[27.4317,62.0448,112.2246],[27.4507,62.0438,114.1073],[27.4496,62.0393,113.7374],[27.4592,62.0388,113.1959],[27.4581,62.0343,114.5067],[27.4866,62.0328,120.0421],[27.4877,62.0373,115.5576],[27.5353,62.0347,112.7183],[27.5364,62.0392,114.4329],[27.5935,62.0361,131.4814],[27.5924,62.0316,135.8984],[27.621,62.0301,131.1448],[27.6221,62.0345,124.4692],[27.6411,62.0335,129.4374],[27.6422,62.0379,128.2638],[27.6327,62.0385,128.8532],[27.6338,62.0429,138.5621],[27.6243,62.0434,121.8155],[27.6254,62.0479,127.187],[27.6159,62.0484,119.0],[27.617,62.0529,119.0],[27.6266,62.0524,134.045],[27.6288,62.0613,132.971],[27.6383,62.0608,134.7689],[27.6394,62.0652,131.5134],[27.6299,62.0658,131.1362],[27.631,62.0702,134.8594],[27.6215,62.0707,123.572],[27.6237,62.0796,140.8102],[27.6333,62.0791,141.9937],[27.6344,62.0836,144.2863],[27.6439,62.0831,148.6955],[27.6462,62.092,146.6409],[27.6367,62.0925,136.5018],[27.6378,62.097,146.3888],[27.6282,62.0975,139.2923],[27.6305,62.1064,135.2704],[27.64,62.1059,148.3019],[27.6411,62.1103,150.3185],[27.6316,62.1109,143.458],[27.6361,62.1287,116.8087],[27.6265,62.1292,117.0457],[27.6288,62.1381,114.3928],[27.6192,62.1387,104.0],[27.6215,62.1476,104.0],[27.631,62.1471,104.0],[27.6322,62.1515,106.6876],[27.6131,62.1525,111.8045],[27.6142,62.157,113.1968],[27.5951,62.1581,117.1156],[27.594,62.1536,125.8195],[27.5844,62.1541,107.1717],[27.5833,62.1497,111.2641],[27.5737,62.1502,139.4894],[27.5726,62.1457,102.7893],[27.5631,62.1462,111.6435],[27.5664,62.1596,101.1107],[27.5569,62.1601,99.3506],[27.5602,62.1735,126.6392],[27.5506,62.174,104.2868],[27.554,62.1874,98.0],[27.5444,62.1879,98.0],[27.5455,62.1924,98.0],[27.536,62.1929,98.0],[27.5382,62.2018,98.0],[27.5286,62.2023,98.0],[27.5297,62.2068,98.0],[27.5202,62.2073,98.0],[27.5224,62.2162,98.0],[27.5128,62.2167,98.0],[27.515,62.2256,98.0],[27.5054,62.2262,98.0],[27.5077,62.2351,98.0],[27.5268,62.234,105.9464],[27.5257,62.2296,108.5275],[27.5449,62.2286,96.5041],[27.546,62.233,104.5492],[27.5556,62.2325,98.1816],[27.5578,62.2414,113.8082],[27.5482,62.2419,104.4082],[27.5493,62.2464,104.8677],[27.5397,62.2469,99.0005],[27.5409,62.2514,97.0553],[27.5217,62.2524,108.9773],[27.5239,62.2613,103.5788],[27.5143,62.2618,106.8226],[27.5154,62.2663,105.8658],[27.5059,62.2668,104.941],[27.507,62.2713,105.0675],[27.4974,62.2718,100.7646],[27.4985,62.2762,102.6631],[27.5081,62.2757,105.3441],[27.5092,62.2802,107.755],[27.5188,62.2797,110.6658],[27.5199,62.2841,107.6676],[27.5295,62.2836,107.7894],[27.5306,62.2881,116.4343],[27.5498,62.2871,104.5466],[27.5487,62.2826,100.0863],[27.5679,62.2816,109.6806],[27.569,62.286,117.3854],[27.5786,62.2855,137.1113],[27.5797,62.29,125.6457],[27.5989,62.2889,113.2748],[27.5978,62.2845,109.7729],[27.6074,62.284,124.3172],[27.6063,62.2795,119.7431],[27.6254,62.2785,124.8222],[27.6266,62.2829,129.3174],[27.6458,62.2819,110.4455],[27.6469,62.2863,132.2691],[27.6373,62.2868,118.8662],[27.6384,62.2913,145.4329],[27.6288,62.2918,121.0806],[27.63,62.2963,147.9124],[27.6204,62.2968,120.7299],[27.6215,62.3013,160.2316],[27.6311,62.3008,149.1763],[27.6345,62.3141,132.9575],[27.6441,62.3136,137.0894],[27.6464,62.3225,123.4785],[27.6656,62.3215,173.1636],[27.6667,62.326,179.2132],[27.6763,62.3254,171.0316],[27.6775,62.3299,172.3288],[27.6871,62.3294,150.1146],[27.6905,62.3427,151.6182],[27.6809,62.3433,150.8913],[27.6866,62.3656,136.2228],[27.6962,62.365,137.7336],[27.6973,62.3695,131.4329],[27.6877,62.37,126.0559],[27.6923,62.3879,126.6971],[27.673,62.3889,125.1647],[27.6742,62.3934,139.6152],[27.6646,62.3939,110.6776],[27.6657,62.3983,157.1501],[27.6561,62.3989,109.773],[27.6572,62.4033,154.7203],[27.6476,62.4038,100.3115],[27.6487,62.4083,120.8198],[27.6391,62.4088,109.5896],[27.6402,62.4133,118.9455],[27.6306,62.4138,113.3909],[27.6329,62.4227,111.3165],[27.6136,62.4238,96.5],[27.6147,62.4282,96.5],[27.6051,62.4287,96.5],[27.6062,62.4332,96.5],[27.5966,62.4337,96.5],[27.5977,62.4382,96.5],[27.5881,62.4387,96.5],[27.5892,62.4431,96.5],[27.5795,62.4437,96.5],[27.5807,62.4481,96.5],[27.5614,62.4492,96.5],[27.5625,62.4536,96.5],[27.5432,62.4546,96.5],[27.5443,62.4591,107.371],[27.5057,62.4612,96.5],[27.5068,62.4656,96.5],[27.4682,62.4677,96.5],[27.4693,62.4721,106.0953],[27.4597,62.4726,113.9366],[27.4608,62.4771,121.2171],[27.4511,62.4776,127.2042],[27.4523,62.4821,105.9831],[27.4426,62.4826,99.0],[27.4437,62.487,127.8974],[27.434,62.4876,99.0],[27.4352,62.492,111.1639],[27.4255,62.4925,99.0],[27.4266,62.497,109.8325],[27.4169,62.4975,99.0],[27.418,62.5019,99.0],[27.389,62.5035,99.0],[27.3913,62.5124,99.0],[27.3816,62.5129,99.0],[27.3838,62.5218,99.0],[27.3741,62.5223,99.0],[27.3752,62.5268,99.0],[27.3559,62.5278,99.0],[27.3548,62.5233,99.0],[27.3451,62.5238,99.0],[27.344,62.5194,99.0],[27.3537,62.5189,99.0],[27.3504,62.5055,109.4755],[27.36,62.505,114.505],[27.3589,62.5005,99.0],[27.3493,62.501,113.7966],[27.3482,62.4965,99.0],[27.3385,62.4971,99.0],[27.3374,62.4926,99.0],[27.3181,62.4936,99.0],[27.317,62.4891,99.0],[27.3073,62.4896,99.0],[27.304,62.4762,99.0],[27.2944,62.4767,99.0],[27.2911,62.4633,99.0],[27.2621,62.4648,101.7721],[27.2643,62.4738,99.0],[27.2547,62.4743,111.5709],[27.2557,62.4787,99.0],[27.2171,62.4807,117.0085],[27.216,62.4762,108.6969],[27.2063,62.4767,114.9233],[27.2053,62.4723,114.605],[27.1956,62.4728,113.2917],[27.1913,62.4549,112.8943],[27.1816,62.4554,112.8051],[27.1827,62.4599,107.2061],[27.1731,62.4603,103.6649],[27.1773,62.4782,101.5],[27.158,62.4792,112.571],[27.1591,62.4836,101.5],[27.1494,62.4841,112.416],[27.1505,62.4886,101.5],[27.1408,62.4891,106.9009],[27.1419,62.4935,101.5],[27.1322,62.494,109.414],[27.1333,62.4985,104.9432],[27.1236,62.499,111.1906],[27.1247,62.5034,101.2692],[27.115,62.5039,101.5],[27.1118,62.4905,120.5476],[27.1022,62.491,112.6039],[27.1011,62.4865,124.1775],[27.0818,62.4875,126.3585],[27.0807,62.4831,126.6731],[27.071,62.4835,134.9348],[27.0679,62.4701,139.5549],[27.0292,62.4721,134.7895],[27.028199999999998,62.4676,134.3439],[26.9992,62.469,126.8887],[27.0002,62.4735,133.1788],[26.9906,62.474,128.1671],[26.9916,62.4784,130.5006],[26.9819,62.4789,124.5],[26.983,62.4834,133.3363],[26.9733,62.4839,128.9467],[26.9744,62.4883,132.4799],[26.9647,62.4888,119.2591],[26.9637,62.4843,138.2996],[26.954,62.4848,116.5],[26.9509,62.4714,136.0263],[26.9605,62.4709,152.1202],[26.9595,62.4665,143.654],[26.9691,62.466,146.492],[26.9639,62.4437,119.6279],[26.9446,62.4446,115.7913],[26.9457,62.4491,115.7882],[26.936,62.4496,117.5799],[26.937,62.454,112.4323],[26.9274,62.4545,126.249],[26.9284,62.459,110.5],[26.9188,62.4594,114.3943],[26.9198,62.4639,110.5],[26.9101,62.4644,110.5],[26.9112,62.4688,112.8031],[26.9015,62.4693,110.5],[26.9025,62.4738,120.9724],[26.8929,62.4743,122.5788],[26.8939,62.4787,117.1938],[26.8842,62.4792,113.1642],[26.8853,62.4837,118.8314],[26.8756,62.4841,110.5],[26.8746,62.4797,113.6929],[26.8649,62.4801,116.4301],[26.8639,62.4757,107.5],[26.8542,62.4761,107.5],[26.8521,62.4672,147.0905],[26.8425,62.4677,107.5],[26.8415,62.4632,142.5319],[26.8318,62.4637,107.5],[26.8298,62.4547,143.8968],[26.8201,62.4552,107.5],[26.8191,62.4507,119.723],[26.8287,62.4503,128.8927],[26.8277,62.4458,122.1216],[26.8374,62.4453,158.5954],[26.8364,62.4409,148.8944],[26.8267,62.4413,138.2576],[26.8257,62.4369,167.8424],[26.8064,62.4378,151.2487],[26.8054,62.4333,170.654],[26.7957,62.4338,185.4171],[26.7947,62.4293,166.0061],[26.7754,62.4303,152.9187],[26.7744,62.4258,153.4128],[26.7551,62.4267,126.9463],[26.7561,62.4312,123.2256],[26.7464,62.4316,116.4799],[26.7474,62.4361,114.88],[26.7378,62.4366,112.9827],[26.7388,62.441,117.9337],[26.7291,62.4415,125.8659],[26.7301,62.446,106.0],[26.7205,62.4464,106.0],[26.7215,62.4509,106.0],[26.7118,62.4513,106.0],[26.7108,62.4469,106.0],[26.7011,62.4473,106.0],[26.6981,62.4339,116.133],[26.7078,62.4335,121.965],[26.7048,62.4201,132.7431],[26.6952,62.4205,124.1332],[26.6932,62.4116,123.7262],[26.6835,62.4121,149.917],[26.6805,62.3987,139.6373],[26.6902,62.3982,123.0],[26.6892,62.3937,123.0],[26.7085,62.3928,123.0],[26.7075,62.3883,123.0],[26.7171,62.3879,123.0],[26.7161,62.3834,123.0],[26.7354,62.3825,123.0],[26.7344,62.378,123.0],[26.744,62.3776,131.3561],[26.743,62.3731,123.0],[26.7526,62.3727,140.7243],[26.7516,62.3682,123.0],[26.7613,62.3677,134.0251],[26.7603,62.3633,123.0],[26.7699,62.3628,123.0],[26.7689,62.3583,123.0],[26.7785,62.3579,133.8359],[26.7775,62.3534,123.0],[26.7583,62.3543,154.2748],[26.7573,62.3498,143.0],[26.7284,62.3512,196.8308],[26.7274,62.3468,211.356],[26.7081,62.3477,164.643],[26.7071,62.3432,152.0049],[26.6782,62.3446,138.7152],[26.6743,62.3267,135.9959],[26.6646,62.3272,135.7638],[26.6636,62.3227,142.4019],[26.6733,62.3223,140.0491],[26.6723,62.3178,144.3182],[26.6819,62.3173,136.3657],[26.6799,62.3084,155.3679],[26.6895,62.3079,158.287],[26.6875,62.299,168.2479],[26.6972,62.2986,146.5],[26.6962,62.2941,161.9494],[26.7058,62.2936,171.1509],[26.7038,62.2847,151.5],[26.7134,62.2842,179.4783],[26.7104,62.2708,169.5961],[26.72,62.2704,177.2396],[26.717,62.257,158.5326],[26.7266,62.2565,167.0514],[26.7236,62.2431,168.4453],[26.7332,62.2427,166.7334],[26.7303,62.2293,150.1451],[26.7015,62.2306,157.0306],[26.7025,62.2351,172.4204],[26.6929,62.2355,168.8622],[26.6959,62.249,210.8386],[26.6766,62.2499,164.2471],[26.6737,62.2365,160.3833],[26.6833,62.236,170.1965],[26.6813,62.2271,166.5038],[26.6909,62.2266,156.5408],[26.6899,62.2221,149.6852],[26.6995,62.2217,154.1104],[26.6975,62.2128,143.0257],[26.7071,62.2123,141.2939],[26.7061,62.2078,137.2766],[26.715699999999998,62.2074,145.3467],[26.7137,62.1985,142.9583],[26.7233,62.198,134.3775],[26.7223,62.1935,127.9662],[26.7319,62.1931,136.1695],[26.7329,62.1975,140.5828],[26.7425,62.1971,141.1242],[26.7415,62.1926,156.6352],[26.751,62.1922,134.5325],[26.75,62.1877,136.4902],[26.7596,62.1872,124.5],[26.7586,62.1828,130.2703],[26.8065,62.1804,129.5709],[26.8055,62.176,119.1049],[26.8151,62.1755,132.0813],[26.8141,62.171,116.0],[26.8236,62.1706,123.4704],[26.8206,62.1572,123.5714],[26.8302,62.1567,124.8012],[26.8282,62.1478,117.3601],[26.8377,62.1473,126.3602],[26.8367,62.1428,122.3811],[26.8463,62.1424,117.2283],[26.8443,62.1334,112.9011],[26.8538,62.133,116.0885],[26.8518,62.1241,102.0],[26.8422,62.1245,109.2512],[26.8402,62.1156,102.0],[26.8307,62.1161,102.0],[26.8287,62.1071,102.0],[26.8382,62.1067,102.0],[26.8312,62.0754,118.4538],[26.840699999999998,62.0749,131.8409],[26.8397,62.0705,120.2076],[26.8493,62.07,126.1314],[26.8472,62.0611,128.0894],[26.8568,62.0606,123.2868],[26.8558,62.0561,121.9314],[26.8653,62.0557,127.1746],[26.8643,62.0512,120.2126],[26.8738,62.0507,125.356],[26.8728,62.0463,115.4389],[26.8824,62.0458,126.8051],[26.8834,62.0503,122.0717],[26.8929,62.0498,117.5852],[26.8939,62.0543,119.3489],[26.9225,62.0528,111.2407],[26.9215,62.0484,114.9069],[26.9501,62.047,102.8146],[26.9491,62.0425,110.0719],[26.9681,62.0416,106.7733],[26.9671,62.0371,107.6583],[26.9862,62.0361,103.1469],[26.9851,62.0317,105.0396],[26.9947,62.0312,103.6445],[26.9926,62.0223,104.6436],[27.0021,62.0218,104.2198],[27.0011,62.0173,106.7903],[27.0106,62.0168,103.7805],[27.0096,62.0124,102.6824],[27.0286,62.0114,106.1613],[27.0276,62.007,99.5],[27.0371,62.0065,99.5],[27.0466,62.006,101.4003],[27.0477,62.0105,99.5],[27.0572,62.01,102.2097],[27.0562,62.0055,109.96],[27.0752,62.0046,99.5],[27.0741,62.0001,99.5],[27.0837,61.9996,99.5],[27.0795,61.9818,99.5],[27.089,61.9813,99.5],[27.0869,61.9724,99.5],[27.1155,61.9709,99.5],[27.1144,61.9664,99.5],[27.1239,61.966,105.7619]]]]}}