{"type": "Feature","bbox": [24.7774,62.8668,26.3365,63.6126],"geometry": {"type": "MultiPolygon","coordinates": [[[[26.1496,63.2754,173.8961],[26.1397,63.2758,169.2115],[26.1435,63.2937,166.0229],[26.1335,63.2941,185.1375],[26.1382,63.3165,143.8587],[26.1283,63.3169,147.4541],[26.1311,63.3303,140.9681],[26.1212,63.3307,143.6811],[26.1221,63.3352,141.7991],[26.1122,63.3356,148.0722],[26.1141,63.3445,150.2747],[26.1041,63.345,148.5874],[26.105,63.3494,151.9149],[26.0951,63.3498,155.0176],[26.096,63.3543,156.3404],[26.0761,63.3552,162.2305],[26.078,63.3641,174.9702],[26.0879,63.3637,175.0646],[26.0908,63.3771,141.28],[26.1007,63.3767,139.989],[26.1036,63.3901,145.145],[26.1136,63.3897,145.1112],[26.1174,63.4076,160.2142],[26.1274,63.4072,152.3779],[26.1283,63.4116,145.7078],[26.1383,63.4112,146.5308],[26.1402,63.4202,156.2645],[26.1502,63.4197,159.0226],[26.1511,63.4242,157.6312],[26.1611,63.4238,158.5003],[26.163,63.4327,166.4451],[26.173,63.4323,157.4232],[26.175,63.4412,142.2528],[26.165,63.4417,161.0932],[26.1659,63.4461,156.0451],[26.1559,63.4466,175.0369],[26.1569,63.451,169.0727],[26.1469,63.4515,182.353],[26.1478,63.4559,171.1598],[26.1278,63.4568,178.8726],[26.1269,63.4523,175.2125],[26.1069,63.4531,168.5948],[26.1059,63.4487,166.8713],[26.0859,63.4495,167.9031],[26.085,63.445,164.4256],[26.075,63.4454,170.5691],[26.074,63.441,166.7979],[26.054,63.4418,179.0521],[26.0531,63.4373,179.8771],[26.0331,63.4381,181.3821],[26.0321,63.4337,185.1162],[26.0121,63.4345,179.5761],[26.0112,63.43,179.2979],[25.9312,63.4333,157.4922],[25.9321,63.4378,161.8169],[25.8921,63.4394,154.5268],[25.8931,63.4439,164.9507],[25.8831,63.4443,157.5216],[25.884,63.4487,159.8173],[25.874,63.4491,158.2794],[25.8749,63.4536,161.6678],[25.8649,63.454,161.4632],[25.8667,63.463,180.4739],[25.8567,63.4634,169.7807],[25.8576,63.4678,178.184],[25.8476,63.4682,156.9171],[25.8485,63.4727,169.0382],[25.8385,63.4731,154.899],[25.8394,63.4776,154.2387],[25.8294,63.478,154.7772],[25.8303,63.4825,153.162],[25.8203,63.4829,151.9823],[25.8221,63.4918,146.3023],[25.8121,63.4922,143.0201],[25.813,63.4967,144.5976],[25.7929,63.4975,148.5351],[25.7938,63.5019,154.8024],[25.7738,63.5027,139.2925],[25.7747,63.5072,152.2792],[25.7546,63.508,143.2092],[25.7555,63.5125,152.3907],[25.7355,63.5133,148.709],[25.7363,63.5177,152.5206],[25.5056,63.5266,139.0],[25.5064,63.5311,146.5805],[25.4763,63.5322,147.5267],[25.4772,63.5367,149.8512],[25.4671,63.537,147.2803],[25.468,63.5415,148.3336],[25.4479,63.5423,139.2412],[25.4487,63.5467,140.3366],[25.4387,63.5471,135.2082],[25.4396,63.5516,138.0479],[25.4195,63.5523,132.6902],[25.4203,63.5568,133.7103],[25.4103,63.5572,125.4415],[25.4111,63.5617,134.6591],[25.401,63.562,125.4894],[25.4019,63.5665,139.4845],[25.3818,63.5672,126.1413],[25.3826,63.5717,142.5445],[25.3726,63.5721,122.8475],[25.3734,63.5765,149.6061],[25.3533,63.5773,132.4118],[25.3541,63.5818,124.6079],[25.3441,63.5821,133.119],[25.3449,63.5866,124.2439],[25.3248,63.5873,124.2277],[25.3256,63.5918,127.7331],[25.3055,63.5926,126.7531],[25.3063,63.597,127.7493],[25.2963,63.5974,128.4032],[25.2971,63.6019,135.576],[25.277,63.6026,137.9175],[25.2778,63.6071,138.4322],[25.2577,63.6078,148.5618],[25.2585,63.6123,149.3883],[25.2484,63.6126,143.1632],[25.2476,63.6082,145.9364],[25.2375,63.6085,142.4767],[25.2367,63.604,146.9154],[25.2266,63.6044,144.6075],[25.2258,63.5999,152.0792],[25.2158,63.6003,134.4],[25.2149,63.5958,149.9672],[25.2049,63.5961,142.1767],[25.2041,63.5917,140.3289],[25.194,63.592,143.8624],[25.1932,63.5876,141.0949],[25.1731,63.5883,135.5249],[25.1722,63.5838,141.8162],[25.1622,63.5841,135.4439],[25.1614,63.5797,134.359],[25.1513,63.58,134.8411],[25.1505,63.5755,133.6884],[25.1405,63.5759,144.2006],[25.1332,63.5356,154.5963],[25.1232,63.5359,157.218],[25.116,63.4956,182.7148],[25.106,63.496,182.4016],[25.1036,63.4825,186.7261],[25.0936,63.4829,178.3204],[25.0912,63.4695,172.8167],[25.0812,63.4698,168.2113],[25.0804,63.4653,173.4536],[25.0703,63.4657,173.0425],[25.0695,63.4612,173.5355],[25.0495,63.4619,167.1649],[25.0487,63.4574,168.1351],[25.0287,63.4581,170.8551],[25.0279,63.4536,173.378],[25.0079,63.4543,175.5761],[25.0071,63.4498,176.9358],[24.987,63.4505,171.8829],[24.9863,63.446,169.4826],[24.9662,63.4467,160.4495],[24.9655,63.4422,164.9822],[24.9555,63.4426,162.6877],[24.9547,63.4381,164.522],[24.9347,63.4388,161.4611],[24.9339,63.4343,161.3355],[24.9139,63.435,160.9605],[24.9131,63.4305,172.1323],[24.9031,63.4308,173.5567],[24.9023,63.4263,176.2095],[24.8923,63.4267,171.6982],[24.8916,63.4222,165.0798],[24.8816,63.4225,164.0673],[24.88,63.4136,167.3106],[24.87,63.4139,172.4375],[24.8693,63.4094,169.9265],[24.8593,63.4098,175.9678],[24.8578,63.4008,167.9813],[24.8478,63.4011,168.7328],[24.847,63.3967,180.2575],[24.837,63.397,173.1939],[24.8355,63.388,172.9549],[24.8255,63.3884,176.312],[24.8248,63.3839,173.8486],[24.8148,63.3842,169.2866],[24.8133,63.3752,173.4374],[24.8033,63.3756,168.0548],[24.8025,63.3711,176.171],[24.7925,63.3714,175.8218],[24.7911,63.3624,178.7122],[24.7811,63.3628,172.4491],[24.7774,63.3404,168.1494],[24.7874,63.3401,165.7055],[24.7844,63.3221,161.1588],[24.7944,63.3218,165.7495],[24.7906,63.2994,167.2348],[24.8006,63.2991,165.4106],[24.7984,63.2856,181.1536],[24.8084,63.2853,183.468],[24.8054,63.2674,178.691],[24.8153,63.2671,190.8397],[24.8124,63.2491,187.963],[24.8223,63.2488,180.8714],[24.8201,63.2354,181.0344],[24.999,63.2293,165.1968],[24.9998,63.2338,167.0347],[25.0495,63.2321,161.1028],[25.0503,63.2366,166.1258],[25.1,63.2348,142.6514],[25.1008,63.2393,154.5507],[25.1505,63.2375,130.7569],[25.1513,63.242,130.8442],[25.1612,63.2417,143.7417],[25.1621,63.2462,143.562],[25.1819,63.2454,145.6624],[25.1827,63.2499,148.1888],[25.1927,63.2496,131.3727],[25.1935,63.2541,141.9887],[25.2134,63.2533,140.0442],[25.2142,63.2578,144.7712],[25.2341,63.2571,167.7703],[25.2349,63.2616,148.3627],[25.2448,63.2612,148.857],[25.2456,63.2657,164.1293],[25.2655,63.265,174.0015],[25.2663,63.2695,168.7142],[25.2763,63.2691,178.6737],[25.2771,63.2736,175.6901],[25.297,63.2729,180.3126],[25.2978,63.2773,178.7994],[25.3277,63.2762,179.4798],[25.3269,63.2718,181.9124],[25.3368,63.2714,182.6577],[25.336,63.2669,179.5208],[25.3459,63.2666,183.627],[25.3451,63.2621,181.1334],[25.365,63.2613,188.6425],[25.3642,63.2569,165.9362],[25.3741,63.2565,175.4519],[25.3725,63.2475,176.2099],[25.3824,63.2472,172.1667],[25.3816,63.2427,171.7168],[25.3219,63.2449,174.2188],[25.3178,63.2225,167.5349],[25.3278,63.2221,168.1016],[25.3237,63.1998,152.2033],[25.3336,63.1994,146.0452],[25.3295,63.177,141.7402],[25.3394,63.1766,129.2076],[25.3353,63.1543,170.9082],[25.3452,63.1539,160.1507],[25.3436,63.1449,166.9595],[25.3535,63.1446,159.7894],[25.351,63.1311,153.8018],[25.3609,63.1308,159.4226],[25.3593,63.1218,157.4604],[25.3692,63.1215,153.1111],[25.3667,63.108,165.4053],[25.3766,63.1077,162.9039],[25.3741,63.0942,150.3448],[25.384,63.0939,168.1919],[25.3832,63.0894,140.091],[25.403,63.0886,158.0092],[25.4021,63.0842,153.4105],[25.412,63.0838,139.8906],[25.4112,63.0793,135.5838],[25.4211,63.079,137.562],[25.4203,63.0745,133.171],[25.44,63.0737,142.015],[25.4392,63.0693,148.5401],[25.4491,63.0689,144.4719],[25.4482,63.0644,152.6225],[25.4581,63.064,129.0146],[25.4573,63.0596,135.5013],[25.477,63.0588,131.0462],[25.4762,63.0543,125.2468],[25.4861,63.054,119.809],[25.4852,63.0495,115.9703],[25.4951,63.0491,138.3969],[25.4942,63.0446,135.935],[25.514,63.0439,113.6631],[25.5131,63.0394,121.87],[25.523,63.039,117.3837],[25.5222,63.0346,114.2753],[25.532,63.0342,106.5],[25.5304,63.0252,106.5],[25.5205,63.0256,106.5],[25.5129,62.9853,106.5],[25.5326,62.9846,106.5],[25.5318,62.9801,106.5],[25.5515,62.9793,113.1837],[25.5506,62.9749,106.5],[25.5605,62.9745,132.7693],[25.5596,62.97,123.7633],[25.5695,62.9696,131.3087],[25.5686,62.9651,106.5],[25.5785,62.9648,120.01],[25.5776,62.9603,128.9841],[25.5875,62.9599,133.0241],[25.5866,62.9554,131.5047],[25.5964,62.9551,146.0582],[25.5956,62.9506,133.0733],[25.6054,62.9502,125.2073],[25.6046,62.9457,116.8062],[25.6144,62.9453,141.4458],[25.6136,62.9409,126.0895],[25.6332,62.9401,167.5325],[25.6341,62.9446,160.4706],[25.6538,62.9438,170.1286],[25.6546,62.9483,166.3163],[25.6645,62.9479,178.5003],[25.6653,62.9524,179.2685],[25.685,62.9516,185.2962],[25.6841,62.9471,192.8429],[25.694,62.9467,170.8239],[25.6922,62.9378,181.9671],[25.7021,62.9374,176.3984],[25.7003,62.9284,184.3492],[25.7102,62.9281,181.5177],[25.7084,62.9191,175.373],[25.7379,62.9179,161.4554],[25.737,62.9135,150.849],[25.7763,62.9119,142.2968],[25.7755,62.9074,128.0],[25.8049,62.9062,142.8635],[25.804,62.9017,140.379],[25.8237,62.901,137.6254],[25.8228,62.8965,138.6848],[25.8326,62.8961,136.6991],[25.8317,62.8916,124.1576],[25.8514,62.8908,120.0716],[25.8505,62.8863,122.7519],[25.8603,62.8859,116.9595],[25.8594,62.8815,122.7856],[25.879,62.8806,126.4794],[25.8799,62.8851,126.8064],[25.9388,62.8827,98.0],[25.9379,62.8782,98.0],[25.9673,62.877,98.0],[25.9664,62.8726,98.0],[25.986,62.8717,98.0],[25.9851,62.8672,103.5145],[25.9949,62.8668,98.0],[25.9977,62.8802,98.0],[26.0075,62.8798,98.0],[26.0102,62.8933,102.9849],[26.02,62.8928,98.0],[26.0228,62.9063,114.4561],[26.0326,62.9059,108.5779],[26.0317,62.9014,113.0223],[26.0415,62.901,112.0149],[26.0406,62.8965,106.4083],[26.0504,62.8961,111.0019],[26.0495,62.8916,98.0],[26.0691,62.8908,98.0],[26.07,62.8953,98.0],[26.0602,62.8957,98.0],[26.063,62.9091,98.0],[26.0532,62.9095,98.0],[26.0559,62.9229,98.0],[26.0461,62.9233,98.0],[26.0479,62.9323,98.0],[26.0381,62.9327,98.0],[26.039,62.9372,98.0],[26.0685,62.9359,98.0],[26.0694,62.9404,98.0],[26.0989,62.9392,117.3195],[26.0999,62.9436,111.2451],[26.1097,62.9432,127.956],[26.1106,62.9477,121.9601],[26.1204,62.9473,125.4366],[26.1214,62.9517,115.4676],[26.1509,62.9505,137.1918],[26.1518,62.9549,127.7064],[26.2403,62.9511,143.9059],[26.2394,62.9467,130.9272],[26.2492,62.9462,131.5559],[26.2482,62.9418,120.4927],[26.2581,62.9413,127.1052],[26.2571,62.9369,109.625],[26.2669,62.9364,119.7173],[26.266,62.932,107.5],[26.2856,62.9311,123.4715],[26.2876,62.9401,133.7542],[26.2974,62.9396,124.1916],[26.2993,62.9486,133.3154],[26.3091,62.9481,124.6373],[26.3111,62.9571,120.5],[26.3209,62.9566,129.5676],[26.3257,62.979,143.8312],[26.3355,62.9786,173.2337],[26.3365,62.983,185.746],[26.307,62.9843,141.0237],[26.306,62.9799,139.7165],[26.2863,62.9807,146.8937],[26.2883,62.9897,144.4853],[26.2784,62.9901,134.419],[26.2794,62.9946,142.3291],[26.2695,62.995,141.1193],[26.2705,62.9995,149.0239],[26.2606,62.9999,157.9209],[26.2616,63.0043,164.381],[26.2517,63.0048,179.8144],[26.2527,63.0093,145.0878],[26.2428,63.0097,139.9486],[26.2438,63.0141,154.8327],[26.2339,63.0146,141.0428],[26.2359,63.0235,149.4532],[26.226,63.0239,136.0836],[26.2279,63.0329,145.616],[26.2378,63.0325,152.4977],[26.2397,63.0414,151.3229],[26.3284,63.0375,152.405],[26.3303,63.0465,169.1302],[26.3106,63.0473,145.0363],[26.3116,63.0518,152.7767],[26.2919,63.0527,152.8246],[26.2928,63.0571,152.9245],[26.2731,63.058,144.8031],[26.2741,63.0625,144.6247],[26.2543,63.0633,145.0466],[26.2553,63.0678,145.7888],[26.2454,63.0682,149.0653],[26.2464,63.0727,145.046],[26.2365,63.0731,148.3824],[26.2384,63.0821,156.602],[26.2285,63.0825,151.0271],[26.2304,63.0914,158.3766],[26.2205,63.0919,145.1367],[26.2215,63.0963,163.0039],[26.2116,63.0968,147.9245],[26.2145,63.1102,147.9915],[26.2046,63.1106,145.4585],[26.2055,63.1151,145.9832],[26.1957,63.1155,146.6747],[26.1966,63.12,150.9513],[26.1867,63.1204,147.4754],[26.1905,63.1383,134.8131],[26.1806,63.1387,134.8186],[26.1816,63.1432,134.7807],[26.1618,63.144,137.2532],[26.1665,63.1664,149.5513],[26.1566,63.1668,149.4489],[26.1604,63.1847,183.2371],[26.1505,63.1851,189.1553],[26.1562,63.2119,183.2455],[26.1859,63.2107,146.7195],[26.1888,63.2241,170.7359],[26.1789,63.2245,169.1863],[26.1827,63.2424,176.9759],[26.1728,63.2428,179.325],[26.1737,63.2473,180.1243],[26.1638,63.2477,179.4435],[26.1657,63.2566,182.53],[26.1557,63.2571,181.6323],[26.1576,63.266,174.4781],[26.1477,63.2664,170.3381],[26.1496,63.2754,173.8961]]]]}
,"properties": {"GID_3": "FIN.5.1.7_1","GID_0": "FIN","country": "Finland","GID_1": "FIN.5_1","province": "WesternFinland","NL_NAME_1": "NA","GID_2": "FIN.5.1_1","county": "CentralFinland","NL_NAME_2": "NA","city": "Viitasaari","VARNAME_3": "NA","NL_NAME_3": "NA","TYPE_3": "Seutukunta|Ekonomiskregion","ENGTYPE_3": "Sub-Region","CC_3": "NA","HASC_3": "FI.LS.VT","name": "Viitasaari.city","area_km2": 3312.646,"hist_schema_id": "Elevation0-9000","hist_area_km2": {"100": 565.012,"125": 929.219,"150": 1035.932,"175": 689.324,"200": 91.35,"225": 1.809}}}