{"type":"Feature","properties":{"GID_3":"FIN.1.4.1_1","GID_0":"FIN","country":"Finland","GID_1":"FIN.1_1","province":"EasternFinland","NL_NAME_1":"NA","GID_2":"FIN.1.4_1","county":"SouthernSavonia","NL_NAME_2":"NA","city":"Juva","VARNAME_3":"NA","NL_NAME_3":"NA","TYPE_3":"Seutukunta|Ekonomiskregion","ENGTYPE_3":"Sub-Region","CC_3":"NA","HASC_3":"FI.IS.JV","name":"Juva.city"},
"geometry":{"type": "MultiPolygon","coordinates": [[[[28.8182,61.5292,119.6403],[28.8207,61.5381,98.3747],[28.8394,61.5369,86.372],[28.8381,61.5324,87.9213],[28.9035,61.5282,122.5082],[28.9048,61.5327,128.7321],[28.9235,61.5314,123.7557],[28.9248,61.5359,113.5188],[28.9435,61.5347,105.3779],[28.9447,61.5391,93.402],[28.9541,61.5385,91.7068],[28.9554,61.543,85.7479],[28.9273,61.5448,91.3986],[28.9286,61.5492,109.8936],[28.9006,61.5511,101.0625],[28.9019,61.5555,104.8311],[28.8832,61.5567,85.4913],[28.8844,61.5611,114.9412],[28.8564,61.563,110.801],[28.8577,61.5674,118.0231],[28.839,61.5686,89.2866],[28.8402,61.5731,107.4756],[28.8309,61.5737,98.1244],[28.8321,61.5781,109.6106],[28.8415,61.5775,112.8587],[28.8428,61.582,112.3155],[28.8521,61.5814,128.0152],[28.8534,61.5858,121.647],[28.8721,61.5846,112.9951],[28.8747,61.5935,133.4441],[28.8653,61.5941,105.9024],[28.8679,61.603,83.0],[28.8023,61.6072,83.0],[28.8049,61.6161,110.4085],[28.7955,61.6167,114.8274],[28.7967,61.6211,102.4706],[28.7874,61.6217,103.3146],[28.7886,61.6262,99.1659],[28.7605,61.628,97.9243],[28.7593,61.6235,97.3849],[28.7499,61.6241,83.5133],[28.7486,61.6197,94.8148],[28.7393,61.6203,83.0843],[28.7405,61.6247,89.0055],[28.7311,61.6253,85.5627],[28.7324,61.6298,83.0585],[28.723,61.6304,94.805],[28.7243,61.6348,86.6133],[28.6211,61.6413,97.8681],[28.6261,61.6591,77.9742],[28.6167,61.6597,72.5],[28.6242,61.6864,72.5],[28.6336,61.6858,72.5],[28.6348,61.6902,72.5],[28.6442,61.6897,72.5],[28.6455,61.6941,72.5],[28.6361,61.6947,72.5],[28.6373,61.6991,72.5],[28.6186,61.7003,72.5],[28.6173,61.6959,84.1352],[28.5985,61.697,72.5],[28.5998,61.7015,80.9452],[28.5904,61.7021,72.5],[28.5916,61.7065,72.5],[28.601,61.7059,72.5],[28.6022,61.7104,72.5],[28.5928,61.711,72.5],[28.5941,61.7154,72.5],[28.5847,61.716,80.0899],[28.5859,61.7205,79.7141],[28.5765,61.721,72.5],[28.5778,61.7255,94.2765],[28.559,61.7267,72.5],[28.5614,61.7356,72.5],[28.552,61.7361,72.5],[28.5533,61.7406,72.5],[28.5627,61.74,72.5],[28.5639,61.7445,72.5],[28.5733,61.7439,72.5],[28.5746,61.7483,72.5],[28.584,61.7477,72.5],[28.5852,61.7522,80.3131],[28.6041,61.751,72.5],[28.6066,61.7599,80.8763],[28.5971,61.7605,72.5],[28.6009,61.7739,72.5],[28.5915,61.7745,72.5],[28.5952,61.7878,72.5],[28.5858,61.7884,72.5],[28.5895,61.8017,72.5],[28.5989,61.8012,72.5],[28.6002,61.8056,72.5],[28.5813,61.8068,72.5],[28.5826,61.8112,100.8294],[28.5637,61.8124,95.4192],[28.565,61.8168,72.5],[28.5461,61.818,89.2216],[28.5473,61.8224,83.9815],[28.519,61.8242,72.5],[28.5203,61.8286,112.1102],[28.5108,61.8292,98.6654],[28.5121,61.8337,102.5888],[28.5026,61.8343,103.6102],[28.5039,61.8387,111.1466],[28.4944,61.8393,135.4673],[28.4957,61.8437,85.824],[28.4862,61.8443,102.9448],[28.4874,61.8488,75.0],[28.478,61.8493,95.9615],[28.4792,61.8538,75.0],[28.4698,61.8544,88.1512],[28.4723,61.8633,102.8947],[28.4628,61.8638,107.3924],[28.464,61.8683,84.5863],[28.4357,61.87,119.3997],[28.4369,61.8745,119.9016],[28.418,61.8756,107.8248],[28.4242,61.8979,89.5],[28.4147,61.8985,105.6729],[28.4159,61.9029,116.1338],[28.4065,61.9035,105.9929],[28.4077,61.9079,119.988],[28.3982,61.9085,109.3125],[28.3994,61.913,144.8722],[28.39,61.9135,131.9509],[28.3912,61.918,142.4948],[28.3817,61.9186,137.3011],[28.3829,61.923,136.5505],[28.3735,61.9236,130.169],[28.3747,61.928,119.6069],[28.3842,61.9275,122.2825],[28.3854,61.9319,124.9136],[28.3949,61.9313,121.8358],[28.3936,61.9269,138.3569],[28.4126,61.9257,131.6076],[28.4114,61.9213,121.4079],[28.4208,61.9207,119.3157],[28.4196,61.9163,127.1018],[28.4385,61.9151,115.0],[28.4373,61.9107,115.0],[28.4468,61.9101,142.014],[28.448,61.9146,115.0],[28.4575,61.914,120.1969],[28.4587,61.9184,152.6451],[28.4682,61.9179,141.8466],[28.4694,61.9223,142.7661],[28.4789,61.9217,115.0],[28.4801,61.9262,126.6361],[28.4896,61.9256,122.6904],[28.4908,61.93,107.5464],[28.5003,61.9295,106.0667],[28.5015,61.9339,95.0],[28.511,61.9333,102.3017],[28.5097,61.9289,95.0],[28.5192,61.9283,95.0],[28.5205,61.9328,106.3275],[28.5299,61.9322,111.6762],[28.5324,61.9411,135.0405],[28.5419,61.9405,147.1662],[28.5431,61.945,146.5359],[28.5526,61.9444,128.831],[28.5539,61.9488,121.0518],[28.6297,61.9441,116.2107],[28.6259,61.9308,103.9039],[28.6637,61.9284,72.5],[28.6688,61.9462,87.7435],[28.6783,61.9457,85.9744],[28.6795,61.9501,94.5418],[28.689,61.9495,72.5],[28.6903,61.954,72.5],[28.7092,61.9528,92.6145],[28.7105,61.9572,72.5],[28.72,61.9566,72.5],[28.7212,61.9611,72.5],[28.7307,61.9605,72.5],[28.7346,61.9738,72.5],[28.6872,61.9768,72.5],[28.6859,61.9724,72.5],[28.6764,61.9729,72.5],[28.6669,61.9735,72.5],[28.6682,61.978,89.912],[28.6587,61.9786,72.5],[28.6625,61.9919,72.5],[28.6815,61.9907,72.5],[28.6878,62.013,72.5],[28.6309,62.0165,72.5],[28.6321,62.021,72.5],[28.6416,62.0204,72.5],[28.6429,62.0248,72.5],[28.6524,62.0242,72.5],[28.6549,62.0331,72.5],[28.6454,62.0337,72.5],[28.648,62.0426,72.5],[28.6385,62.0432,72.5],[28.641,62.0521,72.5],[28.6125,62.0539,72.5],[28.6163,62.0672,72.5],[28.6258,62.0667,72.5],[28.6296,62.08,77.7583],[28.6201,62.0806,72.5],[28.6214,62.085,72.5],[28.6118,62.0856,72.5],[28.6131,62.0901,72.5],[28.6036,62.0907,72.5],[28.6048,62.0951,72.5],[28.5953,62.0957,72.5],[28.5966,62.1001,72.5],[28.5871,62.1007,72.5],[28.5883,62.1052,72.5],[28.5693,62.1064,72.5],[28.5706,62.1108,72.5],[28.561,62.1114,72.5],[28.5623,62.1158,91.6565],[28.5432,62.117,72.5],[28.5445,62.1214,72.5],[28.5254,62.1226,72.5],[28.5267,62.1271,84.3619],[28.5076,62.1282,72.5],[28.5064,62.1238,72.5],[28.4778,62.1255,72.5],[28.4765,62.1211,72.5],[28.448,62.1228,99.5601],[28.4467,62.1183,72.5],[28.4181,62.12,72.5],[28.4194,62.1245,72.5],[28.4098,62.1251,72.5],[28.4111,62.1295,87.064],[28.4015,62.1301,72.5],[28.404,62.139,72.5],[28.3945,62.1396,72.5],[28.3957,62.144,72.5],[28.3969,62.1485,72.5],[28.4065,62.1479,72.5],[28.409,62.1568,72.5],[28.3994,62.1574,96.5923],[28.4006,62.1618,72.5],[28.3816,62.163,72.5],[28.389,62.1897,72.5],[28.3985,62.1891,72.5],[28.3998,62.1936,72.5],[28.4093,62.193,92.309],[28.4118,62.2019,72.5],[28.4023,62.2025,72.5],[28.4035,62.2069,72.5],[28.3939,62.2075,72.5],[28.3952,62.212,72.5],[28.3856,62.2125,72.5],[28.3869,62.217,72.5],[28.3295,62.2204,72.5],[28.3307,62.2249,72.5],[28.3116,62.226,72.5],[28.3128,62.2304,72.5],[28.2937,62.2316,72.5],[28.2925,62.2271,79.3062],[28.2638,62.2288,72.5],[28.2625,62.2244,72.5],[28.253,62.2249,72.5],[28.2518,62.2205,72.5],[28.2422,62.221,89.5588],[28.2398,62.2121,72.5],[28.2111,62.2138,72.5],[28.2123,62.2183,87.232],[28.2027,62.2188,72.5],[28.2039,62.2233,72.5],[28.1848,62.2244,102.3264],[28.186,62.2288,72.5],[28.1669,62.23,72.5],[28.1657,62.2255,72.5],[28.1178,62.2283,78.2186],[28.1166,62.2238,72.5],[28.1071,62.2244,72.5],[28.1083,62.2288,72.5],[28.0891,62.2299,72.5],[28.0903,62.2344,72.5],[28.0712,62.2355,72.5],[28.0724,62.2399,97.9488],[28.0532,62.241,72.5],[28.052,62.2366,72.5],[28.0329,62.2377,72.5],[28.0341,62.2421,86.9672],[28.0149,62.2432,72.5],[28.0161,62.2477,72.5],[27.9874,62.2493,88.8518],[27.9886,62.2538,94.8814],[27.9598,62.2554,72.5],[27.961,62.2599,72.5],[27.9514,62.2604,72.5],[27.9526,62.2649,72.5],[27.943,62.2654,72.5],[27.9442,62.2699,72.5],[27.9346,62.2704,72.5],[27.9358,62.2749,72.5],[27.9262,62.2754,72.5],[27.9274,62.2799,72.5],[27.9178,62.2804,72.5],[27.9189,62.2849,72.5],[27.9041,62.2857,72.5],[27.9005,62.2887,72.5],[27.9009,62.2904,72.5],[27.8913,62.2909,72.5],[27.8902,62.2865,72.5],[27.8944,62.2862,72.5],[27.8987,62.282,82.6725],[27.8974,62.277,76.2432],[27.8687,62.2786,78.0094],[27.8698,62.2831,78.2815],[27.8506,62.2842,77.2185],[27.8495,62.2797,77.0793],[27.8399,62.2802,83.3235],[27.8387,62.2758,95.8142],[27.8291,62.2763,100.1174],[27.8315,62.2852,82.0621],[27.8219,62.2858,78.0702],[27.823,62.2902,81.6527],[27.8134,62.2907,102.0659],[27.8158,62.2997,99.8567],[27.8062,62.3002,88.3835],[27.8073,62.3047,107.5388],[27.7977,62.3052,87.8258],[27.7989,62.3097,82.4629],[27.7797,62.3107,81.3854],[27.7808,62.3152,84.9772],[27.7616,62.3162,103.5042],[27.7628,62.3207,94.0488],[27.7436,62.3217,124.0161],[27.7458,62.3307,103.0397],[27.7362,62.3312,117.4071],[27.7397,62.3446,101.581],[27.7493,62.344,91.0254],[27.7516,62.353,85.5771],[27.7612,62.3524,89.4093],[27.7624,62.3569,84.9259],[27.772,62.3563,98.0773],[27.7731,62.3608,96.7021],[27.7635,62.3613,102.315],[27.7647,62.3658,91.0033],[27.7358,62.3674,110.4288],[27.737,62.3718,106.1453],[27.6889,62.3745,122.6713],[27.6877,62.37,126.0559],[27.6973,62.3695,131.4329],[27.6962,62.365,137.7336],[27.6866,62.3656,136.2228],[27.6832,62.3522,159.5938],[27.6809,62.3433,150.8913],[27.6905,62.3427,151.6182],[27.6871,62.3294,150.1146],[27.6775,62.3299,172.3288],[27.6763,62.3254,171.0316],[27.6667,62.326,179.2132],[27.6656,62.3215,173.1636],[27.6464,62.3225,123.4785],[27.6441,62.3136,137.0894],[27.6345,62.3141,132.9575],[27.6311,62.3008,149.1763],[27.6215,62.3013,160.2316],[27.6204,62.2968,120.7299],[27.63,62.2963,147.9124],[27.6288,62.2918,121.0806],[27.6384,62.2913,145.4329],[27.6373,62.2868,118.8662],[27.6469,62.2863,132.2691],[27.6458,62.2819,110.4455],[27.6266,62.2829,129.3174],[27.6254,62.2785,124.8222],[27.6063,62.2795,119.7431],[27.6074,62.284,124.3172],[27.5978,62.2845,109.7729],[27.5989,62.2889,113.2748],[27.5797,62.29,125.6457],[27.5786,62.2855,137.1113],[27.569,62.286,117.3854],[27.5679,62.2816,109.6806],[27.5487,62.2826,100.0863],[27.5498,62.2871,104.5466],[27.5306,62.2881,116.4343],[27.5295,62.2836,107.7894],[27.5199,62.2841,107.6676],[27.5188,62.2797,110.6658],[27.5092,62.2802,107.755],[27.5081,62.2757,105.3441],[27.4985,62.2762,102.6631],[27.4974,62.2718,100.7646],[27.507,62.2713,105.0675],[27.5059,62.2668,104.941],[27.5154,62.2663,105.8658],[27.5143,62.2618,106.8226],[27.5239,62.2613,103.5788],[27.5217,62.2524,108.9773],[27.5409,62.2514,97.0553],[27.5397,62.2469,99.0005],[27.5493,62.2464,104.8677],[27.5482,62.2419,104.4082],[27.5578,62.2414,113.8082],[27.5556,62.2325,98.1816],[27.546,62.233,104.5492],[27.5449,62.2286,96.5041],[27.5257,62.2296,108.5275],[27.5268,62.234,105.9464],[27.5077,62.2351,98.0],[27.5054,62.2262,98.0],[27.515,62.2256,98.0],[27.5128,62.2167,98.0],[27.5224,62.2162,98.0],[27.5202,62.2073,98.0],[27.5297,62.2068,98.0],[27.5286,62.2023,98.0],[27.5382,62.2018,98.0],[27.536,62.1929,98.0],[27.5455,62.1924,98.0],[27.5444,62.1879,98.0],[27.554,62.1874,98.0],[27.5506,62.174,104.2868],[27.5602,62.1735,126.6392],[27.5569,62.1601,99.3506],[27.5664,62.1596,101.1107],[27.5631,62.1462,111.6435],[27.5726,62.1457,102.7893],[27.5737,62.1502,139.4894],[27.5833,62.1497,111.2641],[27.5844,62.1541,107.1717],[27.594,62.1536,125.8195],[27.5951,62.1581,117.1156],[27.6142,62.157,113.1968],[27.6131,62.1525,111.8045],[27.6322,62.1515,106.6876],[27.631,62.1471,104.0],[27.6215,62.1476,104.0],[27.6192,62.1387,104.0],[27.6288,62.1381,114.3928],[27.6265,62.1292,117.0457],[27.6361,62.1287,116.8087],[27.6316,62.1109,143.458],[27.6411,62.1103,150.3185],[27.64,62.1059,148.3019],[27.6305,62.1064,135.2704],[27.6282,62.0975,139.2923],[27.6378,62.097,146.3888],[27.6367,62.0925,136.5018],[27.6462,62.092,146.6409],[27.6439,62.0831,148.6955],[27.6344,62.0836,144.2863],[27.6333,62.0791,141.9937],[27.6237,62.0796,140.8102],[27.6215,62.0707,123.572],[27.631,62.0702,134.8594],[27.6299,62.0658,131.1362],[27.6394,62.0652,131.5134],[27.6383,62.0608,134.7689],[27.6288,62.0613,132.971],[27.6266,62.0524,134.045],[27.617,62.0529,119.0],[27.6159,62.0484,119.0],[27.6254,62.0479,127.187],[27.6243,62.0434,121.8155],[27.6338,62.0429,138.5621],[27.6327,62.0385,128.8532],[27.6422,62.0379,128.2638],[27.6411,62.0335,129.4374],[27.6221,62.0345,124.4692],[27.621,62.0301,131.1448],[27.5924,62.0316,135.8984],[27.5935,62.0361,131.4814],[27.5364,62.0392,114.4329],[27.5353,62.0347,112.7183],[27.4877,62.0373,115.5576],[27.4866,62.0328,120.0421],[27.4581,62.0343,114.5067],[27.4592,62.0388,113.1959],[27.4496,62.0393,113.7374],[27.4507,62.0438,114.1073],[27.4317,62.0448,112.2246],[27.4328,62.0493,116.1701],[27.4233,62.0498,111.9098],[27.4244,62.0542,110.8159],[27.4148,62.0547,104.8765],[27.4159,62.0592,104.7061],[27.4064,62.0597,104.8802],[27.4075,62.0642,105.1044],[27.3979,62.0647,105.0923],[27.3969,62.0602,114.1266],[27.3873,62.0607,106.5442],[27.3862,62.0562,105.1239],[27.3767,62.0567,105.0409],[27.3746,62.0478,109.4622],[27.3841,62.0473,105.2376],[27.383,62.0429,109.6812],[27.3925,62.0423,105.198],[27.3893,62.029,107.5615],[27.3988,62.0285,107.6801],[27.3901,61.9928,104.9548],[27.3996,61.9923,104.9605],[27.3964,61.9789,109.9752],[27.4059,61.9784,109.0759],[27.4037,61.9695,110.1866],[27.4132,61.969,110.9644],[27.4121,61.9645,116.4024],[27.4216,61.964,114.7792],[27.4205,61.9595,109.3244],[27.43,61.959,118.7197],[27.4289,61.9546,114.2253],[27.4384,61.9541,117.9252],[27.4373,61.9496,113.8042],[27.4563,61.9486,129.9493],[27.4552,61.9441,128.1877],[27.4647,61.9436,126.6519],[27.4636,61.9391,138.4376],[27.4731,61.9386,123.8326],[27.472,61.9342,124.0696],[27.4625,61.9347,124.9048],[27.4615,61.9302,124.28],[27.452,61.9307,121.1068],[27.4509,61.9263,123.8556],[27.4414,61.9268,117.1206],[27.4403,61.9223,127.9268],[27.4308,61.9228,129.2812],[27.4298,61.9184,129.768],[27.4392,61.9179,129.3948],[27.436,61.9045,127.3122],[27.4265,61.905,130.7229],[27.4243,61.8961,130.9597],[27.4211,61.8827,128.7161],[27.4305,61.8822,129.5412],[27.4273,61.8688,120.7825],[27.4368,61.8683,126.9888],[27.4346,61.8594,126.9579],[27.4441,61.8588,120.0797],[27.443,61.8544,114.0],[27.4524,61.8539,130.173],[27.4514,61.8494,117.0038],[27.4608,61.8489,121.3691],[27.4597,61.8445,121.0437],[27.4692,61.8439,119.1493],[27.4681,61.8395,115.4931],[27.4776,61.839,126.1527],[27.4765,61.8345,125.4593],[27.4859,61.834,121.4557],[27.4838,61.8251,113.6996],[27.4932,61.8246,108.1454],[27.4921,61.8201,112.8746],[27.5016,61.8196,116.7196],[27.5005,61.8151,120.695],[27.5099,61.8146,125.5523],[27.5088,61.8102,110.6056],[27.5183,61.8097,94.7438],[27.5172,61.8052,101.4059],[27.5266,61.8047,94.7721],[27.5256,61.8002,94.8709],[27.535,61.7997,94.8922],[27.5339,61.7953,94.9297],[27.5433,61.7947,94.3572],[27.5411,61.7858,94.4395],[27.5506,61.7853,110.2923],[27.5484,61.7764,96.0263],[27.5578,61.7759,94.5688],[27.5567,61.7714,94.4117],[27.5473,61.7719,94.4388],[27.544,61.7585,94.3826],[27.5534,61.758,123.1498],[27.5524,61.7536,93.8151],[27.5618,61.7531,94.5088],[27.5607,61.7486,110.7874],[27.5701,61.7481,114.498],[27.569,61.7436,132.7405],[27.5784,61.7431,105.6488],[27.5773,61.7387,97.5854],[27.5868,61.7381,84.5],[27.5857,61.7337,91.0078],[27.5951,61.7332,84.5],[27.594,61.7287,84.5],[27.6034,61.7282,84.5],[27.6023,61.7237,84.5],[27.6212,61.7227,84.5],[27.6201,61.7182,100.2358],[27.6295,61.7177,84.5],[27.6284,61.7132,84.5],[27.6378,61.7127,110.4838],[27.6367,61.7083,84.5],[27.6461,61.7078,91.4363],[27.6439,61.6988,84.5],[27.6533,61.6983,98.4697],[27.6544,61.7028,84.5],[27.7015,61.7002,120.2695],[27.7026,61.7046,123.9383],[27.712,61.7041,126.2335],[27.7109,61.6996,126.1476],[27.7203,61.6991,149.7086],[27.7192,61.6946,115.8733],[27.7286,61.6941,96.5],[27.7275,61.6897,96.5],[27.7557,61.6881,159.1135],[27.7546,61.6836,168.8164],[27.7922,61.6815,72.5],[27.7933,61.686,72.5],[27.8216,61.6844,106.2599],[27.8204,61.6799,87.5664],[27.8298,61.6794,98.2164],[27.8276,61.6705,108.877],[27.8464,61.6694,115.1839],[27.8452,61.665,93.9064],[27.8546,61.6644,72.5],[27.8535,61.66,72.5],[27.8723,61.6589,72.5],[27.8711,61.6544,72.5],[27.8805,61.6539,85.7004],[27.8771,61.6405,93.285],[27.8865,61.64,103.701],[27.8854,61.6355,72.5],[27.876,61.6361,72.5],[27.8749,61.6316,72.5],[27.8655,61.6321,72.5],[27.8643,61.6277,82.1965],[27.8549,61.6282,72.5],[27.8538,61.6238,72.5],[27.8632,61.6232,72.5],[27.8621,61.6188,72.5],[27.8715,61.6182,72.5],[27.8692,61.6093,72.5],[27.8786,61.6088,72.5],[27.8706,61.5776,72.5],[27.88,61.577,81.6983],[27.8777,61.5681,139.9499],[27.8871,61.5676,94.5277],[27.886,61.5631,124.4952],[27.8953,61.5626,110.7738],[27.8931,61.5537,116.0817],[27.9024,61.5532,104.8402],[27.9002,61.5443,72.5],[27.8627,61.5464,72.5],[27.8616,61.5419,72.5],[27.8522,61.5425,72.5],[27.8477,61.5246,109.9595],[27.8383,61.5252,89.3991],[27.8372,61.5207,90.7022],[27.8279,61.5213,127.9344],[27.8256,61.5123,105.0778],[27.8162,61.5129,81.0],[27.8129,61.4995,80.5],[27.7942,61.5005,101.8191],[27.7953,61.505,88.7447],[27.7766,61.5061,108.9839],[27.7777,61.5105,101.262],[27.7683,61.5111,95.9465],[27.765,61.4977,101.0808],[27.7463,61.4987,78.3648],[27.7441,61.4898,83.8611],[27.7534,61.4893,72.0],[27.7512,61.4804,99.5665],[27.7605,61.4799,85.6642],[27.7583,61.4709,100.4733],[27.749,61.4715,88.4938],[27.7456,61.4581,80.5033],[27.755,61.4576,72.0],[27.7516,61.4442,98.1236],[27.761,61.4437,86.2859],[27.7588,61.4347,73.0],[27.7401,61.4358,73.0],[27.739,61.4313,92.0155],[27.711,61.4329,101.8433],[27.7099,61.4285,106.2624],[27.6912,61.4295,72.5],[27.6835,61.3983,72.5],[27.6742,61.3988,72.5],[27.6731,61.3944,72.5],[27.6917,61.3933,87.1096],[27.6906,61.3889,81.8314],[27.7093,61.3878,97.3836],[27.7082,61.3834,72.5],[27.7175,61.3828,72.5],[27.7164,61.3784,72.5],[27.735,61.3773,99.6707],[27.7339,61.3729,72.5],[27.7526,61.3718,72.5],[27.7514,61.3674,72.5],[27.7887,61.3652,72.5],[27.7876,61.3608,72.5],[27.8248,61.3587,72.5],[27.8237,61.3542,72.5],[27.9261,61.3483,72.5],[27.9272,61.3528,72.5],[27.9551,61.3511,72.5],[27.9562,61.3556,72.5],[28.0121,61.3523,72.5],[28.0132,61.3568,72.5],[28.069,61.3535,72.5],[28.0702,61.358,72.5],[28.0888,61.3569,72.5],[28.0899,61.3613,72.5],[28.1086,61.3602,72.5],[28.1097,61.3647,72.5],[28.1469,61.3625,72.5],[28.1481,61.3669,72.5],[28.1667,61.3658,72.5],[28.1679,61.3703,72.5],[28.1865,61.3692,72.5],[28.1877,61.3736,72.5],[28.2156,61.3719,72.5],[28.2167,61.3764,72.5],[28.2354,61.3753,72.5],[28.2365,61.3797,92.193],[28.2552,61.3786,72.5],[28.2563,61.3831,72.5],[28.2656,61.3825,88.6007],[28.2668,61.387,72.5],[28.2761,61.3864,72.5],[28.2773,61.3909,72.5],[28.2866,61.3903,72.5],[28.2878,61.3947,72.5],[28.2971,61.3942,94.0006],[28.3019,61.412,72.5],[28.3112,61.4114,72.5],[28.3124,61.4159,72.5],[28.3403,61.4142,72.5],[28.3451,61.432,80.7452],[28.3544,61.431399999999996,93.183],[28.3568,61.4403,86.0],[28.3755,61.4392,99.2393],[28.3767,61.4436,86.0],[28.3953,61.4425,90.0534],[28.3965,61.4469,107.9579],[28.4058,61.4464,101.7874],[28.4082,61.4553,86.5],[28.4269,61.4541,97.0719],[28.4305,61.4675,100.6071],[28.4212,61.4681,127.4165],[28.426,61.4859,113.6135],[28.4309,61.5037,124.9473],[28.4402,61.5031,88.9754],[28.4426,61.512,72.5],[28.452,61.5114,72.5],[28.4508,61.507,82.542],[28.4601,61.5064,72.5],[28.4589,61.502,87.2993],[28.4682,61.5014,83.1599],[28.4694,61.5058,120.7872],[28.4788,61.5053,105.0811],[28.48,61.5097,86.0498],[28.4894,61.5091,105.1147],[28.4906,61.5136,72.5],[28.4999,61.513,72.5],[28.4987,61.5086,72.5],[28.508,61.508,72.5],[28.5068,61.5035,72.5],[28.5255,61.5024,81.2336],[28.5218,61.489,102.6299],[28.5312,61.4884,95.007],[28.5287,61.4795,72.5],[28.5847,61.4761,89.2798],[28.5835,61.4716,95.3888],[28.6674,61.4663,103.9615],[28.6687,61.4708,113.5077],[28.6873,61.4696,118.4489],[28.6886,61.474,113.252],[28.6979,61.4734,116.2789],[28.6991,61.4779,105.5223],[28.7085,61.4773,107.3411],[28.7097,61.4818,99.7241],[28.7937,61.4764,121.1979],[28.8,61.4986,109.3592],[28.8093,61.498,136.4822],[28.8106,61.5025,115.5912],[28.8199,61.5019,113.4499],[28.8237,61.5152,122.0835],[28.8144,61.5158,116.6167],[28.8182,61.5292,119.6403]]]]}}