{"type":"Feature","properties":{"featurecla":"Lake","scalerank":4,"name":"null324","name_abb":null,"name_alt":null,"note":"_untitled_22","delta":null,"dam_name":null,"year":-99,"admin":null,"min_zoom":4.0,"min_label":5.0},
"geometry":{"type": "Polygon","coordinates": [[[27.565291150931273,60.971461066727613,92.3038],[27.577065716016534,60.968223061329184,74.5],[27.584719183321965,60.960863958150867,86.2175],[27.592078286500254,60.952033034336921,74.5],[27.602969759204143,60.944673931158633,74.5],[27.617099237306462,60.9405528333788,74.5],[27.629168166518838,60.939964105124517,74.5],[27.710118301480065,60.949089393065606,74.5],[27.731018154506415,60.958803409260952,74.5],[27.761043295473826,60.9694005178377,74.5],[27.770462947542057,60.971461066727613,100.0343],[27.829041408841249,60.974993436253186,74.5],[27.858772185681545,60.983235631812875,85.965],[27.87672839743658,60.999425658805137,81.4678],[27.847291984723427,61.002663664203567,83.1322],[27.824920311061419,61.018264962941544,85.6165],[27.804314822162183,61.037692995332236,85.361],[27.780471327864518,61.0538830223245,95.2494],[27.789596615805607,61.055943571214414,73.5],[27.793717713585465,61.058298484231472,73.5],[27.801371180890868,61.067718136299675,84.7235],[27.7663418497622,61.066835043918275,80.167],[27.749268730388565,61.06977868518959,92.1178],[27.736022344667646,61.077432152495021,87.7329],[27.723070323073841,61.082730706783394,75.0426],[27.709823937352922,61.077432152495021,93.2586],[27.697460644013404,61.07066177757099,83.4514],[27.688040991945172,61.07066177757099,96.2691],[27.677443883368454,61.075960331859363,74.5],[27.661548220503335,61.080081429639193,97.5723],[27.64947929129093,61.078609609003536,74.5],[27.650068019545188,61.067718136299675,74.5],[27.657721486850619,61.063008310265559,74.5],[27.687746627818058,61.051822473434555,74.5],[27.698049372267661,61.046523919146182,99.9483],[27.70540847544595,61.0538830223245,77.4624],[27.698049372267661,61.0538830223245,89.4907],[27.698049372267661,61.060064668994244,95.3721],[27.714239399259895,61.057709755977186,84.6401],[27.726897056726557,61.04976192454464,99.9066],[27.738671621811847,61.040047908349294,86.9009],[27.75309546404128,61.032688805171006,74.5],[27.736905437049046,61.027390250882632,105.348],[27.703642290683177,61.034749354060921,114.6385],[27.688040991945172,61.02974516389969,101.6374],[27.678032611622712,61.019148055322944,74.5],[27.676560790987054,61.012672044526056,74.5],[27.678621339876969,61.007373490237683,83.8995],[27.678032611622712,60.999425658805137,83.8349],[27.683331165911085,60.987651093719847,74.5],[27.683331165911085,60.98117508292296,74.5],[27.674500242097139,60.978231441651644,82.9931],[27.668612959554508,60.978231441651644,74.5],[27.663020041138992,60.979408898160187,74.5],[27.658898943359162,60.982646903558617,84.6791],[27.651539840180845,61.005312941347768,90.967],[27.637999090332812,61.002663664203567,106.7886],[27.615921780797919,60.985590544829932,74.5],[27.557932047752985,60.975582164507472,83.9965],[27.467267896596439,60.972049794981871,74.5],[27.433416021976285,60.976759621015987,77.7411],[27.41045562006002,60.989122914355505,94.1354],[27.418109087365451,61.012377680398913,94.4017],[27.408100707042962,61.019148055322944,116.1604],[27.381607935601124,61.02886207151829,109.414],[27.36953900638872,61.046229555019067,85.4832],[27.355998256540659,61.045052098510524,74.0],[27.345695512091055,61.037104267077979,75.2431],[27.348933517489513,61.026507158501232,78.8136],[27.338336408912767,61.0206198759586,73.5],[27.328916756844535,61.012377680398913,85.2544],[27.320968925411989,61.00295802833071,73.5],[27.315081642869359,60.991772191499706,88.4391],[27.313315458106558,60.984707452448532,86.7666],[27.311549273343786,60.9814694470501,82.0714],[27.308016903818213,60.978231441651644,82.4064],[27.323912566683305,60.975876528634586,80.593],[27.336864588277109,60.985884908957075,102.8474],[27.349816609870885,60.999131294677994,78.4194],[27.366595365117405,61.005607305474882,105.8077],[27.383374120363897,61.00207493594931,88.6368],[27.388967038779413,60.993244012135364,115.6721],[27.391910680050728,60.98117508292296,91.9177],[27.400741603864674,60.967928697202041,89.2012],[27.420169636255366,60.958803409260952,84.3119],[27.439597668646059,60.960569594023752,102.3004],[27.459614429291008,60.96527942005784,81.9799],[27.4799255540631,60.964690691803582,74.5],[27.488756477877047,60.955859767989637,74.5],[27.49405503216542,60.944673931158633,87.4582],[27.502591591852223,60.9396697409974,87.9419],[27.520253439480143,60.950855577828406,98.2178],[27.525551993768516,60.938786648616,85.1832],[27.53497164583672,60.930838817183457,75.0],[27.544096933777809,60.930250088929171,84.2993],[27.548218031557639,60.940847197505917,80.4312],[27.543213841396408,60.96292450704081,101.1535],[27.547334939176238,60.969106153710555,101.6594],[27.565291150931273,60.971461066727613,92.3038]]]}}