{"type":"Feature","properties":{"GID_3":"FIN.1.1.3_1","GID_0":"FIN","country":"Finland","GID_1":"FIN.1_1","province":"EasternFinland","NL_NAME_1":"NA","GID_2":"FIN.1.1_1","county":"NorthKarelia","NL_NAME_2":"NA","city":"MiddleKarelia","VARNAME_3":"NA","NL_NAME_3":"NA","TYPE_3":"Seutukunta|Ekonomiskregion","ENGTYPE_3":"Sub-Region","CC_3":"NA","HASC_3":"NA","name":"Middle_Karelia.city"},
"geometry":{"type": "MultiPolygon","coordinates": [[[[29.6173,61.9247,72.5],[29.6131,61.9113,72.5],[29.632,61.91,72.5],[29.6292,61.9011,72.5],[29.6386,61.9005,72.5],[29.6372,61.896,72.5],[29.6467,61.8954,72.5],[29.6453,61.891,72.5],[29.6641,61.8896,72.5],[29.6627,61.8852,72.5],[29.6722,61.8845,72.5],[29.6707,61.8801,72.5],[29.6802,61.8795,72.5],[29.6788,61.875,72.5],[29.6882,61.8744,72.5],[29.6868,61.8699,72.5],[29.6962,61.8693,72.5],[29.6934,61.8604,72.5],[29.684,61.861,72.5],[29.6826,61.8566,72.5],[29.6731,61.8573,72.5],[29.6703,61.8484,82.5539],[29.6798,61.8477,72.5],[29.6783,61.8433,72.5],[29.6878,61.8426,72.5],[29.6864,61.8382,72.5],[29.6958,61.8375,72.5],[29.6803,61.7887,117.9984],[29.6709,61.7893,104.2532],[29.6667,61.776,112.0533],[29.6573,61.7767,113.0201],[29.6545,61.7678,104.5375],[29.6451,61.7685,111.1824],[29.6423,61.7596,118.482],[29.6329,61.7602,113.4517],[29.6315,61.7558,94.800299999999993],[29.6127,61.7571,103.0981],[29.6099,61.7482,114.852],[29.6005,61.7489,119.9098],[29.5991,61.7444,106.7668],[29.5898,61.7451,127.0869],[29.5884,61.7407,130.8868],[29.579,61.7413,107.9212],[29.5762,61.7324,110.6665],[29.5668,61.7331,138.1973],[29.564,61.7242,110.37],[29.5734,61.7235,108.1243],[29.5748,61.728,110.4052],[29.5936,61.7267,104.8755],[29.595,61.7311,106.1373],[29.6044,61.7305,125.4779],[29.6057,61.7349,108.8351],[29.6245,61.7336,104.6817],[29.6259,61.738,102.6035],[29.6353,61.7374,101.6884],[29.6367,61.7418,110.6222],[29.6461,61.7412,100.2403],[29.6475,61.7456,111.8469],[29.6663,61.7443,99.8975],[29.6677,61.7487,103.5046],[29.6771,61.7481,110.6641],[29.6785,61.7525,97.5341],[29.6879,61.7519,96.9025],[29.6893,61.7563,97.7268],[29.7081,61.755,94.2019],[29.7095,61.7594,97.1875],[29.7189,61.7588,105.4678],[29.7203,61.7632,100.6359],[29.7391,61.7619,107.0932],[29.7405,61.7663,105.9156],[29.7499,61.7657,107.8001],[29.7513,61.7701,95.7825],[29.7607,61.7694,89.4674],[29.7621,61.7739,91.4323],[29.7809,61.7725,98.7367],[29.7823,61.777,111.8905],[29.7917,61.7763,110.1657],[29.7931,61.7807,95.9588],[29.8025,61.7801,93.5821],[29.8039,61.7845,90.5003],[29.8228,61.7832,87.4531],[29.8242,61.7876,83.7553],[29.8336,61.7869,88.0086],[29.835,61.7914,94.449],[29.8444,61.7907,90.2083],[29.8458,61.7952,79.5],[29.8646,61.7938,93.9562],[29.8661,61.7983,79.5],[29.8755,61.7976,79.5],[29.8769,61.802,79.5],[29.8863,61.8013,79.5],[29.8877,61.8058,79.5],[29.9066,61.8044,79.5],[29.908,61.8089,79.5],[29.9174,61.8082,79.5],[29.9188,61.8126,108.1077],[29.9376,61.8113,79.5],[29.9391,61.8157,79.5],[29.9485,61.8151,89.38],[29.9499,61.8195,79.5],[29.9594,61.8188,79.5],[29.9608,61.8232,91.4586],[29.9796,61.8219,79.5],[29.9811,61.8263,79.5],[29.9905,61.8256,79.5],[29.9919,61.8301,94.4972],[30.0013,61.8294,79.5],[30.0028,61.8338,79.5],[30.0122,61.8332,79.5],[30.0137,61.8376,79.5],[30.0231,61.8369,79.5],[30.0245,61.8414,93.0507],[30.0434,61.84,116.4388],[30.0448,61.8444,115.3264],[30.0542,61.8437,115.6685],[30.0557,61.8482,121.7764],[30.0651,61.8475,101.4713],[30.0666,61.8519,111.6903],[30.0854,61.8506,79.5],[30.0869,61.855,79.5],[30.0963,61.8543,100.8548],[30.0978,61.8587,79.5],[30.1166,61.8574,79.5],[30.1181,61.8618,79.5],[30.1275,61.8611,79.5],[30.129,61.8655,79.5],[30.1384,61.8648,79.5],[30.1369,61.8604,79.5],[30.1463,61.8597,79.5],[30.1434,61.8509,79.5],[30.15,61.8517,85.5407],[30.1606,61.8587,110.0732],[30.1651,61.8583,105.8947],[30.1665,61.8625,102.2964],[30.2011,61.8838,105.9849],[30.1993,61.8879,111.1382],[30.2023,61.8923,108.2046],[30.2109,61.8959,102.2668],[30.2162,61.8955,109.7569],[30.2176,61.8997,79.3395],[30.2495,61.9157,100.1501],[30.2519,61.9156,92.1383],[30.2526,61.9175,93.4641],[30.2733,61.9305,105.2298],[30.2772,61.9319,86.9271],[30.2862,61.9312,91.9892],[30.2871,61.9339,93.0234],[30.3104,61.9385,72.9497],[30.3175,61.938,93.7909],[30.322,61.9513,66.5],[30.3157,61.9517,66.5],[30.3149,61.9531,66.5],[30.3143,61.9656,98.6503],[30.3332,61.9761,83.8129],[30.3386,61.9773,90.4332],[30.35,61.9764,117.7142],[30.3512,61.98,133.0132],[30.3801,61.9969,133.4245],[30.3859,61.9965,141.9631],[30.3879,62.0023,135.5529],[30.4203,62.0244,135.2665],[30.4323,62.0294,108.8273],[30.4359,62.0291,113.9836],[30.4369,62.0318,119.9627],[30.4529,62.0415,128.5871],[30.4594,62.041,127.9301],[30.4616,62.0471,121.9507],[30.4653,62.0496,114.562],[30.472,62.0491,113.8099],[30.4766,62.0624,109.563],[30.4824,62.062,105.0466],[30.4935,62.0702,102.3218],[30.4986,62.0698,102.9291],[30.5022,62.0791,93.8876],[30.5075,62.0828,94.0311],[30.5127,62.0824,103.9517],[30.5146,62.0877,109.2925],[30.5344,62.1035,76.5],[30.5394,62.1031,76.5],[30.5414,62.109,85.6517],[30.6001,62.1387,86.5139],[30.607,62.1435,103.2235],[30.6119,62.1431,104.8545],[30.6166,62.1564,94.8191],[30.622,62.156,95.6407],[30.6281,62.1613,85.9386],[30.6342,62.1701,70.9389],[30.6333,62.176,65.3675],[30.6354,62.1822,84.8831],[30.6302,62.1837,68.4615],[30.6406,62.1944,78.6463],[30.6483,62.1995,78.8937],[30.6512,62.1992,82.9528],[30.6522,62.202,71.3401],[30.6582,62.2059,79.0002],[30.6706,62.2107,103.3658],[30.6845,62.2103,112.2594],[30.6853,62.2128,99.8216],[30.7188,62.2129,138.1211],[30.7327,62.2203,130.382],[30.7368,62.22,116.6277],[30.7379,62.2231,108.1552],[30.7495,62.2281,111.8279],[30.755,62.2322,128.9651],[30.7606,62.2318,121.3983],[30.7621,62.236,110.983],[30.7768,62.2442,107.5],[30.7844,62.2436,128.7618],[30.7908,62.2613,137.8981],[30.7812,62.2621,126.4329],[30.7828,62.2665,114.4792],[30.7733,62.2672,117.0253],[30.7765,62.2761,140.3135],[30.7669,62.2768,114.0],[30.7685,62.2812,147.105],[30.759,62.282,118.9126],[30.7622,62.2908,135.0805],[30.7526,62.2915,125.0566],[30.7558,62.3004,143.2157],[30.7463,62.3011,120.6865],[30.7479,62.3056,135.0189],[30.7383,62.3063,121.55],[30.7415,62.3151,129.8829],[30.732,62.3159,131.5419],[30.7352,62.3247,125.593],[30.7256,62.3255,135.3883],[30.7272,62.3299,132.0465],[30.7176,62.3306,137.3301],[30.7161,62.3262,146.3918],[30.697,62.3276,167.2131],[30.6954,62.3232,143.5262],[30.6858,62.3239,146.167],[30.689,62.3328,154.8421],[30.6794,62.3335,139.6083],[30.6826,62.3424,155.7394],[30.6731,62.3431,135.2603],[30.6762,62.352,149.6249],[30.6475,62.3541,151.8143],[30.646,62.3497,161.9073],[30.6173,62.3519,119.7188],[30.6189,62.3563,147.5884],[30.6093,62.357,122.7442],[30.6109,62.3615,129.0462],[30.5918,62.3629,112.4714],[30.5933,62.3673,124.1033],[30.5646,62.3695,126.8625],[30.5599,62.3562,120.8446],[30.5408,62.3576,125.1531],[30.5392,62.3532,122.5795],[30.5106,62.3554,163.7523],[30.509,62.3509,141.6496],[30.4994,62.3517,122.9854],[30.4979,62.3472,107.071],[30.4692,62.3494,93.5093],[30.4676,62.3449,92.9308],[30.4485,62.3464,92.327],[30.447,62.3419,98.8477],[30.4279,62.3433,101.4239],[30.4263,62.3389,107.0489],[30.4168,62.3396,109.5669],[30.4152,62.3352,111.3335],[30.4056,62.3359,107.0846],[30.4072,62.3403,102.7345],[30.3976,62.341,109.1277],[30.3992,62.3455,109.315],[30.3896,62.3462,103.2544],[30.3911,62.3506,100.7671],[30.3816,62.3513,101.6672],[30.3831,62.3557,98.4121],[30.3449,62.3586,120.9746],[30.3464,62.363,127.3189],[30.3368,62.3637,118.4116],[30.3353,62.3593,130.1023],[30.3257,62.36,119.7664],[30.3242,62.3555,111.7571],[30.3051,62.3569,106.5156],[30.3035,62.3525,100.2741],[30.294,62.3532,103.2579],[30.2924,62.3488,110.4806],[30.2829,62.3495,108.729],[30.2844,62.3539,107.2455],[30.2748,62.3546,101.1552],[30.2779,62.3635,101.746],[30.2683,62.3642,104.3138],[30.2714,62.373,109.6763],[30.2618,62.3737,111.1597],[30.2664,62.387,110.886],[30.2568,62.3877,107.5372],[30.2598,62.3966,114.428],[30.2502,62.3973,110.6052],[30.2548,62.4106,109.8842],[30.2452,62.4113,112.317],[30.2468,62.4157,113.3835],[30.2372,62.4164,126.8017],[30.2356,62.412,128.97],[30.2165,62.4134,103.0],[30.215,62.409,114.6869],[30.2054,62.4097,127.0143],[30.1993,62.3919,97.9348],[30.1897,62.3926,95.0],[30.1912,62.397,97.992],[30.1625,62.3991,109.1872],[30.161,62.3947,100.4347],[30.1514,62.3954,102.3719],[30.1499,62.3909,97.7271],[30.1403,62.3916,97.7793],[30.1388,62.3872,118.3513],[30.0909,62.3907,89.2126],[30.0924,62.3951,87.9446],[30.0636,62.3971,84.2433],[30.0621,62.3927,91.3],[30.0526,62.3934,87.8766],[30.0511,62.389,84.5515],[30.0415,62.3896,86.0238],[30.04,62.3852,118.0074],[30.0112,62.3872,98.9984],[30.0098,62.3828,127.3637],[29.9906,62.3842,84.1985],[29.9891,62.3797,77.4455],[29.9699,62.3811,83.8644],[29.967,62.3722,81.6683],[29.9574,62.3729,76.0],[29.9559,62.3685,76.0],[29.8793,62.3739,88.059],[29.8808,62.3783,78.528],[29.8616,62.3797,80.6247],[29.8631,62.3841,89.7169],[29.8535,62.3848,82.7359],[29.8549,62.3892,88.5745],[29.8453,62.3899,99.7359],[29.8468,62.3943,81.6326],[29.8372,62.395,85.0956],[29.8401,62.4039,73.5],[29.8305,62.4045,73.5],[29.832,62.409,73.5],[29.8224,62.4096,73.5],[29.8239,62.4141,73.5],[29.8143,62.4147,73.5],[29.8172,62.4236,73.5],[29.8076,62.4243,73.5],[29.8091,62.4287,73.5],[29.7995,62.4294,73.5],[29.8024,62.4383,73.5],[29.7928,62.4389,73.5],[29.7942,62.4434,73.5],[29.7846,62.444,73.5],[29.7861,62.4485,73.5],[29.7765,62.4491,73.5],[29.7794,62.458,73.5],[29.7698,62.4587,73.5],[29.761,62.432,73.5],[29.7706,62.431399999999996,73.5],[29.7605,62.4003,73.5],[29.7701,62.3997,73.5],[29.7686,62.3952,73.5],[29.7494,62.3965,73.5],[29.748,62.3921,73.5],[29.7288,62.3934,73.5],[29.7274,62.389,73.5],[29.7082,62.3903,73.5],[29.7067,62.3859,73.5],[29.6971,62.3865,73.5],[29.6943,62.3777,73.5],[29.6847,62.3783,73.5],[29.6833,62.3739,73.5],[29.6737,62.3745,73.5],[29.6722,62.3701,73.5],[29.6626,62.3707,73.5],[29.6598,62.3619,73.5],[29.631,62.3638,73.5],[29.6324,62.3683,73.5],[29.6229,62.3689,73.5],[29.6243,62.3734,73.5],[29.6051,62.3747,73.5],[29.6065,62.3791,73.5],[29.597,62.3798,73.5],[29.5984,62.3842,73.5],[29.5888,62.3849,73.5],[29.5902,62.3893,73.5],[29.571,62.3906,73.5],[29.5725,62.3951,73.5],[29.5629,62.3957,73.5],[29.5643,62.4002,73.5],[29.5451,62.4015,73.5],[29.5465,62.4059,73.5],[29.5369,62.4066,73.5],[29.5355,62.4021,73.5],[29.5259,62.4028,73.5],[29.5245,62.3983,73.5],[29.4957,62.4003,73.5],[29.4943,62.3958,73.5],[29.4559,62.3984,73.5],[29.4545,62.394,73.5],[29.4257,62.3959,73.5],[29.4243,62.3915,73.5],[29.3859,62.394,73.5],[29.3845,62.3895,73.5],[29.3461,62.3921,73.5],[29.3447,62.3877,73.5],[29.3159,62.3896,73.5],[29.3145,62.3851,73.5],[29.2953,62.3864,73.5],[29.294,62.382,73.5],[29.3036,62.3813,73.5],[29.2981,62.3636,73.5],[29.3076,62.3629,73.5],[29.3021,62.3451,73.5],[29.3117,62.3445,73.5],[29.3075,62.3312,73.5],[29.3171,62.3306,73.5],[29.3157,62.3261,73.5],[29.3253,62.3255,73.5],[29.3226,62.3166,73.5],[29.3321,62.3159,73.5],[29.3307,62.3115,73.5],[29.3403,62.3109,73.5],[29.3375,62.302,73.5],[29.3471,62.3013,73.5],[29.3457,62.2969,73.5],[29.3553,62.2963,73.5],[29.3525,62.2874,73.5],[29.3621,62.2867,73.5],[29.3607,62.2823,73.5],[29.3703,62.2817,73.5],[29.3675,62.2728,79.82],[29.3771,62.2721,81.7511],[29.3757,62.2677,73.5],[29.3852,62.2671,75.1697],[29.3825,62.2582,73.5],[29.392,62.2575,73.5],[29.3906,62.2531,73.5],[29.4002,62.2524,73.5],[29.3988,62.248,73.5],[29.4083,62.2474,73.5],[29.4069,62.2429,73.5],[29.4261,62.2416,73.5],[29.4247,62.2372,73.5],[29.4342,62.2366,73.5],[29.4314,62.2277,73.5],[29.4219,62.2283,73.5],[29.4094,62.1883,73.5],[29.4189,62.1877,73.5],[29.4161,62.1788,73.5],[29.4256,62.1782,73.5],[29.4215,62.1648,73.5],[29.431,62.1642,73.5],[29.4268,62.1509,73.5],[29.4364,62.1502,73.5],[29.4336,62.1413,73.5],[29.4431,62.1407,73.5],[29.4389,62.1274,73.5],[29.4485,62.1267,73.5],[29.4443,62.1134,73.5],[29.4538,62.1128,73.5],[29.451,62.1039,73.5],[29.4605,62.1032,73.5],[29.4564,62.0899,73.5],[29.4658,62.0893,73.5],[29.4631,62.0804,80.9999],[29.4726,62.0798,94.8488],[29.4698,62.0709,80.691],[29.4793,62.0702,83.4636],[29.4779,62.0658,81.9363],[29.4874,62.0651,82.1786],[29.4846,62.0563,76.0],[29.4941,62.0556,87.0754],[29.4927,62.0512,82.5191],[29.5022,62.0505,92.2572],[29.4994,62.0416,79.8708],[29.5184,62.0403,83.569],[29.517,62.0359,77.4202],[29.5454,62.034,142.0428],[29.544,62.0295,89.8666],[29.563,62.0282,85.8738],[29.5616,62.0238,93.1948],[29.5805,62.0225,91.0252],[29.5791,62.018,84.5951],[29.5886,62.0174,77.0],[29.5872,62.0129,81.1484],[29.6062,62.0116,72.5],[29.6034,62.0028,72.5],[29.6128,62.0021,72.5],[29.6114,61.9977,72.5],[29.6209,61.997,72.5],[29.6195,61.9926,72.5],[29.6384,61.9912,72.5],[29.637,61.9868,72.5],[29.6465,61.9862,72.5],[29.6451,61.9817,72.5],[29.664,61.9804,72.5],[29.6612,61.9715,72.5],[29.6517,61.9722,72.5],[29.6475,61.9589,72.5],[29.638,61.9595,72.5],[29.6338,61.9462,72.5],[29.6244,61.9468,72.5],[29.6173,61.9247,72.5]]],
[[[29.7602,62.4594,73.5],[29.7698,62.4587,73.5],[29.7712,62.4631,73.5],[29.7616,62.4638,73.5],[29.7602,62.4594,73.5]]]]}}