{"type": "Feature","bbox": [25.4431,61.0699,31.5828,64.0344],"geometry": {"type": "MultiPolygon","coordinates": [[[[28.8144,61.5158,116.6167],[28.8207,61.5381,98.3747],[28.8394,61.5369,86.372],[28.8381,61.5324,87.9213],[28.9035,61.5282,122.5082],[28.9048,61.5327,128.7321],[28.9235,61.5314,123.7557],[28.9248,61.5359,113.5188],[28.9435,61.5347,105.3779],[28.9447,61.5391,93.402],[29.0568,61.5318,124.1067],[29.0581,61.5362,117.1123],[29.0768,61.535,119.5262],[29.0781,61.5394,112.6614],[29.0968,61.5382,139.2399],[29.0981,61.5427,129.8816],[29.1168,61.5414,111.9325],[29.1181,61.5459,122.2344],[29.1368,61.5446,108.3344],[29.1381,61.5491,106.767],[29.1568,61.5478,103.0044],[29.1581,61.5523,108.9331],[29.1768,61.551,115.5684],[29.1781,61.5555,109.6287],[29.1968,61.5542,137.857],[29.1981,61.5587,118.6947],[29.2168,61.5574,149.0055],[29.2181,61.5619,141.2579],[29.2649,61.5587,110.5163],[29.2675,61.5676,119.756],[29.2769,61.567,136.1503],[29.2835,61.5892,104.1501],[29.2929,61.5886,102.8142],[29.2956,61.5974,82.4773],[29.3049,61.5968,91.7363],[29.3076,61.6057,103.0586],[29.317,61.6051,107.6379],[29.3183,61.6095,127.3215],[29.3277,61.6089,121.8614],[29.3304,61.6178,109.177],[29.3397,61.6171,106.6976],[29.3411,61.6216,109.0619],[29.3504,61.6209,102.6799],[29.3531,61.6298,103.2337],[29.3625,61.6292,115.9685],[29.3638,61.6336,107.7957],[29.3732,61.633,110.969],[29.3759,61.6419,108.2358],[29.3853,61.6412,106.3425],[29.3866,61.6457,113.9504],[29.396,61.645,103.3665],[29.3987,61.6539,152.6886],[29.4081,61.6533,107.1415],[29.4094,61.6577,114.6815],[29.4282,61.6564,102.4948],[29.4295,61.6609,112.4389],[29.4389,61.6602,119.083],[29.4403,61.6647,109.7387],[29.4496,61.664,115.9746],[29.451,61.6685,110.3112],[29.4697,61.6672,105.0738],[29.4711,61.6716,117.753],[29.4898,61.6703,131.1796],[29.4912,61.6748,105.1183],[29.51,61.6735,101.3759],[29.5113,61.6779,102.3533],[29.5207,61.6773,112.4442],[29.5221,61.6817,113.7433],[29.5408,61.6804,93.7829],[29.5436,61.6893,88.5289],[29.553,61.6887,92.0365],[29.564,61.7242,110.37],[29.5734,61.7235,108.1243],[29.5748,61.728,110.4052],[29.5936,61.7267,104.8755],[29.595,61.7311,106.1373],[29.6044,61.7305,125.4779],[29.6057,61.7349,108.8351],[29.6245,61.7336,104.6817],[29.6259,61.738,102.6035],[29.6353,61.7374,101.6884],[29.6367,61.7418,110.6222],[29.6461,61.7412,100.2403],[29.6475,61.7456,111.8469],[29.6663,61.7443,99.8975],[29.6677,61.7487,103.5046],[29.6771,61.7481,110.6641],[29.6785,61.7525,97.5341],[29.6879,61.7519,96.9025],[29.6893,61.7563,97.7268],[29.7081,61.755,94.2019],[29.7095,61.7594,97.1875],[29.7189,61.7588,105.4678],[29.7203,61.7632,100.6359],[29.7391,61.7619,107.0932],[29.7405,61.7663,105.9156],[29.7499,61.7657,107.8001],[29.7513,61.7701,95.7825],[29.7607,61.7694,89.4674],[29.7621,61.7739,91.4323],[29.7809,61.7725,98.7367],[29.7823,61.777,111.8905],[29.7917,61.7763,110.1657],[29.7931,61.7807,95.9588],[29.8025,61.7801,93.5821],[29.8039,61.7845,90.5003],[29.8228,61.7832,87.4531],[29.8242,61.7876,83.7553],[29.8336,61.7869,88.0086],[29.835,61.7914,94.449],[29.8444,61.7907,90.2083],[29.8458,61.7952,79.5],[29.8646,61.7938,93.9562],[29.8661,61.7983,79.5],[29.8755,61.7976,79.5],[29.8769,61.802,79.5],[29.8863,61.8013,79.5],[29.8877,61.8058,79.5],[29.9066,61.8044,79.5],[29.908,61.8089,79.5],[29.9174,61.8082,79.5],[29.9188,61.8126,108.1077],[29.9376,61.8113,79.5],[29.9391,61.8157,79.5],[29.9485,61.8151,89.38],[29.9499,61.8195,79.5],[29.9594,61.8188,79.5],[29.9608,61.8232,91.4586],[29.9796,61.8219,79.5],[29.9811,61.8263,79.5],[29.9905,61.8256,79.5],[29.9919,61.8301,94.4972],[30.0013,61.8294,79.5],[30.0028,61.8338,79.5],[30.0122,61.8332,79.5],[30.0137,61.8376,79.5],[30.0231,61.8369,79.5],[30.0245,61.8414,93.0507],[30.0434,61.84,116.4388],[30.0448,61.8444,115.3264],[30.0542,61.8437,115.6685],[30.0557,61.8482,121.7764],[30.0651,61.8475,101.4713],[30.0666,61.8519,111.6903],[30.0854,61.8506,79.5],[30.0869,61.855,79.5],[30.0963,61.8543,100.8548],[30.0978,61.8587,79.5],[30.1166,61.8574,79.5],[30.1181,61.8618,79.5],[30.1275,61.8611,79.5],[30.129,61.8655,79.5],[30.1384,61.8648,79.5],[30.1369,61.8604,79.5],[30.1463,61.8597,79.5],[30.1434,61.8509,79.5],[30.15,61.8517,85.5407],[30.1606,61.8587,110.0732],[30.1651,61.8583,105.8947],[30.1665,61.8625,102.2964],[30.2011,61.8838,105.9849],[30.1993,61.8879,111.1382],[30.2023,61.8923,108.2046],[30.2109,61.8959,102.2668],[30.2162,61.8955,109.7569],[30.2176,61.8997,79.3395],[30.2495,61.9157,100.1501],[30.2519,61.9156,92.1383],[30.2526,61.9175,93.4641],[30.2733,61.9305,105.2298],[30.2772,61.9319,86.9271],[30.2862,61.9312,91.9892],[30.2871,61.9339,93.0234],[30.3104,61.9385,72.9497],[30.3175,61.938,93.7909],[30.322,61.9513,66.5],[30.3157,61.9517,66.5],[30.3149,61.9531,66.5],[30.3143,61.9656,98.6503],[30.3332,61.9761,83.8129],[30.3386,61.9773,90.4332],[30.35,61.9764,117.7142],[30.3512,61.98,133.0132],[30.3801,61.9969,133.4245],[30.3859,61.9965,141.9631],[30.3879,62.0023,135.5529],[30.4203,62.0244,135.2665],[30.4323,62.0294,108.8273],[30.4359,62.0291,113.9836],[30.4369,62.0318,119.9627],[30.4529,62.0415,128.5871],[30.4594,62.041,127.9301],[30.4616,62.0471,121.9507],[30.4653,62.0496,114.562],[30.472,62.0491,113.8099],[30.4766,62.0624,109.563],[30.4824,62.062,105.0466],[30.4935,62.0702,102.3218],[30.4986,62.0698,102.9291],[30.5022,62.0791,93.8876],[30.5075,62.0828,94.0311],[30.5127,62.0824,103.9517],[30.5146,62.0877,109.2925],[30.5344,62.1035,76.5],[30.5394,62.1031,76.5],[30.5414,62.109,85.6517],[30.6001,62.1387,86.5139],[30.607,62.1435,103.2235],[30.6119,62.1431,104.8545],[30.6166,62.1564,94.8191],[30.622,62.156,95.6407],[30.6281,62.1613,85.9386],[30.6342,62.1701,70.9389],[30.6333,62.176,65.3675],[30.6354,62.1822,84.8831],[30.6302,62.1837,68.4615],[30.6406,62.1944,78.6463],[30.6483,62.1995,78.8937],[30.6512,62.1992,82.9528],[30.6522,62.202,71.3401],[30.6582,62.2059,79.0002],[30.6706,62.2107,103.3658],[30.6845,62.2103,112.2594],[30.6853,62.2128,99.8216],[30.7188,62.2129,138.1211],[30.7327,62.2203,130.382],[30.7368,62.22,116.6277],[30.7379,62.2231,108.1552],[30.7495,62.2281,111.8279],[30.755,62.2322,128.9651],[30.7606,62.2318,121.3983],[30.7621,62.236,110.983],[30.7768,62.2442,107.5],[30.7844,62.2436,128.7618],[30.7892,62.2569,137.7856],[30.7987,62.2562,122.2772],[30.8053,62.2591,133.4261],[30.8109,62.2633,141.1752],[30.8149,62.2748,130.0685],[30.8423,62.2816,134.2644],[30.8551,62.2882,159.1401],[30.8591,62.2879,182.6814],[30.8611,62.2931,165.1851],[30.891,62.3072,129.0],[30.9136,62.3122,129.0],[30.9398,62.3094,136.5964],[30.9484,62.3127,129.0],[30.9537,62.3169,129.0],[30.9579,62.3166,129.0],[30.9644,62.3343,139.7455],[30.9545,62.3351,146.6624],[30.9437,62.3389,167.1093],[30.9671,62.3523,156.8118],[30.9709,62.352,163.3731],[30.972,62.3551,161.6719],[30.9881,62.3643,181.4729],[30.9949,62.3638,190.091],[30.9971,62.3698,179.5935],[31.0045,62.3745,168.0362],[31.042,62.3965,158.5643],[31.0462,62.3962,150.992],[31.0495,62.405,150.9031],[31.0567,62.4045,151.5142],[31.0638,62.4085,161.4305],[31.0702,62.4079,172.7585],[31.0723,62.4135,166.1009],[31.0774,62.4165,170.5315],[31.0831,62.416,168.1754],[31.0849,62.421,163.0795],[31.0927,62.4232,161.9205],[31.1011,62.4304,166.3651],[31.1341,62.4455,170.3911],[31.1627,62.4528,144.0],[31.1697,62.459,144.0],[31.1831,62.4855,144.0],[31.1879,62.4851,144.0],[31.1918,62.4953,144.0],[31.2298,62.5071,147.2596],[31.2471,62.526,144.0],[31.2526,62.5256,144.0],[31.2602,62.5453,156.3635],[31.2625,62.5458,148.3101],[31.2615,62.5472,149.7323],[31.2687,62.5516,157.4651],[31.2723,62.5513,155.7453],[31.275,62.5584,167.5474],[31.3182,62.6069,155.8213],[31.3231,62.6065,154.6442],[31.3279,62.618899999999996,156.9073],[31.3365,62.6282,150.3185],[31.3413,62.6278,149.5905],[31.3454,62.6385,149.6923],[31.3484,62.6421,149.2029],[31.3533,62.6451,151.4605],[31.3577,62.6447,149.843],[31.3604,62.6518,148.4766],[31.3746,62.6627,160.9059],[31.3803,62.6749,147.7855],[31.3835,62.6877,153.5031],[31.4187,62.7509,183.4927],[31.4243,62.7575,184.5402],[31.43,62.7722,166.0075],[31.435,62.7803,159.8124],[31.4394,62.7821,165.0295],[31.4549,62.7816,168.8848],[31.4612,62.7835,155.476],[31.4635,62.7879,172.916],[31.458,62.7965,172.155],[31.4588,62.8011,165.2871],[31.4951,62.8311,192.2955],[31.4978,62.8353,192.7169],[31.5111,62.8465,178.0447],[31.516,62.8461,189.3582],[31.5187,62.853,170.365],[31.5257,62.859,166.3224],[31.5309,62.8586,166.0415],[31.5338,62.8659,164.5464],[31.5618,62.8905,179.6458],[31.5708,62.9004,181.5901],[31.5775,62.9004,177.4789],[31.5828,62.9137,175.3146],[31.5768,62.9142,175.3565],[31.5685,62.9282,184.8862],[31.5704,62.9329,192.051],[31.5638,62.9335,196.1002],[31.5615,62.9358,198.2634],[31.5624,62.9381,199.3093],[31.5583,62.9385,196.5473],[31.5542,62.9417,197.6056],[31.5562,62.9478,210.0275],[31.5491,62.9483,223.3778],[31.5407,62.9593,203.7356],[31.542,62.9626,185.3408],[31.5377,62.9629,191.2327],[31.5334,62.9663,186.2962],[31.534,62.9678,197.74],[31.5298,62.9691,188.4657],[31.5291,62.973,192.7157],[31.5127,62.9901,215.4263],[31.5136,62.9922,204.5697],[31.5104,62.9925,206.8342],[31.5045,62.9986,182.9638],[31.4966,63.0003,175.7535],[31.4976,63.0026,181.0299],[31.4872,63.0035,182.5121],[31.479,63.0064,180.762],[31.4798,63.0086,177.9263],[31.4604,63.0105,186.3012],[31.4621,63.0146,184.9601],[31.4561,63.0155,182.7708],[31.4592,63.0228,182.5506],[31.4575,63.0286,185.9967],[31.4593,63.033,185.7004],[31.4521,63.0336,193.3017],[31.45,63.035,203.1471],[31.4513,63.0382,193.7232],[31.4409,63.0391,188.5959],[31.415,63.0485,178.0],[31.4157,63.0502,178.0],[31.4024,63.0513,186.4308],[31.3876,63.0549,186.3095],[31.38,63.0618,188.1116],[31.3818,63.0666,187.8172],[31.3765,63.067,191.6916],[31.3736,63.0713,189.4208],[31.3658,63.077,206.5699],[31.3473,63.0814,205.8909],[31.3479,63.0829,208.1962],[31.3387,63.0837,207.9841],[31.3188,63.0889,197.3817],[31.3054,63.0947,191.3583],[31.3028,63.0964,191.3854],[31.3042,63.1,196.2946],[31.2968,63.1006,190.2359],[31.279,63.113,204.4948],[31.2801,63.1156,220.253],[31.2761,63.1159,216.6106],[31.2718,63.1204,214.579],[31.2737,63.1252,206.0009],[31.2667,63.1258,199.8127],[31.2647,63.1279,194.8063],[31.2656,63.1304,194.321],[31.2623,63.1307,190.6722],[31.2586,63.1356,188.9436],[31.2627,63.1489,197.4498],[31.2577,63.1495,199.1741],[31.259,63.1781,189.5331],[31.2544,63.1867,197.4554],[31.2442,63.1964,193.542],[31.2369,63.2088,193.4845],[31.2388,63.2109,193.3257],[31.2376,63.2141,191.8344],[31.2395,63.219,190.6939],[31.2358,63.2193,192.4364],[31.2313,63.2258,200.6492],[31.2193,63.2316,213.169],[31.189,63.2381,212.7149],[31.1601,63.2475,199.7262],[31.1614,63.2524,201.9326],[31.1541,63.253,199.2986],[31.1323,63.2633,203.1287],[31.1185,63.2724,203.9008],[31.119,63.2739,205.0017],[31.1103,63.2776,217.4168],[31.1109,63.2791,219.8063],[31.1017,63.2817,211.8889],[31.1027,63.2843,215.4382],[31.0933,63.285,215.1769],[31.084,63.2882,211.6591],[31.0847,63.2902,209.1657],[31.0723,63.2912,210.5179],[31.0365,63.3015,210.7181],[31.0005,63.3084,245.6658],[30.9825,63.3146,205.199],[30.9831,63.3162,206.4415],[30.974,63.3179,215.3988],[30.9677,63.3212,195.6886],[30.9519,63.3365,185.2057],[30.9494,63.3436,159.1359],[30.9444,63.3478,157.8638],[30.9456,63.3509,159.9766],[30.9268,63.3548,150.4395],[30.9275,63.3568,162.8921],[30.9098,63.3581,147.5656],[30.8891,63.3626,161.3399],[30.8897,63.3642,155.6728],[30.8649,63.3665,146.8778],[30.8515,63.3697,146.9517],[30.8518,63.3716,168.3028],[30.848,63.3719,152.3362],[30.843,63.3751,147.1981],[30.8436,63.3768,138.5],[30.8398,63.3771,144.8239],[30.8307,63.3828,184.7292],[30.8272,63.3871,156.9003],[30.7909,63.4046,157.0],[30.7835,63.4061,157.0],[30.7844,63.4085,157.0],[30.7646,63.41,157.0],[30.6698,63.4287,155.5359],[30.6705,63.4306,161.091],[30.6527,63.4319,170.9747],[30.6414,63.4344,177.3904],[30.6424,63.4372,178.524],[30.6231,63.4386,191.8049],[30.5655,63.4497,162.0456],[30.5663,63.4518,159.3676],[30.5491,63.4531,151.3609],[30.5372,63.4557,148.704],[30.5382,63.4584,150.4417],[30.5202,63.4585,209.0713],[30.5052,63.4619,257.468],[30.4919,63.471,143.5761],[30.4935,63.4753,151.7723],[30.4848,63.4759,156.6163],[30.4757,63.4824,177.9312],[30.4769,63.4856,147.0572],[30.4707,63.486,148.566],[30.4515,63.4999,236.0327],[30.4519,63.501,232.5491],[30.4498,63.5012,238.8109],[30.4355,63.5118,257.3459],[30.4369,63.5157,237.5659],[30.4293,63.5163,252.5907],[30.4193,63.5235,216.8564],[30.4203,63.526,195.3692],[30.4155,63.5264,209.8164],[30.4114,63.5296,191.6673],[30.4119,63.5312,196.4354],[30.4092,63.5314,197.1765],[30.3927,63.5431,204.63],[30.3592,63.5545,164.5768],[30.3603,63.5576,162.0736],[30.3494,63.5584,176.9485],[30.3411,63.561,180.6205],[30.342,63.5634,177.735],[30.329,63.5644,180.8212],[30.3044,63.5725,190.5984],[30.3053,63.5751,212.5427],[30.294,63.5759,183.9408],[30.2861,63.5785,173.9185],[30.287,63.581,186.4831],[30.2765,63.5817,201.7815],[30.2698,63.5839,207.8229],[30.2686,63.5868,181.6693],[30.2665,63.587,204.6945],[30.2591,63.5938,197.4646],[30.2533,63.6011,203.3759],[30.2551,63.6059,210.2532],[30.2455,63.6066,186.9612],[30.2109,63.6252,270.3731],[30.2116,63.6272,216.0015],[30.2067,63.6275,229.6426],[30.1938,63.6346,170.1144],[30.1948,63.6374,182.7649],[30.1877,63.6379,162.4618],[30.1766,63.644,185.7155],[30.178,63.6477,185.0062],[30.1686,63.6483,190.5406],[30.1696,63.6528,217.5975],[30.1591,63.6535,200.0106],[30.1338,63.6674,174.7488],[30.1343,63.6689,169.874],[30.1252,63.6721,161.098],[30.1259,63.674,157.1421],[30.1211,63.6744,162.7241],[30.113,63.6788,144.0],[30.1076,63.6788,144.0],[30.0882,63.6883,144.0],[30.0811,63.6923,144.0],[30.0822,63.6952,173.3393],[30.0726,63.6971,144.0],[30.0737,63.7003,159.4505],[30.064,63.7019,152.4016],[30.0653,63.7055,148.8058],[30.0593,63.7059,147.6144],[30.0562,63.7088,157.0689],[30.0416,63.7113,154.8275],[30.0293,63.7199,167.1394],[30.0299,63.7215,156.4249],[30.0266,63.7218,157.0534],[30.0149,63.7303,166.7405],[30.0048,63.7338,185.2219],[30.0061,63.7413,182.6493],[30.0027,63.7416,184.7953],[29.9825,63.752,211.5514],[29.949,63.7543,186.7906],[29.9475,63.7499,181.2135],[29.9073,63.7526,167.4483],[29.9058,63.7481,158.7265],[29.8756,63.7501,160.6749],[29.8741,63.7457,186.5246],[29.864,63.7464,208.7911],[29.861,63.7375,182.8985],[29.8509,63.7382,187.6955],[29.8494,63.7337,186.1446],[29.8393,63.7344,178.5372],[29.8362,63.7255,199.3238],[29.8262,63.7262,207.1015],[29.8247,63.7218,187.072],[29.8146,63.7225,193.5197],[29.8131,63.718,179.4907],[29.8031,63.7187,168.088],[29.8,63.7098,174.5542],[29.7899,63.7105,192.7852],[29.7884,63.706,183.3844],[29.7684,63.7074,211.6996],[29.7699,63.7118,199.7817],[29.7599,63.7125,215.3593],[29.7629,63.7214,196.4324],[29.7529,63.722,203.124],[29.7544,63.7265,196.2912],[29.7444,63.7271,203.9176],[29.7459,63.7316,214.6439],[29.7359,63.7322,222.6702],[29.7389,63.7411,209.7],[29.7289,63.7418,224.3105],[29.7304,63.7462,219.7535],[29.7204,63.7469,234.8214],[29.725,63.7602,215.9427],[29.7149,63.7609,231.7957],[29.7211,63.7786,235.9059],[29.711,63.7793,233.3082],[29.7156,63.7926,219.9302],[29.7055,63.7933,230.62],[29.7116,63.811,197.3813],[29.7016,63.8117,210.5109],[29.7062,63.825,214.4088],[29.6961,63.8257,216.2567],[29.7007,63.839,224.586],[29.6906,63.8397,215.0418],[29.6967,63.8574,262.4823],[29.6867,63.8581,261.3399],[29.6913,63.8714,244.1955],[29.6812,63.8721,258.606],[29.6827,63.8765,244.0124],[29.6423,63.8792,269.6932],[29.6408,63.8747,271.0821],[29.6105,63.8767,220.1314],[29.609,63.8722,231.5311],[29.5687,63.8749,255.9764],[29.5672,63.8704,267.0462],[29.5369,63.8724,245.4445],[29.5354,63.8679,235.1346],[29.5051,63.8699,235.2866],[29.5036,63.8655,210.0],[29.4733,63.8674,242.0206],[29.4718,63.863,251.035],[29.4416,63.8649,246.8439],[29.4401,63.8605,250.5102],[29.4098,63.8624,231.8878],[29.4083,63.8579,247.7043],[29.378,63.8599,207.1421],[29.3766,63.8554,197.5482],[29.3463,63.8573,188.871],[29.3448,63.8529,189.8106],[29.3146,63.8548,195.2852],[29.3131,63.8504,191.3699],[29.2727,63.8529,189.9393],[29.2713,63.8485,239.8105],[29.2309,63.851,178.514],[29.2294,63.8465,185.7969],[29.179,63.8497,199.671],[29.1775,63.8453,194.8589],[29.1271,63.8484,171.9609],[29.1257,63.8439,176.9009],[29.0752,63.847,197.8112],[29.0738,63.8426,191.7475],[29.0334,63.8451,225.0838],[29.032,63.8406,196.8513],[28.9815,63.8437,177.1345],[28.9801,63.8393,176.2644],[28.9296,63.8423,209.828],[28.9282,63.8379,202.3222],[28.7768,63.847,196.1028],[28.7782,63.8514,196.0021],[28.7075,63.8556,181.6624],[28.7089,63.8601,185.3813],[28.6078,63.866,182.0681],[28.6092,63.8704,202.9229],[28.5283,63.8751,189.2677],[28.5296,63.8796,199.1721],[28.4993,63.8813,161.8135],[28.4979,63.8769,163.673],[28.4878,63.8774,193.3679],[28.4865,63.873,196.6415],[28.4663,63.8741,224.7541],[28.4636,63.8652,229.7494],[28.4737,63.8647,227.9687],[28.4683,63.8469,175.5217],[28.4582,63.8474,191.6222],[28.4542,63.8341,221.042],[28.4441,63.8347,216.7314],[28.4401,63.8213,201.1786],[28.43,63.8219,204.3693],[28.4261,63.8085,209.3862],[28.416,63.8091,225.5696],[28.412,63.7957,227.0504],[28.4019,63.7963,247.1226],[28.3979,63.7829,265.905],[28.3878,63.7835,292.3987],[28.3839,63.7701,319.0995],[28.3738,63.7707,289.9586],[28.3698,63.7574,305.9421],[28.3598,63.7579,261.7234],[28.3558,63.7446,268.0596],[28.3458,63.7451,264.5541],[28.3405,63.7273,251.4153],[28.3304,63.7279,261.75],[28.3265,63.7145,241.3533],[28.3164,63.7151,228.5778],[28.3112,63.6973,224.7113],[28.3012,63.6979,217.2801],[28.2973,63.6845,212.0938],[28.2872,63.6851,223.3518],[28.282,63.6672,187.8327],[28.272,63.6678,190.3948],[28.2733,63.6723,197.0782],[28.2532,63.6734,193.6886],[28.2545,63.6778,195.6651],[28.2444,63.6784,193.2398],[28.247,63.6873,203.7464],[28.237,63.6879,218.0534],[28.2383,63.6923,199.716],[28.2282,63.6929,229.8747],[28.2295,63.6974,195.5109],[28.2194,63.6979,200.8822],[28.2207,63.7024,190.6246],[28.2107,63.7029,188.1132],[28.212,63.7074,186.9324],[28.1918,63.7085,191.4189],[28.1931,63.713,187.0939],[28.1629,63.7146,186.4735],[28.1642,63.7191,186.1436],[28.1542,63.7197,185.972],[28.1554,63.7241,193.3008],[28.1454,63.7247,188.4943],[28.1467,63.7291,196.2243],[28.1366,63.7297,196.5824],[28.1379,63.7341,200.1712],[28.1278,63.7347,194.0062],[28.1291,63.7392,198.3917],[28.119,63.7397,195.4297],[28.1203,63.7442,196.6933],[28.1102,63.7447,186.7596],[28.1115,63.7492,186.849],[28.1014,63.7497,188.4417],[28.104,63.7587,186.7418],[28.0939,63.7592,180.2204],[28.0951,63.7637,169.6803],[28.0851,63.7642,172.4097],[28.0863,63.7687,167.7226],[28.0763,63.7692,166.7422],[28.0775,63.7737,164.2866],[28.0674,63.7742,164.8838],[28.0687,63.7787,163.665],[28.0586,63.7793,163.4708],[28.0599,63.7837,163.3069],[28.0498,63.7842,163.3381],[28.0511,63.7887,163.4272],[28.041,63.7892,163.5853],[28.0423,63.7937,163.5446],[28.0322,63.7943,163.7173],[28.0334,63.7987,163.5299],[28.0233,63.7993,163.4724],[28.0246,63.8037,163.5801],[28.0044,63.8048,163.4878],[28.0057,63.8093,163.6627],[27.9956,63.8098,163.6595],[27.9968,63.8143,163.594],[27.9867,63.8148,163.6696],[27.988,63.8193,163.4287],[27.9779,63.8198,163.6157],[27.9792,63.8243,163.5263],[27.959,63.8254,163.9044],[27.9602,63.8298,163.8375],[27.9501,63.8304,163.5074],[27.9513,63.8348,163.4131],[27.9412,63.8354,163.5413],[27.9425,63.8398,163.4806],[27.9324,63.8404,163.6404],[27.9336,63.8448,163.4412],[27.9235,63.8454,164.051],[27.9248,63.8498,163.5983],[27.8843,63.852,167.0383],[27.8856,63.8565,175.6638],[27.8653,63.8576,180.0911],[27.8666,63.862,182.5924],[27.8564,63.8625,178.736],[27.8577,63.867,187.0514],[27.8476,63.8675,185.5696],[27.8488,63.872,190.2282],[27.8286,63.8731,177.5784],[27.8298,63.8775,183.2493],[27.8197,63.8781,176.2584],[27.8209,63.8825,187.48],[27.8007,63.8836,170.7914],[27.8019,63.8881,177.8136],[27.7918,63.8886,166.477],[27.793,63.8931,176.1354],[27.7727,63.8941,181.8743],[27.774,63.8986,167.3315],[27.7638,63.8991,173.581],[27.7651,63.9036,171.9935],[27.7448,63.9046,167.174],[27.746,63.9091,166.9046],[27.7257,63.9101,157.5],[27.727,63.9146,157.5],[27.6864,63.9167,157.5],[27.6876,63.9212,157.5],[27.6673,63.9222,157.5],[27.6572,63.9227,157.5],[27.656,63.9183,157.5],[27.6458,63.9188,157.5],[27.647,63.9233,157.5],[27.6267,63.9243,157.5],[27.6279,63.9288,159.0554],[27.6178,63.9293,161.2243],[27.619,63.9338,161.3083],[27.5987,63.9348,172.0036],[27.5999,63.9393,172.6039],[27.5796,63.9403,174.7413],[27.5808,63.9448,183.1187],[27.5707,63.9453,182.4601],[27.5719,63.9498,182.3501],[27.5516,63.9508,175.019],[27.5527,63.9552,183.4214],[27.4918,63.9583,197.4979],[27.4906,63.9539,193.2437],[27.5008,63.9534,199.5655],[27.4996,63.9489,175.5953],[27.4793,63.9499,165.4566],[27.4781,63.9455,165.7965],[27.4578,63.9465,156.0078],[27.4566,63.942,163.1487],[27.4464,63.9425,162.5115],[27.4476,63.947,151.9379],[27.4273,63.948,151.1696],[27.4308,63.9614,157.8721],[27.4206,63.9619,162.379],[27.4218,63.9664,160.5365],[27.3812,63.9684,166.056],[27.3823,63.9729,170.4665],[27.3417,63.9749,156.6722],[27.3428,63.9793,154.0],[27.292,63.9818,162.044],[27.2931,63.9863,170.423],[27.2016,63.9908,191.1364],[27.2027,63.9952,197.6737],[27.1925,63.9957,209.8389],[27.1314,63.9987,221.8285],[27.1303,63.9942,213.5919],[27.1201,63.9947,207.6548],[27.119,63.9902,198.2571],[27.0579,63.9931,196.5448],[27.059,63.9976,193.9218],[26.9979,64.0005,186.1125],[26.999,64.005,196.2145],[26.9787,64.0059,197.6609],[26.9798,64.0104,208.4442],[26.9594,64.0114,194.1064],[26.9605,64.0158,204.8993],[26.9299,64.0172,206.6074],[26.931,64.0217,212.4768],[26.9107,64.0227,219.2318],[26.9118,64.0271,221.7384],[26.8914,64.0281,226.2334],[26.8925,64.0325,225.0622],[26.8517,64.0344,181.9157],[26.8506,64.03,178.0628],[26.8302,64.0309,173.6665],[26.8291,64.0264,179.0584],[26.8189,64.0269,174.4347],[26.8178,64.0224,175.0224],[26.7974,64.0234,193.6915],[26.7963,64.0189,198.0996],[26.7862,64.0194,188.0734],[26.7851,64.0149,189.3493],[26.7647,64.0158,174.8857],[26.7636,64.0114,172.0581],[26.7432,64.0123,176.5882],[26.7421,64.0078,171.0713],[26.732,64.0083,171.8813],[26.7309,64.0038,161.417],[26.7105,64.0047,182.8147],[26.7094,64.0002,175.4036],[26.6891,64.0012,181.0095],[26.688,63.9967,175.0669],[26.6778,63.9972,174.2426],[26.6768,63.9927,180.1751],[26.6564,63.9936,181.8153],[26.6553,63.9891,193.7382],[26.6349,63.99,196.2043],[26.6339,63.9856,198.5984],[26.6237,63.986,197.0694],[26.6227,63.9816,203.1044],[26.6023,63.9825,190.5843],[26.6012,63.978,191.6855],[26.591,63.9785,185.3939],[26.59,63.974,183.6447],[26.5798,63.9744,178.1266],[26.5788,63.97,182.1446],[26.5686,63.9704,182.8007],[26.5665,63.9615,181.2305],[26.5563,63.9619,177.9366],[26.5553,63.9575,182.5026],[26.5451,63.9579,178.2693],[26.5441,63.9534,179.3821],[26.5339,63.9539,174.0601],[26.5329,63.9494,173.6344],[26.5227,63.9499,174.3682],[26.5217,63.9454,171.9774],[26.5115,63.9458,169.8807],[26.5105,63.9414,167.5525],[26.5003,63.9418,166.293],[26.4992,63.9373,165.0547],[26.4891,63.9378,165.4624],[26.487,63.9288,162.8501],[26.4768,63.9293,163.3094],[26.4758,63.9248,165.3961],[26.465699999999998,63.9253,164.3679],[26.4646,63.9208,166.4625],[26.4544,63.9212,170.5687],[26.4534,63.9168,173.6886],[26.4433,63.9172,177.1807],[26.4422,63.9127,177.2638],[26.4321,63.9132,182.5756],[26.4311,63.9087,178.819],[26.4209,63.9091,176.0294],[26.4199,63.9047,174.6728],[26.4097,63.9051,167.9375],[26.4086,63.9007,167.0956],[26.3986,63.9011,155.1894],[26.3975,63.8966,152.5357],[26.3874,63.897,151.634],[26.3864,63.8926,151.3356],[26.3762,63.893,153.8024],[26.3752,63.8885,148.625],[26.365,63.889,151.4506],[26.364,63.8845,148.936],[26.3539,63.8849,152.8429],[26.3529,63.8805,163.0575],[26.3427,63.8809,160.2115],[26.3417,63.8764,158.8792],[26.3316,63.8769,162.4154],[26.3306,63.8724,170.1717],[26.3204,63.8728,171.6758],[26.3184,63.8639,169.4318],[26.3083,63.8643,167.9802],[26.3073,63.8599,170.8156],[26.2972,63.8603,163.9639],[26.2962,63.8558,159.7746],[26.286,63.8562,145.1363],[26.285,63.8518,140.5016],[26.2749,63.8522,138.109],[26.2739,63.8477,134.0351],[26.2637,63.8482,130.8866],[26.2627,63.8437,130.9587],[26.2526,63.8441,138.6773],[26.2516,63.8396,136.8203],[26.2415,63.8401,137.4455],[26.2405,63.8356,142.2305],[26.2304,63.836,149.596],[26.2294,63.8316,161.5824],[26.2192,63.832,164.8076],[26.2183,63.8275,167.4382],[26.2284,63.8271,164.4734],[26.2264,63.8181,164.4925],[26.2365,63.8177,161.5547],[26.2346,63.8088,170.4702],[26.2447,63.8083,163.8506],[26.2418,63.7949,162.296],[26.2519,63.7945,141.9075],[26.2479,63.7766,147.2557],[26.258,63.7762,152.1652],[26.2531,63.7538,137.7055],[26.2632,63.7534,142.7849],[26.2583,63.731,133.4967],[26.2684,63.7306,127.8483],[26.2635,63.7083,159.4012],[26.2736,63.7078,154.4899],[26.2686,63.6855,155.034],[26.2787,63.685,144.916],[26.2738,63.6627,150.5257],[26.2838,63.6623,144.6765],[26.2789,63.6399,169.2881],[26.289,63.6395,169.4073],[26.2841,63.6171,174.2957],[26.2941,63.6167,173.2044],[26.2892,63.5943,183.4335],[26.2992,63.5939,173.133],[26.2983,63.5894,180.1765],[26.2882,63.5899,179.1266],[26.2872,63.5854,185.4269],[26.2671,63.5863,192.2599],[26.2661,63.5818,195.7512],[26.2461,63.5826,189.3238],[26.2451,63.5782,182.8655],[26.225,63.579,166.0622],[26.224,63.5745,176.3003],[26.214,63.575,175.998],[26.213,63.5705,184.5875],[26.203,63.5709,196.3734],[26.1855,63.4904,150.3711],[26.1755,63.4909,154.4485],[26.1736,63.4819,161.0396],[26.1636,63.4823,162.8551],[26.1607,63.4689,160.4613],[26.1507,63.4693,153.1629],[26.1488,63.4604,166.8367],[26.1388,63.4608,170.9698],[26.1382,63.458,177.2954],[26.1378,63.4563,182.0476],[26.1478,63.4559,171.1598],[26.1469,63.4515,182.353],[26.1569,63.451,169.0727],[26.1559,63.4466,175.0369],[26.1659,63.4461,156.0451],[26.165,63.4417,161.0932],[26.175,63.4412,142.2528],[26.173,63.4323,157.4232],[26.163,63.4327,166.4451],[26.1611,63.4238,158.5003],[26.1511,63.4242,157.6312],[26.1502,63.4197,159.0226],[26.1402,63.4202,156.2645],[26.1383,63.4112,146.5308],[26.1283,63.4116,145.7078],[26.1274,63.4072,152.3779],[26.1174,63.4076,160.2142],[26.1136,63.3897,145.1112],[26.1036,63.3901,145.145],[26.1007,63.3767,139.989],[26.0908,63.3771,141.28],[26.0879,63.3637,175.0646],[26.078,63.3641,174.9702],[26.0761,63.3552,162.2305],[26.096,63.3543,156.3404],[26.0951,63.3498,155.0176],[26.105,63.3494,151.9149],[26.1041,63.345,148.5874],[26.1141,63.3445,150.2747],[26.1122,63.3356,148.0722],[26.1221,63.3352,141.7991],[26.1212,63.3307,143.6811],[26.1311,63.3303,140.9681],[26.1283,63.3169,147.4541],[26.1382,63.3165,143.8587],[26.1335,63.2941,185.1375],[26.1435,63.2937,166.0229],[26.1397,63.2758,169.2115],[26.1496,63.2754,173.8961],[26.1477,63.2664,170.3381],[26.1576,63.266,174.4781],[26.1557,63.2571,181.6323],[26.1657,63.2566,182.53],[26.1638,63.2477,179.4435],[26.1737,63.2473,180.1243],[26.1728,63.2428,179.325],[26.1827,63.2424,176.9759],[26.1789,63.2245,169.1863],[26.1888,63.2241,170.7359],[26.1859,63.2107,146.7195],[26.1562,63.2119,183.2455],[26.1505,63.1851,189.1553],[26.1604,63.1847,183.2371],[26.1566,63.1668,149.4489],[26.1665,63.1664,149.5513],[26.1618,63.144,137.2532],[26.1816,63.1432,134.7807],[26.1806,63.1387,134.8186],[26.1905,63.1383,134.8131],[26.1867,63.1204,147.4754],[26.1966,63.12,150.9513],[26.1957,63.1155,146.6747],[26.2055,63.1151,145.9832],[26.2046,63.1106,145.4585],[26.2145,63.1102,147.9915],[26.2116,63.0968,147.9245],[26.2215,63.0963,163.0039],[26.2205,63.0919,145.1367],[26.2304,63.0914,158.3766],[26.2285,63.0825,151.0271],[26.2384,63.0821,156.602],[26.2365,63.0731,148.3824],[26.2464,63.0727,145.046],[26.2454,63.0682,149.0653],[26.2553,63.0678,145.7888],[26.2543,63.0633,145.0466],[26.2741,63.0625,144.6247],[26.2731,63.058,144.8031],[26.2928,63.0571,152.9245],[26.2919,63.0527,152.8246],[26.3116,63.0518,152.7767],[26.3106,63.0473,145.0363],[26.3303,63.0465,169.1302],[26.3284,63.0375,152.405],[26.2397,63.0414,151.3229],[26.2378,63.0325,152.4977],[26.2279,63.0329,145.616],[26.226,63.0239,136.0836],[26.2359,63.0235,149.4532],[26.2339,63.0146,141.0428],[26.2438,63.0141,154.8327],[26.2428,63.0097,139.9486],[26.2527,63.0093,145.0878],[26.2517,63.0048,179.8144],[26.2616,63.0043,164.381],[26.2606,62.9999,157.9209],[26.2705,62.9995,149.0239],[26.2695,62.995,141.1193],[26.2794,62.9946,142.3291],[26.2784,62.9901,134.419],[26.2883,62.9897,144.4853],[26.2863,62.9807,146.8937],[26.306,62.9799,139.7165],[26.307,62.9843,141.0237],[26.3365,62.983,185.746],[26.3355,62.9786,173.2337],[26.3257,62.979,143.8312],[26.3209,62.9566,129.5676],[26.3111,62.9571,120.5],[26.3091,62.9481,124.6373],[26.2993,62.9486,133.3154],[26.2974,62.9396,124.1916],[26.2876,62.9401,133.7542],[26.2856,62.9311,123.4715],[26.266,62.932,107.5],[26.2669,62.9364,119.7173],[26.2571,62.9369,109.625],[26.2581,62.9413,127.1052],[26.2482,62.9418,120.4927],[26.2492,62.9462,131.5559],[26.2394,62.9467,130.9272],[26.2403,62.9511,143.9059],[26.1518,62.9549,127.7064],[26.1509,62.9505,137.1918],[26.1214,62.9517,115.4676],[26.1204,62.9473,125.4366],[26.1106,62.9477,121.9601],[26.1097,62.9432,127.956],[26.0999,62.9436,111.2451],[26.0989,62.9392,117.3195],[26.0694,62.9404,98.0],[26.0685,62.9359,98.0],[26.039,62.9372,98.0],[26.0381,62.9327,98.0],[26.0479,62.9323,98.0],[26.0461,62.9233,98.0],[26.0559,62.9229,98.0],[26.0532,62.9095,98.0],[26.063,62.9091,98.0],[26.0602,62.8957,98.0],[26.07,62.8953,98.0],[26.0691,62.8908,98.0],[26.0789,62.8904,98.0],[26.078,62.8859,98.0],[26.1074,62.8847,98.0],[26.1065,62.8802,98.0],[26.1457,62.8785,98.0],[26.1448,62.874,98.0],[26.1742,62.8728,98.0],[26.1733,62.8683,98.0],[26.1831,62.8679,98.0],[26.1821,62.8634,98.0],[26.192,62.863,98.0],[26.191,62.8585,110.819],[26.1812,62.8589,110.3986],[26.1803,62.8545,118.3124],[26.1705,62.8549,124.3354],[26.1695,62.8504,136.2792],[26.1597,62.8508,117.2059],[26.1579,62.8419,98.0],[26.1677,62.8415,105.4123],[26.1667,62.837,98.0],[26.1765,62.8366,98.0],[26.1756,62.8321,98.0],[26.1854,62.8317,98.0],[26.1845,62.8272,98.0],[26.204,62.8264,126.4593],[26.205,62.8308,130.0918],[26.2148,62.8304,128.8069],[26.2138,62.8259,119.3967],[26.2334,62.8251,117.5639],[26.2324,62.8206,110.6128],[26.2422,62.8202,111.7815],[26.2413,62.8157,98.0],[26.2511,62.8153,98.0],[26.2501,62.8108,98.0],[26.2599,62.8104,98.0],[26.259,62.8059,98.0],[26.2687,62.8055,98.0],[26.2678,62.801,98.0],[26.2776,62.8006,98.0],[26.2757,62.7917,98.0],[26.2855,62.7912,98.0],[26.2845,62.7868,98.0],[26.2943,62.7864,98.0],[26.2933,62.7819,98.0],[26.3031,62.7814,98.0],[26.3022,62.777,98.0],[26.3119,62.7765,98.0],[26.311,62.7721,98.0],[26.3207,62.7716,98.0],[26.3198,62.7672,98.0],[26.3296,62.7667,98.0],[26.3286,62.7623,98.0],[26.3384,62.7618,98.0],[26.3374,62.7574,98.0],[26.3472,62.7569,98.0],[26.3462,62.7525,98.0],[26.356,62.752,98.0],[26.355,62.7476,98.0],[26.3648,62.7471,98.0],[26.3657,62.7516,98.0],[26.3755,62.7512,98.0],[26.3765,62.7556,98.0],[26.3862,62.7552,98.0],[26.3882,62.7641,98.0],[26.3979,62.7637,98.0],[26.3999,62.7726,115.8225],[26.3901,62.7731,113.0588],[26.3911,62.7775,116.0643],[26.4008,62.7771,94.0],[26.4018,62.7816,94.0],[26.4214,62.7807,94.0],[26.4223,62.7852,94.0],[26.4419,62.7843,94.0],[26.4428,62.7888,94.0],[26.4526,62.7883,94.0],[26.4516,62.7839,94.0],[26.4614,62.7834,94.0],[26.4595,62.7745,94.0],[26.4692,62.774,94.0],[26.4683,62.7696,94.0],[26.478,62.7691,94.0],[26.4761,62.7602,94.0],[26.4858,62.7597,94.0],[26.4848,62.7553,94.0],[26.4946,62.7548,94.0],[26.4936,62.7504,94.0],[26.5034,62.7499,94.0],[26.5014,62.741,94.0],[26.5112,62.7405,94.0],[26.5102,62.7361,94.0],[26.52,62.7356,94.0],[26.519,62.7311,94.0],[26.5287,62.7307,94.0],[26.5268,62.7218,94.0],[26.5365,62.7213,94.0],[26.5345,62.7124,94.0],[26.5443,62.7119,94.0],[26.5423,62.703,94.0],[26.5521,62.7025,94.0],[26.5491,62.6891,94.0],[26.5588,62.6887,94.0],[26.5569,62.6797,94.0],[26.5666,62.6793,94.0],[26.5646,62.6704,94.0],[26.5744,62.6699,104.2273],[26.5724,62.661,94.0],[26.5821,62.6605,110.9501],[26.5801,62.6516,102.5673],[26.5899,62.6512,108.0817],[26.5879,62.6422,94.0],[26.5976,62.6418,94.0],[26.5936,62.6239,94.0],[26.6033,62.6235,94.0],[26.6004,62.6101,94.0],[26.590699999999998,62.6105,94.0],[26.5897,62.606,94.0],[26.58,62.6065,94.0],[26.579,62.602,116.4972],[26.5887,62.6016,94.0],[26.5877,62.5971,94.0],[26.5974,62.5966,103.4527],[26.5954,62.5877,94.0],[26.576,62.5886,94.0],[26.573,62.5752,94.0],[26.5633,62.5756,94.0],[26.5594,62.5578,141.0059],[26.5497,62.5582,133.8976],[26.5478,62.5493,153.3203],[26.538,62.5497,155.7511],[26.5361,62.5408,165.2382],[26.5264,62.5412,114.0362],[26.5254,62.5368,139.0338],[26.5157,62.5372,108.355],[26.5148,62.5327,123.794],[26.4857,62.5341,114.5],[26.4837,62.5251,132.6137],[26.474,62.5256,131.2121],[26.4721,62.5167,147.553],[26.4818,62.5162,140.8534],[26.4808,62.5117,144.3897],[26.5002,62.5109,143.6448],[26.4992,62.5064,122.0],[26.5186,62.5055,156.9709],[26.5176,62.501,143.1196],[26.5273,62.5006,175.8079],[26.5263,62.4961,181.9271],[26.5457,62.4952,165.4617],[26.5447,62.4907,158.9852],[26.5544,62.4903,157.809],[26.5534,62.4858,144.3473],[26.5727,62.4849,116.6211],[26.5718,62.4805,110.1199],[26.5814,62.48,105.0],[26.5805,62.4756,105.0],[26.5901,62.4751,105.0],[26.5891,62.4706,105.0],[26.5988,62.4702,105.0],[26.5978,62.4657,116.1506],[26.6075,62.4653,105.0],[26.6065,62.4608,105.0],[26.6162,62.4604,112.1582],[26.6152,62.4559,105.0],[26.6345,62.455,151.9429],[26.6335,62.4505,185.4816],[26.6432,62.4501,199.1407],[26.6442,62.4545,154.5982],[26.6538,62.4541,166.0268],[26.6548,62.4585,128.8062],[26.6742,62.4576,117.3108],[26.6751,62.4621,106.0],[26.7041,62.4607,112.9466],[26.7031,62.4563,106.0],[26.7128,62.4558,106.0],[26.7108,62.4469,106.0],[26.7011,62.4473,106.0],[26.6981,62.4339,116.133],[26.7078,62.4335,121.965],[26.7048,62.4201,132.7431],[26.6952,62.4205,124.1332],[26.6932,62.4116,123.7262],[26.6835,62.4121,149.917],[26.6805,62.3987,139.6373],[26.6902,62.3982,123.0],[26.6892,62.3937,123.0],[26.7085,62.3928,123.0],[26.7075,62.3883,123.0],[26.7171,62.3879,123.0],[26.7161,62.3834,123.0],[26.7354,62.3825,123.0],[26.7344,62.378,123.0],[26.744,62.3776,131.3561],[26.743,62.3731,123.0],[26.7526,62.3727,140.7243],[26.7516,62.3682,123.0],[26.7613,62.3677,134.0251],[26.7603,62.3633,123.0],[26.7699,62.3628,123.0],[26.7689,62.3583,123.0],[26.7785,62.3579,133.8359],[26.7775,62.3534,123.0],[26.7583,62.3543,154.2748],[26.7573,62.3498,143.0],[26.7284,62.3512,196.8308],[26.7274,62.3468,211.356],[26.7081,62.3477,164.643],[26.7071,62.3432,152.0049],[26.6782,62.3446,138.7152],[26.6743,62.3267,135.9959],[26.6646,62.3272,135.7638],[26.6636,62.3227,142.4019],[26.6733,62.3223,140.0491],[26.6723,62.3178,144.3182],[26.6819,62.3173,136.3657],[26.6789,62.3039,158.968],[26.6597,62.3048,140.3063],[26.6587,62.3004,155.1646],[26.6395,62.3013,140.1088],[26.6385,62.2968,133.9323],[26.6193,62.2977,125.4349],[26.6173,62.2888,123.849],[26.6269,62.2883,126.5942],[26.6259,62.2839,123.9537],[26.6355,62.2834,126.724],[26.6287,62.2521,153.7865],[26.6383,62.2517,146.905],[26.6353,62.2383,142.9385],[26.6545,62.2374,134.0592],[26.6535,62.2329,129.5],[26.6631,62.2324,129.5],[26.6592,62.2146,128.3473],[26.64,62.2155,134.9819],[26.639,62.211,132.0632],[26.6198,62.2119,160.8903],[26.6218,62.2209,139.774],[26.6122,62.2213,131.5],[26.6132,62.2258,131.5],[26.6036,62.2262,145.5459],[26.6046,62.2307,137.2477],[26.595,62.2312,152.5346],[26.596,62.2356,149.0188],[26.5864,62.2361,163.661],[26.5873,62.2405,137.0],[26.5777,62.241,144.4967],[26.5787,62.2454,149.4841],[26.5691,62.2459,140.9546],[26.5701,62.2504,125.0],[26.5605,62.2508,135.3297],[26.5624,62.2598,121.2693],[26.5528,62.2602,112.2688],[26.5538,62.2647,104.763],[26.5442,62.2651,102.8791],[26.5432,62.2606,123.4529],[26.524,62.2615,127.9386],[26.5231,62.2571,134.4748],[26.5135,62.2575,133.0107],[26.5125,62.253,137.6655],[26.5029,62.2535,131.2455],[26.5019,62.249,132.55],[26.4827,62.2499,134.3681],[26.4808,62.241,136.8156],[26.4904,62.2405,139.761],[26.4895,62.2361,134.5172],[26.499,62.2356,135.4513],[26.4971,62.2267,129.8978],[26.4875,62.2271,142.5414],[26.4866,62.2226,129.8231],[26.477,62.2231,124.2896],[26.476,62.2186,117.7703],[26.4664,62.2191,110.5],[26.4655,62.2146,110.5],[26.4559,62.215,115.8083],[26.4549,62.2106,117.509],[26.4453,62.211,108.646],[26.4472,62.2199,114.8962],[26.4376,62.2204,104.8027],[26.4386,62.2248,98.5],[26.4194,62.2257,125.9847],[26.4156,62.2079,111.5],[26.3869,62.2092,164.8167],[26.3859,62.2047,155.6686],[26.3571,62.206,144.5009],[26.3562,62.2015,139.608],[26.3466,62.202,145.5693],[26.3457,62.1975,132.05],[26.3361,62.1979,135.3419],[26.3352,62.1935,128.5272],[26.3256,62.1939,123.7493],[26.3265,62.1984,124.1037],[26.3169,62.1988,122.6978],[26.316,62.1943,112.7261],[26.3064,62.1948,106.7273],[26.3046,62.1858,126.6326],[26.295,62.1862,117.1903],[26.2922,62.1728,121.0823],[26.2826,62.1733,108.3523],[26.2807,62.1643,132.4311],[26.2712,62.1647,135.8082],[26.2693,62.1558,139.9225],[26.2597,62.1562,138.062],[26.257,62.1428,157.6944],[26.2474,62.1432,137.581],[26.2456,62.1343,145.9375],[26.236,62.1348,155.0264],[26.2342,62.1258,146.8129],[26.2246,62.1262,131.9996],[26.2228,62.1173,191.8953],[26.2323,62.1169,139.9747],[26.2305,62.1079,188.0213],[26.24,62.1075,174.008],[26.2391,62.103,192.2343],[26.2487,62.1026,189.8005],[26.2478,62.0981,197.2968],[26.2573,62.0977,209.2575],[26.2564,62.0932,214.0017],[26.2659,62.0928,214.0663],[26.2641,62.0839,197.2581],[26.2737,62.0834,193.3928],[26.2727,62.079,190.0593],[26.2823,62.0785,201.5855],[26.2814,62.0741,194.6765],[26.2909,62.0736,196.3227],[26.2891,62.0647,191.501],[26.2986,62.0643,189.3625],[26.2977,62.0598,182.4453],[26.3072,62.0594,158.433],[26.3063,62.0549,154.2727],[26.3158,62.0545,146.8602],[26.314,62.0455,128.2817],[26.3235,62.0451,135.5054],[26.3226,62.0406,135.2425],[26.3321,62.0402,138.2556],[26.3312,62.0357,130.312],[26.340699999999998,62.0353,134.6785],[26.3398,62.0308,131.5397],[26.3493,62.0304,122.143],[26.3475,62.0215,122.4936],[26.357,62.021,126.5435],[26.3561,62.0166,113.5191],[26.3656,62.0161,120.7031],[26.3647,62.0117,121.8706],[26.3742,62.0112,126.8099],[26.3723,62.0023,114.6704],[26.3818,62.0018,116.3555],[26.3809,61.9974,115.7867],[26.3904,61.9969,112.1001],[26.3895,61.9925,124.7985],[26.399,61.992,111.5445],[26.3972,61.9831,113.6208],[26.4067,61.9827,94.2263],[26.4057,61.9782,97.3752],[26.4152,61.9777,95.046],[26.4134,61.9688,101.2796],[26.3943,61.9697,113.6724],[26.3934,61.9652,109.6134],[26.3839,61.9656,116.4686],[26.383,61.9612,115.6175],[26.3734,61.9616,121.218],[26.3725,61.9571,125.0062],[26.3535,61.958,120.7483],[26.3526,61.9536,128.1229],[26.3431,61.954,130.8454],[26.3421,61.9495,116.911],[26.3326,61.9499,113.57],[26.3298,61.9365,110.715],[26.3393,61.9361,107.8459],[26.3366,61.9227,107.5207],[26.3461,61.9223,119.2207],[26.3396,61.891,99.5252],[26.3301,61.8914,99.5059],[26.3283,61.8825,98.4649],[26.3472,61.8816,100.5293],[26.3482,61.8861,111.0311],[26.3766,61.8848,101.5374],[26.3729,61.8669,91.5],[26.3824,61.8665,94.118],[26.3805,61.8575,91.5],[26.39,61.8571,91.5],[26.3881,61.8482,122.6108],[26.3787,61.8486,130.6811],[26.3712,61.8128,101.0],[26.3807,61.8124,113.6536],[26.3798,61.8079,101.0],[26.3892,61.8075,101.0],[26.3883,61.803,101.0],[26.4167,61.8017,101.0],[26.4158,61.7972,101.0],[26.4252,61.7968,101.0],[26.4243,61.7923,101.0],[26.4337,61.7919,124.6702],[26.4328,61.7874,129.4176],[26.4423,61.787,132.3511],[26.4413,61.7825,118.7154],[26.4508,61.7821,160.3701],[26.4499,61.7776,168.5968],[26.4593,61.7772,183.5011],[26.4575,61.7682,143.248],[26.4669,61.7678,131.5493],[26.4659,61.7633,120.6095],[26.4754,61.7629,129.6122],[26.4744,61.7584,120.1301],[26.4839,61.758,101.9893],[26.482,61.7491,106.7353],[26.4915,61.7486,91.5],[26.4896,61.7397,110.7325],[26.499,61.7392,109.0105],[26.4971,61.7303,91.5],[26.5066,61.7299,91.5],[26.5056,61.7254,109.91],[26.5151,61.7249,91.5],[26.5132,61.716,114.4954],[26.5226,61.7156,91.5],[26.5207,61.7066,91.5],[26.5302,61.7062,91.5],[26.5283,61.6972,91.5],[26.5377,61.6968,91.5],[26.5339,61.6789,91.5],[26.5245,61.6794,91.5],[26.5132,61.6258,91.5],[26.5038,61.6262,91.5],[26.5047,61.6307,91.5],[26.4765,61.632,91.5],[26.4774,61.6365,91.5],[26.4492,61.6378,91.5],[26.4501,61.6423,91.5],[26.4313,61.6431,91.5],[26.4322,61.6476,91.5],[26.4228,61.648,91.5],[26.4237,61.6525,91.5],[26.3861,61.6543,91.5],[26.387,61.6587,91.5],[26.3776,61.6591,91.5],[26.373,61.6368,106.0134],[26.3541,61.6377,107.3505],[26.3514,61.6243,114.6875],[26.3608,61.6238,106.2054],[26.3599,61.6194,107.1064],[26.3505,61.6198,113.6466],[26.3496,61.6153,114.3553],[26.3401,61.6158,102.5],[26.3392,61.6113,110.4722],[26.3298,61.6117,102.5],[26.3289,61.6073,102.5],[26.3195,61.6077,102.5],[26.3204,61.6122,108.5179],[26.311,61.6126,102.5],[26.3128,61.6215,102.5],[26.3034,61.622,102.5],[26.3062,61.6354,140.753],[26.3156,61.6349,137.9547],[26.3174,61.6439,127.8475],[26.308,61.6443,134.5002],[26.3089,61.6488,116.3788],[26.2995,61.6492,168.9565],[26.3004,61.6537,133.4417],[26.291,61.6541,162.866],[26.2919,61.6586,155.3411],[26.2825,61.659,147.5297],[26.2806,61.6501,191.2527],[26.2712,61.6505,179.7342],[26.2694,61.6415,121.1833],[26.2035,61.6445,125.3111],[26.2044,61.649,131.3269],[26.1856,61.6498,91.0],[26.182,61.6319,91.0],[26.1726,61.6324,91.0],[26.1699,61.618899999999996,91.0],[26.1605,61.6194,91.0],[26.1596,61.6149,91.0],[26.1502,61.6153,91.0],[26.1511,61.6198,91.0],[26.1417,61.6202,91.0],[26.1434,61.6292,91.0],[26.134,61.6296,91.0],[26.1349,61.634,91.0],[26.1255,61.6345,91.0],[26.1264,61.6389,91.0],[26.117,61.6394,91.0],[26.1178,61.6438,91.0],[26.099,61.6446,91.0],[26.1008,61.6536,91.0],[26.0914,61.654,91.0],[26.0922,61.6585,91.0],[26.0828,61.6589,91.0],[26.0846,61.6678,91.0],[26.0752,61.6683,91.0],[26.076,61.6727,91.0],[26.0666,61.6731,91.0],[26.0675,61.6776,91.0],[26.0769,61.6772,91.0],[26.0787,61.6861,110.5382],[26.0881,61.6857,109.5114],[26.0898,61.6947,114.1316],[26.0804,61.6951,91.0],[26.0831,61.7085,91.0],[26.0736,61.7089,91.0],[26.0745,61.7134,99.2651],[26.0651,61.7138,91.0],[26.0686,61.7317,96.1462],[26.0592,61.7321,91.0],[26.06,61.7365,95.8648],[26.0506,61.737,91.0],[26.0488,61.728,91.0],[26.0394,61.7284,99.2463],[26.0385,61.724,91.0],[26.0291,61.7244,124.7002],[26.028199999999998,61.7199,118.4975],[26.0093,61.7207,120.0081],[26.0102,61.7252,112.5277],[26.0007,61.7256,96.5459],[26.0016,61.7301,101.9397],[25.9922,61.7305,91.0],[25.9956,61.7484,109.0917],[25.9862,61.7488,104.8311],[25.9879,61.7577,113.9797],[25.9785,61.7581,117.7388],[25.9793,61.7626,118.2403],[25.9699,61.763,135.7705],[25.9707,61.7675,137.0026],[25.9518,61.7683,108.1146],[25.9527,61.7728,107.3786],[25.9432,61.7732,124.5275],[25.9441,61.7776,129.4577],[25.9346,61.778,135.3958],[25.9355,61.7825,123.9679],[25.926,61.7829,134.8882],[25.9269,61.7874,132.0689],[25.9174,61.7878,132.1707],[25.9131,61.7654,130.0861],[25.9037,61.7658,163.9736],[25.9028,61.7614,159.7316],[25.865,61.763,150.8824],[25.8676,61.7764,151.3074],[25.877,61.776,156.5779],[25.8804,61.7939,113.569],[25.871,61.7943,125.1888],[25.8718,61.7988,110.0357],[25.8529,61.7996,127.2531],[25.8512,61.7906,139.4049],[25.8606,61.7902,146.4133],[25.8581,61.7768,147.7797],[25.8486,61.7772,144.8825],[25.8478,61.7727,144.4837],[25.8383,61.7731,149.8127],[25.8366,61.7642,142.9268],[25.8272,61.7646,157.6901],[25.8238,61.7467,151.7276],[25.8143,61.7471,147.3347],[25.811,61.7292,163.9611],[25.8015,61.7296,188.1083],[25.7981,61.7117,165.6136],[25.7887,61.7121,144.8574],[25.7854,61.6942,130.1958],[25.7759,61.6946,141.0186],[25.7743,61.6856,120.3811],[25.7554,61.6864,132.267],[25.7562,61.6909,133.3935],[25.7468,61.6913,137.9935],[25.7484,61.7002,138.3228],[25.7579,61.6998,154.3639],[25.7587,61.7043,156.4082],[25.7209,61.7059,101.9575],[25.7218,61.7104,98.9483],[25.6934,61.7115,76.5],[25.6943,61.716,76.5],[25.6754,61.7168,86.5019],[25.6746,61.7123,102.4552],[25.6557,61.7131,82.8163],[25.654,61.7041,112.3131],[25.6446,61.7045,86.1186],[25.643,61.6955,76.5],[25.6335,61.6959,86.4832],[25.6319,61.687,76.5],[25.6225,61.6874,76.5],[25.6216,61.6829,76.5],[25.6122,61.6833,76.5],[25.6114,61.6788,76.5],[25.5925,61.6796,76.5],[25.5917,61.6751,85.3137],[25.5728,61.6758,76.5],[25.572,61.6714,76.5],[25.5626,61.6718,76.5],[25.5634,61.6762,76.5],[25.5068,61.6785,76.5],[25.502,61.6516,76.5],[25.5115,61.6513,76.5],[25.5051,61.6155,76.5],[25.4957,61.6158,76.5],[25.4901,61.5845,76.5],[25.4807,61.5849,76.5],[25.4752,61.5536,76.5],[25.4658,61.5539,76.5],[25.4595,61.5181,76.5],[25.4501,61.5185,76.5],[25.4431,61.4782,76.5],[25.4524,61.4779,76.5],[25.4516,61.4734,76.5],[25.461,61.473,76.5],[25.4595,61.4641,76.5],[25.4688,61.4637,76.5],[25.468,61.4592,76.5],[25.4774,61.4589,76.5],[25.4758,61.4499,76.5],[25.4852,61.4495,76.5],[25.4836,61.4406,76.5],[25.493,61.4402,76.5],[25.4906,61.4268,76.5],[25.4813,61.4272,76.5],[25.4758,61.3958,76.5],[25.4851,61.3955,76.5],[25.4843,61.391,76.5],[25.4937,61.3906,76.5],[25.4921,61.3816,76.5],[25.5015,61.3813,76.5],[25.4999,61.3723,76.5],[25.5092,61.372,76.5],[25.5077,61.363,76.5],[25.517,61.3626,76.5],[25.5162,61.3582,76.5],[25.5256,61.3578,76.5],[25.524,61.3488,76.5],[25.5333,61.3484,76.5],[25.5317,61.3395,76.5],[25.5411,61.3391,76.5],[25.5395,61.3302,76.5],[25.5581,61.3294,76.5],[25.5589,61.3339,76.5],[25.5776,61.3331,96.1134],[25.5784,61.3376,83.2784],[25.5877,61.3372,111.9138],[25.5885,61.3417,109.2294],[25.6819,61.3379,136.6983],[25.6827,61.3424,133.3931],[25.7107,61.3412,136.8176],[25.7115,61.3457,130.897],[25.7208,61.3453,136.5783],[25.7225,61.3542,154.8914],[25.7318,61.3538,131.9044],[25.7334,61.3628,154.752],[25.7521,61.362,135.0228],[25.7513,61.3575,124.701],[25.7606,61.3571,118.6355],[25.759,61.3482,127.1935],[25.7683,61.3478,117.8882],[25.7675,61.3433,105.0602],[25.7768,61.3429,96.2002],[25.776,61.3385,93.5147],[25.7853,61.3381,101.4031],[25.7837,61.3291,102.8293],[25.793,61.3287,106.7834],[25.7922,61.3242,115.9249],[25.8015,61.3239,110.2373],[25.8007,61.3194,109.3295],[25.81,61.319,91.8243],[25.8009,61.2698,101.0308],[25.8381,61.2682,99.2007],[25.8389,61.2727,114.9226],[25.8483,61.2723,86.5847],[25.8474,61.2678,98.9251],[25.8753,61.2666,76.5],[25.8745,61.2621,76.5],[25.8838,61.2617,76.5],[25.883,61.2573,76.5],[25.8923,61.2569,76.5],[25.8881,61.2345,76.5],[25.916,61.2333,76.5],[25.9151,61.2288,76.5],[25.9244,61.2284,76.5],[25.9219,61.215,76.5],[25.9126,61.2154,76.5],[25.9101,61.202,99.2327],[25.9008,61.2024,79.3536],[25.8991,61.1935,76.5],[25.8899,61.1939,93.0967],[25.8874,61.1804,91.9999],[25.8966,61.18,110.8814],[25.895,61.1711,92.3345],[25.9042,61.1707,104.4967],[25.9034,61.1662,95.2483],[25.9127,61.1658,114.6088],[25.911,61.1569,102.759],[25.9203,61.1565,137.233],[25.9186,61.1475,134.1869],[25.9093,61.1479,162.4125],[25.9077,61.139,140.6228],[25.8984,61.1394,152.2523],[25.8967,61.1304,125.0336],[25.8874,61.1308,128.8281],[25.8858,61.1219,150.8824],[25.8765,61.1223,158.5254],[25.8748,61.1133,126.7587],[25.8656,61.1138,142.8977],[25.8631,61.1003,127.7652],[25.8724,61.0999,140.8277],[25.8715,61.0955,140.5212],[25.8808,61.0951,150.268],[25.8799,61.0906,136.1285],[25.8892,61.0902,130.4022],[25.8884,61.0857,115.3458],[25.8976,61.0853,111.2027],[25.8968,61.0808,106.6635],[25.9245,61.0796,114.2153],[25.9237,61.0752,106.847],[25.933,61.0748,108.8097],[25.9321,61.0703,115.727],[25.9414,61.0699,112.1273],[25.9422,61.0744,123.1029],[25.9607,61.0736,104.2588],[25.9616,61.078,124.8607],[25.9708,61.0776,121.4232],[25.9716,61.0821,115.3912],[25.9902,61.0813,131.7841],[25.991,61.0858,136.7116],[26.0003,61.0853,124.127],[26.0011,61.0898,128.1088],[26.0196,61.089,118.9672],[26.0205,61.0935,136.0328],[26.0297,61.0931,130.1459],[26.0306,61.0975,142.2339],[26.0491,61.0967,145.7971],[26.0542,61.1235,150.9058],[26.0635,61.1231,147.6155],[26.0644,61.1276,136.4326],[26.0736,61.1272,129.9085],[26.0745,61.1316,125.1543],[26.0838,61.1312,113.8774],[26.0846,61.1357,112.2822],[26.0939,61.1353,98.1079],[26.0947,61.1398,84.0767],[26.104,61.1394,76.5],[26.1049,61.1438,86.2755],[26.1141,61.1434,76.5],[26.115,61.1479,76.5],[26.1243,61.1475,76.5],[26.1251,61.1519,76.5],[26.1344,61.1515,76.5],[26.1353,61.156,76.5],[26.1446,61.1556,76.5],[26.1428,61.1466,76.5],[26.1521,61.1462,76.5],[26.1503,61.1373,76.5],[26.2245,61.1339,102.8484],[26.2236,61.1294,116.3669],[26.2421,61.1286,117.3128],[26.2439,61.1375,114.9788],[26.2531,61.1371,121.7021],[26.254,61.1416,142.8877],[26.2633,61.1411,126.0489],[26.2651,61.1501,104.1389],[26.2743,61.1497,108.8621],[26.277,61.1631,98.7458],[26.2863,61.1626,90.3859],[26.2872,61.1671,98.3211],[26.315,61.1658,92.2845],[26.3159,61.1703,75.0],[26.3437,61.169,75.0],[26.3446,61.1735,75.0],[26.3539,61.173,75.0],[26.3548,61.1775,75.0],[26.3641,61.1771,75.0],[26.365,61.1815,103.8758],[26.3742,61.1811,109.3301],[26.3751,61.1856,127.7859],[26.3844,61.1851,117.7453],[26.3871,61.1986,128.194],[26.3964,61.1981,124.0784],[26.4001,61.216,99.3846],[26.4093,61.2155,109.1239],[26.4112,61.2245,118.0039],[26.4205,61.224,108.0892],[26.4223,61.233,101.3028],[26.4316,61.2326,101.0787],[26.4343,61.246,100.0515],[26.425,61.2464,100.0028],[26.4259,61.2509,98.5872],[26.4352,61.2504,101.5152],[26.4371,61.2594,100.8429],[26.4464,61.2589,103.5815],[26.4473,61.2634,103.686],[26.4566,61.263,109.6163],[26.4575,61.2674,102.1063],[26.4854,61.2661,101.0],[26.4863,61.2706,130.7547],[26.5049,61.2697,105.5607],[26.5058,61.2742,109.0755],[26.5245,61.2733,99.6862],[26.5254,61.2777,96.249],[26.5533,61.2764,82.5],[26.5524,61.2719,82.5],[26.571,61.271,99.6599],[26.5719,61.2755,88.6524],[26.5905,61.2746,134.0401],[26.5914,61.2791,124.7157],[26.6007,61.2786,121.8188],[26.6017,61.2831,137.6335],[26.611,61.2826,111.3826],[26.6119,61.2871,116.9608],[26.6212,61.2867,91.5716],[26.6222,61.2911,82.0],[26.6408,61.2902,101.7262],[26.6389,61.2813,75.5],[26.6482,61.2808,75.5],[26.6454,61.2674,87.6702],[26.6547,61.267,106.9211],[26.6528,61.2581,74.5],[26.6621,61.2576,74.5],[26.6611,61.2531,87.0336],[26.6704,61.2527,74.5],[26.6676,61.2393,74.5],[26.6583,61.2397,74.5],[26.6564,61.2308,74.5],[26.6471,61.2313,74.5],[26.6461,61.2268,74.5],[26.6369,61.2272,74.5],[26.635,61.2183,74.5],[26.6442,61.2179,74.5],[26.6433,61.2134,74.5],[26.6526,61.2129,74.5],[26.6516,61.2085,74.5],[26.6702,61.2076,74.5],[26.6712,61.212,74.5],[26.6897,61.2111,74.5],[26.6907,61.2156,74.5],[26.6999,61.2151,74.5],[26.7009,61.2196,74.5],[26.7195,61.2187,80.8474],[26.7204,61.2232,74.5],[26.7297,61.2227,74.5],[26.7307,61.2272,74.5],[26.7492,61.2262,74.5],[26.7521,61.2397,76.9422],[26.7614,61.2392,74.5],[26.7643,61.2526,104.9203],[26.7736,61.2521,97.1234],[26.7774,61.27,77.5],[26.796,61.2691,98.7836],[26.797,61.2735,114.1267],[26.8063,61.2731,104.3574],[26.8073,61.2775,94.9933],[26.8259,61.2766,124.0495],[26.8268,61.2811,126.2654],[26.8454,61.2801,123.8758],[26.8464,61.2846,109.0],[26.8836,61.2827,113.0],[26.8797,61.2649,113.5],[26.889,61.2644,113.5],[26.886,61.251,121.6103],[26.8953,61.2505,127.8092],[26.8934,61.2416,112.0],[26.9027,61.2411,129.199],[26.9017,61.2367,112.0],[26.911,61.2362,131.2498],[26.91,61.2318,112.0],[26.9193,61.2313,145.3967],[26.9183,61.2268,134.316],[26.9276,61.2263,129.928],[26.9246,61.213,111.0],[26.9339,61.2125,144.9542],[26.9319,61.2036,135.5238],[26.9227,61.204,138.5862],[26.9177,61.1817,113.9017],[26.927,61.1812,119.5948],[26.926,61.1768,97.5],[26.9446,61.1758,132.954],[26.9436,61.1713,101.166],[26.9714,61.1699,112.6074],[26.9704,61.1655,100.0],[26.9982,61.164,91.4751],[26.9972,61.1596,103.8084],[27.025,61.1581,122.8984],[27.024,61.1537,85.9857],[27.0703,61.1513,106.5276],[27.0713,61.1558,112.7142],[27.0898,61.1548,124.4434],[27.0908,61.1593,111.9787],[27.1001,61.1588,121.1741],[27.1011,61.1632,137.2492],[27.1289,61.1618,90.0],[27.1299,61.1663,98.5522],[27.2132,61.1619,119.3736],[27.2142,61.1663,127.5687],[27.2698,61.1634,119.5463],[27.2708,61.1678,97.0],[27.2801,61.1673,97.0],[27.2811,61.1718,110.0637],[27.2904,61.1713,102.2314],[27.2914,61.1758,126.6516],[27.3099,61.1748,106.0309],[27.3089,61.1703,95.3676],[27.3367,61.1688,96.0909],[27.3377,61.1733,100.7406],[27.3562,61.1723,104.5723],[27.3573,61.1767,99.9747],[27.3666,61.1762,87.1759],[27.3676,61.1807,84.3504],[27.3583,61.1812,82.4946],[27.3615,61.1946,79.9735],[27.3707,61.1941,79.6389],[27.3718,61.1986,79.4871],[27.3811,61.198,80.3751],[27.3821,61.2025,87.3909],[27.3914,61.202,78.5691],[27.3924,61.2065,96.2859],[27.3831,61.207,79.0398],[27.3852,61.2159,85.3412],[27.376,61.2164,78.6029],[27.3739,61.2075,84.7816],[27.3553,61.2085,93.1684],[27.3564,61.2129,89.3245],[27.3378,61.2139,80.8372],[27.3389,61.2184,89.2556],[27.3296,61.2189,82.2344],[27.3306,61.2234,86.388],[27.3214,61.2239,83.0055],[27.3255,61.2417,89.254],[27.3441,61.2407,86.5274],[27.3462,61.2496,83.5784],[27.3369,61.2501,85.9168],[27.3379,61.2546,83.6296],[27.3286,61.2551,86.9314],[27.3297,61.2595,83.4825],[27.3204,61.26,99.5349],[27.3214,61.2645,91.1857],[27.3122,61.265,101.1519],[27.3132,61.2695,99.2317],[27.3039,61.27,96.2942],[27.307,61.2834,92.5099],[27.2977,61.2838,87.3398],[27.2998,61.2928,104.7122],[27.2905,61.2933,87.3683],[27.2916,61.2977,87.2708],[27.273,61.2987,92.5892],[27.274,61.3032,98.0738],[27.2275,61.3056,118.2872],[27.2285,61.3101,119.4078],[27.2192,61.3106,130.9147],[27.2213,61.3195,96.2318],[27.2306,61.319,103.7028],[27.2296,61.3146,118.6122],[27.2575,61.3131,104.5048],[27.2606,61.3265,93.8028],[27.2326,61.3279,113.9308],[27.2337,61.3324,102.9443],[27.2057,61.3339,85.5],[27.2047,61.3294,100.4199],[27.1861,61.3304,102.0515],[27.1851,61.3259,96.0133],[27.1478,61.3279,81.5],[27.1458,61.319,83.0],[27.1272,61.3199,83.0],[27.1282,61.3244,97.1176],[27.1096,61.3254,103.5172],[27.1106,61.3298,98.4199],[27.092,61.3308,83.5],[27.093,61.3353,119.9385],[27.0744,61.3362,83.5],[27.0754,61.3407,83.5],[27.0567,61.3417,83.5],[27.0578,61.3461,83.5],[27.0391,61.3471,83.5],[27.0401,61.3515,83.5],[27.0215,61.3525,83.5],[27.0205,61.348,90.8012],[27.0019,61.349,85.6879],[27.0009,61.3445,110.1799],[26.9543,61.3469,82.5],[26.9563,61.3558,84.5],[26.9656,61.3554,84.5],[26.9666,61.3598,117.4135],[26.9759,61.3593,132.6784],[26.9779,61.3683,114.2265],[26.9872,61.3678,110.8697],[26.9882,61.3722,105.6413],[26.9975,61.3718,108.5043],[26.9985,61.3762,103.9766],[27.0079,61.3758,106.7748],[27.0089,61.3802,120.7749],[27.0182,61.3797,119.6546],[27.0192,61.3842,108.5381],[27.0752,61.3813,125.2033],[27.0741,61.3769,129.3548],[27.0928,61.3759,103.9082],[27.0918,61.3714,105.3184],[27.1384,61.369,80.5],[27.1404,61.378,85.3629],[27.1498,61.3775,92.6233],[27.1528,61.3909,90.0],[27.1621,61.3904,102.1917],[27.1652,61.4038,95.3099],[27.2212,61.4008,117.916],[27.2222,61.4053,96.5067],[27.3808,61.3969,107.0413],[27.3798,61.3924,118.8576],[27.4171,61.3904,106.7529],[27.416,61.3859,124.8277],[27.4533,61.3839,84.3977],[27.4522,61.3794,102.2751],[27.4895,61.3774,105.5468],[27.4884,61.3729,96.5],[27.5071,61.3719,88.418],[27.506,61.3675,105.8008],[27.534,61.3659,112.6898],[27.5329,61.3615,101.9699],[27.5608,61.3599,115.13],[27.5597,61.3555,105.5011],[27.6249,61.3518,72.5],[27.626,61.3563,92.8112],[27.6633,61.3542,72.5],[27.6643,61.3587,86.3824],[27.6923,61.3571,88.5689],[27.6934,61.3616,72.5],[27.712,61.3605,93.1625],[27.7131,61.365,72.5],[27.7317,61.3639,72.5],[27.7328,61.3684,72.5],[27.7887,61.3652,72.5],[27.7876,61.3608,72.5],[27.8248,61.3587,72.5],[27.8237,61.3542,72.5],[27.9261,61.3483,72.5],[27.9272,61.3528,72.5],[27.9551,61.3511,72.5],[27.9562,61.3556,72.5],[28.0121,61.3523,72.5],[28.0132,61.3568,72.5],[28.069,61.3535,72.5],[28.0702,61.358,72.5],[28.0888,61.3569,72.5],[28.0899,61.3613,72.5],[28.1086,61.3602,72.5],[28.1097,61.3647,72.5],[28.1469,61.3625,72.5],[28.1481,61.3669,72.5],[28.1667,61.3658,72.5],[28.1679,61.3703,72.5],[28.1865,61.3692,72.5],[28.1877,61.3736,72.5],[28.2156,61.3719,72.5],[28.2167,61.3764,72.5],[28.2354,61.3753,72.5],[28.2365,61.3797,92.193],[28.2552,61.3786,72.5],[28.2563,61.3831,72.5],[28.2656,61.3825,88.6007],[28.2668,61.387,72.5],[28.2761,61.3864,72.5],[28.2773,61.3909,72.5],[28.2866,61.3903,72.5],[28.2878,61.3947,72.5],[28.2971,61.3942,94.0006],[28.3019,61.412,72.5],[28.3112,61.4114,72.5],[28.3124,61.4159,72.5],[28.3403,61.4142,72.5],[28.3451,61.432,80.7452],[28.3544,61.431399999999996,93.183],[28.3568,61.4403,86.0],[28.3755,61.4392,99.2393],[28.3767,61.4436,86.0],[28.3953,61.4425,90.0534],[28.3965,61.4469,107.9579],[28.4058,61.4464,101.7874],[28.4082,61.4553,86.5],[28.4269,61.4541,97.0719],[28.4305,61.4675,100.6071],[28.4212,61.4681,127.4165],[28.426,61.4859,113.6135],[28.4309,61.5037,124.9473],[28.4402,61.5031,88.9754],[28.4426,61.512,72.5],[28.452,61.5114,72.5],[28.4508,61.507,82.542],[28.4601,61.5064,72.5],[28.4589,61.502,87.2993],[28.4682,61.5014,83.1599],[28.4694,61.5058,120.7872],[28.4788,61.5053,105.0811],[28.48,61.5097,86.0498],[28.4894,61.5091,105.1147],[28.4906,61.5136,72.5],[28.4999,61.513,72.5],[28.4987,61.5086,72.5],[28.508,61.508,72.5],[28.5068,61.5035,72.5],[28.5255,61.5024,81.2336],[28.5218,61.489,102.6299],[28.5312,61.4884,95.007],[28.5287,61.4795,72.5],[28.5847,61.4761,89.2798],[28.5835,61.4716,95.3888],[28.6674,61.4663,103.9615],[28.6687,61.4708,113.5077],[28.6873,61.4696,118.4489],[28.6886,61.474,113.252],[28.6979,61.4734,116.2789],[28.6991,61.4779,105.5223],[28.7085,61.4773,107.3411],[28.7097,61.4818,99.7241],[28.7937,61.4764,121.1979],[28.8,61.4986,109.3592],[28.8093,61.498,136.4822],[28.8106,61.5025,115.5912],[28.8199,61.5019,113.4499],[28.8237,61.5152,122.0835],[28.8144,61.5158,116.6167]]]]}
,"properties": {"GID_1": "FIN.1_1","GID_0": "FIN","country": "Finland","province": "EasternFinland","VARNAME_1": "Itä-Suomenlääni|ÖstraFinlands","NL_NAME_1": "NA","TYPE_1": "Lääni","ENGTYPE_1": "Province","CC_1": "NA","HASC_1": "FI.IS","ISO_1": "NA","name": "Eastern_Finland.province","area_km2": 62783.07,"hist_schema_id": "Elevation0-9000","hist_area_km2": {"75": 9224.05,"100": 18925.64,"125": 15130.83,"150": 9934.09,"175": 5574.02,"200": 2572.27,"225": 1029.59,"250": 324.75,"275": 56.51,"300": 9.29,"325": 0.88}}}