{"type": "Feature","id": 40352.0,"bbox": [31.049204948833733,62.644415594525327,31.196299675396233,62.722906805462827],"geometry": {"type": "Polygon","coordinates": [[[31.146739128521233,62.703253485150327,144.0],[31.146739128521233,62.703253485150327,144.0],[31.124156120708733,62.703253485150327,144.0],[31.099742058208733,62.713995672650327,145.3376],[31.069346550396233,62.722906805462827,145.2125],[31.049204948833733,62.708624578900327,144.0],[31.061411980083733,62.683111883587827,147.4336],[31.080088737896233,62.683661199994077,164.4254],[31.101328972271233,62.684210516400327,144.0],[31.144663933208733,62.669073797650327,144.0],[31.168711784771233,62.661383367962827,144.0],[31.180308464458733,62.648871160931577,144.0],[31.196299675396233,62.644415594525327,147.0437],[31.190440300396233,62.654791571087827,145.1375],[31.191050651958733,62.666693426556577,144.0],[31.196055534771233,62.679449774212827,144.0],[31.175059441021233,62.695807196087827,144.0],[31.146739128521233,62.703253485150327,144.0]]]}
,"properties": {"name": "Karpanjärvi","lge_id": null,"pfafstette": 837.0,"lke_type": "N","altitude": 145,"objectid": 24226,"scalerank": 11,"featurecla": "Lake","note": null,"funkyname": 0,"min_zoom": 6.7,"min_label": 7.7,"area_km2": 26.44058,"hist_schema_id": "Elevation0-9000","hist_area_km2": {"150": 26.36274,"175": 0.07785}}}