{"type": "Feature","id": 45091.0,"bbox": [28.426280144146233,62.539007879681577,29.037242058208733,62.817755438275327],"geometry": {"type": "Polygon","coordinates": [[[28.519297722271233,62.735357977337827,99.5],[28.519297722271233,62.735357977337827,99.5],[28.522349480083733,62.726202703900327,99.5],[28.525401237896233,62.714972235150327,99.5],[28.552378776958733,62.707709051556577,115.3822],[28.572154167583733,62.713141180462827,111.956],[28.603526237896233,62.716192938275327,99.5],[28.647837761333733,62.704718328900327,99.5],[28.654551628521233,62.692877508587827,99.5],[28.636485222271233,62.688605047650327,115.1955],[28.602549675396233,62.687628485150327,107.5518],[28.581919792583733,62.682196356244077,114.0588],[28.598887566021233,62.673956610150327,99.5],[28.618662956646233,62.661871649212827,107.5418],[28.629893425396233,62.646002508587827,99.5],[28.642344597271233,62.638678289837827,99.5],[28.659678581646233,62.636847235150327,118.1585],[28.677989128521233,62.635077215619077,99.5],[28.690928581646233,62.630255438275327,99.5],[28.696543816021233,62.618353582806577,117.3924],[28.711924675396233,62.608038641400327,99.5],[28.743296745708733,62.598639227337827,99.5],[28.759043816021233,62.586737371869077,99.5],[28.773081901958733,62.579718328900327,99.5],[28.784922722271233,62.567877508587827,99.5],[28.805674675396233,62.552984930462827,99.5],[28.823496941021233,62.556036688275327,128.1233],[28.803477409771233,62.567023016400327,152.0542],[28.795909050396233,62.583746649212827,99.5],[28.831065300396233,62.593451239056577,108.5173],[28.864024284771233,62.587958074994077,99.5],[28.889170769146233,62.584601141400327,99.5],[28.930796745708733,62.573675848431577,99.5],[28.976328972271233,62.556647039837827,101.9259],[29.001719597271233,62.545416571087827,99.5],[29.021983269146233,62.539007879681577,106.9168],[29.037242058208733,62.542059637494077,134.3013],[29.023936394146233,62.546637274212827,135.5038],[29.004405144146233,62.552984930462827,119.3439],[28.980967644146233,62.563971258587827,104.4923],[28.951792839458733,62.584295965619077,116.5227],[28.938975456646233,62.606817938275327,117.3372],[28.929698112896233,62.614081121869077,102.6608],[28.905039909771233,62.618353582806577,120.2387],[28.900401237896233,62.636908270306577,99.5],[28.896739128521233,62.653326727337827,107.6872],[28.875498894146233,62.661261297650327,113.2703],[28.863658073833733,62.664862371869077,124.546],[28.851206901958733,62.665777899212827,114.7813],[28.830821159771233,62.670294500775327,114.4725],[28.799204948833733,62.668463446087827,132.2956],[28.774546745708733,62.671271063275327,105.6834],[28.760020378521233,62.678534246869077,110.7851],[28.753672722271233,62.687628485150327,113.6666],[28.732676628521233,62.701056219525327,143.6691],[28.701060417583733,62.710150457806577,109.5711],[28.696177605083733,62.718390203900327,99.5],[28.691661003521233,62.727423407025327,99.5],[28.680430534771233,62.739935614056577,112.5586],[28.666026237896233,62.750860907025327,99.5],[28.655406120708733,62.756964422650327,99.5],[28.666392448833733,62.761175848431577,99.5],[28.677012566021233,62.776068426556577,99.5],[28.664805534771233,62.784308172650327,111.9099],[28.632945183208733,62.782477117962827,108.2897],[28.598643425396233,62.784308172650327,122.0639],[28.574595573833733,62.784308172650327,133.1688],[28.562022331646233,62.791876532025327,125.8564],[28.547129753521233,62.800726629681577,170.691],[28.530284050396233,62.799505926556577,99.5],[28.513438347271233,62.798895574994077,110.6233],[28.501963737896233,62.806524969525327,125.3947],[28.487315300396233,62.810736395306577,117.7419],[28.470347526958733,62.817755438275327,105.627],[28.453990105083733,62.815924383587827,99.5],[28.429942253521233,62.806524969525327,115.3126],[28.426280144146233,62.792486883587827,99.5],[28.438975456646233,62.780646063275327,99.5],[28.449351433208733,62.792486883587827,99.5],[28.467295769146233,62.801642157025327,99.5],[28.485240105083733,62.796148992962827,99.5],[28.480723503521233,62.790655828900327,109.2418],[28.477061394146233,62.783087469525327,118.6537],[28.474864128521233,62.765143133587827,109.3948],[28.475840691021233,62.750616766400327,108.9893],[28.487681511333733,62.754828192181577,118.5036],[28.501353386333733,62.756964422650327,99.5],[28.512217644146233,62.745123602337827,99.5],[28.519297722271233,62.735357977337827,99.5]]]}
,"properties": {"name": "Juojärvi","lge_id": "fi","pfafstette": 6459.0,"lke_type": "N","altitude": 101,"objectid": 25537,"scalerank": 10,"featurecla": "Lake","note": null,"funkyname": 0,"min_zoom": 6.0,"min_label": 7.0,"area_km2": 235.6857,"hist_schema_id": "Elevation0-9000","hist_area_km2": {"100": 200.4151,"125": 31.4519,"150": 3.5557,"175": 0.2631}}}