{"type": "Feature","bbox": [22.1681,60.5129,23.295,61.0981],"geometry": {"type": "MultiPolygon","coordinates": [[[[23.1654,60.7714,99.4565],[23.1562,60.7716,101.7566],[23.1566,60.7761,110.3737],[23.1658,60.7759,99.1864],[23.1672,60.7894,111.5392],[23.1764,60.7891,109.0048],[23.1773,60.7981,117.555],[23.1864,60.7979,116.3969],[23.1873,60.8069,101.6294],[23.1965,60.8067,110.4108],[23.1974,60.8156,82.6284],[23.2066,60.8154,81.4746],[23.2071,60.8199,82.0553],[23.2255,60.8195,81.9198],[23.2264,60.8284,84.1356],[23.208,60.8289,84.3328],[23.2084,60.8334,86.1949],[23.1624,60.8344,93.5994],[23.1628,60.8389,94.2183],[23.1444,60.8394,82.9735],[23.1453,60.8483,87.2053],[23.1361,60.8485,86.898],[23.1401,60.8889,86.3269],[23.1493,60.8887,101.465],[23.1497,60.8932,89.572],[23.2696,60.8903,101.4177],[23.2701,60.8948,102.7516],[23.2609,60.8951,113.8139],[23.2627,60.913,107.8582],[23.2535,60.9132,105.3531],[23.2539,60.9177,96.2835],[23.2908,60.9168,91.7882],[23.295,60.9572,96.633],[23.2673,60.9579,98.662],[23.2677,60.9623,98.1142],[23.2585,60.9626,102.0865],[23.259,60.967,98.1235],[23.2497,60.9673,97.8704],[23.2502,60.9718,99.0255],[23.2409,60.972,100.964],[23.2414,60.9765,107.8654],[23.2321,60.9767,113.4691],[23.2326,60.9812,120.4725],[23.2233,60.9814,110.517],[23.2238,60.9859,117.9468],[23.2145,60.9861,108.6578],[23.215,60.9906,120.3887],[23.2057,60.9908,110.3746],[23.2067,60.9998,128.51],[23.1882,61.0002,103.9486],[23.1886,61.0047,104.0429],[23.1701,61.0051,102.6727],[23.1705,61.0096,102.643],[23.1613,61.0098,99.6923],[23.1626,61.0233,107.9378],[23.1534,61.0235,116.059],[23.1542,61.0325,96.5818],[23.0709,61.0344,116.9602],[23.0704,61.0299,114.0993],[23.0426,61.0305,117.4905],[23.0422,61.026,92.4265],[23.0237,61.0264,95.9729],[23.0233,61.0219,89.7535],[23.014,61.0222,87.1291],[23.0144,61.0266,84.9516],[23.0052,61.0268,83.3913],[23.0056,61.0313,83.1454],[22.9871,61.0317,83.6274],[22.9875,61.0362,79.6722],[22.9782,61.0364,83.5179],[22.9786,61.0409,76.3398],[22.9694,61.0411,77.765],[22.9698,61.0456,78.4938],[22.9235,61.0466,74.1093],[22.9239,61.0511,74.7395],[22.9053,61.0515,73.8242],[22.9057,61.056,73.0432],[22.8872,61.056399999999996,72.1878],[22.8876,61.0609,76.3536],[22.8783,61.0611,72.4339],[22.8799,61.079,72.625],[22.8707,61.0792,72.1306],[22.8711,61.0837,72.9395],[22.8618,61.0839,73.2387],[22.8622,61.0884,73.618],[22.8529,61.0886,74.5518],[22.8533,61.093,75.3443],[22.844,61.0932,82.3769],[22.8444,61.0977,79.1357],[22.8259,61.0981,109.5662],[22.8247,61.0847,76.4043],[22.8154,61.0848,74.7414],[22.815,61.0804,88.7306],[22.8243,61.0802,74.76],[22.8239,61.0757,68.8291],[22.8331,61.0755,69.7708],[22.8327,61.071,88.8528],[22.842,61.0708,70.8513],[22.8408,61.0573,79.5649],[22.8315,61.0575,87.4469],[22.8303,61.0441,88.5613],[22.8211,61.0443,73.7875],[22.8207,61.0398,81.8107],[22.8114,61.04,77.0048],[22.811,61.0355,73.216],[22.8203,61.0353,79.5373],[22.8199,61.0308,91.5787],[22.8291,61.0306,91.4565],[22.8264,60.9992,81.2359],[22.8171,60.9994,69.6333],[22.8167,60.9949,66.6787],[22.7797,60.9957,81.7681],[22.7793,60.9912,108.535],[22.7515,60.9917,91.2285],[22.7511,60.9873,94.684],[22.7326,60.9876,97.7219],[22.7323,60.9832,100.2439],[22.7045,60.9837,99.7561],[22.7049,60.9882,93.0403],[22.5753,60.9907,102.2714],[22.575,60.9862,102.7705],[22.5565,60.9866,95.0538],[22.5561,60.9821,93.4844],[22.5376,60.9824,85.984],[22.5372,60.9779,98.0279],[22.528,60.9781,92.8247],[22.5276,60.9736,77.8467],[22.5369,60.9734,82.2803],[22.5365,60.969,93.9363],[22.5458,60.9688,85.9626],[22.5451,60.9598,88.2546],[22.5543,60.9596,77.6748],[22.5539,60.9552,78.2401],[22.5632,60.955,97.243],[22.5628,60.9505,78.1095],[22.5721,60.9503,83.3162],[22.5717,60.9458,100.0045],[22.5809,60.9457,86.7053],[22.5806,60.9412,81.4855],[22.5621,60.9415,93.3897],[22.5625,60.946,80.7181],[22.5347,60.9465,94.7136],[22.5351,60.951,83.0948],[22.5073,60.9515,79.6124],[22.507,60.947,83.4002],[22.4793,60.9475,99.7678],[22.4789,60.9431,96.2288],[22.4512,60.9436,68.2097],[22.4509,60.9391,78.9728],[22.4231,60.9396,53.6477],[22.4228,60.9351,64.1587],[22.3858,60.9357,43.0],[22.3855,60.9312,43.0],[22.3578,60.9317,43.0],[22.3574,60.9272,43.0],[22.3482,60.9274,43.0],[22.3479,60.9229,43.0],[22.3386,60.9231,43.0],[22.3383,60.9186,43.0],[22.3198,60.9189,43.0],[22.3195,60.9144,64.2637],[22.3103,60.9146,70.1908],[22.3106,60.9191,56.4038],[22.2737,60.9197,70.0931],[22.274,60.9242,73.0001],[22.237,60.9248,56.3896],[22.2367,60.9203,65.7348],[22.2275,60.9204,50.5],[22.2272,60.916,59.3227],[22.2179,60.9161,57.6053],[22.2176,60.9116,74.9284],[22.2084,60.9118,59.0025],[22.2081,60.9073,58.526],[22.1989,60.9074,55.5497],[22.1982,60.8984,61.7272],[22.189,60.8986,50.5],[22.1884,60.8896,76.2345],[22.1792,60.8898,67.8369],[22.1782,60.8763,63.471],[22.169,60.8764,58.797],[22.1681,60.863,57.655],[22.1773,60.8628,61.6964],[22.1767,60.8539,55.2977],[22.1859,60.8537,53.927],[22.1853,60.8447,54.036],[22.1946,60.8446,56.1903],[22.1939,60.8356,55.2495],[22.2031,60.8355,57.988],[22.2025,60.8265,56.2203],[22.2117,60.8263,56.5292],[22.2111,60.8174,70.3365],[22.2203,60.8172,58.9371],[22.2197,60.8082,68.6618],[22.2289,60.8081,63.8229],[22.2286,60.8036,58.6396],[22.2378,60.8034,66.4828],[22.2375,60.799,67.0777],[22.2559,60.7986,48.8089],[22.2556,60.7942,49.0908],[22.2648,60.794,73.2416],[22.2644,60.7895,64.4496],[22.2828,60.7892,71.3596],[22.2825,60.7847,70.1908],[22.2917,60.7846,70.3546],[22.2914,60.7801,72.1005],[22.3098,60.7798,69.0707],[22.3095,60.7753,74.0204],[22.3187,60.7751,75.748],[22.3183,60.7706,72.8329],[22.3275,60.7705,67.7874],[22.3272,60.766,79.1305],[22.3456,60.7657,71.4084],[22.3452,60.7612,73.0108],[22.3544,60.761,66.0],[22.3541,60.7565,78.7505],[22.3725,60.7562,79.6805],[22.3722,60.7517,70.8311],[22.3814,60.7515,72.6895],[22.381,60.7471,82.2375],[22.3994,60.7467,68.0],[22.399,60.7422,68.0],[22.4082,60.7421,68.0],[22.4079,60.7376,90.1856],[22.4171,60.7374,79.1408],[22.4167,60.7329,72.3551],[22.4259,60.7328,74.8146],[22.4249,60.7193,87.9484],[22.4341,60.7192,77.9836],[22.4334,60.7102,79.6969],[22.4426,60.71,69.5607],[22.4416,60.6965,67.1361],[22.4507,60.6964,61.8723],[22.4494,60.6784,60.2187],[22.4585,60.6783,59.4486],[22.4568,60.6558,55.4783],[22.4477,60.656,55.6556],[22.4466,60.6425,52.413],[22.4558,60.6423,54.087],[22.4555,60.6379,70.9857],[22.5104,60.6369,59.1116],[22.51,60.6324,58.056399999999996],[22.5009,60.6325,74.7472],[22.5005,60.628,50.1161],[22.4914,60.6282,50.3274],[22.4907,60.6192,49.798],[22.4815,60.6194,50.8922],[22.4791,60.588,51.5361],[22.4883,60.5878,58.8973],[22.4869,60.5699,37.3674],[22.496,60.5697,48.2609],[22.4964,60.5742,37.0496],[22.5055,60.574,53.9175],[22.5058,60.5785,40.8283],[22.515,60.5783,51.8847],[22.5153,60.5828,43.8784],[22.5336,60.5825,43.8897],[22.5333,60.578,59.3867],[22.5424,60.5778,51.9874],[22.542,60.5733,65.5856],[22.5603,60.573,56.8322],[22.56,60.5685,52.034],[22.5782,60.5681,54.5929],[22.5789,60.5771,66.1272],[22.5698,60.5773,63.1698],[22.5702,60.5818,76.6903],[22.561,60.582,69.3585],[22.5614,60.5864,79.3773],[22.5522,60.5866,64.7474],[22.5529,60.5956,59.316],[22.5621,60.5954,77.1616],[22.5624,60.5999,62.0857],[22.5716,60.5998,68.6548],[22.5719,60.6042,45.7076],[22.5902,60.6039,61.7342],[22.5906,60.6084,82.9973],[22.6272,60.6077,55.9078],[22.6264,60.5987,56.0802],[22.6173,60.5989,81.0471],[22.6169,60.5944,68.0632],[22.6078,60.5946,75.5647],[22.6067,60.5811,68.4478],[22.6159,60.5809,77.3695],[22.6155,60.5764,82.7374],[22.6246,60.5762,65.367],[22.6243,60.5718,75.8932],[22.6334,60.5716,65.4094],[22.633,60.5671,51.317],[22.6422,60.5669,44.6181],[22.6418,60.5624,43.8192],[22.6509,60.5622,44.9517],[22.6502,60.5533,62.2087],[22.6684,60.5529,68.5829],[22.6688,60.5574,68.4449],[22.7053,60.5567,56.3425],[22.7042,60.5432,47.477],[22.7225,60.5428,67.9656],[22.7221,60.5383,52.8599],[22.7403,60.538,70.2496],[22.74,60.5335,63.5822],[22.7491,60.5333,63.5549],[22.7487,60.5288,73.1108],[22.7669,60.5284,62.9715],[22.7666,60.5239,63.4413],[22.8395,60.5224,56.1821],[22.8387,60.5135,72.2654],[22.8661,60.5129,73.743],[22.8665,60.5173,75.5081],[22.8756,60.5172,72.197],[22.876,60.5216,64.1764],[22.8942,60.5213,78.2759],[22.8946,60.5257,77.0152],[22.9037,60.5255,80.0351],[22.9041,60.53,76.5985],[22.9224,60.5296,71.0149],[22.9228,60.5341,74.6359],[22.9319,60.5339,70.877],[22.9323,60.5384,74.2875],[22.9506,60.538,80.5183],[22.951,60.5425,75.4305],[22.9784,60.5419,78.1084],[22.9788,60.5464,74.9638],[22.997,60.546,90.155],[22.9974,60.5505,83.7114],[23.0248,60.5498,89.939],[23.0252,60.5543,88.4684],[23.0435,60.5539,89.0619],[23.0439,60.5584,94.0747],[23.0713,60.5578,102.8877],[23.0717,60.5623,88.1278],[23.0808,60.5621,101.3663],[23.0813,60.5666,92.5129],[23.0904,60.5663,85.796],[23.0908,60.5708,102.5428],[23.1,60.5706,86.7989],[23.1004,60.5751,100.1918],[23.1187,60.5747,78.1729],[23.1191,60.5792,100.7349],[23.1556,60.5783,104.2579],[23.1561,60.5828,109.1287],[23.1652,60.5826,108.3741],[23.1648,60.5781,99.8855],[23.183,60.5777,98.1267],[23.1826,60.5732,109.6888],[23.2008,60.5727,95.9904],[23.2017,60.5817,99.0139],[23.2109,60.5815,97.6493],[23.2118,60.5905,95.0639],[23.2209,60.5903,97.4072],[23.2218,60.5992,89.2071],[23.2309,60.599,89.271],[23.2318,60.608,98.0752],[23.241,60.6078,96.611],[23.2419,60.6167,88.3188],[23.251,60.6165,88.0672],[23.2515,60.621,88.521],[23.2606,60.6208,88.2862],[23.2615,60.6297,92.5047],[23.2524,60.63,96.6714],[23.2528,60.6344,92.3447],[23.2345,60.6349,104.8658],[23.235,60.6394,87.3034],[23.2258,60.6396,88.9314],[23.2276,60.6575,92.9671],[23.2368,60.6573,90.7313],[23.239,60.6797,87.3681],[23.2207,60.6802,81.671],[23.2216,60.6891,89.6904],[23.2125,60.6894,97.0547],[23.2138,60.7028,92.8672],[23.2046,60.703,94.1826],[23.206,60.7165,92.8553],[23.1968,60.7167,99.6932],[23.1981,60.7302,93.9495],[23.189,60.7304,95.3429],[23.1903,60.743899999999996,116.1126],[23.1811,60.7441,109.0219],[23.182,60.753,105.2146],[23.1728,60.7533,113.7547],[23.1737,60.7622,113.6159],[23.1645,60.7624,116.4576],[23.1654,60.7714,99.4565]]]]}
,"properties": {"GID_3": "FIN.5.3.2_1","GID_0": "FIN","country": "Finland","GID_1": "FIN.5_1","province": "WesternFinland","NL_NAME_1": "NA","GID_2": "FIN.5.3_1","county": "FinlandProper","NL_NAME_2": "NA","city": "Loimaa","VARNAME_3": "NA","NL_NAME_3": "NA","TYPE_3": "Seutukunta|Ekonomiskregion","ENGTYPE_3": "Sub-Region","CC_3": "NA","HASC_3": "FI.LS.LM","name": "Loimaa.city","area_km2": 2316.263,"hist_schema_id": "Elevation0-9000","hist_area_km2": {"25": 0.937,"50": 264.31,"75": 1284.557,"100": 704.553,"125": 61.556,"150": 0.35}}}