{"type":"Feature","properties":{"GID_3":"FIN.5.1.1_1","GID_0":"FIN","country":"Finland","GID_1":"FIN.5_1","province":"WesternFinland","NL_NAME_1":"NA","GID_2":"FIN.5.1_1","county":"CentralFinland","NL_NAME_2":"NA","city":"Äänekoski","VARNAME_3":"NA","NL_NAME_3":"NA","TYPE_3":"Seutukunta|Ekonomiskregion","ENGTYPE_3":"Sub-Region","CC_3":"NA","HASC_3":"FI.LS.AK","name":"Äänekoski.city"},
"geometry":{"type": "MultiPolygon","coordinates": [[[[25.969,62.5432,172.18],[25.9699,62.5477,190.3913],[25.9796,62.5473,165.6761],[25.9805,62.5517,154.0827],[25.9902,62.5513,150.1931],[25.992,62.5603,138.1431],[26.0017,62.5599,139.9856],[26.0026,62.5643,149.5596],[26.0123,62.5639,164.2044],[26.0141,62.5729,159.4124],[26.0238,62.5724,153.5226],[26.0247,62.5769,170.3136],[26.0344,62.5765,168.3163],[26.0353,62.581,189.8436],[26.045,62.5806,168.637],[26.0432,62.5716,154.1628],[26.0529,62.5712,160.2596],[26.0511,62.5623,130.1254],[26.0608,62.5619,134.5613],[26.0599,62.5574,119.2116],[26.0696,62.557,123.4383],[26.0678,62.548,121.9201],[26.0775,62.5476,125.9797],[26.0757,62.5387,101.8027],[26.0854,62.5383,110.9178],[26.0835,62.5293,112.6939],[26.0933,62.5289,116.042],[26.0923,62.5244,99.0],[26.102,62.524,129.589],[26.1002,62.5151,99.0],[26.1099,62.5147,99.0],[26.109,62.5102,99.0],[26.1187,62.5098,99.0],[26.1178,62.5053,99.0],[26.1274,62.5049,99.0],[26.1256,62.4959,99.0],[26.1353,62.4955,99.0],[26.1344,62.491,99.0],[26.1441,62.4906,99.0],[26.1431,62.4861,128.7608],[26.1625,62.4853,106.7162],[26.1616,62.4808,155.3143],[26.1906,62.4796,132.9421],[26.1925,62.4885,131.615],[26.2021,62.4881,101.085],[26.2031,62.4926,86.5],[26.2224,62.4917,86.5],[26.2234,62.4962,86.5],[26.2137,62.4966,86.5],[26.2165,62.51,92.5361],[26.2068,62.5105,86.5],[26.2086,62.5194,90.5577],[26.1989,62.5198,86.5],[26.2017,62.5332,86.5],[26.2308,62.532,92.3178],[26.2336,62.5453,97.4268],[26.2239,62.5458,89.998],[26.2258,62.5547,89.0],[26.2161,62.5552,97.6864],[26.2189,62.5686,106.9216],[26.2092,62.569,89.0],[26.211,62.5779,89.0],[26.2304,62.5771,113.8008],[26.2295,62.5726,98.9278],[26.2392,62.5722,111.987],[26.2383,62.5677,99.8937],[26.248,62.5673,109.0713],[26.2471,62.5628,96.2199],[26.2568,62.5624,89.0],[26.2558,62.5579,89.0],[26.2655,62.5575,89.0],[26.2646,62.553,89.0],[26.2743,62.5526,115.1096],[26.2733,62.5481,89.0],[26.2927,62.5473,97.2866],[26.2918,62.5428,101.6054],[26.3112,62.5419,116.4136],[26.3102,62.5375,114.5349],[26.3296,62.5366,125.7321],[26.3287,62.5321,122.6929],[26.3481,62.5313,117.0],[26.3471,62.5268,132.96],[26.3762,62.5255,145.5731],[26.3752,62.521,145.7518],[26.3946,62.5202,144.8344],[26.3927,62.5112,154.1559],[26.4024,62.5108,182.7733],[26.4014,62.5063,188.47],[26.4111,62.5059,168.5617],[26.413,62.5148,164.7297],[26.4227,62.5144,176.1142],[26.4237,62.5189,187.9296],[26.4334,62.5184,172.9032],[26.4343,62.5229,161.3524],[26.444,62.5224,168.9883],[26.445,62.5269,170.771],[26.4547,62.5265,141.1419],[26.4566,62.5354,130.2592],[26.5148,62.5327,123.794],[26.5157,62.5372,108.355],[26.5254,62.5368,139.0338],[26.5264,62.5412,114.0362],[26.5361,62.5408,165.2382],[26.538,62.5497,155.7511],[26.5478,62.5493,153.3203],[26.5497,62.5582,133.8976],[26.5594,62.5578,141.0059],[26.5633,62.5756,94.0],[26.573,62.5752,94.0],[26.576,62.5886,94.0],[26.5954,62.5877,94.0],[26.5974,62.5966,103.4527],[26.5877,62.5971,94.0],[26.5887,62.6016,94.0],[26.579,62.602,116.4972],[26.58,62.6065,94.0],[26.5897,62.606,94.0],[26.590699999999998,62.6105,94.0],[26.6004,62.6101,94.0],[26.6033,62.6235,94.0],[26.5936,62.6239,94.0],[26.5976,62.6418,94.0],[26.5879,62.6422,94.0],[26.5899,62.6512,108.0817],[26.5801,62.6516,102.5673],[26.5821,62.6605,110.9501],[26.5724,62.661,94.0],[26.5744,62.6699,104.2273],[26.5646,62.6704,94.0],[26.5666,62.6793,94.0],[26.5569,62.6797,94.0],[26.5588,62.6887,94.0],[26.5491,62.6891,94.0],[26.5521,62.7025,94.0],[26.5423,62.703,94.0],[26.5443,62.7119,94.0],[26.5345,62.7124,94.0],[26.5365,62.7213,94.0],[26.5268,62.7218,94.0],[26.5287,62.7307,94.0],[26.519,62.7311,94.0],[26.52,62.7356,94.0],[26.5102,62.7361,94.0],[26.5112,62.7405,94.0],[26.5014,62.741,94.0],[26.5034,62.7499,94.0],[26.4936,62.7504,94.0],[26.4946,62.7548,94.0],[26.4848,62.7553,94.0],[26.4858,62.7597,94.0],[26.4761,62.7602,94.0],[26.478,62.7691,94.0],[26.4683,62.7696,94.0],[26.4692,62.774,94.0],[26.4595,62.7745,94.0],[26.4614,62.7834,94.0],[26.4516,62.7839,94.0],[26.4526,62.7883,94.0],[26.4428,62.7888,94.0],[26.4419,62.7843,94.0],[26.4223,62.7852,94.0],[26.4214,62.7807,94.0],[26.4018,62.7816,94.0],[26.4008,62.7771,94.0],[26.3911,62.7775,116.0643],[26.3901,62.7731,113.0588],[26.3999,62.7726,115.8225],[26.3979,62.7637,98.0],[26.3882,62.7641,98.0],[26.3862,62.7552,98.0],[26.3765,62.7556,98.0],[26.3755,62.7512,98.0],[26.3657,62.7516,98.0],[26.3648,62.7471,98.0],[26.355,62.7476,98.0],[26.356,62.752,98.0],[26.3462,62.7525,98.0],[26.3472,62.7569,98.0],[26.3374,62.7574,98.0],[26.3384,62.7618,98.0],[26.3286,62.7623,98.0],[26.3296,62.7667,98.0],[26.3198,62.7672,98.0],[26.3207,62.7716,98.0],[26.311,62.7721,98.0],[26.3119,62.7765,98.0],[26.3022,62.777,98.0],[26.3031,62.7814,98.0],[26.2933,62.7819,98.0],[26.2943,62.7864,98.0],[26.2845,62.7868,98.0],[26.2855,62.7912,98.0],[26.2757,62.7917,98.0],[26.2776,62.8006,98.0],[26.2678,62.801,98.0],[26.2687,62.8055,98.0],[26.259,62.8059,98.0],[26.2599,62.8104,98.0],[26.2501,62.8108,98.0],[26.2511,62.8153,98.0],[26.2413,62.8157,98.0],[26.2422,62.8202,111.7815],[26.2324,62.8206,110.6128],[26.2334,62.8251,117.5639],[26.2138,62.8259,119.3967],[26.2148,62.8304,128.8069],[26.205,62.8308,130.0918],[26.204,62.8264,126.4593],[26.1845,62.8272,98.0],[26.1854,62.8317,98.0],[26.1756,62.8321,98.0],[26.1765,62.8366,98.0],[26.1667,62.837,98.0],[26.1677,62.8415,105.4123],[26.1579,62.8419,98.0],[26.1597,62.8508,117.2059],[26.1695,62.8504,136.2792],[26.1705,62.8549,124.3354],[26.1803,62.8545,118.3124],[26.1812,62.8589,110.3986],[26.191,62.8585,110.819],[26.192,62.863,98.0],[26.1821,62.8634,98.0],[26.1831,62.8679,98.0],[26.1733,62.8683,98.0],[26.1742,62.8728,98.0],[26.1448,62.874,98.0],[26.1457,62.8785,98.0],[26.1065,62.8802,98.0],[26.1074,62.8847,98.0],[26.078,62.8859,98.0],[26.0789,62.8904,98.0],[26.0495,62.8916,98.0],[26.0504,62.8961,111.0019],[26.0406,62.8965,106.4083],[26.0415,62.901,112.0149],[26.0317,62.9014,113.0223],[26.0326,62.9059,108.5779],[26.0228,62.9063,114.4561],[26.02,62.8928,98.0],[26.0102,62.8933,102.9849],[26.0075,62.8798,98.0],[25.9977,62.8802,98.0],[25.9949,62.8668,98.0],[25.9851,62.8672,103.5145],[25.986,62.8717,98.0],[25.9664,62.8726,98.0],[25.9673,62.877,98.0],[25.9379,62.8782,98.0],[25.9388,62.8827,98.0],[25.8799,62.8851,126.8064],[25.879,62.8806,126.4794],[25.8594,62.8815,122.7856],[25.8603,62.8859,116.9595],[25.8505,62.8863,122.7519],[25.8514,62.8908,120.0716],[25.8317,62.8916,124.1576],[25.8326,62.8961,136.6991],[25.8228,62.8965,138.6848],[25.8237,62.901,137.6254],[25.804,62.9017,140.379],[25.8049,62.9062,142.8635],[25.7755,62.9074,128.0],[25.7763,62.9119,142.2968],[25.737,62.9135,150.849],[25.7379,62.9179,161.4554],[25.7084,62.9191,175.373],[25.7076,62.9146,185.1856],[25.6977,62.915,191.6967],[25.6969,62.9105,191.5782],[25.687,62.9109,197.4386],[25.6862,62.9065,182.8682],[25.6764,62.9068,191.6665],[25.6755,62.9024,174.9112],[25.6657,62.9028,154.0],[25.6639,62.8938,178.1565],[25.6541,62.8942,183.8315],[25.6533,62.8897,182.8375],[25.6434,62.8901,187.3798],[25.6426,62.8856,186.5187],[25.6328,62.886,195.7018],[25.6319,62.8815,184.9774],[25.6221,62.8819,188.8121],[25.6212,62.8774,187.1613],[25.6114,62.8778,191.0749],[25.6106,62.8734,174.2494],[25.6007,62.8737,170.6057],[25.5999,62.8693,156.5361],[25.5901,62.8697,167.0543],[25.5892,62.8652,167.5318],[25.5794,62.8656,178.3648],[25.5777,62.8566,174.4527],[25.5875,62.8562,161.0],[25.5867,62.8517,161.0],[25.6063,62.851,166.6219],[25.6055,62.8465,161.0],[25.6153,62.8461,163.7129],[25.6144,62.8417,173.9393],[25.6242,62.8413,170.7829],[25.6234,62.8368,171.3331],[25.6332,62.8364,170.6096],[25.6315,62.8274,167.4689],[25.6413,62.8271,166.8854],[25.6395,62.8181,163.95],[25.6493,62.8177,164.128],[25.6485,62.8133,157.2169],[25.6583,62.8129,159.8808],[25.6574,62.8084,153.5],[25.6672,62.808,179.7003],[25.6664,62.8035,162.8291],[25.6761,62.8032,166.6752],[25.6753,62.7987,161.7445],[25.6851,62.7983,161.5574],[25.6842,62.7938,165.6644],[25.694,62.7934,191.8401],[25.6923,62.7845,157.0981],[25.7021,62.7841,173.2516],[25.7012,62.7796,157.0155],[25.6914,62.78,159.2715],[25.688,62.7621,144.7468],[25.6782,62.7625,145.1098],[25.6765,62.7535,147.1245],[25.6472,62.7547,156.8224],[25.6463,62.7502,146.816],[25.6268,62.751,163.5058],[25.6259,62.7465,169.179],[25.5966,62.7477,188.1548],[25.5957,62.7432,183.4365],[25.5762,62.744,180.0691],[25.5754,62.7395,165.9798],[25.546,62.7406,221.8302],[25.5452,62.7361,191.9818],[25.5257,62.7369,151.8143],[25.5248,62.7324,152.8019],[25.5053,62.7332,130.9161],[25.5045,62.7287,120.0],[25.4947,62.7291,120.0],[25.4922,62.7157,120.0],[25.502,62.7153,120.0],[25.4912,62.6571,146.3551],[25.4815,62.6575,169.653],[25.4773,62.6351,107.5],[25.4871,62.6347,119.7559],[25.4862,62.6302,107.5],[25.496,62.6299,107.5],[25.4952,62.6254,107.5],[25.5049,62.625,107.5],[25.5041,62.6206,107.5],[25.5138,62.6202,107.5],[25.5121,62.6112,107.5],[25.5219,62.6108,107.5],[25.5202,62.6019,151.6842],[25.5105,62.6023,217.7236],[25.5097,62.5978,216.9292],[25.4902,62.5985,208.5415],[25.4894,62.5941,224.2073],[25.4797,62.5944,196.3383],[25.4772,62.581,181.6128],[25.4869,62.5806,200.3976],[25.4811,62.5493,121.9227],[25.4909,62.5489,130.4374],[25.49,62.5445,123.7075],[25.5192,62.5433,141.1572],[25.52,62.5478,147.2323],[25.5297,62.5474,151.3149],[25.5305,62.5519,169.2526],[25.5402,62.5515,162.8097],[25.541,62.556,171.9861],[25.6285,62.5526,108.0008],[25.6268,62.5436,120.7064],[25.6365,62.5432,133.5879],[25.6339,62.5298,142.9737],[25.6436,62.5294,162.2329],[25.6445,62.5339,140.0078],[25.6639,62.5331,136.7682],[25.6833,62.5324,117.6568],[25.6824,62.5279,122.0478],[25.6921,62.5275,97.4754],[25.6904,62.5186,118.2355],[25.671,62.5193,163.5257],[25.6702,62.5149,180.9811],[25.6896,62.5141,127.2587],[25.6879,62.5051,112.4167],[25.6976,62.5047,136.3884],[25.6933,62.4824,169.0748],[25.7224,62.4812,242.7547],[25.7258,62.4991,193.102],[25.7355,62.4987,220.7956],[25.7363,62.5032,200.612],[25.746,62.5028,172.1485],[25.7469,62.5073,152.9365],[25.776,62.5061,169.8136],[25.7768,62.5106,167.658],[25.8156,62.509,154.5081],[25.8173,62.5179,117.7054],[25.827,62.5175,107.4251],[25.8279,62.522,98.9538],[25.8473,62.5212,88.5],[25.8499,62.5346,112.8269],[25.8402,62.535,112.2618],[25.8411,62.5395,103.8974],[25.8314,62.5399,91.5],[25.8323,62.5444,116.391],[25.8808,62.5424,145.0107],[25.8799,62.5379,129.17],[25.8993,62.5371,132.7309],[25.8984,62.5326,127.2175],[25.9178,62.5318,129.7276],[25.9169,62.5273,128.8935],[25.946,62.5261,131.9663],[25.9478,62.5351,148.0653],[25.9575,62.5347,155.2875],[25.9584,62.5391,161.6233],[25.9681,62.5387,167.3173],[25.969,62.5432,172.18]]]]}}