{"type":"Feature","properties":{"GID_3":"FIN.3.2.1_1","GID_0":"FIN","country":"Finland","GID_1":"FIN.3_1","province":"Oulu","NL_NAME_1":"NA","GID_2":"FIN.3.2_1","county":"NorthernOstrobothnia","NL_NAME_2":"NA","city":"Koillismaa","VARNAME_3":"NA","NL_NAME_3":"NA","TYPE_3":"Seutukunta|Ekonomiskregion","ENGTYPE_3":"Sub-Region","CC_3":"NA","HASC_3":"FI.OU.KM","name":"Koillismaa.city"},
"geometry":{"type": "MultiPolygon","coordinates": [[[[27.7755,65.8266,375.5593],[27.7646,65.8271,337.9713],[27.7619,65.8182,304.6771],[27.7511,65.8187,315.2046],[27.7444,65.7964,355.6323],[27.7335,65.797,342.771],[27.7295,65.7836,245.2443],[27.7187,65.7841,251.2078],[27.7173,65.7796,252.2228],[27.7282,65.7791,254.6694],[27.7269,65.7747,260.1826],[27.7377,65.7741,251.3753],[27.7364,65.7697,274.7146],[27.7581,65.7686,249.6574],[27.7568,65.7641,264.7658],[27.7676,65.7636,254.1843],[27.765,65.7547,267.7482],[27.7758,65.7541,262.8108],[27.7705,65.7363,221.0064],[27.7813,65.7357,227.2076],[27.7773,65.7224,232.2591],[27.7881,65.7218,229.6871],[27.7841,65.7084,223.624],[27.7949,65.7079,227.1391],[27.7896,65.6901,278.9173],[27.8004,65.6895,261.0669],[27.7964,65.6761,254.3101],[27.8072,65.6756,276.8592],[27.8032,65.6622,359.5418],[27.814,65.6617,336.0006],[27.8127,65.6572,330.0909],[27.8235,65.6567,348.6961],[27.7783,65.505,200.4474],[27.789,65.5044,216.6315],[27.7877,65.5,208.8135],[27.7984,65.4995,208.0193],[27.7958,65.4905,197.4968],[27.8065,65.49,200.0121],[27.8052,65.4855,203.2739],[27.8159,65.485,199.9804],[27.8119,65.4716,211.0173],[27.8227,65.4711,200.0616],[27.8174,65.4532,169.9739],[27.8281,65.4527,166.5667],[27.8254,65.4438,163.7137],[27.8147,65.4443,170.9399],[27.8134,65.4398,165.7188],[27.8027,65.4404,165.4032],[27.8014,65.4359,173.5461],[27.7799,65.437,173.8702],[27.7786,65.4325,171.6123],[27.8107,65.4309,161.6557],[27.8094,65.4265,160.0477],[27.8309,65.4254,159.949],[27.8269,65.412,166.2946],[27.8483,65.4109,187.2891],[27.847,65.4065,166.7351],[27.8684,65.4054,173.5898],[27.8697,65.4098,215.2764],[27.9874,65.4038,234.193],[27.9861,65.3994,262.2032],[27.9968,65.3988,228.6985],[27.9954,65.3944,237.9157],[28.0168,65.3933,229.359],[28.0155,65.3888,231.3146],[28.0262,65.3883,220.2507],[28.0248,65.3838,224.9909],[28.0355,65.3833,217.9901],[28.0342,65.3788,216.7181],[28.0448,65.3783,225.2358],[28.0435,65.3738,218.0431],[28.0649,65.3727,222.7622],[28.0635,65.3682,223.0433],[28.0742,65.3677,221.8749],[28.0728,65.3632,217.6323],[28.0835,65.3627,212.401],[28.0821,65.3582,200.9134],[28.1035,65.3571,198.5246],[28.1021,65.3526,215.5552],[28.1128,65.3521,230.4591],[28.1115,65.3476,235.593],[28.1221,65.3471,239.3098],[28.1208,65.3426,230.0654],[28.1314,65.342,237.5304],[28.1287,65.3331,211.2017],[28.118,65.3337,211.6917],[28.1153,65.3248,210.8037],[28.1259,65.3242,210.8579],[28.1232,65.3153,205.2312],[28.1445,65.3142,202.9517],[28.1432,65.3097,209.4212],[28.1538,65.3091,200.9968],[28.1483,65.2913,181.1145],[28.159,65.2908,178.8333],[28.1535,65.2729,199.954],[28.1641,65.2724,208.4059],[28.1586,65.2545,181.6663],[28.1693,65.254,192.0752],[28.1679,65.2495,191.1547],[28.1786,65.2489,190.7844],[28.1799,65.2534,198.9855],[28.2118,65.2517,239.6197],[28.2132,65.2562,243.6064],[28.2451,65.2545,250.102],[28.2465,65.2589,209.4969],[28.2678,65.2578,220.7608],[28.2692,65.2623,228.4237],[28.3011,65.2606,225.1407],[28.3025,65.265,223.6012],[28.3344,65.2633,265.9923],[28.3358,65.2678,248.3384],[28.3677,65.266,231.5439],[28.3691,65.2705,236.4101],[28.4117,65.2682,281.954],[28.4131,65.2726,285.7949],[28.445,65.2709,264.3246],[28.4464,65.2754,259.1473],[28.4784,65.2736,256.3123],[28.4798,65.2781,250.1038],[28.5117,65.2763,269.77],[28.5131,65.2808,255.5545],[28.5451,65.279,282.9546],[28.5465,65.2835,275.2102],[28.5891,65.2811,277.658],[28.5905,65.2856,274.3791],[28.6118,65.2844,289.1184],[28.6147,65.2933,289.6457],[28.6041,65.2939,283.939],[28.6113,65.3161,249.0124],[28.5687,65.3185,238.4642],[28.5701,65.323,239.1031],[28.5808,65.3224,235.8825],[28.5822,65.3268,251.2809],[28.6142,65.3251,244.0637],[28.6215,65.3473,267.2343],[28.6321,65.3467,250.5699],[28.6365,65.3601,242.1704],[28.6472,65.3595,242.0418],[28.6501,65.3684,241.9141],[28.6608,65.3678,241.7647],[28.6622,65.3723,241.7818],[28.6516,65.3729,242.0613],[28.6559,65.3862,241.9416],[28.6453,65.3868,242.2572],[28.6467,65.3913,242.0151],[28.6681,65.3901,249.6656],[28.6696,65.3945,242.0538],[28.6802,65.3939,244.0451],[28.6817,65.3984,245.8765],[28.7031,65.3972,287.3749],[28.7046,65.4016,285.5442],[28.7259,65.4004,258.602],[28.7274,65.4049,253.4772],[28.7381,65.4043,253.6712],[28.7396,65.4087,261.9955],[28.7609,65.4075,258.6799],[28.7624,65.412,254.8783],[28.7731,65.4114,252.68],[28.7746,65.4158,251.4448],[28.796,65.4146,254.9117],[28.7975,65.4191,252.1905],[28.8188,65.4179,259.3592],[28.8203,65.4223,258.7304],[28.831,65.4217,268.824],[28.8325,65.4262,257.2626],[28.8539,65.425,269.1871],[28.8554,65.4294,278.9541],[28.8661,65.4288,270.2983],[28.8676,65.4333,277.7253],[28.889,65.4321,266.3099],[28.8905,65.4365,276.134],[28.9119,65.4353,253.2913],[28.9134,65.4397,264.6608],[28.9241,65.4391,251.5],[28.9256,65.4436,256.7706],[28.947,65.4423,265.7193],[28.9485,65.4468,261.7964],[29.0127,65.4431,257.0085],[29.0112,65.4386,253.9247],[29.054,65.4361,235.5],[29.0555,65.4406,235.5],[29.0769,65.4394,259.5443],[29.0784,65.4438,252.6429],[29.0998,65.4426,260.2082],[29.1013,65.447,273.7531],[29.1227,65.4457,262.6748],[29.1258,65.4546,259.1486],[29.1365,65.454,265.9415],[29.1381,65.4585,251.8764],[29.1488,65.4578,261.5231],[29.1503,65.4623,240.5516],[29.161,65.4616,238.5416],[29.1641,65.4706,244.1489],[29.1748,65.4699,255.5289],[29.1764,65.4744,256.7863],[29.1871,65.4737,256.623],[29.1902,65.4826,259.2776],[29.2009,65.482,273.7179],[29.2025,65.4865,267.4612],[29.2132,65.4858,263.2993],[29.2226,65.5125,274.3905],[29.2119,65.5131,284.5717],[29.2134,65.5176,268.9962],[29.2349,65.5163,255.1578],[29.2365,65.5208,246.3289],[29.2901,65.5176,242.1787],[29.2916,65.522,276.3051],[29.3452,65.5188,248.2699],[29.3436,65.5144,248.7868],[29.3865,65.5118,230.9953],[29.3849,65.5074,227.0434],[29.4171,65.5054,237.0672],[29.4155,65.501,228.5009],[29.4583,65.4984,228.0433],[29.4567,65.4939,221.1091],[29.4995,65.4913,234.3837],[29.4979,65.4869,225.4303],[29.5086,65.4862,221.6484],[29.5102,65.4907,221.2281],[29.5209,65.49,223.0459],[29.5225,65.4945,222.9242],[29.5333,65.4938,230.1619],[29.5365,65.5027,217.3536],[29.5472,65.5021,216.9596],[29.5488,65.5065,217.405],[29.6131,65.5025,217.8911],[29.6114,65.4981,223.6897],[29.6649,65.4948,236.0072],[29.6666,65.4992,221.4478],[29.7415,65.4946,221.9236],[29.7432,65.499,226.4163],[29.7691,65.4974,237.0226],[29.7964,65.5138,233.1406],[29.8033,65.5134,227.2414],[29.8054,65.5191,231.3312],[29.8243,65.5303,259.3726],[29.8314,65.5298,253.1519],[29.8337,65.5358,270.1917],[29.8382,65.5385,259.5268],[29.8455,65.538,253.302],[29.8478,65.5442,257.1212],[29.8761,65.5611,247.2425],[29.8777,65.5652,247.4854],[29.8385,65.5779,225.8405],[29.8391,65.5794,225.7244],[29.8288,65.5811,229.4165],[29.83,65.5845,231.004],[29.816,65.5854,228.6139],[29.8094,65.588,236.285],[29.8102,65.5903,242.5222],[29.7999,65.5919,245.404],[29.8012,65.5954,240.4502],[29.7894,65.5961,254.2096],[29.7821,65.5991,257.6331],[29.7814,65.6012,255.2388],[29.7783,65.6014,255.591],[29.745,65.6215,263.2916],[29.7467,65.6261,260.7643],[29.7344,65.6279,263.3396],[29.809,65.6449,252.6005],[29.8196,65.6442,262.8133],[29.8209,65.6476,246.902],[29.8445,65.6518,288.5306],[29.845,65.6531,268.3427],[29.856,65.6556,274.0616],[29.8677,65.6549,270.8253],[29.8691,65.6586,268.0461],[29.8801,65.6586,263.7906],[29.8812,65.6613,279.0688],[29.8926,65.6624,284.3929],[29.8932,65.6641,293.454],[29.9341,65.6734,251.6673],[29.9407,65.673,251.4829],[29.9416,65.6751,252.3382],[30.0066,65.6899,273.3749],[30.0438,65.6828,251.9754],[30.0428,65.6801,257.8221],[30.0623,65.6789,249.5759],[30.0745,65.6763,248.5159],[30.0734,65.6736,262.849],[30.0988,65.672,255.044],[30.1051,65.67,253.1023],[30.1039,65.6671,254.6087],[30.1254,65.6657,254.7319],[30.1289,65.6746,268.9165],[30.1238,65.6749,262.8512],[30.1278,65.7349,288.0749],[30.1016,65.831,271.262],[30.1033,65.8354,270.3562],[30.0997,65.8357,271.798],[30.0898,65.8576,267.6936],[30.0921,65.8635,274.6086],[30.087,65.8638,271.3129],[30.0839,65.8708,268.2654],[30.0865,65.8775,276.2426],[30.0807,65.8779,272.0233],[30.072,65.8972,267.9185],[30.0752,65.9055,266.2961],[30.068,65.906,270.7501],[30.0647,65.9134,259.9322],[30.0588,65.9205,266.0322],[30.0604,65.9246,257.8917],[30.0551,65.925,259.7778],[30.0417,65.941,264.3514],[30.0325,65.9672,262.2841],[30.0343,65.9718,262.2281],[30.0201,65.9727,262.4128],[30.0074,65.9885,271.2719],[30.0086,65.9916,267.8199],[30.0048,65.9919,272.1679],[29.9921,66.0066,270.1577],[29.9937,66.0107,270.1303],[29.9883,66.0111,269.7208],[29.9841,66.0161,283.6048],[29.9879,66.0228,256.7868],[29.9799,66.0326,270.5854],[29.9823,66.0388,269.2312],[29.9752,66.0392,277.9654],[29.9728,66.0429,257.6223],[29.9749,66.0483,270.4505],[29.969,66.0487,273.7656],[29.9658,66.0537,272.1528],[29.9674,66.0579,263.9092],[29.9629,66.0582,259.7845],[29.9588,66.0645,268.5461],[29.96,66.0675,268.354],[29.9567,66.0677,270.8877],[29.9448,66.086,281.6534],[29.9468,66.091,276.5531],[29.9413,66.0914,273.9582],[29.9168,66.1293,269.6458],[29.9076,66.1345,287.6301],[29.9093,66.1388,309.0669],[29.9003,66.1394,311.4769],[29.872,66.1583,342.8318],[29.8724,66.1593,338.9933],[29.863,66.1641,317.6464],[29.8649,66.1689,305.475],[29.8545,66.1695,306.048],[29.8556,66.174,281.2726],[29.8467,66.1746,281.6508],[29.845,66.1757,283.3642],[29.8464,66.1791,283.1765],[29.8389,66.1796,284.3803],[29.836,66.1814,291.0527],[29.8371,66.1842,289.329],[29.831,66.1846,289.0868],[29.827,66.1872,291.9478],[29.8278,66.1894,281.0786],[29.8232,66.1897,281.0918],[29.791,66.2104,257.6041],[29.7925,66.2143,287.9369],[29.7841,66.2148,254.936],[29.7819,66.2162,264.9727],[29.7832,66.2194,289.7889],[29.7763,66.2198,293.3547],[29.7549,66.2336,269.6242],[29.7553,66.2347,263.2751],[29.7528,66.2349,263.9594],[29.7187,66.2568,182.2563],[29.7198,66.2596,189.8668],[29.7137,66.26,182.7036],[29.7097,66.2626,190.9485],[29.7105,66.2648,166.5851],[29.7059,66.265,171.0698],[29.7015,66.2679,140.7346],[29.7012,66.2699,145.5873],[29.6988,66.27,145.4688],[29.692,66.2754,140.9409],[29.6936,66.2794,137.6675],[29.6862,66.2799,142.2104],[29.6745,66.2885,163.2176],[29.6749,66.2896,174.9808],[29.6699,66.292,170.7014],[29.662,66.3096,230.6452],[29.6265,66.37,267.9964],[29.6282,66.3743,260.295],[29.6238,66.3745,254.5636],[29.6124,66.3922,247.1221],[29.6145,66.3978,242.5193],[29.6085,66.3982,245.9354],[29.6051,66.4028,253.4489],[29.6068,66.4074,291.3005],[29.6005,66.4078,299.8128],[29.589,66.4202,281.7205],[29.5915,66.4265,287.4701],[29.5828,66.427,281.9745],[29.5783,66.4318,288.0234],[29.5266,66.4349,277.7773],[29.5249,66.4304,271.8515],[29.4472,66.435,271.6267],[29.4455,66.4306,273.5362],[29.3789,66.4344,273.6994],[29.3772,66.43,287.8393],[29.2995,66.4345,247.3952],[29.2978,66.4301,241.8729],[29.2645,66.432,231.9011],[29.2563,66.4097,226.1855],[29.2119,66.4123,218.1967],[29.2136,66.4167,208.9325],[29.1581,66.4199,224.3468],[29.1597,66.4243,219.8007],[29.1041,66.4275,227.3132],[29.1058,66.4319,225.1746],[29.0502,66.4351,237.7687],[29.0518,66.4395,243.0669],[28.9962,66.4426,244.234],[28.9978,66.4471,250.936],[28.9422,66.4502,260.7344],[28.9438,66.4546,252.0727],[28.8882,66.4577,256.795],[28.8898,66.4621,254.0962],[28.8341,66.4652,265.8653],[28.8357,66.4696,264.6997],[28.7689,66.4733,300.5916],[28.7705,66.4778,287.9012],[28.7148,66.4808,326.3985],[28.7163,66.4852,326.1458],[28.694,66.4864,413.4755],[28.6679,66.4107,360.3471],[28.6123,66.4137,311.8015],[28.6092,66.4047,305.0522],[28.5981,66.4053,301.9045],[28.5966,66.4009,278.7039],[28.5855,66.4015,278.2934],[28.5779,66.3792,287.0647],[28.5557,66.3804,279.7295],[28.5376,66.3269,311.8567],[28.5487,66.3263,311.968],[28.5457,66.3174,303.1036],[28.5567,66.3168,303.2028],[28.5537,66.3079,286.6264],[28.5648,66.3073,292.0259],[28.5618,66.2984,290.4712],[28.5728,66.2978,292.0898],[28.5698,66.2889,335.7997],[28.5809,66.2883,314.6721],[28.5778,66.2794,303.4421],[28.5889,66.2788,301.6748],[28.5859,66.2699,293.7548],[28.5969,66.2693,296.0308],[28.5954,66.2648,304.2487],[28.6175,66.2637,303.1403],[28.619,66.2681,309.2067],[28.6411,66.2669,287.2245],[28.6396,66.2625,320.039],[28.6506,66.2619,308.09],[28.6461,66.2485,302.564],[28.6682,66.2473,295.4757],[28.6712,66.2562,298.1262],[28.6822,66.2556,296.5078],[28.6838,66.2601,291.5282],[28.7059,66.2589,269.7438],[28.7074,66.2634,282.5701],[28.7184,66.2627,278.3398],[28.7169,66.2583,272.7417],[28.75,66.2565,275.74],[28.7454,66.2431,260.3177],[28.7565,66.2425,253.1807],[28.7549,66.2381,254.8301],[28.7659,66.2375,248.9509],[28.7629,66.2286,257.8032],[28.7518,66.2292,264.7401],[28.7442,66.2069,239.5],[28.7331,66.2075,239.5],[28.7316,66.203,239.5],[28.7426,66.2025,239.5],[28.7411,66.198,239.5],[28.7521,66.1974,239.5],[28.7506,66.1929,239.5],[28.7616,66.1923,239.5],[28.7601,66.1879,239.5],[28.7711,66.1873,239.5],[28.768,66.1784,239.5],[28.757,66.179,239.5],[28.7554,66.1745,239.5],[28.7444,66.1751,239.5],[28.7414,66.1662,239.5],[28.7304,66.1668,239.5],[28.7288,66.1624,239.5],[28.7178,66.163,239.5],[28.7117,66.1451,239.5],[28.7227,66.1446,239.5],[28.7197,66.1356,239.5],[28.7087,66.1362,239.5],[28.7072,66.1318,239.5],[28.6962,66.1324,239.5],[28.6947,66.1279,239.5],[28.6727,66.1291,239.5],[28.6712,66.1247,239.5],[28.6053,66.1282,239.5],[28.6038,66.1238,239.5],[28.6147,66.1232,239.5],[28.6117,66.1143,239.5],[28.6227,66.1137,239.5],[28.6182,66.1003,290.1769],[28.6292,66.0997,282.3842],[28.6262,66.0908,239.5],[28.6371,66.0902,244.0615],[28.6356,66.0858,249.0733],[28.6466,66.0852,239.5],[28.6436,66.0763,239.5],[28.6326,66.0769,239.5],[28.6311,66.0724,239.5],[28.6421,66.0718,239.5],[28.6406,66.0674,239.5],[28.6844,66.065,239.5],[28.6829,66.0605,239.5],[28.7048,66.0593,249.4694],[28.7033,66.0549,247.0766],[28.7142,66.0543,250.816],[28.7112,66.0454,250.0635],[28.7441,66.0436,274.9696],[28.7456,66.048,288.9391],[28.7565,66.0474,279.7189],[28.7459,66.0162,333.4958],[28.7568,66.0156,323.3538],[28.7523,66.0023,335.2986],[28.7195,66.0041,322.3167],[28.7179,65.9996,366.6644],[28.6742,66.002,357.2188],[28.6727,65.9976,338.5674],[28.6618,65.9982,334.8608],[28.6573,65.9848,321.2678],[28.6026,65.9878,307.3255],[28.6056,65.9967,281.3818],[28.5947,65.9973,263.5455],[28.5962,66.0017,258.8694],[28.5087,66.0064,250.7325],[28.5072,66.002,267.9913],[28.4853,66.0032,260.7916],[28.4809,65.9898,258.0412],[28.459,65.991,244.5829],[28.4576,65.9865,253.0506],[28.4138,65.9888,257.7298],[28.4182,66.0022,243.5642],[28.3854,66.0039,243.6015],[28.3839,65.9995,244.325],[28.3949,65.9989,243.7291],[28.3876,65.9766,252.5465],[28.3985,65.976,262.5246],[28.397,65.9716,256.7542],[28.3752,65.9727,250.4328],[28.3723,65.9638,255.9243],[28.3832,65.9632,289.7404],[28.3818,65.9588,259.8805],[28.4036,65.9576,267.3138],[28.4021,65.9532,244.8629],[28.424,65.952,251.1695],[28.4225,65.9476,239.093],[28.4334,65.947,243.7451],[28.432,65.9425,237.9428],[28.4429,65.9419,252.5197],[28.44,65.933,237.7051],[28.4509,65.9324,241.2647],[28.4479,65.9235,243.4283],[28.4588,65.923,249.3265],[28.4574,65.9185,243.9264],[28.4683,65.9179,244.1391],[28.4668,65.9135,251.0029],[28.4777,65.9129,258.5437],[28.4763,65.9084,247.3353],[28.4872,65.9078,250.6003],[28.4857,65.9034,240.9366],[28.4966,65.9028,240.7835],[28.4951,65.8983,237.0582],[28.506,65.8978,239.0567],[28.5045,65.8933,238.1451],[28.5154,65.8927,243.5751],[28.5081,65.8704,293.96],[28.5189,65.8699,285.9669],[28.5175,65.8654,276.116],[28.5116,65.8476,253.2521],[28.5007,65.8482,247.5636],[28.4993,65.8437,243.5966],[28.4666,65.8455,236.5644],[28.4652,65.841,245.9289],[28.4434,65.8422,231.5],[28.442,65.8377,231.5],[28.4202,65.8389,242.3263],[28.4188,65.8344,241.7876],[28.4079,65.835,256.5352],[28.4065,65.8305,256.0658],[28.3847,65.8317,256.8448],[28.3833,65.8272,269.9167],[28.3615,65.8284,274.5303],[28.3601,65.8239,295.4563],[28.3492,65.8245,296.312],[28.3478,65.8201,277.1369],[28.3261,65.8212,313.4495],[28.3246,65.8167,284.6612],[28.3029,65.8179,259.6518],[28.3015,65.8134,282.4894],[28.2906,65.814,253.1046],[28.2892,65.8095,243.4494],[28.2675,65.8107,243.6215],[28.266,65.8062,259.5792],[28.2443,65.8074,251.1226],[28.2429,65.8029,318.6323],[28.232,65.8035,262.7668],[28.2306,65.799,274.0196],[28.2089,65.8001,299.4381],[28.2103,65.8046,263.7361],[28.156,65.8074,264.1495],[28.1574,65.8119,247.6058],[27.8965,65.8251,275.7104],[27.8951,65.8207,283.0827],[27.7755,65.8266,375.5593]]]]}}