{"type":"Feature","properties":{"featurecla":"River","scalerank":9,"rivernum":997,"dissolve":"997River","name":"Yanisyoki4","name_alt":"Janisjoki","note":"Version 1.2 edit in N. America and Europe","min_zoom":7.1,"strokeweig":0.2,"name_en":"Yanisyoki","min_label":8.1},
"geometry":{"type": "LineString","coordinates": [[30.648681640625,62.48212311405662,141.5708],[30.63134765625,62.471063543744123,115.0],[30.606054687500006,62.46405670780662,122.9198],[30.559326171875,62.45917389530662,109.0682],[30.478515625,62.46308014530662,159.0274],[30.452539062500023,62.45917389530662,113.5508],[30.430419921875,62.450213934369117,144.9211],[30.424072265625,62.44025299686912,120.8534],[30.4287109375,62.427606512494123,123.3216],[30.455322265625,62.38239166874412,156.0853],[30.468505859375,62.34760162968162,92.7058],[30.470458984375,62.31342194218162,89.6456],[30.452539062500023,62.286639715619117,109.4383],[30.460351562500023,62.27948639530662,97.2896],[30.484082031250011,62.26337311405662,110.2381],[30.488867187500006,62.254657293744117,82.3297],[30.492578125000023,62.23175690311912,82.58],[30.497802734375,62.22211334843162,80.5247],[30.50927734375,62.215448309369123,83.1491],[30.572265625,62.194940496869123,126.4023],[30.589257812500023,62.19196198124412,112.1745],[30.654296875,62.188739324994117,74.0696],[30.684472656250023,62.18146393436912,81.8612],[30.712158203125,62.16876862186912,85.166],[30.734375,62.15009186405662,81.1347],[30.7392578125,62.14166901249412,80.9803],[30.743359375000011,62.125018621869117,63.5],[30.748046875,62.116571356244123,63.5],[30.756738281250023,62.108026434369123,63.5],[30.768310546875,62.09979889530662,85.7934],[30.782128906250023,62.094842840619123,84.7843]]}}