{"type":"Feature","properties":{"featurecla":"River","scalerank":9,"rivernum":997,"dissolve":"997River","name":"Yanisyoki2","name_alt":"Janisjoki","note":"Version 1.2 edit in N. America and Europe","min_zoom":7.1,"strokeweig":0.15,"name_en":"Yanisyoki","min_label":8.1},
"geometry":{"type": "LineString","coordinates": [[31.08251953125,62.396356512494123,162.8207],[31.06982421875,62.39264557499412,146.2522],[31.055273437500006,62.39264557499412,143.5929],[31.038476562500023,62.397967840619117,141.8534],[31.01513671875,62.41254303593162,157.9764],[30.98486328125,62.435077215619117,155.8032],[30.9482421875,62.455829168744117,143.5545],[30.9091796875,62.466327215619117,151.1116],[30.8466796875,62.46735260624412,166.2969],[30.827246093750006,62.472430731244117,154.3683],[30.796142578125,62.504169012494117,156.1274],[30.779296875,62.512958074994117,160.0676],[30.752050781250006,62.513690496869117,144.8512],[30.740625,62.52216217655662,170.1944],[30.719140625000023,62.51776764530662,138.7683],[30.696386718750006,62.50800202030662,138.3834],[30.672460937500006,62.503680731244117,133.4463],[30.663671875,62.49823639530662,126.2997],[30.648681640625,62.48212311405662,141.5708]]}}