{"type":"Feature","properties":{"GID_3":"FIN.5.6.1_1","GID_0":"FIN","country":"Finland","GID_1":"FIN.5_1","province":"WesternFinland","NL_NAME_1":"NA","GID_2":"FIN.5.6_1","county":"Pirkanmaa","NL_NAME_2":"NA","city":"Jämsä","VARNAME_3":"NA","NL_NAME_3":"NA","TYPE_3":"Seutukunta|Ekonomiskregion","ENGTYPE_3":"Sub-Region","CC_3":"NA","HASC_3":"FI.LS.JA","name":"Jämsä.city"},
"geometry":{"type": "MultiPolygon","coordinates": [[[[24.5338,61.9073,145.6373],[24.5344,61.9118,147.5436],[24.5249,61.9121,154.0404],[24.5243,61.9076,152.763],[24.5338,61.9073,145.6373]]],
[[[24.8896,62.0394,166.6007],[24.8903,62.0439,161.2131],[24.8807,62.0442,166.2472],[24.8829,62.0577,200.6447],[24.8733,62.058,160.2579],[24.8726,62.0535,177.8562],[24.8535,62.0542,150.3379],[24.8528,62.0497,156.7963],[24.8337,62.0504,142.7087],[24.833,62.0459,138.2592],[24.8234,62.0462,152.0588],[24.8227,62.0417,153.8291],[24.8036,62.0424,160.4306],[24.8029,62.0379,143.9304],[24.7838,62.0386,158.4492],[24.7831,62.0341,160.308],[24.7735,62.0344,148.0216],[24.7728,62.0299,151.9815],[24.7537,62.0306,170.1424],[24.753,62.0261,167.213],[24.7339,62.0267,137.7986],[24.7332,62.0223,145.9873],[24.7237,62.0226,167.6789],[24.723,62.0181,163.791],[24.7134,62.0184,153.711],[24.712,62.0095,135.7131],[24.7025,62.0098,122.415],[24.7018,62.0053,121.9296],[24.6923,62.0056,107.5999],[24.6916,62.0012,110.3716],[24.6725,62.0018,98.5],[24.6718,61.9973,105.7688],[24.6623,61.9976,99.0],[24.6616,61.9931,109.2007],[24.652,61.9935,99.0],[24.6527,61.9979,102.6687],[24.6336,61.9986,99.0],[24.6329,61.9941,106.3574],[24.6234,61.9944,99.0],[24.6214,61.981,98.5],[24.6118,61.9813,99.0],[24.6091,61.9634,147.5162],[24.5996,61.9637,147.5097],[24.5983,61.9547,137.8884],[24.5887,61.955,126.36279999999999],[24.5881,61.9505,126.5266],[24.5595,61.9515,120.8617],[24.5588,61.947,111.0],[24.5493,61.9473,129.1836],[24.5466,61.9294,162.6449],[24.5371,61.9297,155.7579],[24.5344,61.9118,147.5436],[24.563,61.9109,149.6214],[24.5623,61.9064,146.6262],[24.5718,61.9061,147.4443],[24.5712,61.9016,145.6049],[24.5807,61.9013,148.6973],[24.58,61.8968,174.1578],[24.5895,61.8965,149.0305],[24.5889,61.892,124.5],[24.6079,61.8914,124.5],[24.6072,61.8869,141.0698],[24.6262,61.8863,199.2916],[24.6255,61.8818,183.779],[24.635,61.8815,178.7397],[24.6344,61.877,163.7892],[24.6439,61.8767,165.8672],[24.6432,61.8722,160.9918],[24.6527,61.8719,169.2083],[24.652,61.8674,180.8747],[24.6615,61.8671,186.7558],[24.6608,61.8626,190.6899],[24.6703,61.8623,193.6241],[24.6697,61.8578,191.279],[24.6792,61.8575,198.8695],[24.6785,61.853,164.5086],[24.688,61.8527,152.7998],[24.6866,61.8437,141.3581],[24.6961,61.8434,151.0143],[24.6954,61.8389,151.5138],[24.7049,61.8386,173.0499],[24.7035,61.8296,191.4945],[24.713,61.8293,177.4571],[24.7123,61.8248,171.3726],[24.7218,61.8245,177.6598],[24.7211,61.82,162.887],[24.7306,61.8197,170.158],[24.73,61.8152,154.4831],[24.7679,61.814,161.4118],[24.7686,61.8184,178.8163],[24.7876,61.8178,158.088],[24.7882,61.8223,187.4093],[24.8072,61.8216,120.2328],[24.8079,61.8261,110.0],[24.8174,61.8257,110.0],[24.8167,61.8213,110.0],[24.8357,61.8206,121.5288],[24.835,61.8161,110.0],[24.8824,61.8145,135.0354],[24.8831,61.819,133.5],[24.9021,61.8183,148.3138],[24.9028,61.8228,152.9754],[24.9123,61.8224,149.5309],[24.913,61.8269,174.0211],[24.9225,61.8266,152.9009],[24.9289,61.8669,160.3434],[24.9384,61.8666,144.0],[24.9485,61.9292,159.9857],[24.939,61.9297,160.8437],[24.9412,61.943,167.1176],[24.9317,61.9434,142.3628],[24.9331,61.9523,161.8856],[24.9236,61.9526,141.9859],[24.9258,61.9661,120.9556],[24.9162,61.9664,121.9687],[24.9184,61.9799,148.9802],[24.9089,61.9802,143.9588],[24.9117,61.9981,114.7083],[24.9022,61.9984,116.8257],[24.9043,62.0119,114.7238],[24.8948,62.0122,119.3658],[24.8977,62.0301,129.5028],[24.8881,62.0304,124.1865],[24.8896,62.0394,166.6007]]]]}}