{"type":"Feature","properties":{"GID_3":"FIN.5.7.4_1","GID_0":"FIN","country":"Finland","GID_1":"FIN.5_1","province":"WesternFinland","NL_NAME_1":"NA","GID_2":"FIN.5.7_1","county":"Satakunta","NL_NAME_2":"NA","city":"SouthEasternSatakun","VARNAME_3":"NA","NL_NAME_3":"NA","TYPE_3":"Seutukunta|Ekonomiskregion","ENGTYPE_3":"Sub-Region","CC_3":"NA","HASC_3":"NA","name":"South_Eastern_Satakun.city"},
"geometry":{"type": "MultiPolygon","coordinates": [[[[22.8251,61.0891,97.9484],[22.8259,61.0981,109.5662],[22.8444,61.0977,79.1357],[22.844,61.0932,82.3769],[22.8533,61.093,75.3443],[22.8529,61.0886,74.5518],[22.8622,61.0884,73.618],[22.8618,61.0839,73.2387],[22.8711,61.0837,72.9395],[22.8707,61.0792,72.1306],[22.8799,61.079,72.625],[22.8783,61.0611,72.4339],[22.8876,61.0609,76.3536],[22.8872,61.056399999999996,72.1878],[22.9057,61.056,73.0432],[22.9053,61.0515,73.8242],[22.9239,61.0511,74.7395],[22.9235,61.0466,74.1093],[22.9698,61.0456,78.4938],[22.9702,61.0501,97.0598],[22.9609,61.0503,88.3268],[22.9618,61.0593,78.8731],[22.9711,61.0591,83.1759],[22.9715,61.0635,84.01],[22.9807,61.0633,82.2918],[22.9812,61.0678,91.8768],[22.9904,61.0676,98.5084],[22.9909,61.0721,87.7018],[23.0094,61.0717,97.4757],[23.0098,61.0762,91.9748],[23.0006,61.0764,97.8323],[23.0014,61.0854,90.9498],[22.9828,61.0858,99.4326],[22.9824,61.0813,95.6374],[22.9639,61.0817,103.7632],[22.9634,61.0772,89.0442],[22.9449,61.0776,83.7458],[22.9445,61.0731,84.4547],[22.9352,61.0733,93.2187],[22.9356,61.0778,85.2937],[22.9263,61.078,87.4442],[22.9268,61.0825,86.0299],[22.9175,61.0827,87.5731],[22.9183,61.0917,89.2775],[22.9276,61.0915,88.1277],[22.928,61.096,105.7363],[22.9373,61.0958,104.1898],[22.9377,61.1003,101.0782],[22.947,61.1,114.1196],[22.9474,61.1045,106.3227],[22.9567,61.1043,110.0725],[22.9571,61.1088,107.9595],[22.9664,61.1086,103.959],[22.9668,61.1131,105.4869],[22.9761,61.1129,99.3238],[22.9765,61.1174,101.1859],[22.9579,61.1178,105.0202],[22.9584,61.1223,113.4615],[22.9398,61.1227,112.7487],[22.941,61.1361,66.2314],[22.9317,61.1363,79.7042],[22.9322,61.1408,67.2577],[22.9228,61.141,73.7371],[22.9249,61.1635,103.2093],[22.9156,61.1637,103.2707],[22.9169,61.1771,85.5648],[22.9541,61.1763,101.7412],[22.9549,61.1853,77.8503],[22.9456,61.1855,79.5061],[22.9469,61.199,75.7382],[22.9376,61.1992,84.6798],[22.9384,61.2081,74.5077],[22.9198,61.2085,72.9878],[22.9202,61.213,75.4607],[22.9016,61.2134,74.2264],[22.902,61.2179,78.6885],[22.8833,61.2183,71.6077],[22.8841,61.2273,77.1725],[22.8748,61.2275,76.4617],[22.8752,61.2319,83.5367],[22.8193,61.2331,77.0237],[22.8197,61.2376,86.4671],[22.801,61.238,81.1903],[22.8014,61.2425,88.9795],[22.7735,61.243,89.8677],[22.7738,61.2475,85.9882],[22.7552,61.2479,95.4674],[22.7548,61.2434,69.2749],[22.6708,61.2451,45.3432],[22.6522,61.2454,41.0],[22.6526,61.2499,44.7363],[22.6432,61.2501,45.9592],[22.6444,61.2636,49.0935],[22.635,61.2638,61.1916],[22.6362,61.2772,50.0504],[22.6268,61.2774,49.9441],[22.6276,61.2864,88.1928],[22.6182,61.2865,58.5331],[22.619,61.2955,89.7625],[22.6096,61.2957,82.2686],[22.6104,61.3047,91.5524],[22.601,61.3049,92.612],[22.6014,61.3093,87.9277],[22.592,61.3095,91.6012],[22.5924,61.314,96.841],[22.5831,61.3142,92.9125],[22.5834,61.3187,93.8589],[22.5741,61.3189,85.5067],[22.5748,61.3278,83.7389],[22.5655,61.328,96.2895],[22.5658,61.3325,98.8751],[22.5752,61.3323,94.2684],[22.5756,61.3368,85.1883],[22.5849,61.3366,99.5915],[22.5853,61.3411,97.0622],[22.5946,61.3409,113.5063],[22.595,61.3454,103.8802],[22.5856,61.3456,92.5056],[22.5868,61.3591,104.8329],[22.5774,61.3592,103.626],[22.5785,61.3727,84.9995],[22.5691,61.3729,95.8913],[22.5702,61.3863,102.205],[22.5609,61.3865,97.9195],[22.5616,61.3955,67.3247],[22.5804,61.3951,103.0092],[22.5807,61.3996,105.9984],[22.5714,61.3998,77.9989],[22.5724,61.4133,71.1604],[22.5631,61.4134,74.137],[22.5634,61.4179,58.134],[22.5541,61.4181,58.8832],[22.5544,61.4226,52.6755],[22.5263,61.4231,67.8902],[22.5266,61.4276,62.0822],[22.5079,61.4279,67.6966],[22.5082,61.4324,66.4209],[22.4988,61.4326,74.4866],[22.4996,61.4416,84.5244],[22.4902,61.4417,80.2508],[22.4909,61.4507,90.6192],[22.4815,61.4509,84.0167],[22.4819,61.4554,90.6983],[22.4725,61.4556,79.6796],[22.4732,61.4645,82.097],[22.4638,61.4647,72.5154],[22.4641,61.4692,76.9114],[22.4547,61.4693,80.1665],[22.4554,61.4783,86.8389],[22.446,61.4785,77.8521],[22.4464,61.483,79.5047],[22.437,61.4831,76.954],[22.4373,61.4876,81.0253],[22.4279,61.4878,80.5999],[22.4276,61.4833,85.8855],[22.4182,61.4835,82.8576],[22.4178,61.479,76.7142],[22.4084,61.4792,79.948],[22.4081,61.4747,82.181],[22.3987,61.4748,87.8907],[22.3984,61.4703,77.6896],[22.389,61.4705,84.56],[22.3883,61.4615,83.0045],[22.3789,61.4617,88.2848],[22.3785,61.4572,74.5727],[22.3691,61.4574,86.7684],[22.3688,61.4529,79.4375],[22.3594,61.453,83.8624],[22.3591,61.4486,83.4256],[22.3497,61.4487,93.4873],[22.3493,61.4442,84.4631],[22.3399,61.4444,84.7717],[22.3396,61.4399,83.6153],[22.3302,61.44,89.4002],[22.3299,61.4356,76.995],[22.3205,61.4357,75.3967],[22.3202,61.4312,77.9444],[22.3108,61.431399999999996,79.6861],[22.3105,61.4269,67.4135],[22.3011,61.4271,77.0313],[22.3007,61.4226,72.6259],[22.2914,61.4227,67.3736],[22.291,61.4182,59.6002],[22.2441,61.419,61.4357],[22.2438,61.4145,46.0034],[22.225,61.4148,41.3582],[22.2247,61.4104,63.003],[22.2153,61.4105,54.9452],[22.215,61.406,38.342],[22.2056,61.4062,40.4149],[22.2047,61.3927,34.5573],[22.2141,61.3925,41.2789],[22.2137,61.388,31.3118],[22.2231,61.3879,44.8089],[22.2225,61.3789,33.5169],[22.2319,61.3788,40.0781],[22.2315,61.3743,35.273],[22.2409,61.3741,38.3524],[22.2406,61.3696,35.662],[22.25,61.3695,40.471],[22.2493,61.3605,39.1776],[22.2587,61.3604,33.1478],[22.2584,61.3559,35.8275],[22.2677,61.3557,33.9798],[22.2671,61.3467,38.4481],[22.2577,61.3469,36.6019],[22.2574,61.3424,41.1516],[22.248,61.3426,38.2975],[22.2477,61.3381,35.7947],[22.2383,61.3382,44.3933],[22.2374,61.3247,38.2641],[22.228,61.3249,42.3913],[22.2268,61.3069,39.8315],[22.2174,61.3071,37.7354],[22.2161,61.2891,35.3005],[22.2255,61.289,29.0],[22.2245,61.2755,44.7389],[22.2058,61.2758,42.5603],[22.2062,61.2803,39.014],[22.1688,61.2809,49.4884],[22.1691,61.2854,51.5122],[22.1317,61.286,45.1691],[22.132,61.2905,47.1784],[22.1227,61.2906,39.436],[22.1218,61.2771,44.6811],[22.1124,61.2773,45.0439],[22.1121,61.2728,43.8398],[22.1308,61.2725,53.1925],[22.1302,61.2635,44.1199],[22.1582,61.2631,43.3683],[22.1579,61.2586,45.0414],[22.1673,61.2585,48.0297],[22.167,61.254,47.5777],[22.1763,61.2538,43.6473],[22.1747,61.2314,37.7085],[22.1654,61.2315,36.0807],[22.1645,61.2181,33.1452],[22.1552,61.2182,50.5329],[22.1548,61.2137,37.1705],[22.1455,61.2139,48.9726],[22.1449,61.2049,47.801],[22.1542,61.2048,34.8109],[22.1539,61.2002,39.4757],[22.1632,61.2001,38.8443],[22.1629,61.1956,45.9702],[22.1723,61.1955,35.5468],[22.1719,61.191,59.9211],[22.1813,61.1908,38.3103],[22.181,61.1863,52.8533],[22.1903,61.1862,48.1333],[22.19,61.1817,57.4933],[22.1993,61.1815,48.5696],[22.199,61.1771,52.2998],[22.2083,61.1769,51.2251],[22.208,61.1724,69.9111],[22.2173,61.1723,77.2069],[22.2169,61.1678,67.2699],[22.2263,61.1676,59.3582],[22.2247,61.1452,82.9886],[22.234,61.1451,79.6317],[22.2333,61.1361,92.2062],[22.224,61.1362,74.6523],[22.2234,61.1272,81.1702],[22.2141,61.1274,87.1568],[22.2138,61.1229,86.2952],[22.2231,61.1227,85.8171],[22.2228,61.1183,79.3827],[22.2321,61.1181,78.9658],[22.2318,61.1136,82.686],[22.2411,61.1135,85.0417],[22.2407,61.109,82.7263],[22.2314,61.1091,91.5574],[22.2311,61.1046,73.7031],[22.2218,61.1048,72.1765],[22.2215,61.1003,57.8939],[22.2122,61.1004,48.6281],[22.211,61.0825,43.0],[22.2203,61.0823,43.0],[22.2187,61.0599,43.0],[22.228,61.0597,43.0],[22.2264,61.0373,43.0],[22.2357,61.0372,43.0],[22.2341,61.0147,43.0],[22.2434,61.0146,43.0],[22.2418,60.9921,43.0],[22.251,60.992,43.0],[22.2494,60.9695,51.4773],[22.2587,60.9694,43.0],[22.2584,60.9649,43.0],[22.2491,60.965,60.0883],[22.2485,60.956,70.8527],[22.2392,60.9562,74.6565],[22.2389,60.9517,62.9325],[22.2297,60.9519,61.4072],[22.2294,60.9474,56.6627],[22.2386,60.9472,64.3364],[22.2383,60.9427,67.007],[22.2475,60.9426,75.5627],[22.2469,60.9336,65.1748],[22.2561,60.9335,72.4435],[22.2558,60.929,81.5825],[22.2651,60.9288,77.3246],[22.2648,60.9243,77.5392],[22.274,60.9242,73.0001],[22.2737,60.9197,70.0931],[22.3106,60.9191,56.4038],[22.3103,60.9146,70.1908],[22.3195,60.9144,64.2637],[22.3198,60.9189,43.0],[22.3383,60.9186,43.0],[22.3386,60.9231,43.0],[22.3479,60.9229,43.0],[22.3482,60.9274,43.0],[22.3574,60.9272,43.0],[22.3578,60.9317,43.0],[22.3855,60.9312,43.0],[22.3858,60.9357,43.0],[22.4228,60.9351,64.1587],[22.4231,60.9396,53.6477],[22.4509,60.9391,78.9728],[22.4512,60.9436,68.2097],[22.4789,60.9431,96.2288],[22.4793,60.9475,99.7678],[22.507,60.947,83.4002],[22.5073,60.9515,79.6124],[22.5351,60.951,83.0948],[22.5347,60.9465,94.7136],[22.5625,60.946,80.7181],[22.5621,60.9415,93.3897],[22.5806,60.9412,81.4855],[22.5809,60.9457,86.7053],[22.5717,60.9458,100.0045],[22.5721,60.9503,83.3162],[22.5628,60.9505,78.1095],[22.5632,60.955,97.243],[22.5539,60.9552,78.2401],[22.5543,60.9596,77.6748],[22.5451,60.9598,88.2546],[22.5458,60.9688,85.9626],[22.5365,60.969,93.9363],[22.5369,60.9734,82.2803],[22.5276,60.9736,77.8467],[22.528,60.9781,92.8247],[22.5372,60.9779,98.0279],[22.5376,60.9824,85.984],[22.5561,60.9821,93.4844],[22.5565,60.9866,95.0538],[22.575,60.9862,102.7705],[22.5753,60.9907,102.2714],[22.7049,60.9882,93.0403],[22.7045,60.9837,99.7561],[22.7323,60.9832,100.2439],[22.7326,60.9876,97.7219],[22.7511,60.9873,94.684],[22.7515,60.9917,91.2285],[22.7793,60.9912,108.535],[22.7797,60.9957,81.7681],[22.8167,60.9949,66.6787],[22.8171,60.9994,69.6333],[22.8264,60.9992,81.2359],[22.8291,61.0306,91.4565],[22.8199,61.0308,91.5787],[22.8203,61.0353,79.5373],[22.811,61.0355,73.216],[22.8114,61.04,77.0048],[22.8207,61.0398,81.8107],[22.8211,61.0443,73.7875],[22.8303,61.0441,88.5613],[22.8315,61.0575,87.4469],[22.8408,61.0573,79.5649],[22.842,61.0708,70.8513],[22.8327,61.071,88.8528],[22.8331,61.0755,69.7708],[22.8239,61.0757,68.8291],[22.8243,61.0802,74.76],[22.815,61.0804,88.7306],[22.8154,61.0848,74.7414],[22.8247,61.0847,76.4043],[22.8251,61.0891,97.9484]]]]}}