{"type":"Feature","properties":{"featurecla":"Lake","scalerank":9,"name":"null534","name_abb":null,"name_alt":null,"note":"_untitled_209","delta":null,"dam_name":null,"year":-99,"admin":null,"min_zoom":7.0,"min_label":8.0},
"geometry":{"type": "Polygon","coordinates": [[[29.526933694136716,65.204711579008148,200.8999],[29.51398167254294,65.206772127898091,198.0],[29.473653787125897,65.206477763770948,198.0],[29.450987749336747,65.213836866949237,198.0],[29.437741363615828,65.215603051712037,203.2768],[29.43214844520034,65.210010133296521,203.0997],[29.431854081073197,65.194703198685687,198.0],[29.428616075674739,65.188521552015914,202.8501],[29.421551336623594,65.185872274871741,201.2641],[29.403006396614302,65.182928633600426,205.4234],[29.355025043891828,65.164972421845391,198.0],[29.324411174670132,65.144072568819041,205.2359],[29.320290076890302,65.139657106912068,198.0],[29.315580250856186,65.13141491135238,207.3247],[29.313225337839128,65.124644536428349,215.8906],[29.311164788949213,65.11051505832603,212.7729],[29.3091042400593,65.104039047529113,212.0069],[29.282022740363175,65.077251911960133,211.7235],[29.237868121293417,65.068126624019072,223.2172],[29.188414947935314,65.071658993544645,198.0],[29.144849057119814,65.082844830375649,206.0844],[29.144849057119814,65.104039047529113,198.0],[29.158095442840732,65.110809422453144,198.0],[29.160155991730676,65.118757253885718,198.0],[29.152796888552359,65.126116357064,198.0],[29.138078682195783,65.13141491135238,198.0],[29.172224920943052,65.1652667859725,204.7689],[29.164865817764763,65.1652667859725,215.0225],[29.179878388248483,65.197058111702745,198.0],[29.162805268874848,65.198824296465517,202.5001],[29.138078682195783,65.184106090108941,220.3896],[29.13042521489038,65.1652667859725,198.0],[29.110408454245402,65.162028780574076,214.0262],[29.098339525033026,65.147310574217471,198.0],[29.088919872964794,65.129648726589579,215.0791],[29.075967851371018,65.116991069122918,198.0],[29.086270595820622,65.106688324673314,215.6452],[29.090097329473338,65.104039047529113,215.7799],[29.074790394862475,65.101389770384941,198.0],[29.042999069132264,65.103744683402,220.9464],[29.027986498648545,65.096385580223711,255.7606],[29.046237074530694,65.087849020536879,255.5536],[29.062427101522957,65.067832259891929,243.3732],[29.07272984597256,65.045754950357065,241.9425],[29.072435481845417,65.0313311081276,198.0],[29.058011639615984,65.0183790865338,223.3151],[29.057717275488841,65.013374896372568,241.696],[29.065665106921386,65.004249608431479,226.6422],[29.067431291684187,64.995713048744676,198.0],[29.0583060037431,64.989237037947788,198.0],[29.034756873572576,64.980406114133814,198.0],[29.049180715802038,64.963332994760179,198.0],[29.054479270090383,64.9477316960222,198.0],[29.046531438657837,64.936840223318342,205.9393],[29.021216123724514,64.932719125538483,198.0],[28.996489537045449,64.9244769299788,218.1237],[28.991779711011361,64.906226354096646,204.142],[28.989719162121418,64.887387049960211,198.0],[28.972940406874926,64.87737866963775,198.0],[28.959694021154007,64.878850490273408,198.0],[28.953806738611377,64.885620865197438,198.0],[28.952334917975719,64.895923609647042,198.0],[28.952334917975719,64.9085812671137,217.8285],[28.945270178924545,64.917412190927649,198.0],[28.897583190329215,64.9288923918858,204.2227],[28.875211516667207,64.937723315699742,198.0],[28.861670766819145,64.937134587445456,204.3891],[28.859021489674973,64.9288923918858,198.0],[28.867558049361776,64.916529098546249,212.0745],[28.85784403316643,64.91917837569045,198.0],[28.848424381098226,64.91829528330905,198.0],[28.841065277919938,64.913585457274934,212.5454],[28.836355451885822,64.904754533460988,198.0],[28.844597647445511,64.90328271282533,198.0],[28.863436951581946,64.890919419485812,204.7458],[28.856666576657915,64.890919419485812,209.2928],[28.906708478270303,64.884737772816038,208.3215],[28.998255721808249,64.8564788166114,200.2766],[29.093040970744653,64.842054974381938,199.7411],[29.1837051219012,64.813501654050157,204.9805],[29.226682284462413,64.815856567067215,201.2682],[29.224033007318241,64.8249818550083,201.5258],[29.223444279063983,64.829986045169534,212.448],[29.226093556208156,64.834990235330793,224.94],[29.2340413876407,64.843232430890481,210.4597],[29.132485763780295,64.844998615653253,212.8311],[29.083621318676421,64.858539365501315,198.0],[29.05595109072604,64.890919419485812,228.5033],[29.058600367870241,64.898572886791214,219.1399],[29.058894731997384,64.90328271282533,225.9834],[29.05595109072604,64.912113636639276,247.2434],[29.078322764388048,64.912408000766419,248.4241],[29.144849057119814,64.904754533460988,250.3888],[29.144849057119814,64.912113636639276,261.0305],[29.130719579017494,64.911524908385019,243.8349],[29.090097329473338,64.91829528330905,222.8568],[29.090097329473338,64.925065658233081,198.0],[29.116295736788032,64.931836033157111,198.0],[29.130130850763237,64.933307853792769,211.1543],[29.144849057119814,64.932719125538483,214.0305],[29.127187209491922,64.9503809731664,233.1448],[29.127775937746179,64.965393543650123,234.3026],[29.140139231085698,64.977756836989641,232.329],[29.158389806967875,64.986587760803587,207.1182],[29.124243568220606,65.014552352881111,198.0],[29.216379540012809,65.013080532245453,231.2518],[29.240517398437618,65.021322727805114,235.4294],[29.227565376843813,65.023677640822171,225.3124],[29.192536045715144,65.035157841780318,209.094],[29.231980838750786,65.061356249095041,238.4673],[29.302039501008124,65.0601787925865,229.1373],[29.356496864527486,65.070775901163245,246.5526],[29.349726489603455,65.13141491135238,218.2307],[29.385933277240667,65.158496411048475,238.7294],[29.428616075674739,65.175275166295,212.9558],[29.474536879507298,65.183517361854683,216.9593],[29.533409704933632,65.187932823761656,231.5199],[29.540474443984778,65.192348285668629,204.1271],[29.53900262334912,65.198824296465517,198.0],[29.526933694136716,65.204711579008148,200.8999]]]}}