{"type":"Feature","properties":{"featurecla":"Lake","scalerank":8,"name":"null402","name_abb":null,"name_alt":null,"note":"_untitled_40","delta":null,"dam_name":null,"year":-99,"admin":null,"min_zoom":6.0,"min_label":7.0},
"geometry":{"type": "Polygon","coordinates": [[[29.469532689346039,64.168255487377536,173.3972],[29.459524309023578,64.1547147375295,181.9877],[29.444511738539859,64.150888003876787,166.0799],[29.389760010893355,64.1659005743605,161.5],[29.391820559783298,64.1511823680039,179.1545],[29.400945847724358,64.1408796235543,177.4426],[29.406538766139874,64.140290895300041,168.3038],[29.413014776936762,64.1435289006985,169.4648],[29.425378070276309,64.144411993079871,175.4809],[29.440685004887143,64.142057080062841,170.2011],[29.446572287429774,64.1399965311729,174.0352],[29.449221564573975,64.135581069265925,166.8514],[29.45628630362512,64.127044509579122,176.433],[29.479246705541385,64.115564308620975,171.8437],[29.537530802713462,64.111148846714,168.5703],[29.563140481773928,64.103495379408571,173.9671],[29.527816786518116,64.0896602654334,181.6516],[29.554015193832839,64.082889890509364,185.7666],[29.674410121829681,64.074058966695418,229.1812],[29.761836267587796,64.054925298431868,195.4731],[29.790095223792434,64.0413845485838,186.6233],[29.824830190793961,64.0293156193714,210.4256],[29.860153886049773,64.02490015746443,184.6558],[29.890767755271469,64.035202901914033,180.5679],[29.841020217786223,64.0572802114489,161.5],[29.571382677333617,64.1205684987822,161.5],[29.541946264620435,64.123806504180664,170.2966],[29.528405514772373,64.128221966087636,177.3971],[29.528699878899516,64.138819074664383,176.3717],[29.537530802713462,64.15029927562253,170.9562],[29.548716639544466,64.157952742927932,178.7487],[29.559608112248327,64.158247107055075,193.0459],[29.573443226223532,64.155009101656617,201.1905],[29.588750160834365,64.153242916893845,183.1246],[29.60346836719097,64.157952742927932,178.4535],[29.578447416384762,64.1641343895977,179.2373],[29.569322128443673,64.164723117851963,176.1414],[29.601113454173912,64.1853286067512,169.4944],[29.700608529144404,64.150593639749644,205.3688],[29.727690028840527,64.157952742927932,191.266],[29.688245235804885,64.174437134047309,179.8664],[29.66940593166845,64.185034242624056,184.7865],[29.658808823091704,64.198869356599232,185.6759],[29.729750577730442,64.185622970878313,171.2052],[29.765663001240512,64.186800427386856,197.6607],[29.79568814220795,64.2059340956504,187.6308],[29.778320658707173,64.215353747718609,178.6542],[29.761836267587796,64.226833948676756,166.0],[29.797748691097866,64.22712831280387,168.6867],[29.814233082217243,64.230955046456586,185.7082],[29.830128745082334,64.239785970270532,174.0089],[29.808934527928869,64.246556345194563,183.6089],[29.548716639544466,64.260391459169767,172.2862],[29.56078556875687,64.271871660127886,181.2083],[29.571971405587874,64.278642035051917,166.0],[29.580213601147562,64.287178594738748,197.7052],[29.583451606545992,64.305134806493783,179.5085],[29.594931807504139,64.313377002053471,193.2884],[29.620247122437462,64.316026279197644,190.9265],[29.648211714514986,64.314260094434843,182.6884],[29.666167926269992,64.3089615401465,172.0],[29.671172116431251,64.301602436968182,188.051],[29.672349572939765,64.285118045848833,174.9117],[29.675881942465338,64.277758942670516,179.6218],[29.682063589135112,64.273049116636429,199.4267],[29.729161849476185,64.256564725517052,191.3828],[29.737109680908731,64.2636294645682,166.0],[29.734754767891673,64.278936399179059,166.0],[29.727690028840527,64.2951264261713,173.83],[29.746823697104077,64.301602436968182,181.4812],[29.754771528536651,64.301308072841067,191.9738],[29.754771528536651,64.3089615401465,193.3821],[29.623779491963035,64.320736105231759,190.2394],[29.589633253215766,64.336631768096851,206.9789],[29.583451606545992,64.357237256996086,197.7288],[29.603762731318085,64.371955463352663,222.1461],[29.636437149429696,64.381080751293752,199.3417],[29.666167926269992,64.384024392565067,214.2102],[29.650860991659158,64.397565142413129,186.7753],[29.631432959268466,64.403158060828616,180.7548],[29.610238742114973,64.402274968447216,191.0283],[29.51398167254294,64.3778427458953,172.0],[29.521340775721228,64.364596360174374,172.0],[29.529288607153774,64.353704887470514,172.0],[29.533115340806489,64.34251905063951,172.0],[29.527816786518116,64.329272664918562,188.9753],[29.538708259222005,64.323091018248817,172.0],[29.542829357001835,64.312493909672071,179.4085],[29.541063172239035,64.299836252205409,175.6947],[29.535175889696404,64.288356051247263,173.3725],[29.545772998273151,64.281291312196117,166.0],[29.54076880811192,64.275109665526344,195.1127],[29.527522422391,64.270399839492228,180.3016],[29.51398167254294,64.267750562348056,206.7948],[29.496025460787905,64.26892801885657,190.4096],[29.457758124260778,64.2792307633062,202.9048],[29.438918820124343,64.281585676323232,184.2528],[29.458641216642178,64.265690013458141,177.3696],[29.49720291729642,64.2559759972628,191.7352],[29.547244818908808,64.247145073448849,166.0],[29.536942074459205,64.244790160431791,166.0],[29.527816786518116,64.239785970270532,166.0],[29.576092503367704,64.2338986877279,166.0],[29.541063172239035,64.220946666134125,166.0],[29.531643520170832,64.219474845498468,166.0],[29.509566210635967,64.219474845498468,166.0],[29.454520118862348,64.2468507093217,166.0],[29.43126535281894,64.253621084245736,166.0],[29.404772581377074,64.2542098125,193.2739],[29.419490787733679,64.244201432177533,192.7864],[29.458346852515035,64.22712831280387,177.3357],[29.475125607761555,64.202696090251948,239.5373],[29.49631982491502,64.194159530565145,187.6203],[29.541946264620435,64.1853286067512,188.8703],[29.520457683339828,64.177380775318625,176.5937],[29.469532689346039,64.168255487377536,173.3972]]]}}