{"type": "Feature","id": 27852.0,"bbox": [26.972178581646233,64.646857000775327,27.142100456646233,64.688482977337827],"geometry": {"type": "Polygon","coordinates": [[[27.025645378521233,64.657477117962827,140.0],[27.025645378521233,64.657477117962827,140.0],[27.041514519146233,64.667547918744077,140.0],[27.060923698833733,64.667242742962827,144.1519],[27.054942253521233,64.659613348431577,145.5425],[27.047862175396233,64.651983953900327,144.6899],[27.061045769146233,64.646857000775327,140.0],[27.089610222271233,64.651129461712827,140.0],[27.122691276958733,64.653876043744077,140.0],[27.142100456646233,64.662359930462827,140.0],[27.140391472271233,64.675177313275327,146.2819],[27.118174675396233,64.674566961712827,151.1729],[27.075205925396233,64.680304266400327,150.4948],[27.042735222271233,64.687018133587827,144.5411],[27.030772331646233,64.688482977337827,150.3342],[27.015879753521233,64.678473211712827,145.668],[26.990489128521233,64.666937567181577,148.3199],[26.972178581646233,64.663275457806577,151.4286],[26.998301628521233,64.654791571087827,140.0],[27.025645378521233,64.657477117962827,140.0]]]}
,"properties": {"name": null,"lge_id": null,"pfafstette": 185.0,"lke_type": "N","altitude": 0,"objectid": 15657,"scalerank": 12,"featurecla": "Lake","note": "_untitled_15657","funkyname": 0,"min_zoom": 7.0,"min_label": 8.0,"area_km2": 19.24173,"hist_schema_id": "Elevation0-9000","hist_area_km2": {"150": 19.23266,"175": 0.00907}}}