{"type": "Feature","bbox": [26.737833589564161,64.103495379408571,28.212303502366694,64.562114689479728],"geometry": {"type": "Polygon","coordinates": [[[26.779633295616861,64.363713267792974,121.0],[26.778455839108318,64.354882343979028,129.559],[26.790524768320722,64.339869773495309,133.7976],[26.811718985474215,64.328095208410048,141.3925],[26.834385023263337,64.328389572537191,135.2308],[26.876773457570295,64.336631768096851,129.9331],[26.907092962664876,64.323091018248817,121.6955],[26.932113913471056,64.293948969662779,121.0],[26.935940647123772,64.266867469966655,121.0],[26.903560593139275,64.260391459169767,127.5303],[26.903560593139275,64.2542098125,126.046],[26.9306420928354,64.246556345194563,128.279],[26.943005386174917,64.240669062651932,121.0],[26.951836309988892,64.2338986877279,124.217],[26.963610875074153,64.219769209625582,131.544],[26.981567086829187,64.212115742320179,132.0419],[27.001878211601252,64.2068171880318,128.6558],[27.020717515737687,64.198869356599232,126.9817],[27.022189336373344,64.195042622946545,126.3655],[27.024249885263259,64.182090601352741,129.9163],[27.02689916240746,64.178558231827168,130.813],[27.036318814475663,64.178558231827168,129.2099],[27.042206097018294,64.182679329607,128.4869],[27.047210287179553,64.187977883895371,143.2497],[27.054275026230698,64.191510253420944,140.2916],[27.093425455139226,64.197397535963574,129.9013],[27.164955938032222,64.199752448980632,127.1609],[27.178791052007398,64.2041679108876,121.0],[27.19821908439809,64.2132931988287,121.0],[27.191154345346916,64.204756639141863,121.0],[27.186150155185686,64.1956313512008,121.0],[27.185561426931429,64.186506063259714,121.0],[27.190859981219802,64.178558231827168,121.0],[27.164072845650821,64.157364014673675,121.0],[27.19733599201669,64.141468351808555,137.3601],[27.247966621883336,64.1249839606892,128.8715],[27.274165029198059,64.103495379408571,128.8151],[27.308605632072471,64.117036129256633,135.5287],[27.32185201779339,64.117036129256633,137.6175],[27.298891615877125,64.136758525774468,131.4313],[27.28093540412209,64.156775286419418,137.9305],[27.261213007604255,64.1741427699202,138.6421],[27.232365323145359,64.1853286067512,126.492],[27.248260986010479,64.190921525166686,137.9978],[27.300657800639897,64.191510253420944,129.6748],[27.308899996199585,64.1956313512008,122.3727],[27.315964735250759,64.201812997870547,134.876],[27.325678751446105,64.20622845977752,121.0],[27.342163142565482,64.2059340956504,129.2914],[27.337453316531366,64.215648111845752,121.0],[27.334804039387194,64.219474845498468,121.0],[27.345106783836798,64.226833948676756,130.2865],[27.359824990193374,64.235076144236444,131.9524],[27.374837560677094,64.239491606143417,121.0],[27.386612125762355,64.236842328999217,125.085],[27.3980923267205,64.231838138837986,129.5472],[27.412516168949935,64.231249410583729,127.7929],[27.441658217535974,64.2338986877279,127.3684],[27.449017320714262,64.230071954075186,132.2645],[27.456670788019693,64.215648111845752,142.039],[27.465796075960782,64.2132931988287,140.1837],[27.471683358503412,64.216531204227152,138.4625],[27.475215728028985,64.2227128508969,127.8521],[27.477865005173186,64.229483225820928,121.0],[27.483457923588674,64.240080334397675,131.7182],[27.484929744224331,64.247439437575963,132.0662],[27.488756477877047,64.254504176627137,129.812],[27.499942314708051,64.260391459169767,121.0],[27.458731336909608,64.267750562348056,121.0],[27.486401564859989,64.278642035051917,135.2818],[27.518781618844486,64.285412409975947,137.2286],[27.552339129337497,64.287178594738748,132.7032],[27.58265863443205,64.281585676323232,121.0],[27.571178433473904,64.2550929048814,142.5771],[27.572355889982447,64.244790160431791,134.4149],[27.58265863443205,64.2338986877279,135.4787],[27.597965569042884,64.227717041058156,121.0],[27.6836255300382,64.225656492168213,132.3944],[27.760160203092454,64.2132931988287,156.029],[27.763398208490884,64.210643921684522,156.8562],[27.770168583414915,64.20122426961629,150.9669],[27.773700952940487,64.198869356599232,146.0904],[27.779882599610261,64.199752448980632,150.4337],[27.79401207771258,64.205051003269,149.0039],[27.801371180890868,64.2059340956504,149.642],[27.841993430435053,64.198869356599232,159.0627],[27.824331582807162,64.185034242624056,136.0],[27.761337659600969,64.189744068658172,154.0566],[27.739554714193218,64.171787856903137,158.5594],[27.764281300872284,64.17708641119151,146.0335],[27.767519306270742,64.178558231827168,146.1817],[27.788419159297092,64.167078030869021,167.3181],[27.79401207771258,64.164723117851963,165.1299],[27.957089804143521,64.1511823680039,186.5538],[27.986526216856703,64.140585259427183,209.825],[28.034801933706291,64.113209395603917,187.7447],[28.061883433402414,64.104672835917114,170.5601],[28.096324036276798,64.103495379408571,157.0215],[28.184044546162056,64.122629047672149,157.1979],[28.212303502366694,64.123806504180664,157.742],[28.202589486171348,64.127927601960522,141.1091],[28.192286741721745,64.129988150850437,136.0],[28.181689633144998,64.130871243231837,150.6274],[28.170798160441137,64.129988150850437,156.881],[28.170798160441137,64.136758525774468,146.1836],[28.189343100450429,64.13528670513881,136.0],[28.196996567755832,64.140585259427183,136.0],[28.193464198230259,64.149416183241129,136.0],[28.177862899492283,64.157952742927932,136.0],[28.11339715565046,64.164723117851963,136.0],[28.098678949293856,64.167961123250421,136.0],[28.076012911504733,64.182090601352741,136.0],[28.058645428003956,64.1853286067512,136.0],[27.92441538603191,64.179735688335683,160.4265],[27.900571891734245,64.188566612149629,165.1843],[27.888502962521841,64.202401726124833,136.0],[27.879083310453638,64.220357937879868,136.0],[27.876139669182322,64.240374698524818,136.0],[27.88349877236061,64.260391459169767,136.0],[27.866720017114119,64.262746372186825,136.0],[27.843465251070711,64.259508366788367,157.1521],[27.826392131697077,64.251854899482936,147.5372],[27.828452680586992,64.239785970270532,149.5612],[27.812557017721872,64.226833948676756,139.4435],[27.792245892949808,64.22124103026124,136.0],[27.769285491033514,64.22212412264264,142.0016],[27.683036801783942,64.239491606143417,121.0],[27.663903133520392,64.2468507093217,121.0],[27.668907323681623,64.25891963853411,145.6941],[27.663020041138992,64.267456198220913,132.4999],[27.650362383672331,64.272754752509286,135.0562],[27.636527269697154,64.274226573144944,129.5802],[27.696871915759147,64.302191165222467,128.1648],[27.760160203092454,64.322502289994532,137.2675],[27.801076816763754,64.324857203011589,136.8351],[27.946492695566803,64.292182784899978,135.3483],[27.964154543194695,64.292182784899978,147.3723],[27.979755841932672,64.301308072841067,121.0],[27.989469858128018,64.317792463960444,143.9207],[27.980344570186929,64.321324833486017,154.6568],[27.945609603185403,64.315143186816243,159.9986],[27.915290098090821,64.318969920468959,125.1586],[27.868191837749777,64.345462691910825,121.0],[27.83581178376528,64.3498781538178,127.9437],[27.862893283461403,64.37342728398832,137.7798],[27.917056282853622,64.369894914462748,139.0118],[27.975046015898556,64.358120349377486,145.7327],[28.013902080679941,64.356648528741829,124.3908],[27.978284021297014,64.383730028437924,121.0],[27.906459174276876,64.391972223997612,126.7602],[27.780471327864518,64.3907947674891,121.0],[27.73719980117616,64.401391876065844,127.514],[27.729251969743615,64.401391876065844,121.0],[27.718949225294011,64.392855316379013,121.0],[27.70629156782735,64.386673669709239,121.0],[27.692162089725031,64.383435664310809,121.0],[27.678032611622712,64.384024392565067,130.6321],[27.663903133520392,64.38932294685344,155.991],[27.659782035740534,64.396682050031728,121.0],[27.654189117325046,64.402569332574359,141.9115],[27.605324672221172,64.4105171640069,131.7556],[27.590312101737481,64.41110589226119,131.1401],[27.575593895380877,64.405218609718531,130.8511],[27.584719183321965,64.404335517337159,122.0],[27.609740134128174,64.397565142413129,131.2403],[27.609740134128174,64.3907947674891,138.7107],[27.590606465864596,64.39020603923484,148.6963],[27.570295341092503,64.386084941454982,121.0],[27.552633493464612,64.379020202403836,150.0956],[27.54085892837935,64.370189278589862,152.2111],[27.58265863443205,64.356648528741829,131.5107],[27.572061525855304,64.3498781538178,129.6248],[27.509950695030511,64.3295670290457,121.0],[27.499942314708051,64.329272664918562,121.0],[27.49493812454682,64.33162757793562,121.0],[27.491994483275505,64.341047230003852,121.0],[27.486695928987132,64.342813414766624,121.0],[27.453432782621235,64.341047230003852,121.0],[27.438714576264658,64.337220496351136,134.6166],[27.424879462289482,64.329272664918562,136.8394],[27.419580908001109,64.321324833486017,140.5244],[27.416931630856908,64.312199545544928,136.1507],[27.41133871244142,64.304546078239525,121.0],[27.3972092343391,64.301308072841067,121.0],[27.380430479092581,64.303368621730982,121.0],[27.377192473694151,64.3089615401465,121.0],[27.380724843219724,64.318675556341844,131.3908],[27.383374120363897,64.333099398571278,121.0],[27.375426288931351,64.333982490952678,121.0],[27.328622392717421,64.3498781538178,121.0],[27.3144929146151,64.35252743096197,121.0],[27.307133811436813,64.35252743096197,121.0],[27.300657800639897,64.348700697309255,135.2212],[27.290649420317436,64.339869773495309,121.0],[27.280641039994947,64.336631768096851,121.0],[27.278286126977889,64.345757056037939,121.0],[27.28093540412209,64.359592170013144,134.3742],[27.286822686664721,64.370189278589862,138.9563],[27.254148268553109,64.381375115420866,121.0],[27.217647116788783,64.386673669709239,136.2266],[27.184972698677171,64.395504593523185,121.0],[27.164072845650821,64.418170631312336,121.0],[27.225006219967071,64.442602853864258,142.835],[27.249438442518993,64.445840859262717,134.0063],[27.253559540298852,64.449078864661175,128.6567],[27.248849714264736,64.455849239585177,121.0],[27.239430062196533,64.462619614509208,121.0],[27.2291273177469,64.465857619907666,121.0],[27.218824573297297,64.467623804670467,121.0],[27.184678334550028,64.480281462137128,121.0],[27.19645289963529,64.4941165761123,126.1791],[27.213526019008924,64.504419320561908,135.1125],[27.233248415526759,64.511189695485939,142.3905],[27.252970812044566,64.515016429138655,146.5024],[27.240313154577905,64.5264966300968,132.3545],[27.197924720270947,64.531206456130889,121.0],[27.181145965024456,64.538271195182062,121.0],[27.163484117396564,64.542392292961893,121.0],[27.1387575307175,64.539448651690577,121.0],[27.124039324360893,64.530028999622374,131.5309],[27.136108253573298,64.515016429138655,121.0],[27.117268949436891,64.510012238977424,121.0],[27.099607101808971,64.510600967231682,121.0],[27.053686297976441,64.519431891045627,135.8364],[27.038379363365578,64.527968450732459,121.0],[27.023366792881887,64.533267005020832,121.0],[27.007176765889625,64.527968450732459,138.5516],[27.020717515737687,64.521198075808428,121.0],[27.015418961449313,64.507068597706109,121.0],[27.007471130016768,64.502358771672,121.0],[26.998345842075679,64.504713684689051,121.0],[26.989809282388876,64.511189695485939,121.0],[26.975679804286557,64.519137526918513,133.4074],[26.955663043641579,64.524436081206858,121.0],[26.879128370587352,64.532383912639432,121.0],[26.842038490568768,64.541509200580492,121.0],[26.829086468974964,64.548868303758809,121.0],[26.822021729923819,64.5553443145557,121.0],[26.81466262674553,64.560348504716927,121.0],[26.801121876897469,64.562114689479728,121.0],[26.81289644198273,64.5535781297929,129.9556],[26.811718985474215,64.5441584777247,129.3056],[26.8078922518215,64.534444461529347,132.1609],[26.811424621347072,64.524436081206858,125.5079],[26.822021729923819,64.515899521520055,126.7126],[26.844393403585826,64.50294749992625,121.0],[26.854990512162573,64.4932334837309,121.0],[26.84704268073,64.489406750078189,121.0],[26.83880048517031,64.487051837061159,121.0],[26.830263925483507,64.486463108806873,121.0],[26.825259735322248,64.486757472934016,121.0],[26.8070091594401,64.485285652298359,121.0],[26.796117686736238,64.473216723085955,121.0],[26.796117686736238,64.455849239585177,136.472],[26.8078922518215,64.438481756084428,134.2989],[26.827909012466449,64.428473375761939,133.3208],[26.911508424571849,64.41110589226119,121.0],[26.88148328360441,64.404041153210017,121.0],[26.845570860094341,64.408162250989847,121.0],[26.780516387998262,64.424941006236367,121.0],[26.768447458785857,64.425824098617767,121.0],[26.750491247030823,64.424646642109224,121.0],[26.737833589564161,64.41934808782085,122.9215],[26.742543415598277,64.408162250989847,128.3032],[26.755201073064939,64.4010975119387,128.5625],[26.786992398795149,64.394915865268928,121.0],[26.801121876897469,64.3907947674891,121.0],[26.788758583557922,64.37342728398832,121.0],[26.779633295616861,64.363713267792974,121.0]]]}
,"properties": {"featurecla": "Reservoir","scalerank": 4,"name": "Oulujarvi","name_abb": "Oulujarvi","name_alt": null,"note": null,"delta": null,"dam_name": "Jylhama","year": 1950,"admin": null,"min_zoom": 4.0,"min_label": 5.0,"area_km2": 1209.7721,"hist_schema_id": "Elevation0-9000","hist_area_km2": {"25": 0.0555,"75": 0.0463,"100": 0.0463,"125": 1061.4674,"150": 112.0788,"175": 25.0844,"200": 8.1448,"225": 2.0809,"250": 0.7492}}}