{"type": "Feature","bbox": [28.260873583343425,63.986044092683045,29.438918820124343,64.178558231827168],"geometry": {"type": "Polygon","coordinates": [[[29.288204387032948,64.123806504180664,157.0],[29.288204387032948,64.129988150850437,157.0],[29.294680397829836,64.131165607358952,157.0],[29.3091042400593,64.136758525774468,157.0],[29.288204387032948,64.140290895300041,157.0],[29.226682284462413,64.139702167045783,157.0],[29.213730262868637,64.147649998478329,157.0],[29.202838790164748,64.1641343895977,163.2926],[29.177523475231425,64.174731498174452,157.0],[29.147792698391129,64.177969503572882,162.5098],[29.124243568220606,64.171787856903137,178.0258],[29.13366322028881,64.166194938487621,166.9195],[29.138078682195783,64.164723117851963,164.4605],[28.944387086543145,64.093192634958967,154.6383],[28.914950673829992,64.0896602654334,160.7234],[28.896111369693557,64.092015178450453,158.4944],[28.861376402692031,64.101140466391541,150.8569],[28.843125826809853,64.103495379408571,146.3383],[28.791612104561807,64.095547547976025,137.0],[28.740392746440904,64.105850292425629,149.0323],[28.67151154069208,64.095547547976025,145.7284],[28.637659666071954,64.103495379408571,137.0],[28.647668046394415,64.104672835917114,137.0],[28.654438421318446,64.107616477188429,137.0],[28.665035529895192,64.117036129256633,147.9409],[28.574665742865761,64.115858672748118,152.4314],[28.548761699678181,64.123806504180664,153.4519],[28.596743052400655,64.136758525774468,184.3725],[28.596743052400655,64.144411993079871,190.5701],[28.363017935458117,64.178558231827168,153.0467],[28.3556588322798,64.174731498174452,144.1878],[28.345944816084454,64.166783666741878,151.0748],[28.332404066236421,64.15942456356359,147.1555],[28.315036582735644,64.157952742927932,137.0],[28.320629501151132,64.148238726732586,142.8539],[28.329166060837963,64.1417627159357,147.1413],[28.34888845735577,64.129988150850437,137.0],[28.326811147820905,64.1296937867233,148.2854],[28.260873583343425,64.136758525774468,168.9464],[28.284422713513948,64.1288106943419,190.6061],[28.30885493606587,64.123806504180664,137.0],[28.297963463362009,64.103789743535714,160.9184],[28.30473383828604,64.094664455594625,149.9442],[28.343295538940282,64.0823011622551,137.0],[28.325928055439505,64.079063156856648,147.2693],[28.280890343988375,64.054925298431868,148.4114],[28.284717077641091,64.053159113669068,150.5038],[28.287366354785263,64.051098564779153,156.121],[28.290309996056578,64.049332380016352,151.068],[28.295019822090694,64.048154923507838,145.1113],[28.289426903675178,64.043150733346579,154.761],[28.280890343988375,64.0275494346086,210.5206],[28.324456234803847,64.0198959673032,158.1523],[28.345061723703083,64.013714320633426,178.3096],[28.363312299585232,64.001056663166764,184.506],[28.368610853873605,63.990459554590018,168.6266],[28.376853049433294,63.986044092683045,164.2569],[28.386861429755783,63.98722154919156,162.5977],[28.3974585383325,63.993403195861333,163.4557],[28.403934549129417,64.003117212056679,143.7307],[28.403051456748017,64.011359407616368,140.5669],[28.3974585383325,64.020779059684571,146.5909],[28.399519087222444,64.037557814931091,137.0],[28.401874000239474,64.049038015889209,137.0],[28.404817641510789,64.048154923507838,137.0],[28.402462728493759,64.057868939703184,155.8415],[28.3992247230953,64.065522407008586,183.7218],[28.393337440552671,64.071409689551217,150.8888],[28.383917788484439,64.076119515585333,137.0],[28.412765472943363,64.077885700348133,158.5688],[28.507256357752624,64.048154923507838,196.5296],[28.484590319963473,64.074353330822561,153.0309],[28.444556798673574,64.08848280892488,137.0],[28.4001078154767,64.09760809686594,146.0857],[28.363312299585232,64.109677026078344,137.0],[28.375969957051893,64.121157227036491,137.0],[28.390982527535613,64.131754335613209,145.69],[28.400696543730959,64.1417627159357,155.1506],[28.3974585383325,64.1511823680039,144.804],[28.3974585383325,64.157952742927932,137.0],[28.41247110881622,64.155597829910874,151.9817],[28.450444081216204,64.141173987681441,158.55],[28.477819945039442,64.125278324816321,143.7905],[28.541402596499893,64.109677026078344,137.0],[28.529922395541746,64.0981968251202,153.213],[28.509316906642539,64.094664455594625,155.661],[28.466339744081324,64.096430640357426,137.0],[28.466339744081324,64.0896602654334,137.0],[28.657970790844047,64.076119515585333,138.1034],[28.702125409913776,64.067877320025644,174.4643],[28.725380175957184,64.066405499389987,183.7903],[28.7683573385184,64.076413879712476,176.3688],[28.810451408698242,64.069054776534188,170.0876],[28.828996348707534,64.076119515585333,163.8999],[28.830468169343192,64.085539167653536,157.2328],[28.918188679228422,64.076119515585333,163.6628],[29.027986498648545,64.0896602654334,173.9496],[29.057128547234583,64.085539167653536,180.6119],[29.0618383732687,64.077885700348133,166.1908],[29.0583060037431,64.06758295589853,185.0121],[29.062132737395814,64.054925298431868,187.3713],[29.084798775184964,64.044622553982236,188.0208],[29.185765670791113,64.035202901914033,181.0191],[29.169575643798879,64.046388738745037,172.6961],[29.151913796170987,64.053747841923325,169.254],[29.110702818372545,64.062578765737271,157.0],[29.110702818372545,64.068760412407045,157.0],[29.130130850763237,64.074942059076818,174.1391],[29.176051654595767,64.0814180698737,170.763],[29.19636277936786,64.0823011622551,178.237],[29.215496447631409,64.085539167653536,185.6304],[29.253175055904279,64.099963009883,167.4803],[29.271425631786428,64.103495379408571,164.3301],[29.2767241860748,64.105555928298514,165.398],[29.28408328925309,64.114681216239575,157.0],[29.288204387032948,64.117036129256633,173.8435],[29.296152218465494,64.116741765129518,175.8994],[29.308515511805012,64.111443210841145,182.471],[29.356791228654629,64.103495379408571,171.3104],[29.399179662961586,64.084950439399279,174.0924],[29.420373880115051,64.078180064475248,180.4317],[29.438918820124343,64.0823011622551,181.5072],[29.404478217249959,64.099668645755884,165.1715],[29.367388337231347,64.1129150314768,157.0],[29.328532272449991,64.121157227036491,166.4406],[29.288204387032948,64.123806504180664,157.0]]]}
,"properties": {"featurecla": "Lake","scalerank": 8,"name": "null403","name_abb": null,"name_alt": null,"note": "_untitled_39","delta": null,"dam_name": null,"year": -99,"admin": null,"min_zoom": 6.0,"min_label": 7.0,"area_km2": 309.278,"hist_schema_id": "Elevation0-9000","hist_area_km2": {"125": 56.2768,"150": 166.8036,"175": 78.9455,"200": 6.4355,"225": 0.3805,"250": 0.4362}}}