{"type":"Feature","properties":{"GID_3":"FIN.3.1.1_1","GID_0":"FIN","country":"Finland","GID_1":"FIN.3_1","province":"Oulu","NL_NAME_1":"NA","GID_2":"FIN.3.1_1","county":"Kainuu","NL_NAME_2":"NA","city":"Kajaani","VARNAME_3":"NA","NL_NAME_3":"NA","TYPE_3":"Seutukunta|Ekonomiskregion","ENGTYPE_3":"Sub-Region","CC_3":"NA","HASC_3":"FI.OU.KA","name":"Kajaani.city"},
"geometry":{"type": "MultiPolygon","coordinates": [[[[29.1372,63.8478,192.4989],[29.1574,63.8465,185.4738],[29.1632,63.8643,189.3289],[29.1733,63.8637,190.2195],[29.2009,63.9481,234.3908],[29.211,63.9475,231.7562],[29.2169,63.9653,221.8408],[29.1966,63.9665,228.7563],[29.1981,63.971,223.657],[29.1677,63.9729,221.667],[29.1691,63.9773,225.0985],[29.1387,63.9792,217.6342],[29.1402,63.9837,221.7062],[29.1097,63.9855,195.6871],[29.1112,63.99,197.0694],[29.0808,63.9918,198.0995],[29.0822,63.9963,199.4671],[29.0619,63.9975,192.1987],[29.0634,64.002,193.7702],[29.0431,64.0032,194.1395],[29.0445,64.0077,205.4693],[29.0343,64.0083,198.7729],[29.0358,64.0127,204.753],[29.0256,64.0133,201.7157],[29.0271,64.0178,215.4917],[29.0169,64.0184,214.3234],[29.0183,64.0229,222.4191],[29.0082,64.0235,223.2196],[29.0096,64.0279,231.6053],[28.9995,64.0285,251.4115],[29.0009,64.033,246.8264],[28.9907,64.0336,236.9709],[28.9922,64.038,214.2573],[28.982,64.0387,217.3965],[28.9849,64.0476,194.7661],[28.995,64.0469,210.8164],[28.9979,64.0558,192.8082],[28.9877,64.0565,194.0652],[28.9892,64.0609,186.3445],[28.979,64.0615,183.2751],[28.9804,64.066,180.2642],[28.9601,64.0672,174.2964],[28.9615,64.0716,177.3583],[28.9514,64.0723,169.6937],[28.9528,64.0767,179.7852],[28.9426,64.0773,183.0816],[28.944,64.0818,172.1356],[28.9237,64.083,165.2468],[28.9251,64.0874,146.5],[28.9149,64.0881,157.1048],[28.9163,64.0925,162.05],[28.896,64.0937,153.3918],[28.9031,64.116,164.4027],[28.8929,64.1166,169.0651],[28.8972,64.1299,193.7934],[28.8869,64.1305,214.913],[28.8898,64.1394,203.1326],[28.8796,64.14,212.4945],[28.8824,64.1489,187.4271],[28.8722,64.1495,173.2777],[28.8737,64.154,175.4596],[28.8634,64.1546,179.5551],[28.8677,64.168,198.2347],[28.8779,64.1673,194.9648],[28.8793,64.1718,196.0104],[28.8691,64.1724,200.2645],[28.8734,64.1857,219.0747],[28.8632,64.1863,194.2393],[28.8674,64.1997,222.5219],[28.8572,64.2003,222.2311],[28.8615,64.2137,202.7377],[28.8512,64.2143,214.4193],[28.8569,64.2321,202.3821],[28.8467,64.2327,194.9421],[28.8481,64.2371,203.045],[28.8379,64.2377,202.598],[28.8393,64.2422,200.0292],[28.8291,64.2428,196.2114],[28.8319,64.2517,198.8095],[28.8217,64.2523,200.4933],[28.8231,64.2567,208.455],[28.8128,64.2573,205.5729],[28.8157,64.2662,220.2352],[28.8054,64.2668,214.0695],[28.8068,64.2713,209.982],[28.7966,64.2719,210.975],[28.798,64.2763,211.918],[28.7878,64.2769,205.6808],[28.7906,64.2858,216.4727],[28.7803,64.2864,211.6353],[28.7817,64.2909,213.7658],[28.7715,64.2915,217.8469],[28.7743,64.3004,218.9606],[28.764,64.301,223.0391],[28.7655,64.3054,217.0202],[28.7552,64.3061,222.2331],[28.7566,64.3105,202.6547],[28.7669,64.3099,231.3109],[28.7697,64.3188,208.5568],[28.78,64.3182,217.5749],[28.7814,64.3227,198.7483],[28.7916,64.322,200.0186],[28.7945,64.3309,182.7869],[28.8048,64.3303,189.8767],[28.8076,64.3392,222.6217],[28.8179,64.3386,247.5098],[28.8264,64.3653,234.1609],[28.8367,64.3647,233.9356],[28.8482,64.4003,214.0378],[28.8584,64.3997,214.9751],[28.8599,64.4042,212.4333],[28.8496,64.4048,218.6536],[28.8539,64.4181,236.5844],[28.8436,64.4187,234.4063],[28.8479,64.4321,239.2071],[28.8376,64.4327,235.6526],[28.8419,64.4461,272.2635],[28.8315,64.4466,247.4255],[28.8358,64.46,237.7998],[28.8255,64.4606,227.879],[28.8298,64.474,231.6934],[28.8195,64.4746,232.1056],[28.8238,64.4879,236.5406],[28.8341,64.4873,233.9115],[28.8356,64.4918,237.2338],[28.8562,64.4905,234.028],[28.8577,64.495,234.807],[28.837,64.4962,235.7182],[28.8384,64.5007,237.9115],[28.8178,64.5019,248.0882],[28.8192,64.5063,242.2252],[28.7882,64.5081,251.7781],[28.7896,64.5126,255.4765],[28.7689,64.5138,232.5358],[28.7703,64.5182,232.328],[28.7393,64.52,229.231],[28.7407,64.5245,226.2898],[28.7201,64.5257,236.5344],[28.7215,64.5301,250.7782],[28.6904,64.5319,234.0873],[28.6918,64.5364,248.6389],[28.6711,64.5376,235.1345],[28.6725,64.542,238.9979],[28.6518,64.5432,214.7805],[28.6504,64.5387,218.4883],[28.6194,64.5405,216.6201],[28.6236,64.5539,245.1095],[28.5925,64.5556,225.2349],[28.5939,64.5601,225.859],[28.5732,64.5613,215.1886],[28.5746,64.5657,208.2794],[28.5539,64.5669,206.9028],[28.5525,64.5624,229.9414],[28.5421,64.563,201.9295],[28.5407,64.5586,202.2354],[28.52,64.5598,179.2598],[28.5241,64.5731,190.3471],[28.5138,64.5737,189.9671],[28.5152,64.5782,198.3621],[28.4944,64.5793,187.737],[28.4958,64.5838,203.1521],[28.4647,64.5855,199.2874],[28.4661,64.59,225.4874],[28.4453,64.5911,205.9182],[28.4467,64.5956,174.8628],[28.4259,64.5967,155.0],[28.4246,64.5923,171.1149],[28.4142,64.5929,134.0],[28.4128,64.5884,152.0356],[28.3298,64.593,192.4542],[28.3284,64.5885,166.7012],[28.3181,64.5891,179.7705],[28.3194,64.5936,201.5509],[28.309,64.5941,221.748],[28.3118,64.6031,274.3757],[28.3014,64.6036,252.9312],[28.3027,64.6081,261.8468],[28.2923,64.6087,209.3964],[28.2937,64.6131,235.6927],[28.2833,64.6137,208.3378],[28.2847,64.6181,207.7848],[28.2743,64.6187,242.5408],[28.2756,64.6232,243.483],[28.2652,64.6237,264.1641],[28.2666,64.6282,281.7929],[28.2562,64.6287,297.1705],[28.2575,64.6332,305.6325],[28.164,64.6383,332.1883],[28.1626,64.6338,326.3268],[28.1418,64.6349,226.4935],[28.1445,64.6438,238.8504],[28.1341,64.6444,239.9685],[28.1354,64.6489,242.5499],[28.125,64.6494,242.269],[28.1263,64.6539,246.3395],[28.1055,64.655,253.7819],[28.1029,64.6461,247.0265],[28.0925,64.6466,274.8913],[28.0912,64.6422,282.5104],[28.1016,64.6416,249.1219],[28.1002,64.6372,256.3538],[28.0898,64.6377,272.6211],[28.0885,64.6332,282.8429],[28.0781,64.6338,295.4101],[28.0768,64.6293,298.7007],[28.056,64.6305,277.331],[28.0547,64.626,258.8733],[28.0339,64.6271,325.9179],[28.0326,64.6226,303.8638],[28.0118,64.6237,241.8855],[28.0105,64.6193,212.1356],[27.9897,64.6204,159.6915],[27.9884,64.6159,165.6041],[27.978,64.6165,158.6661],[27.9767,64.612,159.5562],[27.9559,64.6131,201.9344],[27.9546,64.6086,198.4491],[27.9338,64.6097,212.9866],[27.9325,64.6053,187.8431],[27.9117,64.6064,197.1974],[27.9104,64.6019,188.0034],[27.9,64.6024,198.0592],[27.8975,64.5935,188.7452],[27.8871,64.5941,209.136],[27.8832,64.5807,211.6398],[27.8728,64.5812,227.9717],[27.8703,64.5723,250.4512],[27.8599,64.5729,248.0931],[27.8573,64.5639,217.1808],[27.8469,64.5645,217.6378],[27.8444,64.5555,210.2567],[27.834,64.5561,225.7558],[27.8327,64.5516,208.7847],[27.8224,64.5522,217.9674],[27.8211,64.5477,203.4901],[27.8107,64.5482,204.4221],[27.8094,64.5438,207.1234],[27.7991,64.5443,214.4629],[27.7978,64.5399,191.8602],[27.7771,64.5409,194.8474],[27.7758,64.5365,165.2364],[27.7654,64.537,164.752],[27.7642,64.5325,162.99],[27.7538,64.5331,159.981],[27.7525,64.5286,175.742],[27.7422,64.5291,182.4619],[27.7434,64.5336,184.5883],[27.7331,64.5341,199.6897],[27.7123,64.5352,195.8882],[27.711,64.5307,192.3855],[27.6903,64.5318,193.9385],[27.6891,64.5273,197.1618],[27.6787,64.5279,203.3404],[27.6775,64.5234,194.0359],[27.6671,64.5239,198.9589],[27.6658,64.5195,200.6476],[27.6555,64.52,208.3527],[27.6542,64.5155,209.4662],[27.6439,64.516,208.5056],[27.6426,64.5116,206.7078],[27.6323,64.5121,193.372],[27.631,64.5076,194.2729],[27.5999,64.5092,194.3904],[27.6012,64.5137,187.8656],[27.5908,64.5142,175.6433],[27.592,64.5187,172.7694],[27.5817,64.5192,165.5],[27.5805,64.5147,171.928],[27.5597,64.5157,170.6667],[27.5585,64.5113,177.2249],[27.5481,64.5118,165.5309],[27.5457,64.5029,162.4531],[27.525,64.5039,162.0302],[27.5262,64.5084,165.5695],[27.5158,64.5089,165.1865],[27.517,64.5134,178.3636],[27.5067,64.5139,162.8347],[27.5079,64.5183,169.4069],[27.4975,64.5189,165.5214],[27.4988,64.5233,167.4567],[27.4884,64.5238,168.1615],[27.4933,64.5417,169.839],[27.4725,64.5427,170.4911],[27.4713,64.5383,166.5448],[27.4506,64.5393,167.8403],[27.4518,64.5437,178.2192],[27.4414,64.5442,169.7133],[27.4426,64.5487,168.4814],[27.4322,64.5492,168.073],[27.4334,64.5537,169.3923],[27.423,64.5542,168.7386],[27.4243,64.5586,171.5317],[27.4139,64.5592,174.5139],[27.4175,64.5725,187.6171],[27.3759,64.5746,158.6196],[27.3771,64.579,156.8383],[27.3875,64.5785,156.0971],[27.3887,64.583,158.8036],[27.3784,64.5835,156.7873],[27.3796,64.588,156.9818],[27.3692,64.5885,162.6576],[27.3704,64.5929,154.0119],[27.3496,64.5939,145.2076],[27.3508,64.5984,146.9847],[27.3612,64.5979,148.9425],[27.3624,64.6024,150.2796],[27.3728,64.6019,151.5219],[27.374,64.6063,152.9751],[27.3428,64.6078,147.2471],[27.344,64.6123,155.0201],[27.3128,64.6138,152.0424],[27.314,64.6183,142.5968],[27.2827,64.6198,142.3068],[27.2839,64.6242,147.4838],[27.2631,64.6252,142.6737],[27.2726,64.661,162.4187],[27.2622,64.6615,160.0441],[27.2658,64.6749,155.2867],[27.2553,64.6754,153.2144],[27.2589,64.6888,152.7394],[27.2485,64.6892,154.4473],[27.2508,64.6982,158.798],[27.2404,64.6987,155.3562],[27.2416,64.7031,170.7058],[27.2312,64.7036,159.879],[27.2347,64.717,149.5],[27.2556,64.716,154.7089],[27.2544,64.7116,149.5],[27.2753,64.7106,149.5],[27.2789,64.724,152.0],[27.2684,64.7245,159.3239],[27.2696,64.7289,152.0],[27.2592,64.7294,162.6761],[27.2616,64.7384,152.0],[27.2511,64.7389,162.9614],[27.2523,64.7433,165.0554],[27.2418,64.7438,154.5432],[27.243,64.7483,159.5952],[27.2326,64.7488,153.5],[27.235,64.7577,163.6904],[27.2245,64.7582,161.2363],[27.2257,64.7627,154.0],[27.2152,64.7632,161.289],[27.2164,64.7676,160.9339],[27.2059,64.7681,157.0193],[27.2083,64.7771,154.0],[27.1978,64.7776,160.2064],[27.199,64.782,154.0],[27.1781,64.783,159.2259],[27.1793,64.7875,164.8072],[27.1688,64.788,158.0547],[27.17,64.7924,156.3108],[27.1595,64.7929,158.8614],[27.1607,64.7974,156.1638],[27.1502,64.7979,156.5129],[27.1514,64.8024,153.4845],[27.1409,64.8028,160.5136],[27.1421,64.8073,151.1142],[27.1316,64.8078,157.2326],[27.1328,64.8123,152.1747],[27.1223,64.8128,153.852],[27.1246,64.8217,157.5517],[27.1351,64.8212,155.8313],[27.1375,64.8301,147.5771],[27.127,64.8306,140.4174],[27.1258,64.8261,156.1961],[27.1153,64.8266,147.9902],[27.1141,64.8222,151.8343],[27.1037,64.8227,145.9362],[27.1025,64.8182,149.7608],[27.092,64.8187,150.2048],[27.0908,64.8142,148.0417],[27.0803,64.8147,146.1725],[27.0792,64.8102,155.4223],[27.0687,64.8107,155.1408],[27.0675,64.8063,157.3413],[27.057,64.8067,155.6844],[27.0559,64.8023,152.037],[27.0454,64.8028,151.531],[27.0442,64.7983,152.3626],[27.0338,64.7988,150.7955],[27.0326,64.7943,151.2784],[27.0221,64.7948,147.5495],[27.021,64.7903,148.6154],[27.0,64.7913,147.3737],[26.9989,64.7868,147.0529],[26.9884,64.7873,148.7062],[26.9872,64.7828,142.7495],[26.9767,64.7833,142.7452],[26.9756,64.7788,143.5024],[26.9651,64.7793,141.7567],[26.964,64.7748,148.4194],[26.9535,64.7753,143.9281],[26.9524,64.7709,143.4568],[26.9419,64.7713,140.7436],[26.9408,64.7669,140.0506],[26.9303,64.7673,134.3715],[26.9292,64.7629,137.6145],[26.9187,64.7634,135.314],[26.9175,64.7589,134.0644],[26.9071,64.7594,136.1904],[26.9025,64.7415,136.8033],[26.8921,64.742,136.0483],[26.8898,64.733,136.984],[26.9107,64.7321,137.8482],[26.9084,64.7231,138.0403],[26.898,64.7236,134.0345],[26.8935,64.7057,137.5305],[26.9039,64.7053,144.3221],[26.9016,64.6963,142.6922],[26.8808,64.6973,140.1765],[26.8785,64.6883,136.7775],[26.8576,64.6893,136.4224],[26.852,64.667,137.9795],[26.8416,64.6674,132.2277],[26.8393,64.6585,130.8948],[26.808,64.6599,129.4887],[26.8069,64.6554,130.4775],[26.786,64.6564,129.6831],[26.7849,64.6519,135.0592],[26.7641,64.6528,129.0249],[26.763,64.6484,127.5551],[26.7421,64.6493,130.1252],[26.741,64.6448,127.4748],[26.7306,64.6453,125.7256],[26.7295,64.6408,122.8913],[26.7086,64.6417,120.4132],[26.7075,64.6373,123.5116],[26.6763,64.6386,110.0988],[26.6774,64.6431,108.0134],[26.6669,64.6435,105.771],[26.668,64.648,110.7232],[26.6576,64.6485,109.0354],[26.6587,64.653,107.9047],[26.6482,64.6534,105.2498],[26.6472,64.6489,105.2399],[26.6367,64.6494,100.9523],[26.6356,64.6449,102.0568],[26.6461,64.6445,106.0046],[26.6439,64.6355,108.9379],[26.6543,64.6351,108.7306],[26.6511,64.6217,108.1038],[26.6406,64.6221,107.9452],[26.6395,64.6177,112.1934],[26.6187,64.6186,108.1691],[26.6176,64.6141,106.1781],[26.6072,64.6145,106.8385],[26.6061,64.6101,110.4406],[26.5957,64.6105,106.1737],[26.5925,64.5971,113.4845],[26.5821,64.5976,117.1638],[26.5767,64.5752,121.0369],[26.5663,64.5757,123.0773],[26.5674,64.5801,119.3211],[26.557,64.5806,126.5544],[26.5559,64.5761,122.408],[26.5351,64.577,130.5559],[26.533,64.5681,180.2384],[26.5434,64.5676,163.7597],[26.5423,64.5632,177.4921],[26.5527,64.5627,168.1879],[26.5516,64.5582,165.3125],[26.4788,64.5614,144.7377],[26.4799,64.5658,162.1043],[26.4591,64.5667,148.3254],[26.457,64.5578,137.7077],[26.4466,64.5582,132.8664],[26.4455,64.5538,130.1396],[26.4351,64.5542,129.3039],[26.433,64.5453,121.8813],[26.4226,64.5457,120.0531],[26.4216,64.5412,117.803],[26.4112,64.5417,119.432],[26.4102,64.5372,117.073],[26.3998,64.5376,113.5548],[26.3977,64.5287,110.7515],[26.3873,64.5291,109.592],[26.3863,64.5247,111.7651],[26.3759,64.5251,110.0295],[26.3738,64.5162,114.7267],[26.3634,64.5166,108.6571],[26.3624,64.5121,107.8568],[26.352,64.5126,107.9448],[26.351,64.5081,111.4049],[26.3406,64.5085,112.0542],[26.3395,64.504,113.875],[26.3188,64.5049,110.05],[26.3178,64.5005,111.7281],[26.3281,64.5,110.8768],[26.3261,64.4911,109.5075],[26.3157,64.4915,106.6076],[26.3147,64.487,106.0],[26.3043,64.4875,108.331],[26.3033,64.483,105.5],[26.2929,64.4834,108.5106],[26.2919,64.479,113.2526],[26.3022,64.4785,110.7279],[26.3012,64.474,108.9845],[26.3116,64.4736,110.373],[26.3106,64.4691,109.3214],[26.3209,64.4687,110.0686],[26.3199,64.4642,112.6339],[26.3406,64.4634,112.1462],[26.3396,64.4589,114.2264],[26.35,64.4585,111.5316],[26.3489,64.454,117.649],[26.3697,64.4531,113.4217],[26.3686,64.4487,113.8714],[26.379,64.4482,113.3404],[26.3779,64.4437,110.0287],[26.3883,64.4433,109.5259],[26.3873,64.4388,111.3004],[26.408,64.438,106.7544],[26.4069,64.4335,105.1259],[26.4173,64.433,107.4274],[26.4162,64.4286,103.8389],[26.4266,64.4281,107.7518],[26.4256,64.4237,110.4062],[26.4359,64.4232,107.2767],[26.4349,64.4187,103.3444],[26.4452,64.4183,107.8308],[26.4431,64.4094,106.4681],[26.4535,64.4089,105.2529],[26.4514,64.4,103.6438],[26.4617,64.3995,104.2261],[26.4607,64.3951,106.2095],[26.471,64.3946,108.2465],[26.4689,64.3857,111.4023],[26.4792,64.3852,109.3362],[26.474,64.3629,112.0554],[26.4637,64.3633,110.571],[26.4616,64.3544,114.3572],[26.4719,64.3539,120.2598],[26.4709,64.3495,114.2168],[26.4915,64.3486,106.7314],[26.4905,64.3441,109.1074],[26.5008,64.3437,105.3169],[26.4997,64.3392,108.2564],[26.51,64.3388,105.8312],[26.509,64.3343,108.4509],[26.5193,64.3338,108.6038],[26.5182,64.3294,115.7388],[26.5285,64.3289,118.9503],[26.5275,64.3244,113.3267],[26.5481,64.3235,121.0473],[26.5471,64.3191,117.8551],[26.6501,64.3145,128.6042],[26.6512,64.319,130.6461],[26.6821,64.3176,129.7643],[26.681,64.3132,129.0152],[26.6913,64.3127,130.2311],[26.6827,64.277,129.798],[26.693,64.2765,133.2046],[26.6919,64.272,134.7989],[26.7022,64.2716,135.3039],[26.7011,64.2671,133.7857],[26.7731,64.2639,162.6033],[26.7666,64.2371,138.9063],[26.7769,64.2366,141.4396],[26.7682,64.2009,163.1258],[26.7784,64.2004,166.3098],[26.7708,64.1691,167.9873],[26.781,64.1687,168.841],[26.7724,64.1329,186.5889],[26.7826,64.1325,187.9535],[26.775,64.1012,163.6968],[26.7852,64.1007,169.3672],[26.7766,64.065,208.8764],[26.7868,64.0645,205.2127],[26.7846,64.0556,202.4966],[26.805,64.0546,206.6901],[26.8039,64.0502,199.3386],[26.8244,64.0492,197.2159],[26.8233,64.0448,194.3755],[26.8539,64.0434,186.7448],[26.8528,64.0389,186.7614],[26.8732,64.0379,193.1988],[26.8721,64.0335,198.8935],[26.8925,64.0325,225.0622],[26.8914,64.0281,226.2334],[26.9118,64.0271,221.7384],[26.9107,64.0227,219.2318],[26.931,64.0217,212.4768],[26.9299,64.0172,206.6074],[26.9605,64.0158,204.8993],[26.9594,64.0114,194.1064],[26.9798,64.0104,208.4442],[26.9787,64.0059,197.6609],[26.999,64.005,196.2145],[26.9979,64.0005,186.1125],[27.059,63.9976,193.9218],[27.0579,63.9931,196.5448],[27.119,63.9902,198.2571],[27.1201,63.9947,207.6548],[27.1303,63.9942,213.5919],[27.1314,63.9987,221.8285],[27.1416,63.9982,211.8371],[27.2027,63.9952,197.6737],[27.2016,63.9908,191.1364],[27.2931,63.9863,170.423],[27.292,63.9818,162.044],[27.3428,63.9793,154.0],[27.3417,63.9749,156.6722],[27.3823,63.9729,170.4665],[27.3812,63.9684,166.056],[27.4218,63.9664,160.5365],[27.4206,63.9619,162.379],[27.4308,63.9614,157.8721],[27.4273,63.948,151.1696],[27.4476,63.947,151.9379],[27.4464,63.9425,162.5115],[27.4566,63.942,163.1487],[27.4578,63.9465,156.0078],[27.4781,63.9455,165.7965],[27.4793,63.9499,165.4566],[27.4996,63.9489,175.5953],[27.5008,63.9534,199.5655],[27.4906,63.9539,193.2437],[27.4918,63.9583,197.4979],[27.5527,63.9552,183.4214],[27.5516,63.9508,175.019],[27.5719,63.9498,182.3501],[27.5707,63.9453,182.4601],[27.5808,63.9448,183.1187],[27.5796,63.9403,174.7413],[27.5999,63.9393,172.6039],[27.5987,63.9348,172.0036],[27.619,63.9338,161.3083],[27.6178,63.9293,161.2243],[27.6279,63.9288,159.0554],[27.6267,63.9243,157.5],[27.647,63.9233,157.5],[27.6458,63.9188,157.5],[27.656,63.9183,157.5],[27.6572,63.9227,157.5],[27.6673,63.9222,157.5],[27.6876,63.9212,157.5],[27.6864,63.9167,157.5],[27.727,63.9146,157.5],[27.7257,63.9101,157.5],[27.746,63.9091,166.9046],[27.7448,63.9046,167.174],[27.7651,63.9036,171.9935],[27.7638,63.8991,173.581],[27.774,63.8986,167.3315],[27.7727,63.8941,181.8743],[27.793,63.8931,176.1354],[27.7918,63.8886,166.477],[27.8019,63.8881,177.8136],[27.8007,63.8836,170.7914],[27.8209,63.8825,187.48],[27.8197,63.8781,176.2584],[27.8298,63.8775,183.2493],[27.8286,63.8731,177.5784],[27.8488,63.872,190.2282],[27.8476,63.8675,185.5696],[27.8577,63.867,187.0514],[27.8564,63.8625,178.736],[27.8666,63.862,182.5924],[27.8653,63.8576,180.0911],[27.8856,63.8565,175.6638],[27.8843,63.852,167.0383],[27.9248,63.8498,163.5983],[27.9235,63.8454,164.051],[27.9336,63.8448,163.4412],[27.9324,63.8404,163.6404],[27.9425,63.8398,163.4806],[27.9412,63.8354,163.5413],[27.9513,63.8348,163.4131],[27.9501,63.8304,163.5074],[27.9602,63.8298,163.8375],[27.959,63.8254,163.9044],[27.9792,63.8243,163.5263],[27.9779,63.8198,163.6157],[27.988,63.8193,163.4287],[27.9867,63.8148,163.6696],[27.9968,63.8143,163.594],[27.9956,63.8098,163.6595],[28.0057,63.8093,163.6627],[28.0044,63.8048,163.4878],[28.0246,63.8037,163.5801],[28.0233,63.7993,163.4724],[28.0334,63.7987,163.5299],[28.0322,63.7943,163.7173],[28.0423,63.7937,163.5446],[28.041,63.7892,163.5853],[28.0511,63.7887,163.4272],[28.0498,63.7842,163.3381],[28.0599,63.7837,163.3069],[28.0586,63.7793,163.4708],[28.0687,63.7787,163.665],[28.0674,63.7742,164.8838],[28.0775,63.7737,164.2866],[28.0763,63.7692,166.7422],[28.0863,63.7687,167.7226],[28.0851,63.7642,172.4097],[28.0951,63.7637,169.6803],[28.0939,63.7592,180.2204],[28.104,63.7587,186.7418],[28.1014,63.7497,188.4417],[28.1115,63.7492,186.849],[28.1102,63.7447,186.7596],[28.1203,63.7442,196.6933],[28.119,63.7397,195.4297],[28.1291,63.7392,198.3917],[28.1278,63.7347,194.0062],[28.1379,63.7341,200.1712],[28.1366,63.7297,196.5824],[28.1467,63.7291,196.2243],[28.1454,63.7247,188.4943],[28.1554,63.7241,193.3008],[28.1542,63.7197,185.972],[28.1642,63.7191,186.1436],[28.1629,63.7146,186.4735],[28.1931,63.713,187.0939],[28.1918,63.7085,191.4189],[28.212,63.7074,186.9324],[28.2107,63.7029,188.1132],[28.2207,63.7024,190.6246],[28.2194,63.6979,200.8822],[28.2295,63.6974,195.5109],[28.2282,63.6929,229.8747],[28.2383,63.6923,199.716],[28.237,63.6879,218.0534],[28.247,63.6873,203.7464],[28.2444,63.6784,193.2398],[28.2545,63.6778,195.6651],[28.2532,63.6734,193.6886],[28.2733,63.6723,197.0782],[28.272,63.6678,190.3948],[28.282,63.6672,187.8327],[28.2872,63.6851,223.3518],[28.2973,63.6845,212.0938],[28.3012,63.6979,217.2801],[28.3112,63.6973,224.7113],[28.3164,63.7151,228.5778],[28.3265,63.7145,241.3533],[28.3304,63.7279,261.75],[28.3405,63.7273,251.4153],[28.3458,63.7451,264.5541],[28.3558,63.7446,268.0596],[28.3598,63.7579,261.7234],[28.3698,63.7574,305.9421],[28.3738,63.7707,289.9586],[28.3839,63.7701,319.0995],[28.3878,63.7835,292.3987],[28.3979,63.7829,265.905],[28.4019,63.7963,247.1226],[28.412,63.7957,227.0504],[28.416,63.8091,225.5696],[28.4261,63.8085,209.3862],[28.43,63.8219,204.3693],[28.4401,63.8213,201.1786],[28.4441,63.8347,216.7314],[28.4542,63.8341,221.042],[28.4582,63.8474,191.6222],[28.4683,63.8469,175.5217],[28.4737,63.8647,227.9687],[28.4636,63.8652,229.7494],[28.4663,63.8741,224.7541],[28.4865,63.873,196.6415],[28.4878,63.8774,193.3679],[28.4979,63.8769,163.673],[28.4993,63.8813,161.8135],[28.5296,63.8796,199.1721],[28.5283,63.8751,189.2677],[28.6092,63.8704,202.9229],[28.6078,63.866,182.0681],[28.7089,63.8601,185.3813],[28.7075,63.8556,181.6624],[28.7782,63.8514,196.0021],[28.7768,63.847,196.1028],[28.9282,63.8379,202.3222],[28.9296,63.8423,209.828],[28.9801,63.8393,176.2644],[28.9815,63.8437,177.1345],[29.032,63.8406,196.8513],[29.0334,63.8451,225.0838],[29.0738,63.8426,191.7475],[29.0752,63.847,197.8112],[29.1257,63.8439,176.9009],[29.1271,63.8484,171.9609],[29.1372,63.8478,192.4989]]],
[[[27.1402,64.83,147.2501],[27.148,64.8296,140.2253],[27.1491,64.8341,138.3653],[27.1387,64.8346,152.3964],[27.1375,64.8301,147.5771],[27.1402,64.83,147.2501]]]]}}