{"type": "Feature","bbox": [22.1556,62.5978,23.2795,63.0846],"geometry": {"type": "MultiPolygon","coordinates": [[[[22.8366,62.8693,38.7562],[22.8169,62.8697,37.2851],[22.8174,62.8742,37.0343],[22.8272,62.874,38.1622],[22.8281,62.883,46.9191],[22.8379,62.8828,50.51],[22.8396,62.9007,43.0876],[22.8298,62.9009,47.8549],[22.8341,62.9458,51.5207],[22.8242,62.946,37.8047],[22.8255,62.9595,47.2796],[22.8157,62.9597,44.5822],[22.8169,62.9731,53.3464],[22.8071,62.9733,42.2084],[22.8084,62.9868,47.9725],[22.7985,62.987,41.5437],[22.8015,63.0184,48.741],[22.7916,63.0186,49.1501],[22.7933,63.0365,45.8869],[22.7834,63.0367,37.799],[22.7838,63.0412,37.2063],[22.7739,63.0414,41.3047],[22.7744,63.0459,42.466],[22.7645,63.0461,53.3568],[22.7649,63.0506,46.4311],[22.755,63.0508,40.9211],[22.7554,63.0553,42.0212],[22.7356,63.0556,55.3864],[22.736,63.0601,54.9363],[22.6964,63.0609,56.3377],[22.6968,63.0653,50.9517],[22.6869,63.0655,50.8081],[22.6882,63.079,45.4594],[22.6782,63.0792,49.3226],[22.6787,63.0837,48.2843],[22.6291,63.0846,47.3887],[22.6279,63.0711,52.9172],[22.618,63.0713,56.1324],[22.6184,63.0758,52.8862],[22.6085,63.076,52.3913],[22.6089,63.0805,54.0393],[22.5792,63.081,52.8272],[22.5788,63.0765,61.3542],[22.5689,63.0767,55.2897],[22.5685,63.0722,51.7097],[22.5586,63.0724,53.6348],[22.5582,63.0679,52.0645],[22.5384,63.0682,47.6931],[22.5376,63.0592,37.8016],[22.5475,63.0591,43.5675],[22.5471,63.0546,47.166],[22.557,63.0544,44.1618],[22.5566,63.0499,45.8203],[22.5368,63.0503,46.592],[22.5364,63.0458,38.0096],[22.5166,63.0461,40.6484],[22.5159,63.0371,46.2508],[22.506,63.0373,44.057],[22.5052,63.0283,46.2939],[22.4953,63.0285,51.1293],[22.4945,63.0195,36.2038],[22.4846,63.0197,36.8287],[22.4839,63.0107,27.8994],[22.474,63.0109,28.5613],[22.4713,62.9795,30.9634],[22.4615,62.9796,36.351],[22.4607,62.9706,25.0401],[22.4508,62.9708,24.7645],[22.4505,62.9663,24.8137],[22.4406,62.9665,24.5482],[22.4402,62.962,23.8785],[22.4304,62.9622,19.5],[22.4296,62.9532,26.1804],[22.4198,62.9534,25.2316],[22.4194,62.9489,32.3374],[22.4292,62.9487,30.6966],[22.4281,62.9352,26.0668],[22.4183,62.9354,29.7623],[22.4168,62.9174,27.6264],[22.407,62.9176,28.4864],[22.4062,62.9086,45.1598],[22.3963,62.9088,38.2198],[22.3949,62.8908,43.7481],[22.4047,62.8907,48.2958],[22.4033,62.8727,42.0],[22.4131,62.8726,52.324],[22.4124,62.8636,51.6526],[22.4026,62.8637,52.6559],[22.4022,62.8592,55.6485],[22.3923,62.8594,58.2931],[22.392,62.8549,56.6574],[22.3822,62.8551,55.5875],[22.3818,62.8506,58.2128],[22.372,62.8507,46.5592],[22.3716,62.8463,49.2715],[22.3618,62.8464,48.4466],[22.3614,62.8419,53.3069],[22.3516,62.8421,50.9155],[22.3509,62.8331,63.4669],[22.341,62.8333,64.0855],[22.3403,62.8243,55.7996],[22.3305,62.8245,61.3693],[22.3298,62.8155,65.912],[22.32,62.8156,68.9155],[22.3189,62.8022,64.4023],[22.3091,62.8023,64.8378],[22.3084,62.7934,75.4718],[22.2789,62.7938,69.4294],[22.2786,62.7893,70.6533],[22.2688,62.7895,77.4698],[22.2684,62.785,73.4092],[22.2586,62.7851,76.5128],[22.2583,62.7807,79.857],[22.2485,62.7808,76.842],[22.2478,62.7718,84.4183],[22.238,62.772,82.385],[22.2376,62.7675,93.7037],[22.2278,62.7677,83.6852],[22.2275,62.7632,91.5139],[22.2177,62.7633,94.3169],[22.217,62.7543,102.6811],[22.2072,62.7545,101.9089],[22.2069,62.75,103.338],[22.1971,62.7501,95.2982],[22.1968,62.7457,116.7507],[22.187,62.7458,115.2031],[22.1866,62.7413,142.52],[22.1768,62.7415,118.4796],[22.1762,62.7325,146.2794],[22.1664,62.7326,128.6083],[22.1661,62.7281,130.7943],[22.1563,62.7283,129.7557],[22.1556,62.7193,137.7153],[22.1654,62.7192,148.5705],[22.1651,62.7147,145.4264],[22.1847,62.7144,138.7898],[22.1843,62.7099,140.3678],[22.2137,62.7094,150.1155],[22.2134,62.7049,144.5059],[22.2329,62.7046,111.3261],[22.2326,62.7001,124.973],[22.2619,62.6997,102.6997],[22.2616,62.6952,106.4151],[22.2812,62.6949,97.6533],[22.2808,62.6904,98.5682],[22.3493,62.6893,94.2638],[22.3489,62.6848,93.7932],[22.3783,62.6843,79.9108],[22.3779,62.6798,67.8379],[22.3975,62.6795,65.9472],[22.3971,62.675,63.4444],[22.4166,62.6747,65.726],[22.4163,62.6702,65.0802],[22.4261,62.67,55.2457],[22.4257,62.6655,51.6752],[22.4355,62.6654,40.9248],[22.4351,62.6609,42.6015],[22.4546,62.6605,53.2899],[22.4543,62.6561,57.4822],[22.464,62.6559,63.813],[22.4637,62.6514,92.0318],[22.4734,62.6512,119.0493],[22.4731,62.6467,119.5527],[22.4828,62.6466,118.3961],[22.4825,62.6421,120.4902],[22.4922,62.6419,115.2308],[22.4918,62.6374,118.3318],[22.5016,62.6373,118.5582],[22.5012,62.6328,121.8384],[22.511,62.6326,108.0177],[22.5106,62.6281,113.6114],[22.5594,62.6272,110.0061],[22.559,62.6227,96.5477],[22.5688,62.6226,90.4685],[22.5684,62.6181,90.4836],[22.5782,62.6179,106.1642],[22.5789,62.6269,92.3321],[22.6277,62.626,108.2785],[22.6273,62.6215,111.7435],[22.6371,62.6213,98.0008],[22.6359,62.6079,91.5065],[22.6261,62.608,91.3222],[22.6257,62.6036,88.6286],[22.6647,62.6028,89.7021],[22.6643,62.5983,95.4079],[22.6838,62.598,94.3246],[22.6842,62.6025,94.8737],[22.694,62.6023,94.297],[22.6944,62.6068,94.6683],[22.6847,62.607,95.1404],[22.6851,62.6114,95.4349],[22.6753,62.6116,97.822],[22.6757,62.6161,114.2828],[22.666,62.6163,106.7729],[22.6664,62.6208,104.3654],[22.6566,62.621,100.1351],[22.6574,62.63,98.3622],[22.6672,62.6298,93.8382],[22.6668,62.6253,109.4176],[22.6765,62.6251,103.2022],[22.6761,62.6206,110.5923],[22.6859,62.6204,100.7239],[22.6855,62.6159,96.2618],[22.705,62.6156,101.082],[22.7058,62.6245,97.2269],[22.7448,62.6238,104.636],[22.7452,62.6283,101.4885],[22.794,62.6273,105.2215],[22.7944,62.6318,106.8819],[22.8432,62.6309,98.4135],[22.8437,62.6353,95.7408],[22.8925,62.6344,97.9412],[22.8929,62.6389,94.4394],[22.9222,62.6383,87.2851],[22.9226,62.6427,95.7277],[22.9421,62.6423,93.6239],[22.9426,62.6468,91.7753],[22.9621,62.6464,95.4379],[22.9626,62.6509,93.7031],[22.9821,62.6505,103.1929],[22.9825,62.655,95.9311],[23.0021,62.6546,103.5609],[23.0025,62.6591,106.0362],[23.0221,62.6587,102.6173],[23.0216,62.6542,104.5683],[23.0314,62.654,102.7119],[23.0309,62.6495,104.9433],[23.0407,62.6493,109.245],[23.0402,62.6448,105.6977],[23.05,62.6446,109.8958],[23.0495,62.6401,117.1312],[23.0593,62.6399,111.5992],[23.0588,62.6354,109.4733],[23.0686,62.6352,113.92],[23.0681,62.6307,111.828],[23.0779,62.6305,109.9334],[23.0774,62.626,111.3094],[23.0872,62.6258,102.0202],[23.0867,62.6213,111.2702],[23.0964,62.6211,97.4943],[23.096,62.6166,98.7674],[23.1057,62.6164,111.8656],[23.1053,62.6119,107.5369],[23.115,62.6117,109.0029],[23.1146,62.6072,106.516],[23.1243,62.607,106.6693],[23.1234,62.598,101.6927],[23.1331,62.5978,107.0193],[23.135,62.6158,100.2543],[23.1447,62.6156,99.6818],[23.1471,62.638,108.4596],[23.1569,62.6378,100.4816],[23.1588,62.6557,107.6783],[23.1685,62.6555,105.5123],[23.1709,62.6779,108.1841],[23.1807,62.6777,111.1287],[23.1826,62.6957,112.595],[23.1924,62.6954,114.6481],[23.1943,62.7134,111.1025],[23.2041,62.7132,109.5241],[23.2056,62.7267,115.9827],[23.2349,62.726,105.411],[23.2354,62.7305,112.7037],[23.255,62.73,115.4178],[23.2555,62.7345,115.1877],[23.2751,62.7341,118.211],[23.2795,62.7744,123.2984],[23.2697,62.7747,122.1531],[23.2702,62.7792,123.611],[23.231,62.78,109.2962],[23.2315,62.7845,112.6053],[23.2217,62.7847,105.2762],[23.2227,62.7937,105.3158],[23.2128,62.7939,108.503],[23.2133,62.7984,103.2088],[23.2035,62.7986,104.6441],[23.205,62.8121,103.9008],[23.1952,62.8123,111.2203],[23.1957,62.8168,102.1636],[23.1662,62.8175,97.3833],[23.1657,62.813,95.5091],[23.0872,62.8147,86.8541],[23.0867,62.8102,86.809],[23.0376,62.8112,90.1571],[23.0385,62.8202,90.743],[23.0484,62.82,93.0636],[23.0488,62.8245,89.7271],[23.0586,62.8243,91.2805],[23.0591,62.8288,91.7578],[23.0689,62.8286,96.3261],[23.0699,62.8375,94.1835],[23.0797,62.8373,90.983],[23.0802,62.8418,106.3361],[23.09,62.8416,92.3834],[23.0909,62.8506,96.5675],[23.1008,62.8504,95.5723],[23.1012,62.8549,99.8457],[23.1111,62.8546,96.6817],[23.1115,62.8591,97.8854],[23.0919,62.8596,101.1219],[23.0923,62.864,104.0581],[23.0432,62.8651,97.9293],[23.0436,62.8696,101.9727],[22.9945,62.8706,62.2254],[22.9949,62.8751,54.4423],[22.9555,62.8759,41.3002],[22.9551,62.8714,52.909],[22.8469,62.8736,53.8656],[22.8464,62.8691,56.6126],[22.8366,62.8693,38.7562]]]]}
,"properties": {"GID_3": "FIN.5.8.4_1","GID_0": "FIN","country": "Finland","GID_1": "FIN.5_1","province": "WesternFinland","NL_NAME_1": "NA","GID_2": "FIN.5.8_1","county": "SouthernOstrobothnia","NL_NAME_2": "NA","city": "NorthernSeinänaapuri","VARNAME_3": "NA","NL_NAME_3": "NA","TYPE_3": "Seutukunta|Ekonomiskregion","ENGTYPE_3": "Sub-Region","CC_3": "NA","HASC_3": "NA","name": "Northern_Seinänaapuri.city","area_km2": 1576.898,"hist_schema_id": "Elevation0-9000","hist_area_km2": {"25": 108.032,"50": 641.016,"75": 388.868,"100": 387.559,"125": 37.697,"150": 13.628,"175": 0.097}}}