{"type": "Feature","bbox": [21.0026,60.475,22.1247,61.0896],"geometry": {"type": "MultiPolygon","coordinates": [[[[21.1932,60.5036,14.9074],[21.1901,60.5036,18.0431],[21.188,60.5005,11.9186],[21.1911,60.5005,16.9137],[21.1932,60.5036,14.9074]]],
[[[21.2297,60.5057,14.8592],[21.2307,60.5078,15.713],[21.2208,60.5104,5.6058],[21.2109,60.5078,7.5053],[21.2125,60.5062,0.0],[21.2229,60.5062,0.0],[21.2271,60.5042,3.5503],[21.2297,60.5057,14.8592]]],
[[[21.2453,60.5422,0.0],[21.2474,60.5474,0.0],[21.2396,60.55,2.5547],[21.2349,60.5464,18.0531],[21.2297,60.5453,10.2986],[21.2339,60.5422,12.1337],[21.2417,60.5396,9.318],[21.2453,60.5422,0.0]]],
[[[21.2182,60.5464,15.8542],[21.2167,60.5438,13.858],[21.2193,60.5401,8.5364],[21.2266,60.5401,15.3459],[21.2234,60.5464,13.5986],[21.2245,60.5495,16.9016],[21.2193,60.5495,1.9692],[21.2182,60.5464,15.8542]]],
[[[21.1604,60.5229,11.1328],[21.1568,60.5172,0.0],[21.1599,60.5172,1.1215],[21.163,60.5203,1.2601],[21.1682,60.5214,0.0],[21.1688,60.5229,9.7983],[21.1667,60.525,0.0],[21.1625,60.525,0.0],[21.1604,60.5229,11.1328]]],
[[[21.1786,60.5328,6.066],[21.1755,60.5318,8.6698],[21.1776,60.5297,9.9857],[21.1807,60.5297,4.8125],[21.1807,60.5307,5.4682],[21.1786,60.5328,6.066]]],
[[[21.1786,60.5714,13.2711],[21.1766,60.5745,9.3354],[21.1693,60.5755,13.197],[21.1703,60.5786,7.3945],[21.1688,60.5792,4.9296],[21.1609,60.5766,0.8197],[21.1641,60.5734,2.889],[21.1589,60.5651,0.0],[21.1688,60.5625,0.0],[21.1766,60.5672,0.0],[21.1714,60.5703,5.9108],[21.1786,60.5714,13.2711]]],
[[[21.1083,60.6208,2.5976],[21.1099,60.6224,0.0],[21.1068,60.6224,5.3738],[21.1068,60.6214,4.0901],[21.1083,60.6208,2.5976]]],
[[[21.2083,60.5458,17.6121],[21.2099,60.5474,21.1082],[21.2068,60.5474,16.7911],[21.2068,60.5464,16.3413],[21.2083,60.5458,17.6121]]],
[[[21.1979,60.5542,8.544],[21.1964,60.5505,2.2378],[21.1984,60.5484,3.0979],[21.2042,60.5479,10.4703],[21.2078,60.5505,16.9644],[21.2057,60.5536,3.6452],[21.2016,60.5557,1.6888],[21.1984,60.5557,5.8828],[21.1979,60.5542,8.544]]],
[[[21.2016,60.5807,5.087],[21.1984,60.5797,8.4442],[21.2005,60.5776,8.1556],[21.2036,60.5776,14.0507],[21.2036,60.5786,13.6034],[21.2016,60.5807,5.087]]],
[[[21.2099,60.6109,6.4972],[21.2057,60.6141,0.0],[21.1979,60.6167,10.1574],[21.1922,60.6161,0.0],[21.1875,60.6125,12.0548],[21.1792,60.6125,4.2914],[21.1776,60.613,4.2476],[21.1786,60.6161,3.7487],[21.1771,60.6167,0.0],[21.1729,60.6146,8.1723],[21.1651,60.6141,13.3525],[21.163,60.612,14.7948],[21.1646,60.6104,0.0],[21.1703,60.6099,0.0],[21.175,60.6063,9.4718],[21.1813,60.6104,0.0],[21.1875,60.6063,0.0],[21.1974,60.6057,2.104],[21.2026,60.6005,0.0],[21.2099,60.5995,5.4544],[21.2068,60.5932,0.0],[21.2089,60.588,5.8342],[21.2167,60.5875,2.3145],[21.2229,60.5833,9.8697],[21.2307,60.5839,0.0],[21.2276,60.5859,16.9218],[21.2286,60.5891,0.0],[21.2255,60.5911,2.5711],[21.2276,60.5932,7.1565],[21.2328,60.5943,11.4413],[21.2328,60.5974,14.8825],[21.2286,60.6016,8.6549],[21.2214,60.6026,9.3503],[21.2224,60.6057,7.7746],[21.2203,60.6078,0.0],[21.2104,60.6083,0.0],[21.2089,60.6089,4.2875],[21.2099,60.6109,6.4972]]],
[[[21.2391,60.6057,0.0],[21.2359,60.6047,13.1302],[21.238,60.6026,7.0462],[21.2411,60.6026,13.8677],[21.2411,60.6036,0.0],[21.2391,60.6057,0.0]]],
[[[21.2141,60.6328,3.7315],[21.2208,60.6312,0.0],[21.2266,60.637,7.7818],[21.2089,60.6349,12.0615],[21.2141,60.6328,3.7315]]],
[[[21.2224,60.6391,7.0439],[21.2167,60.6396,11.9289],[21.2151,60.638,7.0058],[21.2208,60.6375,13.5822],[21.2224,60.6391,7.0439]]],
[[[21.2208,60.6875,10.2927],[21.2224,60.688,13.5652],[21.2224,60.6891,5.981],[21.2193,60.6891,4.4626],[21.2208,60.6875,10.2927]]],
[[[21.0729,60.6646,1.0488],[21.0745,60.6651,0.3937],[21.0745,60.6661,0.7841],[21.0714,60.6661,0.6071],[21.0729,60.6646,1.0488]]],
[[[21.1375,60.6896,2.6493],[21.1391,60.6911,5.2757],[21.1359,60.6911,0.0],[21.1359,60.6901,0.0],[21.1375,60.6896,2.6493]]],
[[[21.0255,60.7203,0.2623],[21.0266,60.7224,3.5738],[21.0187,60.7229,0.072],[21.0172,60.7245,0.7902],[21.0229,60.725,0.6357],[21.0276,60.7286,0.0],[21.0328,60.7297,1.9915],[21.0328,60.7328,1.6495],[21.0271,60.7333,3.4248],[21.0203,60.7297,5.6371],[21.0026,60.7245,0.0],[21.0057,60.7224,0.7046],[21.0047,60.7193,1.9018],[21.0167,60.7146,0.4319],[21.0245,60.7172,0.0],[21.0255,60.7203,0.2623]]],
[[[21.1911,60.7786,8.8912],[21.1854,60.7792,15.667],[21.1839,60.7776,8.2219],[21.1896,60.7771,12.304],[21.1911,60.7786,8.8912]]],
[[[21.2417,60.775,20.1606],[21.2359,60.7745,4.4691],[21.2359,60.7714,14.495],[21.2458,60.7708,12.849],[21.2495,60.7734,0.0],[21.2479,60.775,0.0],[21.2417,60.775,20.1606]]],
[[[21.2438,60.8,0.0],[21.2453,60.8005,2.5424],[21.2453,60.8016,0.0],[21.2422,60.8016,14.3973],[21.2438,60.8,0.0]]],
[[[21.2,60.825,2.6531],[21.2016,60.8266,0.0],[21.1984,60.8266,1.9069],[21.1984,60.8255,5.1688],[21.2,60.825,2.6531]]],
[[[21.2122,60.8292,11.437],[21.2062,60.8292,12.8062],[21.2047,60.8276,4.9118],[21.2161,60.8276,0.0],[21.2122,60.8292,11.437]]],
[[[21.1547,60.7964,15.4617],[21.1417,60.8021,7.9387],[21.1297,60.7995,0.0],[21.1349,60.7974,11.8577],[21.1401,60.788,1.4967],[21.1437,60.7854,0.0],[21.1521,60.7854,0.0],[21.1625,60.7813,0.0],[21.175,60.7813,9.2797],[21.1786,60.7839,14.2731],[21.1766,60.787,15.5156],[21.1672,60.7901,6.4976],[21.1599,60.7953,0.0],[21.1547,60.7964,15.4617]]],
[[[21.1474,60.8036,9.0802],[21.1443,60.8036,9.723],[21.1443,60.8026,12.1314],[21.1474,60.8026,0.0],[21.1474,60.8036,9.0802]]],
[[[21.1703,60.8057,14.5626],[21.1646,60.8063,0.0],[21.163,60.8047,0.0],[21.1688,60.8042,16.6703],[21.1703,60.8057,14.5626]]],
[[[21.1703,60.8151,0.0],[21.1688,60.8167,0.0],[21.1589,60.8172,0.0],[21.1542,60.8208,10.761],[21.1443,60.8161,0.0],[21.1474,60.8141,15.7364],[21.1464,60.8109,13.8233],[21.1604,60.8104,0.0],[21.1646,60.8083,4.5858],[21.1703,60.8089,6.7445],[21.1672,60.812,5.7681],[21.1703,60.8151,0.0]]],
[[[21.1729,60.8354,3.4831],[21.1745,60.8359,7.8466],[21.1745,60.837,4.4932],[21.1714,60.837,3.5292],[21.1729,60.8354,3.4831]]],
[[[21.0313,60.8438,0.6384],[21.0167,60.8479,2.9281],[21.0083,60.8479,4.7905],[21.0063,60.8458,1.4575],[21.0083,60.8438,1.1704],[21.0161,60.8432,3.4423],[21.025,60.8375,0.0],[21.037,60.8359,2.786],[21.0313,60.8438,0.6384]]],
[[[21.0938,60.85,3.9284],[21.0953,60.8505,7.1132],[21.0953,60.8516,7.9007],[21.0922,60.8516,6.7476],[21.0938,60.85,3.9284]]],
[[[21.1458,60.8542,0.0],[21.1422,60.8516,0.0],[21.1422,60.8484,0.0],[21.1521,60.8479,6.9186],[21.1599,60.8526,0.0],[21.1563,60.8563,0.0],[21.1521,60.8542,17.7478],[21.1458,60.8542,0.0]]],
[[[21.3396,60.6792,5.7589],[21.3375,60.6813,11.4453],[21.3354,60.6792,0.0],[21.3375,60.6771,9.7534],[21.3396,60.6792,5.7589]]],
[[[21.3312,60.6813,10.0176],[21.3328,60.6818,7.5524],[21.3328,60.6828,10.0909],[21.3297,60.6828,9.6664],[21.3312,60.6813,10.0176]]],
[[[21.3521,60.7292,6.4466],[21.3396,60.7333,5.1528],[21.3318,60.7307,13.6891],[21.3276,60.7234,11.5791],[21.3297,60.7214,0.0],[21.3354,60.7208,7.5796],[21.3432,60.7234,0.0],[21.3464,60.7266,0.0],[21.3536,60.7276,4.9381],[21.3521,60.7292,6.4466]]],
[[[21.3312,60.7438,6.9228],[21.3276,60.7422,11.3195],[21.3312,60.7396,1.0362],[21.3349,60.7432,0.0],[21.3312,60.7438,6.9228]]],
[[[21.3245,60.713,10.1436],[21.3203,60.7161,10.3918],[21.3125,60.7188,0.0],[21.2958,60.7188,0.0],[21.2911,60.7151,3.5493],[21.2859,60.7141,0.0],[21.2854,60.7125,5.7074],[21.2859,60.7109,0.0],[21.2938,60.7083,0.0],[21.3021,60.7083,0.0],[21.3063,60.7104,0.0],[21.3104,60.7104,0.0],[21.3146,60.7083,0.0],[21.3245,60.713,10.1436]]],
[[[21.3125,60.7229,4.1295],[21.3141,60.7234,9.7674],[21.3141,60.7245,5.067],[21.3109,60.7245,14.2442],[21.3125,60.7229,4.1295]]],
[[[21.2651,60.7276,9.3009],[21.2729,60.7229,0.0],[21.2807,60.7255,0.0],[21.2771,60.7292,12.2838],[21.2667,60.7292,5.8277],[21.2651,60.7276,9.3009]]],
[[[21.2557,60.7349,0.0],[21.25,60.7354,9.7958],[21.2484,60.7339,6.0669],[21.2542,60.7333,7.7595],[21.2557,60.7349,0.0]]],
[[[21.3516,60.7641,16.3334],[21.3479,60.7667,1.1409],[21.3417,60.7667,11.6932],[21.3375,60.7687,0.0],[21.3297,60.7661,18.3774],[21.3276,60.7641,15.5236],[21.3276,60.7609,11.8022],[21.3297,60.7589,8.6906],[21.3391,60.7557,5.7534],[21.3411,60.7526,0.0],[21.3354,60.7521,8.358],[21.3312,60.7542,0.0],[21.3276,60.7505,0.0],[21.3333,60.7479,6.1866],[21.3375,60.75,0.0],[21.3521,60.7438,4.8315],[21.3604,60.7438,9.7518],[21.3688,60.7479,0.0],[21.3766,60.7484,0.0],[21.3724,60.7557,11.8163],[21.363,60.7589,0.0],[21.3599,60.762,5.2377],[21.3516,60.7641,16.3334]]],
[[[21.3521,60.7813,0.0],[21.3484,60.7797,0.0],[21.3521,60.7771,0.0],[21.3557,60.7807,0.995],[21.3521,60.7813,0.0]]],
[[[21.3089,60.8047,0.0],[21.3063,60.8063,0.0],[21.2979,60.8063,0.0],[21.2938,60.8083,5.063],[21.2922,60.8078,6.4823],[21.2901,60.8026,0.0],[21.3016,60.8016,0.0],[21.2964,60.7995,0.0],[21.2984,60.7943,4.2221],[21.3104,60.7938,0.0],[21.3146,60.7917,0.0],[21.3229,60.7917,0.0],[21.3307,60.7943,0.0],[21.3339,60.7974,0.0],[21.3396,60.7979,0.0],[21.3411,60.7964,0.0],[21.3339,60.7911,0.0],[21.3375,60.7875,0.0],[21.3599,60.788,0.0],[21.362,60.7911,0.0],[21.3568,60.7953,0.0],[21.3589,60.7974,0.9683],[21.3641,60.7984,0.0],[21.3625,60.8,6.1096],[21.3583,60.8,4.2394],[21.3542,60.7979,1.2869],[21.3479,60.7979,0.0],[21.3464,60.7984,0.0],[21.3474,60.8016,8.6957],[21.3453,60.8036,0.0],[21.3396,60.8042,0.0],[21.3229,60.7979,0.0],[21.3214,60.7984,0.0],[21.3224,60.8016,0.0],[21.3089,60.8047,0.0]]],
[[[21.3667,60.8042,0.0],[21.3682,60.8057,0.0],[21.3651,60.8057,9.23],[21.3651,60.8047,11.5512],[21.3667,60.8042,0.0]]],
[[[21.3,60.7708,3.5047],[21.2854,60.775,0.0],[21.2771,60.775,0.0],[21.2672,60.7703,8.3507],[21.2703,60.7682,12.3017],[21.2682,60.7651,10.8498],[21.2583,60.7667,12.3271],[21.2505,60.763,0.0],[21.2536,60.762,11.8817],[21.2526,60.7589,7.4664],[21.2547,60.7568,0.0],[21.2646,60.7542,4.5153],[21.2708,60.7604,4.3692],[21.275,60.7583,0.0],[21.2833,60.7583,0.0],[21.2849,60.7589,1.2753],[21.2839,60.762,0.0],[21.2854,60.7625,0.0],[21.2896,60.7604,0.0],[21.2938,60.7604,0.0],[21.3016,60.763,0.0],[21.3089,60.7682,14.8466],[21.3141,60.7693,6.0196],[21.3161,60.7724,0.0],[21.3104,60.7729,16.7836],[21.3063,60.7708,13.5205],[21.3,60.7708,3.5047]]],
[[[21.2563,60.7813,0.0],[21.2578,60.7818,4.3788],[21.2578,60.7828,12.5121],[21.2547,60.7828,7.5328],[21.2563,60.7813,0.0]]],
[[[21.2891,60.788,0.0],[21.2849,60.7911,0.0],[21.2771,60.7938,0.0],[21.2687,60.7938,0.0],[21.2609,60.7911,0.0],[21.2714,60.7859,0.0],[21.2792,60.7854,5.1628],[21.2833,60.7833,0.0],[21.2891,60.788,0.0]]],
[[[21.3083,60.8646,13.2971],[21.3047,60.863,-1.5],[21.3083,60.8604,-1.5],[21.312,60.8609,1.1082],[21.312,60.8641,14.1763],[21.3083,60.8646,13.2971]]],
[[[21.3568,60.813,0.0],[21.363,60.8089,0.0],[21.3688,60.8083,0.0],[21.3724,60.8109,7.7385],[21.3745,60.8161,8.4169],[21.3688,60.8146,0.0],[21.3583,60.8146,0.0],[21.3568,60.813,0.0]]],
[[[21.3453,60.8286,7.023],[21.3354,60.8292,-1.5],[21.3354,60.8271,5.2795],[21.3438,60.8271,6.9662],[21.3453,60.8286,7.023]]],
[[[21.3307,60.8328,14.9793],[21.325,60.8333,11.0122],[21.3234,60.8318,-1.5],[21.3292,60.8312,3.5495],[21.3307,60.8328,14.9793]]],
[[[21.3375,60.8583,-1.5],[21.3391,60.8599,21.5689],[21.3359,60.8599,15.0382],[21.3359,60.8589,-1.5],[21.3375,60.8583,-1.5]]],
[[[21.2542,60.8625,9.4037],[21.2667,60.8625,-1.5],[21.2667,60.8646,-1.5],[21.2604,60.8646,7.0041],[21.2563,60.8667,-1.5],[21.2505,60.8661,-1.5],[21.2542,60.8625,9.4037]]],
[[[21.2813,60.8688,-1.5],[21.2708,60.8646,-1.5],[21.2693,60.8609,-1.5],[21.2792,60.8604,7.4746],[21.2839,60.8641,-1.5],[21.2917,60.8646,-1.5],[21.2974,60.8672,-1.5],[21.2896,60.8708,-1.5],[21.2854,60.8688,-1.5],[21.2813,60.8688,-1.5]]],
[[[21.2521,60.9354,0.0],[21.2536,60.9359,0.0],[21.2536,60.937,0.0],[21.2505,60.937,6.8772],[21.2521,60.9354,0.0]]],
[[[21.2687,60.9396,0.0],[21.2625,60.9396,0.0],[21.2609,60.938,1.0905],[21.2724,60.938,0.325],[21.2687,60.9396,0.0]]],
[[[21.3203,60.8943,6.031],[21.3188,60.8958,13.2565],[21.3172,60.8953,16.2529],[21.3188,60.8937,0.6913],[21.3203,60.8943,6.031]]],
[[[21.3188,61.0042,0.0],[21.3203,61.0036,8.2311],[21.3193,61.0005,6.7878],[21.3266,61.0005,0.0],[21.3224,61.0078,11.1318],[21.3188,61.0104,0.0],[21.3151,61.0068,10.8284],[21.3188,61.0042,0.0]]],
[[[21.3016,60.9568,2.6747],[21.3,60.9583,5.7654],[21.2984,60.9578,5.0785],[21.3,60.9562,0.0],[21.3016,60.9568,2.6747]]],
[[[21.2661,60.9984,0.0],[21.2661,60.9995,4.11],[21.263,60.9995,5.9256],[21.2646,60.9979,0.0],[21.2661,60.9984,0.0]]],
[[[21.5047,60.4839,22.0523],[21.5063,60.4833,24.976],[21.5078,60.4849,0.0],[21.5063,60.4854,21.8493],[21.5047,60.4839,22.0523]]],
[[[21.5849,60.4859,0.0],[21.5833,60.4875,13.4881],[21.5776,60.487,16.86],[21.5792,60.4854,13.8646],[21.5849,60.4859,0.0]]],
[[[21.6197,60.4854,21.1274],[21.6167,60.4833,21.0457],[21.6208,60.4792,0.0],[21.6286,60.4818,0.0],[21.6328,60.4891,0.0],[21.625,60.4938,0.0],[21.6172,60.4911,0.0],[21.6224,60.487,1.4121],[21.6197,60.4854,21.1274]]],
[[[21.5318,60.488,17.0074],[21.5333,60.4875,11.6011],[21.5349,60.4891,0.0],[21.5333,60.4896,0.0],[21.5318,60.488,17.0074]]],
[[[21.5104,60.4917,22.2811],[21.5026,60.4911,20.7306],[21.5026,60.488,9.32],[21.5182,60.488,12.3625],[21.5161,60.4911,17.8563],[21.5104,60.4917,22.2811]]],
[[[21.5458,60.5104,0.0],[21.5453,60.512,0.0],[21.5313,60.5167,8.4618],[21.525,60.5167,15.2883],[21.5234,60.5151,0.0],[21.5266,60.513,0.7551],[21.5234,60.5089,0.0],[21.5266,60.5068,16.4513],[21.5245,60.5026,21.1169],[21.5167,60.5021,0.0],[21.5151,60.5005,0.0],[21.5193,60.4943,0.0],[21.5354,60.4938,0.0],[21.5401,60.488,0.0],[21.5479,60.4854,0.0],[21.5583,60.4854,0.0],[21.5682,60.488,27.0576],[21.5714,60.4911,22.9471],[21.5766,60.4922,1.4585],[21.5708,60.4958,0.0],[21.5604,60.4896,4.2014],[21.5563,60.4917,0.0],[21.5505,60.4901,0.0],[21.5505,60.4932,0.0],[21.5557,60.4943,0.0],[21.5589,60.4974,4.8745],[21.5641,60.4984,0.0],[21.5646,60.5,7.9447],[21.5625,60.5021,1.8874],[21.5563,60.5021,0.0],[21.5443,60.5068,6.5462],[21.5458,60.5104,0.0]]],
[[[21.6911,60.5078,0.0],[21.687,60.5141,0.2985],[21.6792,60.5167,0.0],[21.6734,60.5161,16.1576],[21.6714,60.5141,0.3441],[21.6724,60.5089,7.7082],[21.6641,60.4964,1.4541],[21.6589,60.4953,7.5637],[21.6568,60.4922,5.678],[21.6625,60.4896,13.8894],[21.6724,60.4922,1.2779],[21.6745,60.4943,0.0],[21.6734,60.4995,0.0],[21.6755,60.5016,0.0],[21.6849,60.5026,0.0],[21.6859,60.5057,3.8363],[21.6911,60.5078,0.0]]],
[[[21.5151,60.513,7.3065],[21.5182,60.513,15.1668],[21.5182,60.5141,18.8702],[21.5151,60.5141,13.9352],[21.5151,60.513,7.3065]]],
[[[21.4083,60.4979,18.4927],[21.4042,60.4979,4.8384],[21.4026,60.4964,10.082],[21.4063,60.4938,3.7446],[21.4104,60.4938,-0.3103],[21.4141,60.4964,12.2074],[21.4125,60.4979,17.6181],[21.4083,60.4979,18.4927]]],
[[[21.3943,60.5026,0.0],[21.3974,60.5026,10.1528],[21.3974,60.5036,18.7563],[21.3958,60.5042,18.9049],[21.3943,60.5026,0.0]]],
[[[21.3813,60.5042,0.0],[21.3776,60.5047,0.0],[21.3755,60.5068,0.0],[21.3755,60.5099,0.0],[21.3792,60.5146,7.2384],[21.375,60.5187,17.9395],[21.3625,60.5187,27.3262],[21.3578,60.5151,12.4572],[21.35,60.5146,0.0],[21.3479,60.5125,12.0849],[21.35,60.5104,15.2064],[21.3661,60.5078,13.911],[21.3641,60.5047,0.867],[21.3589,60.5026,0.0],[21.3688,60.4958,9.6296],[21.3828,60.4953,0.0],[21.3776,60.4922,0.2291],[21.3833,60.4917,16.5768],[21.388,60.4953,11.9976],[21.3932,60.4964,14.0096],[21.3849,60.5036,4.8956],[21.3813,60.5042,0.0]]],
[[[21.4453,60.5693,0.0],[21.4453,60.5724,0.0],[21.4432,60.5745,4.8943],[21.4354,60.5771,0.0],[21.4297,60.5766,4.9073],[21.4255,60.5724,0.0],[21.4354,60.5646,0.0666],[21.4411,60.5651,6.2202],[21.4453,60.5693,0.0]]],
[[[21.4854,60.5458,5.6719],[21.4818,60.5464,0.0],[21.4755,60.5505,14.634],[21.4776,60.5536,0.0],[21.4828,60.5547,0.0],[21.4828,60.5578,0.0],[21.4813,60.5583,0.6661],[21.4542,60.5583,8.3768],[21.45,60.5604,10.0727],[21.4484,60.5589,2.3201],[21.4516,60.5547,0.0],[21.4458,60.5542,24.3941],[21.4417,60.5563,0.0],[21.4354,60.5563,0.0],[21.4234,60.5609,0.0],[21.4214,60.5641,0.0],[21.4271,60.5646,7.485],[21.4286,60.5661,11.7816],[21.4234,60.5672,0.0],[21.4214,60.5693,6.5607],[21.4224,60.5745,0.0],[21.4214,60.5766,0.0],[21.4307,60.5807,0.0],[21.4229,60.5812,14.4184],[21.4188,60.5833,0.0],[21.4125,60.5812,3.275],[21.4026,60.5818,8.4083],[21.4063,60.5875,0.0],[21.4036,60.5911,0.0],[21.3771,60.5979,0.0],[21.3729,60.5958,17.0971],[21.363,60.5984,14.8239],[21.3661,60.6036,3.5624],[21.3604,60.6021,0.0],[21.3526,60.6027,8.3785],[21.3563,60.6083,0.0],[21.3547,60.6109,0.0],[21.3557,60.6141,0.0],[21.35,60.6167,13.3881],[21.3396,60.6167,4.7775],[21.3354,60.6188,8.4184],[21.3255,60.6193,9.3583],[21.3312,60.625,10.7875],[21.3354,60.6229,0.0],[21.3479,60.6229,12.4924],[21.3521,60.625,14.4827],[21.3563,60.6229,0.0],[21.3578,60.6245,5.2163],[21.3417,60.6354,4.8215],[21.3318,60.6349,12.222],[21.337,60.6297,13.1872],[21.3312,60.6292,0.0],[21.3286,60.6328,0.0],[21.3208,60.6333,2.9837],[21.3151,60.6359,16.7494],[21.3182,60.6411,0.0],[21.3089,60.6443,0.0],[21.3099,60.6474,0.0],[21.3068,60.6495,14.4097],[21.3109,60.6557,12.2398],[21.3167,60.6542,0.0],[21.3182,60.6547,8.0123],[21.3172,60.6578,0.0],[21.3224,60.6589,6.3974],[21.3193,60.6609,12.5442],[21.3224,60.6651,6.2677],[21.3208,60.6667,0.0],[21.3021,60.6667,0.0],[21.2979,60.6625,17.3682],[21.2943,60.6672,14.6067],[21.2953,60.6703,0.0],[21.2938,60.6708,0.0],[21.2708,60.6708,0.0],[21.2667,60.6688,10.2334],[21.2609,60.6703,4.0916],[21.2609,60.6672,8.9538],[21.263,60.6651,0.0],[21.2708,60.6625,0.0],[21.2833,60.6625,9.937],[21.2849,60.6609,0.0],[21.2828,60.6568,6.3637],[21.2714,60.6536,2.7766],[21.2646,60.65,15.6471],[21.2583,60.65,0.0],[21.2521,60.6542,9.645],[21.2417,60.65,9.7288],[21.2359,60.6495,9.1662],[21.2313,60.6437,15.6661],[21.2328,60.6401,0.0],[21.2313,60.6375,6.1305],[21.2349,60.6318,10.4959],[21.2292,60.6292,0.0],[21.2188,60.6292,10.7794],[21.2146,60.625,15.9047],[21.2167,60.6229,0.0],[21.2224,60.6245,0.0],[21.2188,60.6188,7.1734],[21.2203,60.6161,8.9502],[21.2193,60.613,0.0],[21.2266,60.612,11.3454],[21.2255,60.6089,0.0],[21.2438,60.6083,1.8446],[21.2479,60.6063,0.0],[21.2542,60.6063,5.9672],[21.2604,60.6,0.0],[21.2687,60.6,13.4992],[21.2724,60.6026,0.0],[21.2708,60.6042,0.0],[21.2651,60.6047,15.4726],[21.263,60.6068,0.0],[21.2641,60.6099,0.0],[21.2609,60.612,5.5704],[21.2682,60.612,6.5695],[21.2672,60.6068,0.0],[21.2687,60.6063,0.0],[21.2729,60.6063,0.0],[21.2771,60.6083,14.7938],[21.2813,60.6063,14.0732],[21.2859,60.6099,10.5833],[21.2891,60.6099,4.087],[21.2917,60.6063,0.0],[21.2901,60.6036,2.6407],[21.2911,60.6005,8.4544],[21.2854,60.6021,0.0],[21.2813,60.6,12.7537],[21.2771,60.6021,3.4045],[21.2734,60.5984,0.0],[21.2807,60.5974,12.3242],[21.2797,60.5943,0.0],[21.2911,60.587,15.6337],[21.2859,60.5849,15.2682],[21.2896,60.5812,0.0],[21.2938,60.5833,0.0],[21.3125,60.5833,0.0],[21.3167,60.5812,2.13],[21.3224,60.5818,0.5435],[21.3193,60.5839,5.2676],[21.3229,60.5896,12.1494],[21.3193,60.5943,14.5328],[21.3193,60.5974,15.8156],[21.3271,60.5979,8.1188],[21.3375,60.6021,0.0],[21.3474,60.6016,9.443],[21.3495,60.5995,0.0],[21.3484,60.5964,4.835],[21.3536,60.5932,0.0],[21.3589,60.5859,10.9353],[21.3661,60.5849,13.4136],[21.3682,60.5828,15.2787],[21.3661,60.5797,0.0],[21.3563,60.5792,11.3784],[21.3516,60.5755,0.0],[21.3422,60.5724,10.6399],[21.3516,60.5693,0.0],[21.3354,60.5646,8.3627],[21.3208,60.5646,10.5451],[21.3193,60.5661,5.9117],[21.3214,60.5682,0.0204],[21.3266,60.5693,0.0],[21.3266,60.5724,15.8736],[21.3188,60.575,15.7978],[21.3146,60.5729,0.0],[21.3104,60.5729,0.8572],[21.3,60.5792,0.0],[21.2917,60.5792,0.0],[21.288,60.5755,0.0],[21.2911,60.5745,17.15],[21.2901,60.5714,0.0],[21.2974,60.5703,12.3826],[21.2964,60.5672,0.0],[21.3057,60.5641,18.5868],[21.3109,60.5589,0.0],[21.3182,60.5578,8.6729],[21.3172,60.5547,9.0008],[21.3312,60.5563,7.1346],[21.3328,60.5547,12.8666],[21.3297,60.5526,0.0],[21.3432,60.5516,8.2726],[21.3411,60.5464,0.0],[21.3359,60.5453,25.4825],[21.3339,60.5422,0.0],[21.3474,60.5391,11.0411],[21.3505,60.5339,0.0],[21.3583,60.5313,0.0],[21.3708,60.5292,12.3233],[21.375,60.5313,5.7127],[21.3828,60.5286,0.0],[21.3818,60.5234,0.0],[21.387,60.5203,26.5805],[21.3859,60.5172,0.0],[21.388,60.5151,0.0],[21.4036,60.5141,8.076],[21.4109,60.5047,0.0],[21.4208,60.5042,21.5838],[21.4328,60.4995,6.5536],[21.4349,60.4974,14.1763],[21.4318,60.4911,0.0],[21.4339,60.4859,0.0],[21.4417,60.4854,7.7119],[21.4479,60.4813,0.0],[21.4562,60.4813,14.6041],[21.4604,60.4792,0.0],[21.4771,60.4792,0.0],[21.4807,60.4818,8.5451],[21.4818,60.4849,3.4327],[21.487,60.4859,0.0],[21.4859,60.4891,0.0],[21.4917,60.4917,3.2644],[21.4995,60.4922,0.0],[21.4984,60.4974,0.0],[21.5036,60.4995,13.8983],[21.5,60.5021,0.0],[21.4943,60.5026,0.0],[21.4922,60.5057,0.0],[21.5021,60.5042,0.0],[21.5099,60.5068,0.0],[21.5068,60.5089,0.0],[21.5078,60.512,0.0],[21.5026,60.5161,16.45],[21.5078,60.5172,0.0],[21.5104,60.5208,0.0929],[21.5078,60.5245,0.0],[21.4984,60.5276,0.0],[21.4964,60.5307,0.0],[21.5042,60.5333,0.7546],[21.5099,60.5328,-0.7369],[21.5151,60.5255,12.0918],[21.5208,60.5208,0.0],[21.525,60.5229,-0.1098],[21.5313,60.5229,0.0],[21.5349,60.5255,-0.117],[21.5234,60.5339,7.3152],[21.5245,60.537,13.8252],[21.5193,60.5401,17.8747],[21.5203,60.5432,0.0],[21.5182,60.5453,0.0],[21.5109,60.5464,13.5757],[21.512,60.5495,0.0],[21.5021,60.55,14.9127],[21.4917,60.5542,0.0],[21.488,60.5516,4.0803],[21.4891,60.5464,6.2526],[21.4854,60.5458,5.6719]]],
[[[21.6974,60.5609,13.0747],[21.6974,60.562,0.0],[21.6943,60.562,19.8068],[21.6949,60.5607,21.8621],[21.6974,60.5609,13.0747]]],
[[[21.7229,60.5917,0.0],[21.7375,60.5896,0.0],[21.7479,60.5938,8.2082],[21.7563,60.5938,0.0],[21.7703,60.5984,0.0],[21.7734,60.6036,0.0],[21.7786,60.6047,0.0],[21.7755,60.6068,6.2504],[21.7776,60.6099,18.0821],[21.7854,60.6125,0.0],[21.7911,60.6109,3.7409],[21.7901,60.6161,0.0],[21.8016,60.6193,0.0],[21.8068,60.6266,1.0701],[21.8292,60.6333,0.0],[21.8396,60.6333,0.0],[21.8438,60.6354,0.0],[21.8453,60.6339,0.0],[21.838,60.6234,0.0],[21.8438,60.6229,0.0],[21.8453,60.6214,2.4262],[21.8411,60.6172,0.0],[21.8318,60.6141,0.0],[21.8297,60.6109,4.434],[21.8328,60.6089,25.736],[21.8276,60.6068,1.132],[21.8349,60.6016,0.0],[21.8328,60.5984,0.0],[21.8289,60.5966,0.8754],[21.8314,60.5965,0.3024],[21.8386,60.5911,19.9681],[21.8404,60.5859,24.2112],[21.8473,60.5851,13.1586],[21.8749,60.5843,6.344],[21.8752,60.5888,10.9366],[21.9026,60.5884,22.8633],[21.9029,60.5929,7.266],[21.9212,60.5926,39.1713],[21.9217,60.6016,45.7167],[21.9308,60.6015,41.9936],[21.9311,60.606,27.4203],[21.9403,60.6058,34.318],[21.9405,60.6103,31.3922],[21.9497,60.6102,9.3425],[21.9502,60.6192,32.333],[21.9594,60.619,6.8423],[21.9597,60.6235,5.7263],[21.9779,60.6233,6.3375],[21.9788,60.6367,8.4299],[21.9696,60.6369,11.4329],[21.9699,60.6414,9.052],[21.9607,60.6415,26.1424],[21.961,60.646,9.309],[21.9518,60.6461,12.4727],[21.9521,60.6506,8.7903],[21.943,60.6507,8.6862],[21.9427,60.6462,7.3816],[21.9244,60.6465,6.9938],[21.9247,60.651,8.1881],[21.9155,60.6511,9.5854],[21.916,60.6601,11.6639],[21.9069,60.6602,8.7242],[21.9074,60.6692,9.7737],[21.8891,60.6695,6.4052],[21.8893,60.674,6.6175],[21.8802,60.6741,10.2764],[21.8804,60.6786,25.5553],[21.8621,60.6788,26.0193],[21.8618,60.6743,26.1826],[21.8435,60.6746,19.3193],[21.8432,60.6701,23.1388],[21.8249,60.6703,29.8987],[21.8246,60.6659,32.7809],[21.8155,60.666,12.2556],[21.8165,60.6839,22.604],[21.8073,60.6841,24.8357],[21.8078,60.693,14.5711],[21.7987,60.6932,25.8434],[21.7992,60.7021,26.8857],[21.79,60.7023,21.6878],[21.7905,60.7113,27.1024],[21.7997,60.7111,29.9108],[21.8014,60.7425,25.0083],[21.8106,60.7424,30.5514],[21.8109,60.7469,31.5068],[21.82,60.7468,38.7498],[21.8203,60.7513,44.131],[21.8295,60.7512,35.0209],[21.8297,60.7556,35.2962],[21.8389,60.7555,38.1117],[21.8394,60.7645,53.156],[21.8486,60.7644,48.7308],[21.8492,60.7734,50.9861],[21.8583,60.7732,52.0464],[21.8589,60.7822,38.2683],[21.8681,60.7821,46.0504],[21.8683,60.7866,40.7704],[21.8867,60.7863,44.703],[21.887,60.7908,41.5525],[21.8962,60.7907,47.5064],[21.8965,60.7952,36.6485],[21.9056,60.795,50.0706],[21.9059,60.7995,43.1789],[21.9243,60.7993,48.417],[21.9246,60.8038,43.3528],[21.9338,60.8036,44.4154],[21.9343,60.8126,55.5749],[21.9436,60.8125,39.1706],[21.9441,60.8214,37.108],[21.9533,60.8213,42.4981],[21.9536,60.8258,40.5318],[21.9628,60.8257,34.886],[21.9631,60.8302,35.2009],[21.9723,60.83,36.4226],[21.9725,60.8345,38.7223],[21.9818,60.8344,41.1535],[21.982,60.8389,52.7903],[21.9912,60.8387,39.0687],[21.9918,60.8477,57.5827],[22.001,60.8476,56.1247],[22.0013,60.8521,40.9622],[22.0105,60.8519,45.8141],[22.0111,60.8609,41.2721],[22.0203,60.8608,52.6275],[22.0206,60.8653,59.1574],[22.0298,60.8651,50.5197],[22.0304,60.8741,50.9717],[22.0396,60.874,55.7869],[22.0393,60.8695,49.5043],[22.0635,60.8691,60.3052],[22.0669,60.8673,44.9367],[22.0667,60.8646,43.6673],[22.0759,60.8644,49.9545],[22.0762,60.8689,47.1042],[22.07,60.869,44.8703],[22.0671,60.8715,56.7963],[22.0681,60.887,61.2907],[22.0774,60.8869,49.0669],[22.0777,60.8914,47.362],[22.0961,60.8911,50.1245],[22.0964,60.8956,50.6653],[22.1056,60.8954,49.2473],[22.1059,60.8999,45.7298],[22.1244,60.8996,59.365],[22.1247,60.9041,50.1191],[22.0785,60.9048,55.2531],[22.0783,60.9003,46.599],[22.0136,60.9013,47.4473],[22.0133,60.8968,48.6605],[21.9949,60.8971,47.5298],[21.9952,60.9016,52.419],[21.9859,60.9017,56.0262],[21.9862,60.9062,55.7488],[21.9954,60.9061,56.6114],[21.996,60.9151,60.1539],[21.9868,60.9152,60.4956],[21.9873,60.9242,62.6453],[21.9781,60.9243,55.5692],[21.9784,60.9288,64.1855],[21.9691,60.9289,41.2424],[21.9694,60.9334,42.611],[21.9602,60.9336,37.3295],[21.9604,60.938,35.7215],[21.9512,60.9382,36.6365],[21.9518,60.9472,41.0934],[21.9425,60.9473,41.6643],[21.9428,60.9518,41.5874],[21.952,60.9516,40.9553],[21.9537,60.9786,50.648],[21.8796,60.9796,38.6393],[21.8802,60.9886,51.9102],[21.8709,60.9887,34.1171],[21.8712,60.9932,47.3497],[21.8619,60.9934,36.0019],[21.8624,61.0023,56.2479],[21.8532,61.0025,40.5152],[21.8534,61.007,40.9834],[21.8442,61.0071,32.6115],[21.8444,61.0116,46.3804],[21.8259,61.0118,43.1576],[21.8262,61.0163,40.6603],[21.8076,61.0166,46.4111],[21.8082,61.0255,42.2596],[21.8174,61.0254,48.1682],[21.8177,61.0299,44.348],[21.827,61.0298,48.3501],[21.8272,61.0343,34.9556],[21.7716,61.035,34.6638],[21.7713,61.0305,37.0705],[21.7621,61.0306,34.8032],[21.7618,61.0261,29.3597],[21.7613,61.0172,31.018],[21.7706,61.017,34.5752],[21.7703,61.0126,34.8955],[21.7611,61.0127,34.3825],[21.7608,61.0082,39.8087],[21.7516,61.0083,40.3761],[21.7513,61.0038,36.5737],[21.7421,61.0039,31.6837],[21.7418,60.9994,43.5896],[21.7048,60.9999,28.5581],[21.705,61.0044,31.1542],[21.6957,61.0045,18.2406],[21.6955,61.0,14.6019],[21.677,61.0003,12.3625],[21.6767,60.9958,12.4443],[21.6582,60.996,11.5],[21.6589,61.0095,22.4636],[21.6497,61.0096,28.2695],[21.6506,61.0275,20.24],[21.6413,61.0276,26.0881],[21.6418,61.0366,22.9214],[21.6325,61.0367,27.4103],[21.633,61.0457,26.2382],[21.6144,61.0459,19.112],[21.6142,61.0414,20.4954],[21.6049,61.0416,18.9152],[21.6045,61.0326,34.393],[21.5952,61.0327,15.6696],[21.5947,61.0237,16.3952],[21.604,61.0236,21.0204],[21.6033,61.0101,21.2283],[21.5848,61.0103,32.952],[21.5846,61.0059,32.5784],[21.5383,61.0064,26.8913],[21.5381,61.0019,30.2513],[21.4917,61.0024,23.6621],[21.4915,60.9979,28.0519],[21.4823,60.998,26.4187],[21.4825,61.0025,19.873],[21.4732,61.0026,23.948],[21.4734,61.0071,32.2926],[21.4642,61.0072,22.3101],[21.4644,61.0117,23.9201],[21.4551,61.0118,27.2983],[21.4553,61.0163,21.6154],[21.446,61.0164,18.7588],[21.4462,61.0209,19.3794],[21.437,61.021,24.7204],[21.4372,61.0255,22.146],[21.4279,61.0256,21.9623],[21.4287,61.0435,13.3914],[21.4194,61.0436,20.8821],[21.4196,61.0458,16.5267],[21.4151,61.0464,18.0379],[21.412,61.0516,5.8332],[21.4026,61.0547,0.0],[21.3974,61.0599,0.0],[21.3875,61.0604,15.2835],[21.3813,61.0646,0.0],[21.3771,61.0646,12.6298],[21.3583,61.0708,0.0],[21.3422,61.0734,9.0065],[21.337,61.0786,6.7335],[21.3297,61.0797,13.5083],[21.3271,61.0833,0.0],[21.3286,61.087,0.0],[21.325,61.0896,0.0],[21.3208,61.0875,3.034],[21.3047,61.087,7.1302],[21.3005,61.0828,11.165],[21.3016,61.0776,8.6633],[21.3,61.075,6.3484],[21.3047,61.0693,5.5454],[21.3078,61.0682,0.0],[21.3068,61.0651,0.0],[21.3099,61.0641,15.1449],[21.3068,61.0589,5.556],[21.3146,61.0542,0.0],[21.3188,61.0542,15.8757],[21.3229,61.0521,0.0],[21.3375,61.0521,15.3146],[21.3391,61.0516,0.0],[21.338,61.0484,0.0],[21.3453,61.0474,10.0473],[21.3417,61.0438,13.1032],[21.3359,61.0453,5.5332],[21.3286,61.0401,7.331],[21.3234,61.0391,14.3938],[21.3214,61.0359,0.0],[21.3286,61.0349,5.6575],[21.3375,61.0292,0.0],[21.3438,61.0292,14.0264],[21.3479,61.0271,0.0],[21.3583,61.0313,7.9232],[21.3661,61.0266,0.0],[21.3604,61.0208,11.1608],[21.3479,61.0229,7.9843],[21.3401,61.0203,0.0],[21.3396,61.0187,0.0],[21.3401,61.0172,9.0632],[21.3479,61.0146,0.0],[21.3578,61.0141,0.0],[21.362,61.0099,10.2547],[21.3609,61.0047,0.0],[21.3641,61.0036,6.5816],[21.363,61.0005,0.0],[21.3651,60.9984,0.0],[21.3839,60.9859,3.2777],[21.3932,60.9849,1.2662],[21.388,60.9818,9.1962],[21.3937,60.9813,0.0],[21.4057,60.9766,5.7641],[21.4047,60.9734,0.0],[21.4057,60.9714,0.0],[21.4005,60.9682,0.0],[21.4026,60.9651,0.0],[21.4286,60.9599,5.5154],[21.4276,60.9568,2.6248],[21.4297,60.9547,0.0],[21.4349,60.9516,0.0],[21.4359,60.9484,0.0],[21.4411,60.9474,6.4055],[21.437,60.9401,11.4598],[21.4318,60.9391,0.0],[21.4328,60.9339,6.204],[21.4318,60.9318,0.0],[21.4432,60.9245,2.9086],[21.4458,60.9208,0.0],[21.4438,60.9188,4.8043],[21.4359,60.9182,0.0],[21.437,60.9151,0.0],[21.4354,60.9146,0.0],[21.4161,60.9286,0.0],[21.4089,60.9297,16.4192],[21.4099,60.9328,0.0],[21.3984,60.9339,0.0],[21.4016,60.9391,1.1225],[21.3984,60.9401,12.8333],[21.3995,60.9432,0.0],[21.3901,60.9505,0.0],[21.3891,60.9536,4.1183],[21.3833,60.9542,6.5164],[21.3714,60.9505,17.2454],[21.3724,60.9536,3.1857],[21.3641,60.9599,7.535],[21.3505,60.963,0.0],[21.3516,60.9661,0.0],[21.3484,60.9672,0.0],[21.3458,60.9708,0.0],[21.3474,60.9745,6.846],[21.3422,60.9755,0.0],[21.3328,60.9828,0.0],[21.3193,60.988,0.0],[21.3224,60.9932,0.0],[21.3021,61.0042,0.0],[21.2901,61.0026,4.9092],[21.2932,61.0078,5.2479],[21.2875,61.0083,6.5005],[21.2859,61.0078,6.5746],[21.287,61.0047,4.6655],[21.2818,61.0036,0.0],[21.2849,61.0005,3.6085],[21.2807,60.9943,10.7433],[21.2729,60.9938,2.0352],[21.2687,60.9917,3.7838],[21.263,60.9932,0.0],[21.2599,60.9901,9.018],[21.2547,60.9891,0.0],[21.2557,60.9839,5.8392],[21.2505,60.9828,0.0],[21.2464,60.9797,4.0322],[21.2516,60.9786,0.0],[21.2547,60.9755,0.0],[21.2646,60.9729,0.0],[21.2771,60.9729,12.451599999999999],[21.2813,60.9708,5.1062],[21.2875,60.9708,11.0282],[21.2995,60.9661,0.0],[21.2984,60.963,0.0],[21.3042,60.9646,10.3655],[21.3068,60.9609,0.0],[21.3146,60.9604,6.0839],[21.3203,60.9578,7.5053],[21.3172,60.9536,9.2229],[21.3203,60.9516,26.1631],[21.3182,60.9484,10.3027],[21.3104,60.9479,0.0],[21.3026,60.9453,3.2846],[21.3182,60.9297,3.1252],[21.3146,60.9271,0.0],[21.2938,60.9292,0.0],[21.2833,60.9188,0.0],[21.2714,60.9214,7.9258],[21.2724,60.9245,0.0],[21.2708,60.925,0.0],[21.2479,60.925,0.0],[21.2359,60.9203,0.0],[21.2307,60.9151,6.948],[21.2229,60.9146,10.5868],[21.2229,60.9125,5.9442],[21.2203,60.9109,8.2298],[21.2109,60.9099,0.0],[21.2172,60.9047,6.8553],[21.2224,60.9036,0.0],[21.2214,60.8984,14.2481],[21.2276,60.8943,0.0],[21.2333,60.8937,0.0],[21.2375,60.8958,18.4842],[21.2417,60.8937,0.0],[21.25,60.8937,7.9115],[21.2536,60.8911,2.3994],[21.2521,60.8896,5.4347],[21.2401,60.8891,4.2486],[21.2411,60.8859,13.8468],[21.2396,60.8854,0.0],[21.2339,60.8859,10.5402],[21.2349,60.8891,0.0],[21.2333,60.8896,8.9401],[21.225,60.8896,10.4383],[21.2234,60.888,6.9469],[21.2286,60.8859,0.0],[21.2229,60.8833,19.2084],[21.2167,60.8833,4.912],[21.2151,60.8849,10.9534],[21.2182,60.8891,0.0],[21.2125,60.8917,6.6609],[21.1979,60.8937,0.0],[21.1797,60.8891,0.0],[21.1896,60.8854,0.0],[21.1974,60.8849,0.0],[21.1974,60.8818,8.4124],[21.1854,60.8812,4.5439],[21.1813,60.8833,14.0667],[21.1755,60.8828,7.1082],[21.1807,60.8786,0.0],[21.1755,60.8766,0.0],[21.1786,60.8745,9.3087],[21.1755,60.8703,8.321],[21.1771,60.8688,3.8067],[21.1917,60.8688,5.6741],[21.1943,60.8724,14.9818],[21.2021,60.875,12.5223],[21.2062,60.8729,0.0],[21.2161,60.8724,12.6275],[21.2125,60.8688,-1.0],[21.2083,60.8708,0.0],[21.2042,60.8708,11.205],[21.2026,60.8703,18.3967],[21.2036,60.8672,2.8008],[21.2021,60.8667,13.0869],[21.1901,60.8661,12.2256],[21.1932,60.863,2.5339],[21.1839,60.862,16.5831],[21.1818,60.8589,9.6621],[21.1891,60.8599,0.0],[21.188,60.8547,0.0],[21.2016,60.8516,6.8162],[21.2005,60.8484,0.0],[21.2036,60.8474,0.0],[21.2026,60.8443,11.927],[21.2062,60.8417,2.6686],[21.2104,60.8438,0.0],[21.225,60.8438,3.4518],[21.2411,60.8391,5.0777],[21.2432,60.8359,11.0873],[21.2375,60.8354,7.9018],[21.2333,60.8375,5.8494],[21.2297,60.8349,10.3716],[21.2318,60.8318,0.0],[21.2411,60.8255,0.0],[21.2339,60.8203,0.0],[21.2297,60.8151,0.0],[21.2354,60.8125,0.0],[21.2474,60.8172,10.192],[21.2521,60.8208,0.4779],[21.2604,60.8208,15.0847],[21.262,60.8193,9.4799],[21.2568,60.8182,0.0],[21.2536,60.813,12.569],[21.2484,60.812,12.7693],[21.2443,60.8047,4.2721],[21.25,60.8063,9.2871],[21.2625,60.8063,13.9269],[21.2708,60.8021,0.0],[21.2786,60.8047,0.0],[21.2797,60.8078,0.0],[21.2875,60.8083,0.0],[21.2917,60.8104,0.0],[21.3042,60.8083,0.0],[21.3057,60.8089,0.0],[21.3047,60.812,0.0],[21.3063,60.8125,17.7119],[21.3104,60.8104,0.0],[21.3146,60.8104,0.0],[21.3161,60.8109,0.0],[21.3151,60.8141,0.0],[21.3167,60.8146,5.6164],[21.3208,60.8125,0.0],[21.3328,60.812,0.0],[21.3339,60.8089,13.6829],[21.3375,60.8063,11.6582],[21.3411,60.8099,0.0],[21.338,60.8109,17.7563],[21.3359,60.8141,0.0],[21.3453,60.8151,0.0],[21.3474,60.8203,0.0],[21.3411,60.8245,-1.5],[21.3354,60.825,25.0086],[21.3354,60.8271,5.2795],[21.3292,60.8292,-1.5],[21.3245,60.8234,13.8059],[21.3167,60.8208,6.1764],[21.3109,60.8214,-1.5],[21.3161,60.8297,-1.5],[21.313,60.8328,8.1818],[21.3172,60.837,-1.5],[21.325,60.8375,19.9932],[21.3266,60.8391,-1.5],[21.3208,60.8417,-1.5],[21.3167,60.8396,7.9618],[21.2979,60.8396,11.4266],[21.2964,60.838,-1.5],[21.2995,60.8359,5.7314],[21.2974,60.8339,-1.5],[21.2917,60.8333,5.8552],[21.2896,60.8354,-1.5],[21.2932,60.8411,-1.5],[21.2859,60.8422,9.4013],[21.2813,60.8458,2.3109],[21.2672,60.8464,8.2468],[21.2682,60.8495,2.2205],[21.2651,60.8547,16.5226],[21.2661,60.8578,-1.5],[21.2646,60.8583,-1.5],[21.2589,60.8578,3.8589],[21.2568,60.8557,-1.5],[21.262,60.8505,10.4506],[21.2479,60.8458,-1.5],[21.2375,60.85,-1.5],[21.2318,60.8495,4.5725],[21.2271,60.8458,10.8011],[21.2214,60.8464,-1.5],[21.2297,60.8536,-1.5],[21.2391,60.8547,-1.5],[21.2375,60.8563,7.2095],[21.2318,60.8568,-1.5],[21.2255,60.862,11.1923],[21.2333,60.8625,-1.5],[21.2391,60.8609,5.1009],[21.2401,60.8641,4.2778],[21.2453,60.8651,10.0987],[21.2432,60.8682,-1.5],[21.2401,60.8693,-1.5],[21.2422,60.8724,-1.5],[21.25,60.8729,-1.5],[21.2542,60.875,7.7158],[21.2625,60.875,-1.5],[21.2641,60.8734,13.0065],[21.2589,60.8724,-1.5],[21.2568,60.8693,4.5724],[21.2625,60.8667,-1.5],[21.2667,60.8667,6.5705],[21.2667,60.8646,-1.5],[21.2708,60.8646,-1.5],[21.2708,60.8667,-1.5],[21.2745,60.8703,-1.5],[21.2672,60.8714,12.6483],[21.2703,60.8766,-1.5],[21.2609,60.8797,10.9038],[21.2604,60.8812,12.0787],[21.263,60.8849,10.0853],[21.2745,60.888,6.3089],[21.2786,60.8911,-1.5],[21.2729,60.8917,-1.5],[21.2687,60.8896,9.5541],[21.2651,60.8932,8.6465],[21.2833,60.8937,-1.5],[21.2849,60.8932,-1.5],[21.2839,60.8901,5.0078],[21.2979,60.8875,9.856],[21.3099,60.8922,5.6736],[21.312,60.8953,-1.5],[21.3068,60.8964,-1.5],[21.3083,60.8979,0.0995],[21.3333,60.8979,0.2759],[21.3349,60.8974,0.4305],[21.3339,60.8943,13.7048],[21.3354,60.8937,-1.5],[21.3396,60.8958,10.2745],[21.3542,60.8958,-1.5],[21.3583,60.8979,2.2315],[21.3688,60.8979,-1.5],[21.3729,60.9,-1.5],[21.3771,60.9,-1.5],[21.3813,60.8979,-1.5],[21.3979,60.8979,4.5505],[21.4021,60.8958,-1.5],[21.4146,60.8958,-1.5],[21.4188,60.8979,-1.5],[21.4229,60.8958,-1.5],[21.4271,60.8958,-1.5],[21.4328,60.8974,5.5344],[21.437,60.8901,17.903],[21.4271,60.8896,-1.5],[21.4214,60.8911,-1.5],[21.4182,60.8859,-1.5],[21.4125,60.8812,1.3025],[21.4083,60.8812,11.5909],[21.3896,60.8875,-1.5],[21.3771,60.8875,-1.5],[21.3755,60.8859,17.8651],[21.3828,60.8849,20.8038],[21.3807,60.8818,20.6514],[21.3667,60.8812,14.4904],[21.3604,60.8875,2.2876],[21.3396,60.8875,-1.5],[21.3359,60.8839,6.2909],[21.3411,60.8797,7.0673],[21.3188,60.8729,12.7563],[21.3083,60.8729,12.0068],[21.3047,60.8703,8.2406],[21.3083,60.8667,-1.5],[21.325,60.8667,5.4473],[21.3292,60.8646,9.5151],[21.3417,60.8646,8.5969],[21.3458,60.8625,-1.5],[21.362,60.8599,3.4359],[21.3604,60.8583,7.8727],[21.3542,60.8583,-1.5],[21.3464,60.8557,-1.5],[21.3411,60.8484,16.6149],[21.3359,60.8474,-1.5],[21.3359,60.8443,9.1452],[21.3438,60.8417,-1.5],[21.3578,60.8411,25.9878],[21.3505,60.8307,6.6294],[21.3536,60.8276,1.7624],[21.3505,60.8234,13.3521],[21.3547,60.8214,9.7605],[21.3646,60.8208,6.2892],[21.375,60.8271,0.0],[21.3792,60.825,0.0],[21.3891,60.8245,0.0],[21.3911,60.8224,0.0],[21.3901,60.8172,0.0],[21.3953,60.8141,1.1486],[21.3974,60.8109,0.0],[21.3839,60.8099,0.0],[21.3807,60.8047,2.8012],[21.3755,60.8036,2.1755],[21.3771,60.8,1.8541],[21.3755,60.7964,1.2133],[21.3937,60.7958,0.0],[21.3974,60.7932,0.0],[21.3958,60.7917,14.8976],[21.3797,60.7911,0.0],[21.3828,60.7891,0.0],[21.3818,60.7859,0.0],[21.3937,60.7854,0.0],[21.3979,60.7833,0.0],[21.4042,60.7854,0.0],[21.4057,60.7839,0.0],[21.4021,60.7813,19.412],[21.3958,60.7813,0.0],[21.388,60.7786,20.0999],[21.3854,60.775,0.0],[21.3792,60.775,0.0],[21.3714,60.7724,0.0],[21.3693,60.7672,13.6733],[21.3792,60.7687,0.0],[21.3828,60.7661,0.0],[21.3813,60.7646,0.0],[21.3714,60.7641,0.0],[21.3786,60.7599,11.9967],[21.3776,60.7547,0.0],[21.3833,60.7521,0.0],[21.3891,60.7536,0.0],[21.3849,60.7484,14.8662],[21.3818,60.7474,8.7258],[21.387,60.7453,2.8579],[21.3849,60.7422,0.0],[21.375,60.7417,7.4596],[21.3734,60.7401,6.1352],[21.3771,60.7375,0.0],[21.3875,60.7375,0.0],[21.3891,60.7359,0.0],[21.3651,60.7286,3.4244],[21.3682,60.7234,16.8601],[21.3651,60.7224,0.0],[21.3599,60.7172,0.0],[21.3464,60.7161,14.8847],[21.3479,60.7146,13.3933],[21.3536,60.7141,3.4591],[21.3557,60.712,0.0],[21.3557,60.7089,0.0],[21.35,60.7104,3.7532],[21.3401,60.7047,0.0],[21.3458,60.7021,6.3571],[21.3536,60.7016,0.0],[21.3583,60.6979,0.0],[21.3641,60.6974,0.0],[21.3589,60.6953,12.0548],[21.3599,60.6922,0.0],[21.3542,60.6917,11.7535],[21.3464,60.6943,0.0],[21.3401,60.6984,0.0],[21.3411,60.7016,0.0],[21.3354,60.7042,12.2598],[21.3208,60.7042,1.6611],[21.3167,60.7062,0.0],[21.3125,60.7042,13.7282],[21.3047,60.7036,7.204],[21.3026,60.7005,6.5485],[21.3104,60.7,0.0],[21.3146,60.7021,12.8103],[21.3188,60.7021,0.0],[21.3229,60.7,0.0],[21.3307,60.6995,0.0],[21.3354,60.6958,0.0],[21.3411,60.6953,0.0],[21.3401,60.6922,13.7361],[21.3458,60.6917,4.8841],[21.3474,60.6901,7.6622],[21.3401,60.6859,5.5217],[21.3432,60.6849,5.8304],[21.3484,60.6797,0.0],[21.3557,60.6786,13.747],[21.3583,60.6771,7.7429],[21.3583,60.675,0.0],[21.3661,60.6745,0.0],[21.3693,60.6714,0.0],[21.3745,60.6703,9.7434],[21.3807,60.6661,0.0],[21.3755,60.6641,6.8933],[21.3786,60.662,14.7073],[21.3776,60.6589,18.4953],[21.3807,60.6578,0.0],[21.3776,60.6526,11.6731],[21.3833,60.6521,8.0132],[21.3911,60.6547,0.0],[21.3859,60.6568,13.9916],[21.3859,60.6599,0.0],[21.3875,60.6604,0.0],[21.3917,60.6583,0.0],[21.4,60.6583,0.0],[21.4245,60.6495,0.0],[21.4214,60.6474,7.813],[21.4234,60.6443,0.0],[21.4333,60.6417,0.1127],[21.4391,60.6422,0.0],[21.4359,60.6453,0.8003],[21.4438,60.6479,0.0],[21.4495,60.6474,0.0],[21.4484,60.6443,0.0],[21.4516,60.6422,8.9078],[21.4422,60.6411,8.1434],[21.4401,60.638,0.0],[21.4516,60.637,0.0],[21.4557,60.6318,0.0],[21.4417,60.6292,5.1182],[21.4359,60.6318,2.0623],[21.4229,60.6417,3.7501],[21.4188,60.6396,0.0],[21.4146,60.6396,0.0],[21.4104,60.6417,10.0545],[21.4063,60.6417,13.3256],[21.4047,60.6401,0.0],[21.4099,60.638,0.0],[21.4042,60.6375,0.0],[21.4,60.6396,14.7163],[21.3984,60.6391,7.9451],[21.3995,60.6359,8.761],[21.3964,60.6339,15.5127],[21.4089,60.6234,0.0],[21.412,60.6224,6.6287],[21.4109,60.6193,0.0],[21.4224,60.6182,18.5363],[21.4208,60.6167,15.6186],[21.4104,60.6167,15.0267],[21.4047,60.6182,0.0],[21.4005,60.6151,0.0],[21.4047,60.6109,0.0],[21.4167,60.6125,15.5753],[21.4182,60.612,18.0479],[21.4172,60.6089,3.8783],[21.4271,60.6083,8.6695],[21.4286,60.6089,0.0],[21.4276,60.6141,0.0],[21.4349,60.6141,0.0],[21.4391,60.6109,23.0885],[21.4349,60.6047,0.0],[21.4271,60.6042,15.3732],[21.4255,60.6026,0.0],[21.4292,60.6,0.0],[21.4375,60.6,22.7031],[21.4422,60.5964,0.0],[21.4495,60.5953,12.6003],[21.4484,60.5922,0.0],[21.4505,60.5901,0.0],[21.4641,60.5849,7.1376],[21.463,60.5818,3.0011],[21.4688,60.5812,0.0],[21.4729,60.5833,7.3264],[21.4771,60.5833,0.0],[21.5,60.5771,0.0],[21.5125,60.5771,5.5151],[21.5141,60.5786,6.9973],[21.512,60.5828,0.0],[21.5042,60.5833,20.7863],[21.4943,60.587,0.3853],[21.5063,60.5875,0.0],[21.5141,60.5901,0.0],[21.5187,60.5958,0.0],[21.5229,60.5958,0.0],[21.5286,60.5932,0.0],[21.5307,60.5901,1.0044],[21.5214,60.5891,0.0],[21.5203,60.5859,10.3726],[21.5151,60.5839,7.8684],[21.5193,60.5776,0.0],[21.5245,60.5766,0.0],[21.5276,60.5714,0.0],[21.5391,60.5703,16.351],[21.538,60.5672,0.0],[21.5391,60.5651,16.4035],[21.5333,60.5625,0.5572],[21.5187,60.5625,0.0],[21.5146,60.5604,0.0],[21.5063,60.5646,0.0],[21.5021,60.5646,0.0],[21.4964,60.5609,13.0618],[21.5063,60.5563,0.0],[21.5104,60.5563,11.4225],[21.5146,60.5583,0.0],[21.5224,60.5578,13.7003],[21.5266,60.5526,5.9269],[21.5208,60.5521,11.9571],[21.5193,60.5505,14.7267],[21.5245,60.5495,0.0],[21.5276,60.5443,0.0],[21.5328,60.5432,18.1118],[21.5318,60.5401,0.0],[21.5464,60.5297,5.4681],[21.5536,60.5297,0.2094],[21.5557,60.5318,1.5834],[21.5547,60.537,0.4336],[21.5568,60.5391,0.0],[21.5599,60.5391,0.0],[21.5625,60.5354,5.0341],[21.5609,60.5318,0.0],[21.5661,60.5286,0.0],[21.5651,60.5255,0.0],[21.5703,60.5234,0.0],[21.5604,60.5229,16.917],[21.5563,60.525,17.0882],[21.5479,60.525,12.8958],[21.5464,60.5234,0.0],[21.5521,60.5229,31.4249],[21.5536,60.5214,27.8097],[21.5464,60.5172,0.0],[21.5516,60.5141,0.0],[21.5505,60.5109,0.0],[21.562,60.5099,0.0],[21.5641,60.5078,11.7329],[21.563,60.5047,8.2921],[21.5667,60.5042,0.3855],[21.5724,60.5068,0.0],[21.5771,60.5125,0.0],[21.5714,60.5182,0.0],[21.5766,60.5182,6.54],[21.5807,60.5141,10.0427],[21.5828,60.5089,3.1393],[21.5776,60.5057,0.0],[21.5729,60.5,8.3404],[21.5734,60.4984,0.0],[21.5786,60.4974,26.9331],[21.5833,60.4938,2.1259],[21.5958,60.4938,0.0],[21.6,60.4958,0.2366],[21.6063,60.4938,9.8467],[21.6167,60.5,0.0],[21.6271,60.5,0.0],[21.6297,60.5036,10.69],[21.6411,60.5068,0.0],[21.6422,60.5099,14.8808],[21.6474,60.5109,0.0],[21.6536,60.5151,-0.0757],[21.6661,60.5318,0.0],[21.6682,60.5359,2.8135],[21.6672,60.5411,0.0],[21.6693,60.5432,14.7846],[21.6807,60.5464,8.3244],[21.6776,60.5495,28.6655],[21.6828,60.5505,0.0],[21.6849,60.5526,0.0],[21.6818,60.5547,20.7508],[21.6828,60.5578,8.7879],[21.6734,60.5609,7.4247],[21.675,60.5646,0.0],[21.6734,60.5682,0.0],[21.6828,60.5755,0.0],[21.6776,60.5807,0.0],[21.6854,60.5854,0.0],[21.7042,60.5854,0.0],[21.7229,60.5917,0.0]]],
[[[21.6953,60.5693,0.1935],[21.6938,60.5708,1.0066],[21.6922,60.5703,0.9147],[21.6938,60.5687,0.0],[21.6953,60.5693,0.1935]]],
[[[21.3057,60.4818,11.8689],[21.3042,60.4833,5.9409],[21.2984,60.4828,3.4276],[21.3,60.4813,8.7904],[21.3057,60.4818,11.8689]]],
[[[21.2557,60.4943,0.0],[21.2526,60.4953,10.5704],[21.2505,60.4922,0.0],[21.2536,60.4922,11.2303],[21.2557,60.4943,0.0]]],
[[[21.2599,60.5078,0.0],[21.2557,60.5068,15.765],[21.2547,60.5026,2.0006],[21.2578,60.5026,0.0],[21.2599,60.5078,0.0]]],
[[[21.2484,60.5339,2.2288],[21.2516,60.5339,7.9004],[21.2516,60.5349,2.0422],[21.25,60.5354,10.4788],[21.2484,60.5339,2.2288]]],
[[[21.2563,60.5833,5.7226],[21.2547,60.5828,8.8591],[21.2557,60.5797,14.1216],[21.25,60.5792,5.1716],[21.2484,60.5797,13.063],[21.2495,60.5828,0.0],[21.2474,60.5849,0.0],[21.2359,60.5849,12.0201],[21.2318,60.5797,13.7842],[21.2417,60.5792,4.9869],[21.2453,60.5755,13.8121],[21.2396,60.575,5.5799],[21.2354,60.5771,13.7537],[21.2318,60.5745,22.573],[21.2318,60.5714,0.0],[21.237,60.5703,16.8437],[21.2417,60.5667,5.5217],[21.25,60.5667,0.0],[21.2578,60.5641,2.0707],[21.2536,60.5609,5.5574],[21.2484,60.5599,8.9797],[21.2464,60.5568,0.0],[21.2495,60.5547,0.0],[21.2443,60.5536,12.1973],[21.2464,60.5505,0.0],[21.2516,60.5474,0.0],[21.2505,60.5443,7.5306],[21.2599,60.5443,0.0],[21.263,60.5495,3.1701],[21.2708,60.5521,0.0],[21.275,60.55,0.0],[21.2813,60.55,0.0],[21.2828,60.5484,17.4211],[21.2734,60.5474,14.4153],[21.2766,60.5453,16.6044],[21.2755,60.5422,11.4708],[21.2807,60.538,4.8428],[21.2786,60.5359,0.0],[21.2734,60.5349,7.1791],[21.2734,60.5318,0.0],[21.2766,60.5286,0.0],[21.275,60.5271,0.0],[21.2604,60.5292,0.0],[21.2557,60.5328,6.6972],[21.2526,60.5328,7.3453],[21.2422,60.5245,3.0448],[21.2438,60.5208,22.1178],[21.238,60.512,10.2245],[21.2401,60.5089,0.0],[21.2458,60.5083,4.1937],[21.2687,60.5167,8.2719],[21.2729,60.5167,16.6257],[21.2766,60.513,15.7428],[21.2729,60.5104,4.614],[21.2672,60.5099,0.0],[21.2651,60.5068,0.0],[21.2672,60.5047,11.6177],[21.2854,60.5042,9.8615],[21.2891,60.5016,12.6432],[21.2797,60.4974,7.6412],[21.2776,60.4943,0.0],[21.2854,60.4896,0.0],[21.2911,60.4901,0.0],[21.2958,60.4938,2.1432],[21.3042,60.4938,0.0],[21.3078,60.4911,7.2137],[21.3068,60.488,0.0],[21.3125,60.4854,2.0852],[21.3151,60.4891,8.975],[21.3229,60.4896,0.0],[21.3292,60.4938,4.6276],[21.3396,60.4896,1.0573],[21.3458,60.4938,7.8156],[21.3536,60.4943,1.8942],[21.3505,60.4974,12.1047],[21.3536,60.5016,3.6119],[21.3479,60.5021,7.8546],[21.3359,60.5068,0.0],[21.3396,60.5125,18.5818],[21.337,60.5161,13.4673],[21.3193,60.5193,0.0],[21.3203,60.5224,0.0],[21.3167,60.5292,5.8967],[21.3172,60.5307,0.0],[21.3224,60.5318,0.0],[21.3208,60.5354,20.1183],[21.3224,60.5391,10.3852],[21.3151,60.5443,17.1917],[21.3161,60.5474,0.0],[21.3099,60.5516,1.9682],[21.3026,60.5526,20.4359],[21.3005,60.5547,15.9577],[21.3016,60.5578,0.0],[21.2984,60.5589,9.7637],[21.2995,60.562,0.0],[21.2917,60.5625,5.8275],[21.2828,60.5682,0.0],[21.263,60.5734,5.0283],[21.2609,60.5776,16.3335],[21.262,60.5807,0.0],[21.2563,60.5833,5.7226]]],
[[[21.2599,60.5411,13.6679],[21.2542,60.5417,15.641],[21.2521,60.5396,13.8251],[21.2542,60.5375,1.2127],[21.2583,60.5375,13.6774],[21.2599,60.538,3.7813],[21.2599,60.5411,13.6679]]],
[[[21.3089,60.5797,13.3481],[21.3047,60.5807,0.0],[21.3083,60.5771,10.4791],[21.3099,60.5776,7.4958],[21.3089,60.5797,13.3481]]],
[[[21.2568,60.6568,11.6865],[21.2599,60.6568,16.6708],[21.2599,60.6578,20.8975],[21.2583,60.6583,7.7298],[21.2568,60.6568,11.6865]]],
[[[21.3375,60.4792,0.0],[21.3339,60.4776,12.609],[21.3396,60.475,0.0],[21.3453,60.4776,19.3527],[21.3438,60.4792,1.6494],[21.3375,60.4792,0.0]]],
[[[21.3234,60.4797,0.0],[21.3193,60.4807,8.5404],[21.3229,60.4771,0.0],[21.3245,60.4776,14.5273],[21.3234,60.4797,0.0]]],
[[[21.3589,60.4911,13.2092],[21.3547,60.4839,0.0],[21.3682,60.4839,16.8617],[21.3682,60.487,12.0134],[21.3661,60.4891,0.0],[21.3589,60.4911,13.2092]]],
[[[21.3714,60.6519,0.0],[21.3667,60.6542,0.0],[21.3589,60.6547,3.4641],[21.3563,60.6583,14.1122],[21.3542,60.6563,17.3319],[21.3568,60.6526,0.0],[21.3646,60.65,1.0766],[21.3688,60.65,4.5929],[21.3729,60.6479,0.0],[21.3786,60.6484,0.0],[21.3714,60.6519,0.0]]],
[[[21.3375,60.6688,6.6254],[21.3411,60.6703,0.0],[21.3333,60.6729,4.8351],[21.3271,60.6667,13.8005],[21.3318,60.6609,5.6172],[21.3432,60.6589,12.4397],[21.3411,60.6641,0.0],[21.3359,60.6651,9.0801],[21.3359,60.6682,1.2054],[21.3375,60.6688,6.6254]]],
[[[21.363,60.6672,10.055],[21.3646,60.6667,13.4858],[21.3661,60.6682,18.143],[21.3646,60.6688,0.0],[21.363,60.6672,10.055]]],
[[[21.3495,60.6703,14.3166],[21.3484,60.6724,14.4809],[21.3583,60.6729,7.8831],[21.3583,60.675,0.0],[21.3443,60.6745,13.4574],[21.3443,60.6714,16.7081],[21.3464,60.6693,11.7568],[21.3495,60.6703,14.3166]]],
[[[21.5203,60.5703,9.3183],[21.5083,60.5708,16.0208],[21.5042,60.5729,25.7974],[21.5,60.5729,11.5148],[21.4958,60.5687,0.0],[21.4979,60.5667,0.0],[21.5187,60.5667,0.0],[21.5203,60.5672,6.368],[21.5203,60.5703,9.3183]]],
[[[21.7568,60.5786,1.173],[21.7589,60.5828,0.0],[21.7661,60.5891,0.0],[21.7521,60.5896,0.0],[21.7479,60.5875,0.2269],[21.7396,60.5875,0.0],[21.7354,60.5854,10.3951],[21.7292,60.5875,0.0],[21.7234,60.587,0.0],[21.7214,60.5818,0.0],[21.7234,60.5797,0.0],[21.7354,60.5792,0.0],[21.7411,60.5807,13.8147],[21.737,60.5755,11.5151],[21.7297,60.5703,0.0],[21.7328,60.5672,22.34],[21.7276,60.5661,15.4022],[21.7255,60.5641,0.0],[21.7286,60.5609,21.707],[21.7255,60.5578,0.0],[21.7255,60.5547,1.7102],[21.7375,60.5521,2.7171],[21.7453,60.5547,0.0],[21.7495,60.5609,10.648],[21.7464,60.5641,0.0],[21.7568,60.5786,1.173]]],
[[[21.7099,60.5661,18.4377],[21.7167,60.5646,0.0],[21.7203,60.5693,0.0],[21.7182,60.5724,10.2826],[21.7151,60.5734,7.7835],[21.7182,60.5786,0.0],[21.7125,60.5812,22.2096],[21.7104,60.5792,19.1846],[21.712,60.5755,0.0],[21.7068,60.5745,12.3246],[21.7057,60.5714,5.1533],[21.7005,60.5703,0.0],[21.7099,60.5661,18.4377]]],
[[[21.7776,60.588,14.2371],[21.7792,60.5875,0.0],[21.7807,60.5891,0.0],[21.7776,60.5891,5.447],[21.7776,60.588,14.2371]]],
[[[21.4422,60.5776,0.0],[21.4438,60.5771,13.5441],[21.4453,60.5786,13.4417],[21.4438,60.5792,15.2281],[21.4422,60.5776,0.0]]],
[[[21.4089,60.5839,12.9794],[21.412,60.5839,3.8911],[21.412,60.5849,2.8862],[21.4089,60.5849,13.5106],[21.4089,60.5839,12.9794]]],
[[[21.4484,60.5859,7.1967],[21.45,60.5854,7.9087],[21.4516,60.587,4.3572],[21.45,60.5875,4.7673],[21.4484,60.5859,7.1967]]],
[[[21.4188,60.5917,11.041],[21.413,60.5911,0.0],[21.4109,60.588,0.0],[21.4182,60.588,6.0908],[21.4203,60.5901,0.0],[21.4188,60.5917,11.041]]],
[[[21.3891,60.613,14.1583],[21.3875,60.6146,0.0],[21.3818,60.6141,19.1828],[21.3833,60.6125,15.5716],[21.3891,60.613,14.1583]]],
[[[21.4005,60.6214,13.7542],[21.3964,60.6224,17.3317],[21.4,60.6188,4.9741],[21.4016,60.6193,4.2479],[21.4005,60.6214,13.7542]]],
[[[21.388,60.6214,13.4833],[21.3896,60.6208,0.0],[21.3911,60.6224,0.0],[21.388,60.6224,9.9776],[21.388,60.6214,13.4833]]],
[[[21.3875,60.6271,3.9971],[21.3818,60.6266,13.136],[21.3797,60.6234,0.0],[21.387,60.6234,14.7995],[21.3891,60.6255,13.126],[21.3875,60.6271,3.9971]]],
[[[21.3708,60.6333,15.2075],[21.3776,60.6276,0.0],[21.3807,60.6276,12.3442],[21.3797,60.6307,12.0001],[21.3807,60.6328,7.9152],[21.3745,60.637,15.7762],[21.3703,60.6359,17.2725],[21.3693,60.6339,12.6054],[21.3708,60.6333,15.2075]]],
[[[21.3839,60.6422,13.306],[21.387,60.6422,12.591],[21.387,60.6432,6.3262],[21.3839,60.6432,4.8547],[21.3839,60.6422,13.306]]],
[[[21.3766,60.6443,0.0],[21.375,60.6458,0.0],[21.3693,60.6453,13.3377],[21.3708,60.6437,0.8824],[21.3766,60.6443,0.0]]],
[[[21.3995,60.6474,6.2047],[21.3917,60.6479,15.6164],[21.3901,60.6464,7.06],[21.3979,60.6458,0.0],[21.3995,60.6474,6.2047]]],
[[[21.4026,60.6505,0.0],[21.3984,60.6516,8.5776],[21.4021,60.6479,12.5861],[21.4036,60.6484,13.115],[21.4026,60.6505,0.0]]],
[[[21.3714,60.7443,0.0],[21.3729,60.7438,0.0],[21.3745,60.7453,8.7197],[21.3714,60.7453,6.9984],[21.3714,60.7443,0.0]]],
[[[21.3661,60.7849,0.0],[21.375,60.7792,0.0],[21.3786,60.7818,0.0],[21.3755,60.7839,0.0],[21.3766,60.787,0.0],[21.375,60.7875,0.0],[21.3667,60.7875,0.0],[21.3651,60.787,0.0],[21.3661,60.7849,0.0]]],
[[[21.3875,60.9708,3.966],[21.3891,60.9724,17.5747],[21.3859,60.9724,18.9713],[21.3859,60.9714,17.6197],[21.3875,60.9708,3.966]]],
[[[21.387,60.9766,0.0],[21.3813,60.9771,9.5559],[21.3797,60.9755,16.9804],[21.3854,60.975,16.641],[21.387,60.9766,0.0]]],
[[[21.1688,60.8563,10.4183],[21.1646,60.8563,11.2323],[21.163,60.8547,0.0],[21.1703,60.8547,0.0],[21.1688,60.8563,10.4183]]],
[[[21.1349,60.8609,8.7509],[21.1349,60.862,12.3833],[21.1318,60.862,0.0],[21.1318,60.8609,0.0],[21.1349,60.8609,8.7509]]],
[[[21.1505,60.8641,1.9009],[21.1547,60.8609,13.1865],[21.1604,60.8604,0.0],[21.162,60.862,0.0],[21.1589,60.8641,3.8611],[21.1641,60.8651,0.0],[21.1661,60.8682,0.0],[21.1604,60.8708,4.2914],[21.1563,60.8708,10.334],[21.1526,60.8682,15.0051],[21.1505,60.8641,1.9009]]],
[[[21.1313,60.9417,3.9618],[21.1297,60.9401,0.0],[21.1333,60.9375,0.0],[21.137,60.9401,6.6221],[21.1354,60.9417,2.4152],[21.1313,60.9417,3.9618]]],
[[[21.2167,60.9167,7.772],[21.2151,60.9151,0.0],[21.2229,60.9146,10.5868],[21.2229,60.9167,0.0],[21.2167,60.9167,7.772]]],
[[[21.2057,60.9214,2.3564],[21.2042,60.9229,0.0],[21.2026,60.9224,1.9771],[21.2042,60.9208,1.9542],[21.2057,60.9214,2.3564]]],
[[[21.2167,60.9375,3.3048],[21.2203,60.938,0.0],[21.2193,60.9411,1.0668],[21.2203,60.9432,0.0],[21.2146,60.9458,0.0],[21.2068,60.9432,2.2502],[21.2141,60.9401,0.0],[21.2047,60.9391,1.3979],[21.2062,60.9375,0.0],[21.2167,60.9375,3.3048]]],
[[[21.2036,60.9443,2.1103],[21.2021,60.9458,0.0],[21.2005,60.9453,1.3143],[21.2021,60.9437,0.0],[21.2036,60.9443,2.1103]]],
[[[21.1709,60.9479,1.6105],[21.175,60.9479,0.8091],[21.1766,60.9495,0.0],[21.1682,60.9557,0.0],[21.1625,60.9562,1.7016],[21.1589,60.9536,2.3534],[21.1609,60.9505,0.0],[21.1709,60.9479,1.6105]]],
[[[21.1755,60.9911,6.2525],[21.1792,60.9875,0.0],[21.1911,60.9901,0.0],[21.1875,60.9938,0.0],[21.1792,60.9938,0.0],[21.1755,60.9911,6.2525]]],
[[[21.2224,60.9859,0.0],[21.2193,60.9839,0.0],[21.2307,60.9839,0.0],[21.225,60.9875,0.0],[21.2224,60.9859,0.0]]],
[[[21.213,60.9891,0.0],[21.2109,60.9859,0.0],[21.2141,60.9859,0.0],[21.2161,60.988,0.0],[21.213,60.9891,0.0]]]]}
,"properties": {"GID_3": "FIN.5.3.5_1","GID_0": "FIN","country": "Finland","GID_1": "FIN.5_1","province": "WesternFinland","NL_NAME_1": "NA","GID_2": "FIN.5.3_1","county": "FinlandProper","NL_NAME_2": "NA","city": "Vakka-Suomi","VARNAME_3": "NA","NL_NAME_3": "NA","TYPE_3": "Seutukunta|Ekonomiskregion","ENGTYPE_3": "Sub-Region","CC_3": "NA","HASC_3": "FI.LS.VS","name": "Vakka-Suomi.city","area_km2": 1766.436,"hist_schema_id": "Elevation0-9000","hist_area_km2": {"-25": 0.031,"0": 556.618,"25": 957.476,"50": 248.361,"75": 3.95}}}