{"type": "Feature","bbox": [24.5542,64.4439,26.5071,65.3081],"geometry": {"type": "MultiPolygon","coordinates": [[[[26.2795,64.4704,108.2587],[26.2805,64.4749,107.9892],[26.2909,64.4745,107.8476],[26.2929,64.4834,108.5106],[26.3033,64.483,105.5],[26.3043,64.4875,108.331],[26.3147,64.487,106.0],[26.3157,64.4915,106.6076],[26.3261,64.4911,109.5075],[26.3281,64.5,110.8768],[26.3178,64.5005,111.7281],[26.3188,64.5049,110.05],[26.3395,64.504,113.875],[26.3406,64.5085,112.0542],[26.351,64.5081,111.4049],[26.352,64.5126,107.9448],[26.3624,64.5121,107.8568],[26.3634,64.5166,108.6571],[26.3738,64.5162,114.7267],[26.3759,64.5251,110.0295],[26.3863,64.5247,111.7651],[26.3873,64.5291,109.592],[26.3977,64.5287,110.7515],[26.3998,64.5376,113.5548],[26.4102,64.5372,117.073],[26.4112,64.5417,119.432],[26.4216,64.5412,117.803],[26.4226,64.5457,120.0531],[26.433,64.5453,121.8813],[26.4351,64.5542,129.3039],[26.4455,64.5538,130.1396],[26.4466,64.5582,132.8664],[26.457,64.5578,137.7077],[26.4601,64.5712,137.4126],[26.4497,64.5716,141.45],[26.4508,64.5761,139.3283],[26.4612,64.5757,151.0652],[26.4623,64.5801,159.5583],[26.4727,64.5797,169.6821],[26.4737,64.5842,142.4553],[26.4945,64.5833,149.7817],[26.4956,64.5878,145.3382],[26.506,64.5873,158.2468],[26.5071,64.5918,156.5159],[26.4967,64.5922,151.7017],[26.4977,64.5967,156.4424],[26.4873,64.5971,153.7229],[26.4884,64.6016,131.5],[26.4779,64.6021,153.7602],[26.4801,64.611,137.4774],[26.4696,64.6114,143.8398],[26.4707,64.6159,123.5897],[26.4603,64.6163,121.7962],[26.4613,64.6208,118.0558],[26.4509,64.6213,117.1132],[26.4499,64.6168,121.1108],[26.4394,64.6172,118.2762],[26.4384,64.6128,124.9068],[26.4176,64.6136,117.1426],[26.4123,64.5913,125.047],[26.2873,64.5965,84.5727],[26.2884,64.601,89.308],[26.2988,64.6006,87.967],[26.2998,64.605,88.6093],[26.3102,64.6046,90.6587],[26.3113,64.6091,91.1751],[26.3217,64.6086,95.1991],[26.3227,64.6131,92.7246],[26.3123,64.6135,89.9428],[26.3133,64.618,90.5187],[26.3029,64.6185,88.1762],[26.3039,64.6229,85.11],[26.2831,64.6238,86.4495],[26.2841,64.6283,83.9416],[26.2737,64.6287,85.1161],[26.2747,64.6332,78.7164],[26.2539,64.634,79.6591],[26.2549,64.6385,80.9668],[26.234,64.6394,79.6634],[26.2361,64.6483,76.5701],[26.2778,64.6466,81.7632],[26.2788,64.651,88.4221],[26.3206,64.6493,94.2308],[26.3216,64.6538,98.7799],[26.3425,64.6529,109.2438],[26.3404,64.644,96.2652],[26.3508,64.6435,106.6417],[26.3498,64.6391,97.8196],[26.3602,64.6386,109.6922],[26.3582,64.6297,100.5653],[26.3686,64.6293,105.0375],[26.3727,64.6471,115.1856],[26.3832,64.6467,111.7233],[26.3874,64.6646,103.6707],[26.3769,64.665,105.2738],[26.378,64.6695,105.7536],[26.3675,64.6699,103.6692],[26.3696,64.6789,102.4771],[26.3592,64.6793,102.3424],[26.3602,64.6838,95.4446],[26.3498,64.6842,96.0511],[26.3508,64.6887,89.2315],[26.3404,64.6891,94.3724],[26.3435,64.7025,92.1122],[26.3539,64.7021,86.5301],[26.3571,64.7155,82.9271],[26.3466,64.716,84.862],[26.3487,64.7249,84.2352],[26.3382,64.7253,84.6271],[26.3393,64.7298,85.5252],[26.3288,64.7303,79.4517],[26.3278,64.7258,86.9936],[26.3068,64.7267,78.348],[26.3058,64.7222,86.5822],[26.2953,64.7226,84.4573],[26.2943,64.7181,87.7793],[26.2838,64.7186,86.0496],[26.2849,64.7231,81.3595],[26.2744,64.7235,79.6751],[26.2765,64.7324,83.1313],[26.266,64.7328,77.2096],[26.2681,64.7418,77.9962],[26.2785,64.7414,76.6484],[26.2796,64.7458,82.0601],[26.29,64.7454,76.3177],[26.2921,64.7543,78.8151],[26.2816,64.7548,81.9101],[26.2837,64.7637,78.3969],[26.2732,64.7642,84.2074],[26.2743,64.7686,79.372],[26.2638,64.7691,82.0177],[26.2648,64.7735,81.0618],[26.2543,64.774,83.9134],[26.2564,64.7829,78.7889],[26.2459,64.7833,80.2732],[26.2469,64.7878,78.8058],[26.2364,64.7882,81.964],[26.2375,64.7927,79.6207],[26.227,64.7931,81.7697],[26.228,64.7976,81.2543],[26.2175,64.798,83.829],[26.2185,64.8025,80.6884],[26.208,64.8029,81.9122],[26.2091,64.8074,78.1709],[26.1986,64.8078,81.2152],[26.1996,64.8123,78.7491],[26.1891,64.8127,83.616],[26.1901,64.8172,76.9467],[26.1796,64.8176,82.8129],[26.1827,64.8311,73.7717],[26.1932,64.8306,72.6317],[26.1952,64.8396,76.3241],[26.2163,64.8387,72.4622],[26.2152,64.8343,70.0],[26.2257,64.8338,73.7032],[26.2278,64.8428,76.0176],[26.2173,64.8432,75.6678],[26.2224,64.8656,72.887],[26.2119,64.866,72.5829],[26.2139,64.8749,77.7457],[26.235,64.8741,71.9375],[26.2319,64.8607,73.321],[26.2424,64.8602,73.6125],[26.2403,64.8513,74.9475],[26.2509,64.8509,75.5563],[26.2478,64.8374,75.503],[26.2583,64.837,75.9786],[26.2552,64.8236,80.3578],[26.2657,64.8232,81.0988],[26.2646,64.8187,77.1937],[26.2856,64.8178,77.5928],[26.2846,64.8134,76.9754],[26.3161,64.8121,83.3017],[26.3151,64.8076,84.3597],[26.3361,64.8067,80.8113],[26.335,64.8023,80.5061],[26.356,64.8014,79.7856],[26.3549,64.7969,79.1562],[26.3864,64.7956,84.2183],[26.3875,64.8001,84.71],[26.4084,64.7992,84.2602],[26.4095,64.8037,81.7752],[26.42,64.8032,82.1203],[26.4211,64.8077,80.8213],[26.442,64.8068,81.7432],[26.4474,64.8292,82.5],[26.4369,64.8296,82.5],[26.4379,64.8341,91.109],[26.4169,64.835,85.8797],[26.418,64.8394,88.5015],[26.397,64.8403,86.5444],[26.398,64.8448,87.3872],[26.3875,64.8452,87.3982],[26.3886,64.8497,89.3607],[26.3675,64.8506,85.3574],[26.3686,64.855,87.314],[26.3581,64.8555,84.7017],[26.3591,64.8599,86.1847],[26.3381,64.8608,81.2989],[26.337,64.8564,81.5681],[26.3265,64.8568,80.0245],[26.3276,64.8613,82.4738],[26.3065,64.8621,75.9032],[26.3076,64.8666,77.526],[26.2971,64.867,77.3367],[26.2981,64.8715,75.3179],[26.2771,64.8724,80.0909],[26.2781,64.8768,76.6994],[26.2676,64.8773,76.9302],[26.2686,64.8817,75.1739],[26.2476,64.8826,73.8812],[26.2507,64.896,80.9832],[26.2612,64.8956,76.8782],[26.2622,64.9001,79.0655],[26.2728,64.8996,76.4779],[26.2749,64.9086,74.1523],[26.2643,64.909,80.0683],[26.2654,64.9135,75.6204],[26.2337,64.9148,72.9625],[26.2358,64.9237,74.7113],[26.2464,64.9233,76.4174],[26.2474,64.9278,72.3787],[26.2579,64.9273,75.7187],[26.259,64.9318,75.2018],[26.2695,64.9314,73.1179],[26.2716,64.9403,77.7286],[26.261,64.9408,77.2845],[26.2621,64.9452,79.0333],[26.2515,64.9457,76.1157],[26.2526,64.9501,76.956],[26.2209,64.9514,91.3441],[26.2199,64.9469,73.469],[26.2093,64.9474,69.501],[26.2104,64.9518,69.5048],[26.1998,64.9523,69.6632],[26.2029,64.9657,89.1511],[26.0656,64.9712,70.4338],[26.0666,64.9756,65.2361],[26.0349,64.9769,73.1641],[26.0369,64.9858,70.6298],[26.0052,64.9871,62.8858],[26.0062,64.9915,70.1282],[25.9851,64.9924,62.1186],[25.9861,64.9969,78.7792],[25.9544,64.9981,58.7525],[25.9553,65.0026,62.6779],[25.9342,65.0034,69.323],[25.9352,65.0079,61.0518],[25.914,65.0087,69.8003],[25.915,65.0132,66.8685],[25.8833,65.0144,85.8655],[25.8842,65.0188,68.3333],[25.8631,65.0196,79.6962],[25.864,65.0241,68.7879],[25.8746,65.0237,72.0947],[25.8776,65.0371,56.4094],[25.8882,65.0367,62.6203],[25.8901,65.0457,64.6969],[25.9007,65.0453,67.498],[25.9027,65.0542,69.6814],[25.9769,65.0514,66.4291],[25.9799,65.0648,68.4268],[25.9905,65.0644,60.7644],[25.9935,65.0778,65.5],[26.0041,65.0774,67.36],[26.0071,65.0908,68.217],[26.0177,65.0904,74.7708],[26.0187,65.0949,70.7785],[26.0293,65.0945,70.1227],[26.0303,65.099,69.9186],[26.0409,65.0985,70.0628],[26.0419,65.103,71.2778],[26.0525,65.1026,78.3483],[26.0536,65.1071,74.3946],[26.0642,65.1067,79.7042],[26.0662,65.1156,75.9688],[26.0768,65.1152,79.0331],[26.0778,65.1197,68.962],[26.0672,65.1201,67.8322],[26.0682,65.1245,66.0934],[26.0576,65.125,66.948],[26.0596,65.1339,84.4822],[26.049,65.1343,70.338],[26.05,65.1388,68.9588],[26.0181,65.1401,65.7201],[26.0191,65.1445,64.8669],[26.0085,65.1449,61.8039],[26.0105,65.1539,69.0874],[25.9999,65.1543,63.0491],[26.0009,65.1588,66.7052],[25.9902,65.1592,63.6223],[25.9912,65.1637,63.5592],[25.9806,65.1641,63.0141],[25.9816,65.1686,61.9995],[25.971,65.169,64.1364],[25.972,65.1734,66.2225],[25.9826,65.173,65.9181],[25.9856,65.1864,67.0425],[25.9963,65.186,65.3205],[25.9973,65.1905,65.3564],[26.0186,65.1897,68.851],[26.0176,65.1852,66.706],[26.0495,65.184,83.8744],[26.0485,65.1795,81.0974],[26.0591,65.1791,83.8387],[26.0612,65.188,76.24],[26.0505,65.1885,75.8812],[26.0546,65.2064,83.8401],[26.0439,65.2068,88.7669],[26.048,65.2247,93.9462],[26.0373,65.2251,93.3255],[26.0414,65.243,95.8624],[26.0307,65.2434,93.4803],[26.0358,65.2658,89.2802],[26.0251,65.2662,88.5116],[26.0261,65.2707,91.3439],[26.0155,65.2711,88.9833],[26.0144,65.2666,92.1474],[25.9931,65.2674,81.6433],[25.9921,65.2629,85.7655],[25.9814,65.2634,79.7687],[25.9844,65.2768,83.8461],[25.9737,65.2772,85.067],[25.9747,65.2817,81.3143],[25.9534,65.2825,76.7319],[25.9544,65.287,72.8604],[25.933,65.2878,74.353],[25.934,65.2923,69.3989],[25.9554,65.2915,76.0466],[25.9564,65.2959,72.5243],[25.9991,65.2943,85.0176],[26.0022,65.3077,86.5826],[25.9915,65.3081,76.6506],[25.9905,65.3036,85.0367],[25.9584,65.3049,77.3213],[25.9574,65.3004,72.4172],[25.9146,65.302,68.4284],[25.9136,65.2976,67.7534],[25.8708,65.2992,63.7197],[25.8698,65.2947,59.8442],[25.8164,65.2967,47.9057],[25.8154,65.2922,50.3733],[25.7726,65.2938,43.5223],[25.7697,65.2804,42.8783],[25.759,65.2808,41.9738],[25.7571,65.2718,47.0982],[25.7464,65.2722,51.8349],[25.7454,65.2678,47.4913],[25.7347,65.2682,49.5245],[25.7338,65.2637,55.4612],[25.7231,65.2641,58.273],[25.7221,65.2596,52.2883],[25.7114,65.26,53.4503],[25.7105,65.2555,52.7321],[25.6998,65.2559,52.1073],[25.6988,65.2514,49.7144],[25.6882,65.2518,54.7821],[25.6872,65.2473,49.132],[25.6765,65.2477,51.9097],[25.6756,65.2432,47.7757],[25.6649,65.2436,41.6271],[25.6639,65.2392,42.1399],[25.6319,65.2403,51.5578],[25.6329,65.2448,36.7331],[25.6222,65.2452,36.4398],[25.6231,65.2497,40.2985],[25.527,65.2531,36.5593],[25.5261,65.2486,35.5234],[25.3445,65.255,8.5312],[25.3454,65.2595,7.072],[25.3341,65.2598,0.0],[25.3294,65.2656,6.2241],[25.3192,65.2652,0.0],[25.3266,65.2641,0.3729],[25.3328,65.2589,0.0],[25.3109,65.2578,0.0],[25.3089,65.2547,0.0],[25.312,65.2526,1.6641],[25.3078,65.2484,4.235],[25.3005,65.2474,3.6259],[25.3005,65.2443,12.0833],[25.3083,65.2417,4.9906],[25.3187,65.2417,2.2605],[25.3229,65.2396,3.6249],[25.3312,65.2396,4.5012],[25.3354,65.2375,0.0],[25.3396,65.2375,0.0],[25.3432,65.2349,3.3898],[25.3411,65.2318,0.0],[25.3229,65.2312,1.4243],[25.3187,65.2333,0.0],[25.2958,65.2333,3.6522],[25.2833,65.2375,0.0],[25.2776,65.2318,0.0],[25.2849,65.2307,2.6761],[25.287,65.2286,5.9377],[25.2839,65.2245,1.4216],[25.287,65.2224,0.0],[25.2849,65.2193,0.0],[25.2771,65.2188,0.1926],[25.2724,65.2224,0.0],[25.2687,65.2229,0.0],[25.2609,65.2203,7.9934],[25.2589,65.2172,0.0],[25.2609,65.2151,0.0],[25.2708,65.2125,0.0],[25.2911,65.212,0.0],[25.2953,65.2089,5.5123],[25.288,65.2078,8.4165],[25.2859,65.2047,0.0],[25.3016,65.2016,8.4722],[25.3005,65.1984,0.0],[25.3021,65.1979,0.0],[25.3063,65.1979,0.0],[25.3104,65.1958,0.0],[25.3229,65.1958,11.7077],[25.3297,65.1922,0.0],[25.337,65.1911,3.3107],[25.3401,65.188,3.7545],[25.3474,65.187,4.6779],[25.3563,65.1813,0.8569],[25.375,65.1813,10.5132],[25.3766,65.1797,10.5062],[25.3729,65.1771,9.0669],[25.3563,65.1771,8.0978],[25.3516,65.1807,0.0],[25.3375,65.1833,8.0357],[25.3328,65.187,0.0],[25.3255,65.188,4.6696],[25.3266,65.1911,0.0],[25.325,65.1917,0.0],[25.3104,65.1917,5.332],[25.3063,65.1937,5.6923],[25.2979,65.1937,6.9789],[25.2938,65.1958,0.0],[25.2854,65.1958,1.2464],[25.2813,65.1979,0.0],[25.263,65.1974,0.7436],[25.2661,65.1953,4.1454],[25.2651,65.1922,2.3115],[25.2672,65.1901,0.0],[25.2766,65.187,1.1054],[25.2807,65.1839,3.9082],[25.2687,65.1729,1.4515],[25.2604,65.1729,0.0],[25.25,65.1687,5.1349],[25.2458,65.1708,0.0],[25.2292,65.1708,4.5476],[25.2234,65.1661,0.0],[25.2266,65.1641,0.5878],[25.2255,65.1609,2.2793],[25.2328,65.1557,3.7001],[25.2318,65.1422,3.3224],[25.237,65.1391,0.0],[25.2359,65.1359,0.0],[25.237,65.1339,0.9079],[25.2318,65.1328,1.2441],[25.2276,65.1276,1.0714],[25.2333,65.125,0.0],[25.2375,65.1271,0.0],[25.2479,65.1271,8.1257],[25.2521,65.125,0.0],[25.2563,65.1271,11.9887],[25.2687,65.1271,11.0344],[25.2729,65.125,0.0],[25.2813,65.125,12.5806],[25.2854,65.1229,0.0],[25.2938,65.1229,0.0],[25.3,65.1188,0.0],[25.3063,65.1208,1.5994],[25.3151,65.1151,0.0],[25.3307,65.112,4.3543],[25.3359,65.1068,0.0],[25.3417,65.1042,0.0],[25.3474,65.1036,0.4253],[25.3375,65.1,0.5959],[25.3167,65.1,0.0],[25.3125,65.0979,2.1895],[25.2922,65.0974,0.0],[25.2938,65.0938,0.0],[25.2922,65.0901,0.0],[25.2964,65.0859,0.0],[25.3266,65.0828,0.1251],[25.3255,65.0797,0.0],[25.3354,65.0729,0.0],[25.3417,65.0729,0.0],[25.3453,65.0755,-0.0183],[25.3432,65.0787,0.0],[25.3359,65.0797,-0.0254],[25.3339,65.0818,2.5161],[25.3339,65.0849,2.4355],[25.3401,65.0911,1.1431],[25.3474,65.0922,0.0],[25.3547,65.0995,0.0],[25.3599,65.1005,0.0],[25.362,65.1036,0.938],[25.3589,65.1057,1.904],[25.3625,65.1062,2.0931],[25.3724,65.1036,0.0],[25.3776,65.0984,0.0],[25.3807,65.0974,0.0],[25.3755,65.0901,0.0],[25.3776,65.088,0.0],[25.3833,65.0875,2.3792],[25.3891,65.0849,2.3243],[25.3859,65.0807,0.0],[25.388,65.0776,0.384],[25.3911,65.0766,0.323],[25.388,65.0714,0.0],[25.3974,65.0641,0.0],[25.3922,65.0568,0.0],[25.3979,65.0542,0.0],[25.4078,65.0536,0.8911],[25.4068,65.0505,0.4348],[25.4141,65.0453,0.0],[25.413,65.0422,0.0],[25.4245,65.0411,4.8636],[25.4229,65.0396,0.0],[25.4089,65.0391,0.0],[25.412,65.0359,0.0],[25.4089,65.0318,0.0],[25.4141,65.0286,3.3953],[25.413,65.0255,1.074],[25.4141,65.0234,0.9325],[25.4068,65.0162,0.0],[25.4099,65.013,0.0],[25.3984,65.012,1.9984],[25.3943,65.0068,2.0685],[25.4042,65.0042,1.6751],[25.4203,65.0036,0.0],[25.4224,65.0005,12.533],[25.4203,64.9984,8.2623],[25.4047,64.9974,2.6167],[25.4063,64.9958,2.0108],[25.412,64.9953,0.0],[25.4151,64.9922,0.0],[25.4292,64.9896,1.7867],[25.4339,64.9859,0.0],[25.4521,64.9812,0.0],[25.4604,64.9812,0.1528],[25.4646,64.9792,0.0],[25.4687,64.9792,0.2217],[25.4734,64.9755,0.0],[25.4807,64.9745,0.0],[25.487,64.9703,1.2219],[25.4859,64.963,0.0],[25.4891,64.9609,1.2778],[25.4828,64.9547,0.4611],[25.4771,64.9542,0.0],[25.4604,64.9479,0.2095],[25.4333,64.9479,0.0],[25.4271,64.9458,0.3128],[25.4224,64.9495,0.0],[25.4151,64.9505,0.1375],[25.4089,64.9547,2.0951],[25.4099,64.9578,0.168],[25.4036,64.962,0.0],[25.3854,64.9625,0.0594],[25.3625,64.9708,0.0351],[25.3568,64.9714,-0.0313],[25.3333,64.9875,8.3394],[25.3292,64.9875,15.2233],[25.325,64.9896,8.3217],[25.3063,64.9896,2.4004],[25.2938,64.9938,0.0],[25.2854,64.9938,5.9669],[25.2813,64.9958,0.0],[25.2729,64.9958,0.2852],[25.2687,64.9979,3.121],[25.2604,64.9979,0.0],[25.2542,65.0021,0.0],[25.225,65.0021,0.8548],[25.2208,65.0042,0.0],[25.2146,65.0042,1.8063],[25.213,65.0026,0.1926],[25.2161,65.0016,0.0],[25.2182,64.9984,0.0],[25.2089,64.9932,0.2646],[25.2099,64.9901,0.0],[25.2089,64.988,0.0],[25.212,64.987,0.0],[25.2109,64.9838,0.0],[25.212,64.9818,0.1109],[25.1922,64.9807,0.0778],[25.1943,64.9776,2.1159],[25.1995,64.9745,4.2049],[25.1984,64.9714,0.0],[25.212,64.962,5.3257],[25.2089,64.9568,2.6289],[25.2141,64.9537,1.3607],[25.213,64.9505,0.0],[25.2203,64.9495,0.0],[25.2234,64.9443,0.2784],[25.2333,64.9437,0.6506],[25.2411,64.9411,0.0],[25.2484,64.9359,0.0],[25.2724,64.9307,2.443],[25.2745,64.9287,0.5585],[25.2734,64.9255,0.0],[25.2807,64.9245,0.3997],[25.2797,64.9213,0.0],[25.2896,64.9208,1.042],[25.2958,64.9167,0.0],[25.3224,64.912,1.3637],[25.3266,64.9099,0.6673],[25.3255,64.9068,0.0],[25.3333,64.9042,0.0],[25.3474,64.9068,0.0],[25.3521,64.9104,0.0],[25.3583,64.9104,0.0],[25.3766,64.9057,0.4995],[25.387,64.8964,0.0],[25.3807,64.8901,0.0],[25.3714,64.8891,0.6119],[25.3693,64.8859,0.0],[25.375,64.8854,0.0],[25.3766,64.8839,0.5492],[25.3724,64.8797,0.0],[25.3651,64.8786,0.7591],[25.363,64.8766,0.0],[25.3661,64.8734,0.0],[25.362,64.8693,0.2584],[25.3568,64.8682,0.0],[25.3536,64.8651,0.3142],[25.3464,64.8641,0.3738],[25.3443,64.8609,0.0],[25.3474,64.8588,0.0],[25.3266,64.838,0.0192],[25.3214,64.837,0.0],[25.3161,64.8318,-0.1834],[25.3083,64.8292,0.0304],[25.2979,64.8292,0.0308],[25.2964,64.8297,0.0],[25.2974,64.8328,0.0],[25.2943,64.8339,0.5886],[25.2974,64.8391,0.0353],[25.2901,64.8453,0.0977],[25.2943,64.8495,0.1878],[25.2995,64.8505,0.0],[25.3036,64.8547,0.0],[25.3016,64.8578,-0.1456],[25.287,64.8641,0.0],[25.2813,64.8646,-0.1259],[25.2682,64.8703,0.0525],[25.2609,64.8714,-0.0811],[25.262,64.8745,0.0],[25.2604,64.875,0.1233],[25.2563,64.875,0.0],[25.2521,64.8729,-0.0628],[25.2208,64.8729,0.0567],[25.212,64.8786,0.0],[25.2005,64.8797,0.3458],[25.2016,64.8828,0.0],[25.1964,64.887,0.0],[25.2078,64.888,0.413],[25.2099,64.8912,0.0],[25.2078,64.8953,0.0],[25.1958,64.9,0.0],[25.1901,64.9005,0.1349],[25.1854,64.9042,0.0],[25.1646,64.9042,0.0],[25.1599,64.9005,-0.0792],[25.1542,64.9,0.0341],[25.1458,64.9042,0.3041],[25.1443,64.9036,0.0],[25.1453,64.9005,0.0],[25.1437,64.9,0.0],[25.1318,64.9047,0.3922],[25.1349,64.9099,0.0],[25.1318,64.9109,0.0412],[25.1328,64.9141,0.0],[25.1307,64.9161,0.0],[25.125,64.9187,4.2672],[25.1208,64.9167,2.8435],[25.1167,64.9187,0.0],[25.1063,64.9187,1.4339],[25.1021,64.9208,1.3667],[25.0875,64.9208,0.0],[25.0807,64.9151,0.0],[25.0729,64.9125,0.3935],[25.0688,64.9125,0.0],[25.0646,64.9104,1.334],[25.0438,64.9104,0.0],[25.0396,64.9083,0.454],[25.0208,64.9104,0.4164],[25.0167,64.9125,0.0],[25.0083,64.9125,0.1623],[25.0021,64.9146,0.0],[24.9995,64.913,0.0],[25.0007,64.9133,-0.0142],[24.987,64.8386,24.6255],[24.9764,64.8389,22.4027],[24.974,64.8255,23.5269],[24.9634,64.8258,27.5957],[24.9602,64.8079,27.7246],[24.9707,64.8076,30.7409],[24.9699,64.8031,26.2897],[24.9804,64.8028,26.9776],[24.9787,64.7938,34.6875],[24.9892,64.7934,35.6496],[24.9884,64.789,41.4907],[24.9989,64.7886,38.2512],[24.9981,64.7841,34.6562],[25.0086,64.7838,41.0112],[25.0078,64.7793,34.7014],[25.0183,64.779,34.8099],[25.0175,64.7745,34.3438],[25.0384,64.7738,33.6427],[25.0376,64.7693,33.9599],[25.0586,64.7686,38.9076],[25.0578,64.7642,37.6441],[25.0788,64.7634,32.4965],[25.0779,64.759,38.7738],[25.0884,64.7586,42.5792],[25.0876,64.7541,41.8988],[25.1086,64.7534,49.9664],[25.1077,64.7489,49.0411],[25.1287,64.7483,47.044],[25.1279,64.7438,51.4552],[25.1488,64.7431,63.28],[25.148,64.7386,54.0958],[25.1585,64.7382,55.3955],[25.1576,64.7337,57.1812],[25.1786,64.733,55.8742],[25.1777,64.7286,58.8389],[25.1882,64.7282,59.816],[25.1874,64.7237,62.0121],[25.2083,64.723,57.7134],[25.2075,64.7185,63.7725],[25.2179,64.7182,56.2506],[25.2171,64.7137,63.6298],[25.2276,64.7133,60.6246],[25.2267,64.7088,64.2881],[25.2372,64.7085,61.1788],[25.2363,64.704,59.9974],[25.2572,64.7033,57.1365],[25.2564,64.6988,55.5882],[25.2878,64.6977,50.9674],[25.2869,64.6933,50.7953],[25.2974,64.6929,59.3604],[25.2965,64.6884,60.0673],[25.307,64.688,50.4544],[25.3061,64.6836,58.488],[25.3166,64.6832,55.368],[25.3157,64.6787,52.3999],[25.3262,64.6784,52.1705],[25.3244,64.6694,59.6269],[25.3349,64.669,57.2973],[25.334,64.6646,62.8938],[25.3654,64.6635,56.535],[25.3645,64.659,57.7975],[25.3958,64.6579,55.5893],[25.3949,64.6534,57.1368],[25.4158,64.6526,53.1182],[25.415,64.6482,54.8015],[25.4463,64.647,49.9681],[25.4454,64.6426,52.857],[25.4767,64.6414,58.2486],[25.4758,64.637,50.3563],[25.4967,64.6362,57.5773],[25.4958,64.6317,54.4753],[25.5271,64.6306,55.9872],[25.5262,64.6261,53.283],[25.5471,64.6254,54.7247],[25.5462,64.6209,56.6149],[25.5671,64.6201,51.5173],[25.5662,64.6157,52.9336],[25.587,64.6149,51.9472],[25.5861,64.6104,53.2606],[25.607,64.6096,53.2649],[25.606,64.6052,56.6023],[25.6269,64.6044,58.0503],[25.6251,64.5954,55.7421],[25.6355,64.595,55.5586],[25.6346,64.5906,57.4832],[25.645,64.5902,56.6559],[25.6432,64.5812,59.1582],[25.6536,64.5808,52.7553],[25.6526,64.5764,56.6961],[25.6631,64.576,53.2844],[25.6621,64.5715,53.7568],[25.6725,64.5711,55.0267],[25.6707,64.5622,56.9681],[25.6811,64.5618,61.5215],[25.6802,64.5573,55.8301],[25.6906,64.5569,59.8657],[25.6887,64.548,61.7673],[25.6991,64.5476,63.3908],[25.6982,64.5431,61.8568],[25.7086,64.5427,61.7927],[25.7068,64.5337,65.199],[25.7171,64.5333,63.3872],[25.7162,64.5289,64.5572],[25.7266,64.5285,64.3749],[25.7257,64.524,65.421],[25.7361,64.5236,70.9473],[25.7351,64.5191,68.0124],[25.7455,64.5187,69.8471],[25.7446,64.5143,66.6253],[25.755,64.5139,67.1848],[25.7541,64.5094,69.1456],[25.7645,64.509,73.0787],[25.7635,64.5045,74.2726],[25.7739,64.5041,70.2785],[25.773,64.4996,75.5301],[25.7937,64.4989,75.1381],[25.7928,64.4944,77.0621],[25.8032,64.494,70.9768],[25.8022,64.4895,79.3974],[25.8126,64.4891,75.2091],[25.8117,64.4846,78.6718],[25.9881,64.4778,92.3413],[25.9861,64.4688,85.6077],[25.9965,64.4684,88.6296],[25.9946,64.4594,93.3968],[26.0049,64.459,90.8563],[26.003,64.4501,91.5279],[26.0133,64.4497,93.187],[26.0124,64.4452,92.7734],[26.0434,64.4439,95.7211],[26.0444,64.4484,98.2937],[26.0755,64.4472,91.7176],[26.0765,64.4517,94.8229],[26.1076,64.4504,99.2361],[26.1086,64.4549,98.8924],[26.15,64.4532,104.2963],[26.151,64.4577,104.488],[26.1821,64.4564,119.748],[26.1831,64.4609,116.931],[26.2142,64.4596,120.0203],[26.2152,64.4641,117.7507],[26.2463,64.4628,112.1592],[26.2473,64.4672,109.7725],[26.2681,64.4664,108.1693],[26.2691,64.4709,108.3713],[26.2795,64.4704,108.2587]]],
[[[25.3021,65.0021,0.0],[25.2938,65.0021,0.0],[25.2896,65.0042,0.0],[25.2859,65.0005,5.8003],[25.2896,64.9979,0.0],[25.3042,64.9979,0.0],[25.3146,64.9938,11.2152],[25.3224,64.9943,0.0],[25.3214,64.9974,2.4934],[25.3224,64.9995,0.0],[25.3063,65.0,7.8432],[25.3021,65.0021,0.0]]],
[[[25.275,65.0083,0.556],[25.2714,65.0068,0.0],[25.2807,65.0068,0.7196],[25.2792,65.0083,7.4574],[25.275,65.0083,0.556]]],
[[[25.2484,65.0141,0.0],[25.2505,65.0109,0.0],[25.2557,65.0109,0.0],[25.2516,65.0141,0.0],[25.2484,65.0141,0.0]]],
[[[25.2839,65.0203,0.3591],[25.2818,65.0172,0.0],[25.2911,65.0172,0.0],[25.287,65.0203,6.97],[25.2839,65.0203,0.3591]]],
[[[25.1807,64.9068,0.5064],[25.1807,64.9078,0.0],[25.1776,64.9078,0.0],[25.1776,64.9068,0.0],[25.1807,64.9068,0.5064]]],
[[[25.2151,64.9432,0.4879],[25.2193,64.9401,0.0],[25.2224,64.9401,0.0],[25.2203,64.9432,0.3678],[25.2151,64.9432,0.4879]]],
[[[24.9542,65.0333,0.0],[24.9667,65.0333,1.6794],[24.9708,65.0312,0.0],[24.9771,65.0312,0.0],[24.9813,65.0333,6.2897],[24.9854,65.0312,0.0],[25.0208,65.0312,0.0],[25.025,65.0333,1.4262],[25.0333,65.0333,0.0],[25.0438,65.0375,0.2837],[25.0521,65.0375,0.0],[25.0599,65.0401,0.0],[25.062,65.0432,0.0],[25.0474,65.0536,0.0491],[25.0292,65.0583,0.0],[25.0146,65.0583,0.0],[25.0104,65.0563,0.9532],[25.0042,65.0583,0.0],[25.0,65.0563,0.2958],[24.9792,65.0563,0.4823],[24.975,65.0583,0.0],[24.9625,65.0583,1.4502],[24.9542,65.0625,0.0],[24.9396,65.0625,0.0],[24.9354,65.0604,2.4263],[24.925,65.0604,0.3285],[24.9208,65.0625,0.0],[24.9,65.0625,0.0487],[24.8958,65.0604,-0.0941],[24.8854,65.0604,0.0],[24.8797,65.063,0.1038],[24.8839,65.0682,0.0],[24.9042,65.0687,0.0],[24.9057,65.0703,0.0],[24.9,65.0729,0.0],[24.8943,65.0734,0.0829],[24.8953,65.0766,0.0042],[24.8932,65.0787,0.005],[24.8792,65.0875,0.0],[24.8667,65.0896,1.2904],[24.8563,65.0938,0.0],[24.8458,65.0938,0.4406],[24.8417,65.0958,0.0],[24.8229,65.0958,0.0],[24.7917,65.0875,0.0887],[24.7854,65.0875,0.0],[24.7813,65.0854,0.6815],[24.7667,65.0854,0.0],[24.7625,65.0833,0.5242],[24.7375,65.0833,4.2939],[24.7333,65.0854,0.0],[24.7292,65.0833,5.1215],[24.7229,65.0833,6.8711],[24.7188,65.0854,0.0],[24.6979,65.0854,0.0],[24.6938,65.0833,0.0],[24.6563,65.0813,1.3453],[24.6521,65.0833,0.0],[24.6479,65.0833,0.0],[24.638,65.0807,0.0],[24.6328,65.0734,1.612],[24.6229,65.0729,0.0],[24.6125,65.0687,2.5179],[24.6068,65.0682,0.0],[24.6021,65.0646,0.0],[24.5943,65.0641,0.0],[24.5859,65.0557,0.0],[24.587,65.0505,3.7257],[24.5807,65.0443,4.3478],[24.5583,65.0417,0.0],[24.5542,65.0375,0.0],[24.5547,65.0359,0.0],[24.5641,65.0328,0.0],[24.563,65.0255,0.0],[24.5688,65.0229,0.0],[24.5745,65.0224,2.246],[24.5734,65.0151,0.0],[24.5766,65.0141,0.0],[24.5755,65.0109,0.0],[24.5766,65.0089,0.0],[24.5734,65.0047,0.0],[24.5859,64.9964,0.8875],[24.6,64.9938,2.032],[24.6047,64.9901,0.0],[24.6104,64.9896,0.3645],[24.6161,64.987,0.0],[24.6203,64.9828,1.7159],[24.6203,64.9797,1.085],[24.6146,64.9792,0.0],[24.613,64.9776,0.0],[24.6234,64.9714,0.0],[24.6328,64.9682,3.48],[24.6359,64.9651,0.0],[24.6432,64.9641,0.0],[24.65,64.9604,0.0],[24.7042,64.9604,0.0],[24.713,64.9682,1.2979],[24.7182,64.9703,0.8681],[24.7026,64.9734,5.0197],[24.7005,64.9766,0.0],[24.7083,64.9771,3.6655],[24.7125,64.975,0.0],[24.7167,64.975,0.0],[24.7208,64.9771,4.7352],[24.7396,64.9771,0.0],[24.7443,64.9807,0.1214],[24.7474,64.9807,0.2284],[24.7536,64.9755,3.2567],[24.7333,64.975,0.0],[24.7318,64.9734,0.0],[24.7349,64.9724,0.0],[24.7339,64.9693,0.0],[24.7359,64.9672,0.0],[24.7391,64.9661,0.4054],[24.738,64.9589,1.3549],[24.7437,64.9563,0.5334],[24.7521,64.9563,6.2093],[24.762,64.9537,4.1744],[24.7589,64.9495,0.0],[24.7599,64.9443,0.0598],[24.7557,64.9401,0.0],[24.7484,64.9391,0.0],[24.7583,64.9354,0.0],[24.7792,64.9354,0.0],[24.7828,64.938,0.0],[24.7797,64.9411,0.0],[24.7896,64.9417,0.4984],[24.7943,64.9453,0.1856],[24.8042,64.9458,0.0],[24.8083,64.9479,0.1423],[24.8125,64.9458,0.0],[24.8167,64.9479,0.0],[24.8208,64.9479,0.0],[24.8276,64.9537,0.0],[24.8328,64.9547,0.0],[24.8359,64.9578,0.0],[24.85,64.9625,0.1858],[24.8625,64.9625,0.0],[24.8667,64.9646,0.2884],[24.875,64.9646,0.0],[24.8807,64.9693,0.0],[24.8734,64.9755,0.0984],[24.8745,64.9786,0.0],[24.8693,64.9818,0.0656],[24.8724,64.987,0.0],[24.8693,64.9891,0.0],[24.8776,64.9974,0.0],[24.8828,64.9995,0.0],[24.8714,65.0068,0.2692],[24.8724,65.0099,0.9576],[24.8651,65.0151,0.2308],[24.8661,65.0182,0.1789],[24.8563,65.0208,0.4377],[24.8464,65.0214,0.909],[24.8438,65.025,0.0],[24.8474,65.0307,0.0],[24.8422,65.0318,0.0562],[24.8411,65.0349,0.0],[24.8354,65.0354,0.7535],[24.8312,65.0333,0.2928],[24.825,65.0333,0.0],[24.8172,65.038,0.4824],[24.8234,65.0453,0.5542],[24.8286,65.0463,0.0],[24.8307,65.0484,0.0628],[24.8292,65.05,0.1991],[24.8234,65.0505,0.0],[24.8255,65.0536,0.8424],[24.8375,65.0542,0.0],[24.8474,65.0516,0.3954],[24.8542,65.0479,0.0],[24.8625,65.0479,0.0],[24.8667,65.0458,0.0],[24.8708,65.0479,0.0214],[24.8958,65.0479,0.0],[24.9099,65.0432,0.0882],[24.912,65.0411,0.1761],[24.9109,65.038,0.0],[24.9188,65.0333,0.1597],[24.9438,65.0333,0.0],[24.95,65.0354,0.8101],[24.9542,65.0333,0.0]]],
[[[25.2474,65.0609,2.2374],[25.2474,65.062,1.5273],[25.2443,65.062,2.9846],[25.2443,65.0609,1.6644],[25.2474,65.0609,2.2374]]],
[[[25.3016,65.0714,0.4994],[25.3016,65.0724,0.1037],[25.2984,65.0724,1.6931],[25.2984,65.0714,2.275],[25.3016,65.0714,0.4994]]],
[[[25.2557,65.0755,2.0821],[25.2557,65.0766,2.1222],[25.2526,65.0766,2.4819],[25.2526,65.0755,1.6123],[25.2557,65.0755,2.0821]]],
[[[25.2479,65.0854,0.5616],[25.2464,65.0839,2.1344],[25.2484,65.0818,0.4449],[25.2536,65.0818,0.2378],[25.2536,65.0828,0.0531],[25.2479,65.0854,0.5616]]],
[[[25.2146,65.1062,3.2],[25.2005,65.1099,0.0],[25.2016,65.1068,0.0],[25.1964,65.1016,0.0],[25.1943,65.0964,4.9149],[25.1979,65.0938,2.0292],[25.212,65.0911,0.3411],[25.2109,65.088,2.9909],[25.2125,65.0875,0.0],[25.2245,65.0891,1.6316],[25.2266,65.087,0.4072],[25.2255,65.0839,0.0],[25.2333,65.0833,0.0],[25.2411,65.0859,0.0],[25.2401,65.0891,0.0],[25.2411,65.0911,0.0561],[25.238,65.0922,0.0791],[25.2391,65.0953,0.2169],[25.2339,65.0964,2.4554],[25.2359,65.0995,0.0],[25.2438,65.1021,-0.0117],[25.2536,65.1026,0.0],[25.2521,65.1042,0.0],[25.2333,65.1042,0.1061],[25.2292,65.1062,0.0],[25.2146,65.1062,3.2]]],
[[[25.1898,65.1105,8.3812],[25.1911,65.112,6.142],[25.1813,65.1146,0.0],[25.1563,65.1146,0.0],[25.1458,65.1104,0.0],[25.1401,65.1099,0.0],[25.138,65.1068,0.0],[25.1437,65.1062,0.0],[25.1453,65.1047,0.0],[25.1401,65.1036,0.0],[25.138,65.1005,0.0],[25.15,65.1,0.0],[25.1536,65.1026,5.3653],[25.1526,65.1057,1.7181],[25.1542,65.1062,1.9989],[25.1604,65.1062,0.0],[25.1646,65.1083,0.6219],[25.175,65.1083,4.1376],[25.1813,65.1062,0.0],[25.1859,65.1099,2.8121],[25.1898,65.1105,8.3812]]],
[[[25.1021,65.1292,3.1784],[25.1083,65.125,0.0],[25.1161,65.1255,0.0],[25.1193,65.1286,1.5063],[25.1328,65.1318,0.0],[25.1349,65.1359,3.0283],[25.1339,65.138,2.1168],[25.1349,65.1412,3.5962],[25.1255,65.1412,0.0],[25.1286,65.138,0.4157],[25.1224,65.1318,3.6317],[25.1005,65.1307,0.0],[25.1021,65.1292,3.1784]]],
[[[25.1896,65.15,2.6805],[25.1854,65.15,0.7985],[25.1839,65.1484,0.0],[25.1911,65.1484,7.4215],[25.1896,65.15,2.6805]]],
[[[25.2813,65.2104,12.1278],[25.2797,65.2089,10.8178],[25.2849,65.2089,0.0],[25.2849,65.2099,0.0],[25.2813,65.2104,12.1278]]],
[[[25.1984,65.2422,0.0],[25.2016,65.2422,0.0],[25.2016,65.2432,4.0056],[25.1984,65.2432,5.5743],[25.1984,65.2422,0.0]]]]}
,"properties": {"GID_3": "FIN.3.2.3_1","GID_0": "FIN","country": "Finland","GID_1": "FIN.3_1","province": "Oulu","NL_NAME_1": "NA","GID_2": "FIN.3.2_1","county": "NorthernOstrobothnia","NL_NAME_2": "NA","city": "Oulu","VARNAME_3": "NA","NL_NAME_3": "NA","TYPE_3": "Seutukunta|Ekonomiskregion","ENGTYPE_3": "Sub-Region","CC_3": "NA","HASC_3": "FI.OU.OL","name": "Oulu.city","area_km2": 3859.062,"hist_schema_id": "Elevation0-9000","hist_area_km2": {"0": 641.266,"25": 945.837,"50": 1085.371,"75": 829.895,"100": 306.684,"125": 41.166,"150": 8.689,"175": 0.155}}}