{"type": "Feature","id": "3179","bbox": [26.296,63.67865,30.58643,65.52406],"geometry": {"type": "Polygon","coordinates": [[[29.48877,65.49192,240.5733],[29.42128,65.49928,230.6038],[29.35235,65.51474,245.4283],[29.28238,65.52406,276.5219],[29.24662,65.52189,240.193],[29.1966,65.47414,255.7341],[29.11588,65.45518,254.5962],[28.94855,65.44673,261.7964],[28.68179,65.39601,242.1274],[28.64852,65.38469,242.0489],[28.65172,65.38237,242.0065],[28.65596,65.37684,241.8503],[28.65906,65.37436,241.7433],[28.65048,65.36565,241.9386],[28.61937,65.33963,258.8619],[28.59705,65.32459,240.1483],[28.5832,65.31989,244.2249],[28.57389,65.31883,253.0949],[28.60604,65.31632,260.263],[28.61172,65.31312,261.7446],[28.61379,65.29651,290.4702],[28.55312,65.28465,284.7475],[28.07563,65.24126,173.192],[28.02344,65.23147,171.6177],[27.97817,65.21142,158.7081],[27.94034,65.17525,142.9437],[27.92701,65.15176,253.9448],[27.91616,65.12765,212.9224],[27.90324,65.10652,256.877],[27.8835,65.09215,224.7958],[27.85859,65.09014,222.0102],[27.76433,65.10724,177.9521],[27.36343,65.08567,152.4823],[27.3072,65.06854,139.4509],[27.2824,65.04879,136.2942],[27.28095,65.01567,139.961],[27.33252,64.9918,137.5207],[27.38007,64.9641,143.1259],[27.39236,64.95159,167.2329],[27.38203,64.94232,141.9719],[27.38441,64.93986,144.2623],[27.38864,64.9387,145.8622],[27.40508,64.93167,144.9704],[27.40311,64.92242,136.4787],[27.39795,64.91407,145.5559],[27.39112,64.89924,161.7888],[27.38399,64.87718,162.9446],[27.38606,64.867,167.9951],[27.39164,64.85589,170.0245],[27.38802,64.8455,163.0916],[27.3657,64.83651,159.8867],[27.37914,64.83279,160.3519],[27.36022,64.8178,178.8102],[27.33407,64.813,172.8992],[27.29676,64.8131,153.4704],[27.17997,64.82653,148.9836],[27.11528,64.82659,147.9902],[26.9927,64.79369,147.362],[26.92914,64.76638,134.5728],[26.90733,64.75207,135.9743],[26.89224,64.73248,137.5742],[26.89493,64.73225,138.1443],[26.90816,64.73233,136.06],[26.90888,64.72711,137.6634],[26.90537,64.71463,144.2107],[26.90423,64.70719,144.4055],[26.88687,64.6977,138.5062],[26.8694,64.69145,135.3793],[26.80873,64.659,129.8016],[26.76925,64.65251,133.3611],[26.64626,64.64727,109.1754],[26.64357,64.63936,105.3996],[26.64874,64.6312,110.5075],[26.64709,64.62466,108.2805],[26.63313,64.61536,113.1133],[26.62352,64.61249,102.9421],[26.60089,64.61027,106.0029],[26.5858,64.60376,114.8733],[26.57536,64.58924,115.5968],[26.5612,64.57694,123.948],[26.54818,64.57479,126.7904],[26.53557,64.57097,163.2829],[26.53877,64.56642,170.0326],[26.54725,64.56505,176.842],[26.55004,64.56402,175.8554],[26.53567,64.55942,173.5717],[26.4596,64.55131,133.5658],[26.43304,64.54521,121.8813],[26.36462,64.51332,108.2612],[26.35036,64.50852,110.2457],[26.31936,64.50268,109.2644],[26.3207,64.50084,110.7081],[26.32339,64.50082,109.5688],[26.32473,64.50128,110.3768],[26.32266,64.49384,109.0876],[26.31615,64.48893,106.0],[26.296,64.48043,106.6794],[26.31791,64.4693,109.7009],[26.41465,64.43069,110.6393],[26.46632,64.39436,104.1217],[26.47314,64.37333,112.153],[26.47469,64.3509,116.3473],[26.48751,64.34631,110.2541],[26.53133,64.32605,113.7164],[26.55738,64.31858,121.3323],[26.59314,64.31561,130.4346],[26.66218,64.31716,129.4942],[26.67696,64.31589,129.2057],[26.68988,64.30837,130.4956],[26.68429,64.28112,133.7725],[26.69143,64.27305,137.884],[26.70073,64.27029,133.9977],[26.72253,64.26672,140.8053],[26.76005,64.2644,159.8022],[26.77328,64.24468,142.5674],[26.77938,64.11898,173.0566],[26.78847,64.07733,202.5787],[26.80346,64.05873,203.1189],[26.87209,64.0334,198.8935],[27.38792,63.97258,169.129],[27.41045,63.96416,158.3495],[27.43619,63.9461,153.4916],[27.44518,63.94486,152.9055],[27.46202,63.94429,164.8844],[27.48962,63.94721,165.8015],[27.49882,63.95225,195.0201],[27.49665,63.95496,208.1424],[27.4951,63.95581,205.4893],[27.52207,63.95685,174.3846],[27.55039,63.95271,176.134],[27.64217,63.92468,163.2519],[27.74469,63.9083,164.0645],[28.00804,63.79781,178.4596],[28.04607,63.78892,163.5427],[28.08287,63.77564,164.7208],[28.15201,63.72203,186.1986],[28.22632,63.70014,192.7487],[28.2441,63.68699,197.9906],[28.26084,63.67865,217.4399],[28.28719,63.685,223.3518],[28.30652,63.69751,219.2337],[28.32605,63.71492,241.3041],[28.34404,63.73451,253.3281],[28.3584,63.75342,259.0454],[28.44119,63.82494,207.1543],[28.45576,63.84192,201.1038],[28.46248,63.85285,191.4544],[28.46444,63.8675,234.8105],[28.46548,63.87135,233.8678],[28.5186,63.88202,217.5316],[28.57203,63.88336,197.6436],[28.9347,63.84199,214.6909],[29.65621,63.87336,275.2859],[29.67161,63.86913,269.1297],[29.68659,63.85801,261.3399],[29.73589,63.73218,222.6702],[29.74313,63.72479,208.319],[29.75873,63.71559,213.8649],[29.76659,63.71415,202.1851],[29.78323,63.71518,180.2375],[29.93009,63.74805,172.2705],[29.98249,63.75197,211.5514],[29.99779,63.7473,204.6311],[29.99843,63.7471,204.6311],[30.05127,63.76376,233.012],[30.20155,63.79264,231.2324],[30.26557,63.83068,263.8314],[30.32857,63.896,229.2858],[30.50933,63.99139,236.7197],[30.50933,63.99144,236.7197],[30.50933,63.9915,236.7197],[30.55233,64.02173,267.6993],[30.58049,64.05108,244.8541],[30.58643,64.08467,262.6399],[30.56214,64.1274,266.7754],[30.54478,64.14637,268.0326],[30.53279,64.16254,271.1118],[30.53248,64.17918,266.0034],[30.55026,64.19887,228.2623],[30.55848,64.2197,240.4893],[30.5362,64.23468,279.1126],[30.50344,64.24378,275.3434],[30.44598,64.25076,249.9221],[30.42158,64.26466,231.7135],[30.39926,64.28311,227.5926],[30.37048,64.30083,241.473],[30.32113,64.31768,202.4424],[30.16444,64.34191,210.0921],[30.09313,64.36124,204.7088],[30.05298,64.37809,199.8877],[30.03246,64.39695,234.1557],[30.04104,64.42294,210.7748],[30.0628,64.44842,231.6753],[30.07039,64.47188,238.5952],[30.03577,64.49147,245.5214],[29.9905,64.50418,231.4515],[29.99339,64.51074,260.0713],[29.99153,64.51322,270.1282],[29.98078,64.51555,231.8218],[29.97898,64.51834,220.9985],[29.9782,64.52113,230.2041],[29.97892,64.52402,246.0806],[29.98078,64.52676,249.9373],[29.9736,64.53622,226.9844],[29.97004,64.545419999999993,217.7639],[29.96849,64.56283,233.4246],[29.96518,64.56443,241.9699],[29.95887,64.56598,248.5239],[29.95484,64.56898,252.3238],[29.95877,64.57487,236.291],[29.9658,64.57864,243.2783],[30.13643,64.61539,251.8591],[30.16041,64.62608,237.7244],[30.18082,64.64277,241.5825],[30.1878,64.66236,235.7973],[30.17054,64.68169,236.4581],[30.13137,64.70122,243.6466],[30.12052,64.70892,239.3775],[30.10915,64.72008,232.9666],[30.10682,64.72561,249.4027],[30.10905,64.73166,244.2271],[30.11111,64.74442,239.614],[30.11494,64.75434,236.7857],[30.12041,64.76158,238.5845],[30.11886,64.76793,256.0216],[30.10191,64.77548,235.6752],[30.06254,64.78416,238.0518],[29.87785,64.78483,232.3458],[29.78028,64.79558,245.9388],[29.69832,64.83914,213.0094],[29.63362,64.90715,246.5769],[29.58815,64.99143,237.6584],[29.59838,65.03438,261.8171],[29.62732,65.06223,256.5452],[29.66783,65.07794,266.9147],[29.82048,65.09365,234.5224],[29.8456,65.10802,225.9484],[29.8502,65.1215,244.1263],[29.83805,65.12481,246.3636],[29.82033,65.12652,250.2504],[29.80819,65.1353,258.6496],[29.80912,65.14522,243.398],[29.818,65.1522,242.0221],[29.82968,65.15861,248.3752],[29.83929,65.1669,244.1914],[29.8332,65.20501,243.8695],[29.76684,65.21736,233.5541],[29.6267,65.21522,201.8369],[29.58009,65.2354,247.3493],[29.61512,65.2694,226.345],[29.72013,65.32909,236.646],[29.73057,65.36537,234.0036],[29.71816,65.45417,241.1582],[29.72633,65.49125,228.1975],[29.72633,65.49151,228.6924],[29.73153,65.49692,236.1602],[29.73083,65.49691,235.1649],[29.48877,65.49192,240.5733]]]}
,"properties": {"ISO3166-1-Alpha-3": "FIN","country": "Finland","fill": "#F0F","name": "Kainuu","area_km2": 24317.58,"hist_schema_id": "Elevation0-9000","hist_area_km2": {"75": 1.8,"100": 108.68,"125": 2203.31,"150": 2777.06,"175": 4089.25,"200": 5481.86,"225": 5221.95,"250": 2997.52,"275": 1049.62,"300": 250.14,"325": 78.7,"350": 42.99,"375": 14.5}}}