{"type":"Feature","properties":{"GID_2":"FIN.3.1_1","GID_0":"FIN","country":"Finland","GID_1":"FIN.3_1","province":"Oulu","NL_NAME_1":"NA","county":"Kainuu","VARNAME_2":"Kainuu|Kajanaland","NL_NAME_2":"NA","TYPE_2":"Maakunta|landskap","ENGTYPE_2":"Region","CC_2":"NA","HASC_2":"NA","name":"Kainuu.county"},
"geometry":{"type": "MultiPolygon","coordinates": [[[[29.1257,63.8439,176.9009],[29.1271,63.8484,171.9609],[29.1775,63.8453,194.8589],[29.179,63.8497,199.671],[29.2294,63.8465,185.7969],[29.2309,63.851,178.514],[29.2713,63.8485,239.8105],[29.2727,63.8529,189.9393],[29.3131,63.8504,191.3699],[29.3146,63.8548,195.2852],[29.3448,63.8529,189.8106],[29.3463,63.8573,188.871],[29.3766,63.8554,197.5482],[29.378,63.8599,207.1421],[29.4083,63.8579,247.7043],[29.4098,63.8624,231.8878],[29.4401,63.8605,250.5102],[29.4416,63.8649,246.8439],[29.4718,63.863,251.035],[29.4733,63.8674,242.0206],[29.5036,63.8655,210.0],[29.5051,63.8699,235.2866],[29.5354,63.8679,235.1346],[29.5369,63.8724,245.4445],[29.5672,63.8704,267.0462],[29.5687,63.8749,255.9764],[29.609,63.8722,231.5311],[29.6105,63.8767,220.1314],[29.6408,63.8747,271.0821],[29.6423,63.8792,269.6932],[29.6827,63.8765,244.0124],[29.6812,63.8721,258.606],[29.6913,63.8714,244.1955],[29.6867,63.8581,261.3399],[29.6967,63.8574,262.4823],[29.6906,63.8397,215.0418],[29.7007,63.839,224.586],[29.6961,63.8257,216.2567],[29.7062,63.825,214.4088],[29.7016,63.8117,210.5109],[29.7116,63.811,197.3813],[29.7055,63.7933,230.62],[29.7156,63.7926,219.9302],[29.711,63.7793,233.3082],[29.7211,63.7786,235.9059],[29.7149,63.7609,231.7957],[29.725,63.7602,215.9427],[29.7204,63.7469,234.8214],[29.7304,63.7462,219.7535],[29.7289,63.7418,224.3105],[29.7389,63.7411,209.7],[29.7359,63.7322,222.6702],[29.7459,63.7316,214.6439],[29.7444,63.7271,203.9176],[29.7544,63.7265,196.2912],[29.7529,63.722,203.124],[29.7629,63.7214,196.4324],[29.7599,63.7125,215.3593],[29.7699,63.7118,199.7817],[29.7684,63.7074,211.6996],[29.7884,63.706,183.3844],[29.7899,63.7105,192.7852],[29.8,63.7098,174.5542],[29.8031,63.7187,168.088],[29.8131,63.718,179.4907],[29.8146,63.7225,193.5197],[29.8247,63.7218,187.072],[29.8262,63.7262,207.1015],[29.8362,63.7255,199.3238],[29.8393,63.7344,178.5372],[29.8494,63.7337,186.1446],[29.8509,63.7382,187.6955],[29.861,63.7375,182.8985],[29.864,63.7464,208.7911],[29.8741,63.7457,186.5246],[29.8756,63.7501,160.6749],[29.9058,63.7481,158.7265],[29.9073,63.7526,167.4483],[29.9475,63.7499,181.2135],[29.949,63.7543,186.7906],[29.9825,63.752,211.5514],[29.981,63.7545,178.617],[30.001,63.7597,192.984],[30.0008,63.7617,201.4681],[30.029,63.767,241.63],[30.0357,63.7666,249.6979],[30.0365,63.7689,261.1368],[30.0583,63.7741,230.8958],[30.069,63.7734,234.8597],[30.0702,63.7768,234.0727],[30.0994,63.7845,216.9351],[30.1126,63.7864,244.1711],[30.1322,63.7918,221.4821],[30.1372,63.7914,237.9397],[30.1378,63.7931,233.6878],[30.1758,63.8024,236.3362],[30.1822,63.8019,225.0597],[30.183,63.8041,229.1843],[30.2049,63.8095,241.0662],[30.2156,63.8087,235.9013],[30.2169,63.8125,229.0928],[30.2332,63.8166,244.4065],[30.2389,63.8162,244.758],[30.2464,63.8248,262.5934],[30.2522,63.8244,260.2229],[30.2557,63.834,284.1094],[30.2635,63.8418,265.5234],[30.2687,63.8414,263.0008],[30.2719,63.8502,252.779],[30.2806,63.8588,240.0533],[30.2853,63.8584,262.6553],[30.2881,63.8663,229.5779],[30.311,63.8889,252.9164],[30.3113,63.891,248.0482],[30.3211,63.9019,230.6115],[30.3589,63.926,262.5511],[30.3618,63.9258,253.0877],[30.3628,63.9287,255.9371],[30.3714,63.9343,272.3542],[30.3752,63.934,271.7615],[30.3765,63.9377,261.2448],[30.3953,63.9508,259.511],[30.402,63.9503,272.4109],[30.4048,63.9579,247.7717],[30.4144,63.9631,247.6668],[30.417,63.9629,236.9924],[30.4215,63.9691,240.0043],[30.4373,63.9796,254.2359],[30.4438,63.9792,260.2151],[30.4462,63.9856,258.4353],[30.4532,63.9902,241.4075],[30.4665,63.9958,212.3128],[30.4707,63.9955,212.7108],[30.4716,63.9979,218.3914],[30.476,63.9997,236.3344],[30.4942,64.0165,297.512],[30.4993,64.0162,296.0054],[30.5022,64.0241,278.5726],[30.5262,64.0491,233.6559],[30.5328,64.0706,235.1334],[30.5462,64.0993,245.4018],[30.5514,64.099,249.8027],[30.5564,64.1122,254.4674],[30.5511,64.1126,261.0682],[30.5503,64.1259,261.6617],[30.5349,64.1379,256.5197],[30.5361,64.141,256.6815],[30.5303,64.1414,255.3246],[30.5086,64.1583,256.5685],[30.5031,64.1643,254.3811],[30.5038,64.166,255.2981],[30.5014,64.1662,254.6701],[30.4958,64.1724,261.6984],[30.497,64.1756,264.8601],[30.4925,64.1759,275.8723],[30.4884,64.1805,284.763],[30.4902,64.1852,272.7025],[30.4836,64.1857,288.8885],[30.481,64.1886,295.1845],[30.4817,64.1903,278.8732],[30.4792,64.1905,275.1737],[30.4736,64.1966,255.705],[30.4743,64.1985,259.301],[30.5132,64.2194,233.6639],[30.5064,64.228,229.8026],[30.5087,64.2339,274.0056],[30.5012,64.2345,258.7035],[30.4922,64.2458,244.1233],[30.4933,64.2487,244.0721],[30.4897,64.2489,248.745],[30.485,64.2549,246.187],[30.3973,64.2719,233.6977],[30.3979,64.2735,236.9024],[30.3695,64.2772,237.3002],[30.3686,64.279,222.7382],[30.3706,64.2845,212.9874],[30.3654,64.2849,218.6487],[30.3624,64.2904,250.8741],[30.3637,64.2941,254.9777],[30.3545,64.2975,235.3331],[30.3552,64.2992,228.2991],[30.3474,64.2998,217.9646],[30.3358,64.3035,203.0712],[30.3364,64.3051,214.1067],[30.3292,64.3056,201.3626],[30.317,64.3095,210.4961],[30.3176,64.3109,208.4301],[30.3003,64.3148,209.0524],[30.2828,64.3252,209.1376],[30.2631,64.3337,195.5056],[30.2645,64.3373,208.4788],[30.2429,64.3388,217.6414],[30.2244,64.3425,206.4505],[30.2251,64.3446,201.9204],[30.2144,64.3444,207.6288],[30.1851,64.3499,204.1177],[30.1858,64.3518,203.7963],[30.1589,64.3536,201.6357],[30.12,64.3592,199.3522],[30.1072,64.3667,212.2655],[30.1087,64.3707,224.6087],[30.0995,64.3713,215.3154],[30.0951,64.3739,203.3165],[30.0901,64.3773,210.5281],[30.0914,64.3809,201.5009],[30.084,64.3814,202.2507],[30.0816,64.383,203.2489],[30.0828,64.3861,217.4341],[30.0766,64.3865,229.034],[30.0732,64.3887,230.7651],[30.0741,64.3912,202.5885],[30.0696,64.3915,203.1736],[30.053,64.4043,207.944],[30.0677,64.4598,231.0413],[30.0617,64.4602,225.6003],[30.0587,64.464,218.856],[30.0607,64.4694,221.3659],[30.0542,64.4698,234.6342],[30.0428,64.478,224.9229],[30.0434,64.4796,222.9773],[30.0397,64.4799,232.9104],[30.035,64.4827,231.614],[30.0414,64.4957,238.8176],[30.0389,64.4962,236.8005],[30.0396,64.498,236.1806],[30.0306,64.4986,252.0648],[30.0144,64.5159,244.2259],[30.0168,64.5223,227.5858],[30.0122,64.5226,231.3437],[30.0108,64.5348,228.8837],[30.0146,64.5452,243.3948],[30.0097,64.5455,238.7382],[30.0084,64.5571,230.8807],[30.0216,64.593,237.7019],[30.0253,64.5945,254.3484],[30.0326,64.594,256.8215],[30.0354,64.5983,238.5752],[30.0446,64.5977,239.9207],[30.0464,64.6026,244.5405],[30.0748,64.6146,245.0343],[30.0863,64.6177,261.3456],[30.0942,64.6171,250.0713],[30.0952,64.62,248.4386],[30.1237,64.6276,248.5337],[30.1415,64.6441,242.6184],[30.143,64.6528,241.6044],[30.1314,64.6603,237.8409],[30.1331,64.6646,246.5436],[30.1239,64.6652,244.1482],[30.0888,64.6883,240.987],[30.0895,64.6902,243.1083],[30.0858,64.6905,239.5052],[30.0803,64.6943,241.5657],[30.0807,64.6953,243.2024],[30.0719,64.7003,229.9273],[30.0737,64.7049,232.6151],[30.0646,64.7055,231.1664],[30.0635,64.7063,229.8759],[30.0649,64.71,228.033],[30.0571,64.7108,236.0645],[30.0554,64.713,239.7036],[30.0562,64.7152,244.0879],[30.0535,64.7153,241.0297],[30.0481,64.722,228.9973],[30.0491,64.7247,238.417],[30.0457,64.7249,228.74],[30.0433,64.7279,228.41],[30.0498,64.7429,250.8462],[30.0557,64.7425,252.3724],[30.0576,64.7477,247.4101],[30.0636,64.751,233.9681],[30.0694,64.7506,232.5611],[30.0711,64.7553,253.785],[30.0935,64.768,242.5199],[30.0883,64.7728,248.2285],[30.0897,64.7766,228.0234],[30.0808,64.7772,224.8451],[30.0611,64.7856,232.5369],[30.0618,64.7875,239.1867],[30.0556,64.7879,239.5362],[30.0457,64.7922,238.2566],[29.9358,64.7946,239.6517],[29.8831,64.7902,239.5206],[29.871,64.7909,227.4348],[29.8703,64.7891,227.0798],[29.8528,64.7876,221.4268],[29.8381,64.7885,222.641],[29.8373,64.7863,220.6211],[29.8223,64.785,228.0342],[29.7509,64.7896,259.9116],[29.7345,64.797,242.7568],[29.7355,64.7997,228.0713],[29.7272,64.8002,226.579],[29.7069,64.8093,223.2331],[29.7074,64.8106,232.1983],[29.7035,64.8108,222.5998],[29.6841,64.8195,221.2847],[29.6971,64.8352,214.5719],[29.6865,64.8417,215.2946],[29.6872,64.8437,208.0641],[29.6829,64.8439,216.1426],[29.6778,64.8471,210.1569],[29.6784,64.8488,236.7676],[29.6747,64.849,228.4964],[29.6649,64.855,217.7417],[29.6525,64.8661,214.8729],[29.6534,64.8685,218.7899],[29.6495,64.8688,220.3415],[29.6421,64.8755,233.5662],[29.6327,64.8902,244.8919],[29.6308,64.8948,252.1619],[29.6332,64.9016,265.0303],[29.6278,64.9019,253.026],[29.6193,64.9226,236.0016],[29.6218,64.9296,257.6313],[29.6164,64.9299,254.4816],[29.608,64.951,247.907],[29.6104,64.9575,250.4654],[29.6059,64.9578,256.2354],[29.5963,64.9899,243.2129],[29.6117,65.0029,263.9021],[29.6158,65.0026,263.0616],[29.6184,65.0099,261.2495],[29.6265,65.0183,275.1758],[29.6245,65.0269,278.8236],[29.627,65.0337,260.954],[29.6229,65.034,260.9839],[29.6221,65.0374,281.328],[29.6226,65.0514,265.7673],[29.6257,65.0599,257.5721],[29.6428,65.0645,273.3238],[29.6488,65.0641,272.1861],[29.6496,65.0663,259.9773],[29.7113,65.0829,265.6082],[29.72,65.0824,265.9272],[29.7212,65.0856,270.8535],[29.7332,65.0888,277.6261],[29.7338,65.0906,269.3599],[29.7767,65.0899,244.1281],[29.7776,65.0924,239.3056],[29.8408,65.0883,254.6945],[29.8421,65.0917,255.8421],[29.853,65.0921,237.5012],[29.8544,65.096,229.8587],[29.8668,65.1002,232.4217],[29.8835,65.1012,231.6359],[29.8893,65.1026,235.5677],[29.8901,65.1049,229.9574],[29.8811,65.1097,234.939],[29.8823,65.1129,242.1074],[29.8739,65.1135,233.2719],[29.8269,65.1383,264.5531],[29.8295,65.1454,244.5759],[29.8385,65.1521,235.455],[29.8427,65.1518,244.5834],[29.8444,65.1565,234.6824],[29.8498,65.1605,243.131],[29.8566,65.16,250.0562],[29.8594,65.1676,244.4839],[29.8667,65.173,269.0051],[29.8721,65.1727,266.8932],[29.8743,65.1787,262.4336],[29.8956,65.1946,249.0258],[29.8845,65.2061,251.4381],[29.8853,65.2082,243.7487],[29.8823,65.2084,243.8975],[29.8776,65.2133,251.3597],[29.7834,65.2248,235.9947],[29.7406,65.2284,262.4021],[29.7109,65.2299,237.0258],[29.6577,65.2277,235.3805],[29.6355,65.2365,231.894],[29.6176,65.2465,246.9351],[29.6181,65.2478,250.8469],[29.6095,65.2511,229.7183],[29.6186,65.2734,223.8302],[29.6278,65.2745,232.3732],[29.6287,65.2771,233.1178],[29.6329,65.2787,232.8944],[29.64,65.2782,227.8069],[29.6413,65.2818,233.2898],[29.675,65.2942,239.6798],[29.6783,65.294,254.0254],[29.679,65.2957,235.1277],[29.7233,65.3139,229.8732],[29.729,65.3136,233.908],[29.7303,65.317,230.2303],[29.7686,65.3341,214.8316],[29.7617,65.3431,224.9057],[29.7634,65.3478,221.9939],[29.7579,65.3481,224.2012],[29.7504,65.3642,224.2312],[29.7492,65.3683,229.1067],[29.752,65.3757,228.7844],[29.747,65.3761,228.4348],[29.7445,65.3849,232.6705],[29.7479,65.3942,268.04],[29.7428,65.3945,255.9214],[29.7419,65.4075,238.1049],[29.7472,65.4215,246.8429],[29.7416,65.4218,232.2384],[29.7424,65.4381,242.5365],[29.748,65.4532,243.7667],[29.7434,65.4535,245.4649],[29.742,65.4661,247.6466],[29.7487,65.4714,252.1896],[29.7546,65.471,253.1035],[29.7646,65.4977,243.2463],[29.7432,65.499,226.4163],[29.7415,65.4946,221.9236],[29.6666,65.4992,221.4478],[29.6649,65.4948,236.0072],[29.6114,65.4981,223.6897],[29.6131,65.5025,217.8911],[29.5488,65.5065,217.405],[29.5472,65.5021,216.9596],[29.5365,65.5027,217.3536],[29.5333,65.4938,230.1619],[29.5225,65.4945,222.9242],[29.5209,65.49,223.0459],[29.5102,65.4907,221.2281],[29.5086,65.4862,221.6484],[29.4979,65.4869,225.4303],[29.4995,65.4913,234.3837],[29.4567,65.4939,221.1091],[29.4583,65.4984,228.0433],[29.4155,65.501,228.5009],[29.4171,65.5054,237.0672],[29.3849,65.5074,227.0434],[29.3865,65.5118,230.9953],[29.3436,65.5144,248.7868],[29.3452,65.5188,248.2699],[29.2916,65.522,276.3051],[29.2901,65.5176,242.1787],[29.2365,65.5208,246.3289],[29.2349,65.5163,255.1578],[29.2134,65.5176,268.9962],[29.2119,65.5131,284.5717],[29.2226,65.5125,274.3905],[29.2132,65.4858,263.2993],[29.2025,65.4865,267.4612],[29.2009,65.482,273.7179],[29.1902,65.4826,259.2776],[29.1871,65.4737,256.623],[29.1764,65.4744,256.7863],[29.1748,65.4699,255.5289],[29.1641,65.4706,244.1489],[29.161,65.4616,238.5416],[29.1503,65.4623,240.5516],[29.1488,65.4578,261.5231],[29.1381,65.4585,251.8764],[29.1365,65.454,265.9415],[29.1258,65.4546,259.1486],[29.1227,65.4457,262.6748],[29.1013,65.447,273.7531],[29.0998,65.4426,260.2082],[29.0784,65.4438,252.6429],[29.0769,65.4394,259.5443],[29.0555,65.4406,235.5],[29.054,65.4361,235.5],[29.0112,65.4386,253.9247],[29.0127,65.4431,257.0085],[28.9485,65.4468,261.7964],[28.947,65.4423,265.7193],[28.9256,65.4436,256.7706],[28.9241,65.4391,251.5],[28.9134,65.4397,264.6608],[28.9119,65.4353,253.2913],[28.8905,65.4365,276.134],[28.889,65.4321,266.3099],[28.8676,65.4333,277.7253],[28.8661,65.4288,270.2983],[28.8554,65.4294,278.9541],[28.8539,65.425,269.1871],[28.8325,65.4262,257.2626],[28.831,65.4217,268.824],[28.8203,65.4223,258.7304],[28.8188,65.4179,259.3592],[28.7975,65.4191,252.1905],[28.796,65.4146,254.9117],[28.7746,65.4158,251.4448],[28.7731,65.4114,252.68],[28.7624,65.412,254.8783],[28.7609,65.4075,258.6799],[28.7396,65.4087,261.9955],[28.7381,65.4043,253.6712],[28.7274,65.4049,253.4772],[28.7259,65.4004,258.602],[28.7046,65.4016,285.5442],[28.7031,65.3972,287.3749],[28.6817,65.3984,245.8765],[28.6802,65.3939,244.0451],[28.6696,65.3945,242.0538],[28.6681,65.3901,249.6656],[28.6467,65.3913,242.0151],[28.6453,65.3868,242.2572],[28.6559,65.3862,241.9416],[28.6516,65.3729,242.0613],[28.6622,65.3723,241.7818],[28.6608,65.3678,241.7647],[28.6501,65.3684,241.9141],[28.6472,65.3595,242.0418],[28.6365,65.3601,242.1704],[28.6321,65.3467,250.5699],[28.6215,65.3473,267.2343],[28.6142,65.3251,244.0637],[28.5822,65.3268,251.2809],[28.5808,65.3224,235.8825],[28.5701,65.323,239.1031],[28.5687,65.3185,238.4642],[28.6113,65.3161,249.0124],[28.6041,65.2939,283.939],[28.6147,65.2933,289.6457],[28.6118,65.2844,289.1184],[28.5905,65.2856,274.3791],[28.5891,65.2811,277.658],[28.5465,65.2835,275.2102],[28.5451,65.279,282.9546],[28.5131,65.2808,255.5545],[28.5117,65.2763,269.77],[28.4798,65.2781,250.1038],[28.4784,65.2736,256.3123],[28.4464,65.2754,259.1473],[28.445,65.2709,264.3246],[28.4131,65.2726,285.7949],[28.4117,65.2682,281.954],[28.3691,65.2705,236.4101],[28.3677,65.266,231.5439],[28.3358,65.2678,248.3384],[28.3344,65.2633,265.9923],[28.3025,65.265,223.6012],[28.3011,65.2606,225.1407],[28.2692,65.2623,228.4237],[28.2678,65.2578,220.7608],[28.2465,65.2589,209.4969],[28.2451,65.2545,250.102],[28.2132,65.2562,243.6064],[28.2118,65.2517,239.6197],[28.1799,65.2534,198.9855],[28.1786,65.2489,190.7844],[28.1466,65.2506,183.6429],[28.1453,65.2462,205.0963],[28.1134,65.2479,188.1301],[28.112,65.2434,207.7359],[28.090699999999998,65.2445,173.5819],[28.0894,65.2401,188.5517],[28.0575,65.2417,165.9564],[28.0561,65.2373,175.7036],[28.0348,65.2384,168.6722],[28.0335,65.2339,165.9604],[28.0229,65.2345,165.217],[28.0215,65.23,174.0314],[28.0109,65.2306,170.2774],[28.0082,65.2216,155.0789],[27.9976,65.2222,155.9131],[27.9962,65.2177,150.0766],[27.9856,65.2183,156.2488],[27.9843,65.2138,162.3555],[27.9736,65.2143,157.7048],[27.9723,65.2099,160.447],[27.9617,65.2104,161.7673],[27.9603,65.206,140.9153],[27.9497,65.2065,142.89],[27.9324,65.1486,297.1773],[27.9218,65.1491,233.8513],[27.9086,65.1045,259.373],[27.898,65.105,226.3013],[27.894,65.0917,308.0779],[27.8623,65.0933,221.5529],[27.8636,65.0977,239.8426],[27.8001,65.101,183.027],[27.8014,65.1055,197.6737],[27.7485,65.1081,190.2599],[27.7498,65.1126,194.8722],[27.6968,65.1152,243.0532],[27.6981,65.1197,243.8108],[27.6663,65.1213,334.2216],[27.665,65.1168,329.9543],[27.6544,65.1173,294.811],[27.653199999999998,65.1129,279.5698],[27.632,65.1139,252.694],[27.6307,65.1095,239.8022],[27.6201,65.11,222.2771],[27.6188,65.1055,211.6496],[27.6082,65.106,206.353],[27.607,65.1016,196.1767],[27.5964,65.1021,196.6621],[27.5951,65.0976,192.5413],[27.5845,65.0982,197.7187],[27.5833,65.0937,185.7101],[27.5621,65.0947,187.6236],[27.5608,65.0903,180.9899],[27.5185,65.0924,178.4993],[27.5173,65.0879,170.1355],[27.4749,65.0899,166.2561],[27.4737,65.0855,165.9122],[27.336,65.0921,171.7938],[27.3348,65.0876,179.9686],[27.3242,65.0881,181.6041],[27.3205,65.0747,143.3748],[27.31,65.0752,151.6733],[27.3063,65.0618,137.8601],[27.2957,65.0623,133.5932],[27.2921,65.0489,135.6712],[27.2815,65.0495,136.2942],[27.2779,65.0361,140.4159],[27.2673,65.0366,137.5465],[27.2637,65.0232,141.4252],[27.2742,65.0227,140.7377],[27.273,65.0182,142.3751],[27.2836,65.0177,139.9629],[27.2824,65.0132,141.0372],[27.2929,65.0127,137.2581],[27.2917,65.0083,141.0388],[27.3023,65.0078,135.4427],[27.3011,65.0033,139.4379],[27.3116,65.0028,139.4623],[27.3104,64.9983,137.6534],[27.321,64.9978,139.7443],[27.3197,64.9934,138.0313],[27.3303,64.9929,136.7049],[27.3291,64.9884,137.8064],[27.3396,64.9879,138.676],[27.3384,64.9834,139.3913],[27.349,64.9829,137.7483],[27.3477,64.9784,141.0314],[27.3583,64.978,138.4188],[27.3571,64.9735,140.7519],[27.3676,64.973,140.5271],[27.3664,64.9685,141.1373],[27.3769,64.968,142.7676],[27.3757,64.9635,143.1878],[27.3862,64.963,143.3595],[27.3838,64.9541,178.298],[27.3943,64.9536,169.3999],[27.3919,64.9447,146.3528],[27.3813,64.9452,141.8622],[27.3801,64.9407,143.0759],[27.3906,64.9402,144.8534],[27.3894,64.9358,146.8663],[27.3999,64.9352,150.1278],[27.3987,64.9308,139.6301],[27.4092,64.9303,139.3319],[27.4056,64.9169,143.8371],[27.395,64.9174,141.9383],[27.3901,64.8995,161.7888],[27.3796,64.9,164.1102],[27.3748,64.8822,163.8664],[27.3853,64.8817,166.9395],[27.3828,64.8727,164.3604],[27.3933,64.8722,168.8815],[27.3909,64.8633,168.5913],[27.4014,64.8628,168.9975],[27.3965,64.8449,161.6301],[27.3755,64.846,165.5503],[27.3743,64.8415,160.5592],[27.3638,64.842,160.6736],[27.3626,64.8375,161.5022],[27.3731,64.837,160.0046],[27.3718,64.8326,160.8679],[27.3823,64.8321,160.4604],[27.3811,64.8276,175.9559],[27.3706,64.8281,168.1224],[27.367,64.8147,179.5631],[27.3565,64.8152,179.8558],[27.3553,64.8108,184.7119],[27.3343,64.8118,178.3153],[27.3355,64.8162,171.1944],[27.2726,64.8192,152.2046],[27.2738,64.8237,153.0743],[27.2004,64.8272,146.1576],[27.2016,64.8316,154.8002],[27.1387,64.8346,152.3964],[27.1375,64.8301,147.5771],[27.127,64.8306,140.4174],[27.1258,64.8261,156.1961],[27.1153,64.8266,147.9902],[27.1141,64.8222,151.8343],[27.1037,64.8227,145.9362],[27.1025,64.8182,149.7608],[27.092,64.8187,150.2048],[27.0908,64.8142,148.0417],[27.0803,64.8147,146.1725],[27.0792,64.8102,155.4223],[27.0687,64.8107,155.1408],[27.0675,64.8063,157.3413],[27.057,64.8067,155.6844],[27.0559,64.8023,152.037],[27.0454,64.8028,151.531],[27.0442,64.7983,152.3626],[27.0338,64.7988,150.7955],[27.0326,64.7943,151.2784],[27.0221,64.7948,147.5495],[27.021,64.7903,148.6154],[27.0,64.7913,147.3737],[26.9989,64.7868,147.0529],[26.9884,64.7873,148.7062],[26.9872,64.7828,142.7495],[26.9767,64.7833,142.7452],[26.9756,64.7788,143.5024],[26.9651,64.7793,141.7567],[26.964,64.7748,148.4194],[26.9535,64.7753,143.9281],[26.9524,64.7709,143.4568],[26.9419,64.7713,140.7436],[26.9408,64.7669,140.0506],[26.9303,64.7673,134.3715],[26.9292,64.7629,137.6145],[26.9187,64.7634,135.314],[26.9175,64.7589,134.0644],[26.9071,64.7594,136.1904],[26.9025,64.7415,136.8033],[26.8921,64.742,136.0483],[26.8898,64.733,136.984],[26.9107,64.7321,137.8482],[26.9084,64.7231,138.0403],[26.898,64.7236,134.0345],[26.8935,64.7057,137.5305],[26.9039,64.7053,144.3221],[26.9016,64.6963,142.6922],[26.8808,64.6973,140.1765],[26.8785,64.6883,136.7775],[26.8576,64.6893,136.4224],[26.852,64.667,137.9795],[26.8416,64.6674,132.2277],[26.8393,64.6585,130.8948],[26.808,64.6599,129.4887],[26.8069,64.6554,130.4775],[26.786,64.6564,129.6831],[26.7849,64.6519,135.0592],[26.7641,64.6528,129.0249],[26.763,64.6484,127.5551],[26.7421,64.6493,130.1252],[26.741,64.6448,127.4748],[26.7306,64.6453,125.7256],[26.7295,64.6408,122.8913],[26.7086,64.6417,120.4132],[26.7075,64.6373,123.5116],[26.6763,64.6386,110.0988],[26.6774,64.6431,108.0134],[26.6669,64.6435,105.771],[26.668,64.648,110.7232],[26.6576,64.6485,109.0354],[26.6587,64.653,107.9047],[26.6482,64.6534,105.2498],[26.6472,64.6489,105.2399],[26.6367,64.6494,100.9523],[26.6356,64.6449,102.0568],[26.6461,64.6445,106.0046],[26.6439,64.6355,108.9379],[26.6543,64.6351,108.7306],[26.6511,64.6217,108.1038],[26.6406,64.6221,107.9452],[26.6395,64.6177,112.1934],[26.6187,64.6186,108.1691],[26.6176,64.6141,106.1781],[26.6072,64.6145,106.8385],[26.6061,64.6101,110.4406],[26.5957,64.6105,106.1737],[26.5925,64.5971,113.4845],[26.5821,64.5976,117.1638],[26.5767,64.5752,121.0369],[26.5663,64.5757,123.0773],[26.5674,64.5801,119.3211],[26.557,64.5806,126.5544],[26.5559,64.5761,122.408],[26.5351,64.577,130.5559],[26.533,64.5681,180.2384],[26.5434,64.5676,163.7597],[26.5423,64.5632,177.4921],[26.5527,64.5627,168.1879],[26.5516,64.5582,165.3125],[26.4788,64.5614,144.7377],[26.4799,64.5658,162.1043],[26.4591,64.5667,148.3254],[26.457,64.5578,137.7077],[26.4466,64.5582,132.8664],[26.4455,64.5538,130.1396],[26.4351,64.5542,129.3039],[26.433,64.5453,121.8813],[26.4226,64.5457,120.0531],[26.4216,64.5412,117.803],[26.4112,64.5417,119.432],[26.4102,64.5372,117.073],[26.3998,64.5376,113.5548],[26.3977,64.5287,110.7515],[26.3873,64.5291,109.592],[26.3863,64.5247,111.7651],[26.3759,64.5251,110.0295],[26.3738,64.5162,114.7267],[26.3634,64.5166,108.6571],[26.3624,64.5121,107.8568],[26.352,64.5126,107.9448],[26.351,64.5081,111.4049],[26.3406,64.5085,112.0542],[26.3395,64.504,113.875],[26.3188,64.5049,110.05],[26.3178,64.5005,111.7281],[26.3281,64.5,110.8768],[26.3261,64.4911,109.5075],[26.3157,64.4915,106.6076],[26.3147,64.487,106.0],[26.3043,64.4875,108.331],[26.3033,64.483,105.5],[26.2929,64.4834,108.5106],[26.2919,64.479,113.2526],[26.3022,64.4785,110.7279],[26.3012,64.474,108.9845],[26.3116,64.4736,110.373],[26.3106,64.4691,109.3214],[26.3209,64.4687,110.0686],[26.3199,64.4642,112.6339],[26.3406,64.4634,112.1462],[26.3396,64.4589,114.2264],[26.35,64.4585,111.5316],[26.3489,64.454,117.649],[26.3697,64.4531,113.4217],[26.3686,64.4487,113.8714],[26.379,64.4482,113.3404],[26.3779,64.4437,110.0287],[26.3883,64.4433,109.5259],[26.3873,64.4388,111.3004],[26.408,64.438,106.7544],[26.4069,64.4335,105.1259],[26.4173,64.433,107.4274],[26.4162,64.4286,103.8389],[26.4266,64.4281,107.7518],[26.4256,64.4237,110.4062],[26.4359,64.4232,107.2767],[26.4349,64.4187,103.3444],[26.4452,64.4183,107.8308],[26.4431,64.4094,106.4681],[26.4535,64.4089,105.2529],[26.4514,64.4,103.6438],[26.4617,64.3995,104.2261],[26.4607,64.3951,106.2095],[26.471,64.3946,108.2465],[26.4689,64.3857,111.4023],[26.4792,64.3852,109.3362],[26.474,64.3629,112.0554],[26.4637,64.3633,110.571],[26.4616,64.3544,114.3572],[26.4719,64.3539,120.2598],[26.4709,64.3495,114.2168],[26.4915,64.3486,106.7314],[26.4905,64.3441,109.1074],[26.5008,64.3437,105.3169],[26.4997,64.3392,108.2564],[26.51,64.3388,105.8312],[26.509,64.3343,108.4509],[26.5193,64.3338,108.6038],[26.5182,64.3294,115.7388],[26.5285,64.3289,118.9503],[26.5275,64.3244,113.3267],[26.5481,64.3235,121.0473],[26.5471,64.3191,117.8551],[26.6501,64.3145,128.6042],[26.6512,64.319,130.6461],[26.6821,64.3176,129.7643],[26.681,64.3132,129.0152],[26.6913,64.3127,130.2311],[26.6827,64.277,129.798],[26.693,64.2765,133.2046],[26.6919,64.272,134.7989],[26.7022,64.2716,135.3039],[26.7011,64.2671,133.7857],[26.7731,64.2639,162.6033],[26.7666,64.2371,138.9063],[26.7769,64.2366,141.4396],[26.7682,64.2009,163.1258],[26.7784,64.2004,166.3098],[26.7708,64.1691,167.9873],[26.781,64.1687,168.841],[26.7724,64.1329,186.5889],[26.7826,64.1325,187.9535],[26.775,64.1012,163.6968],[26.7852,64.1007,169.3672],[26.7766,64.065,208.8764],[26.7868,64.0645,205.2127],[26.7846,64.0556,202.4966],[26.805,64.0546,206.6901],[26.8039,64.0502,199.3386],[26.8244,64.0492,197.2159],[26.8233,64.0448,194.3755],[26.8539,64.0434,186.7448],[26.8528,64.0389,186.7614],[26.8732,64.0379,193.1988],[26.8721,64.0335,198.8935],[26.8925,64.0325,225.0622],[26.8914,64.0281,226.2334],[26.9118,64.0271,221.7384],[26.9107,64.0227,219.2318],[26.931,64.0217,212.4768],[26.9299,64.0172,206.6074],[26.9605,64.0158,204.8993],[26.9594,64.0114,194.1064],[26.9798,64.0104,208.4442],[26.9787,64.0059,197.6609],[26.999,64.005,196.2145],[26.9979,64.0005,186.1125],[27.059,63.9976,193.9218],[27.0579,63.9931,196.5448],[27.119,63.9902,198.2571],[27.1201,63.9947,207.6548],[27.1303,63.9942,213.5919],[27.1314,63.9987,221.8285],[27.1416,63.9982,211.8371],[27.2027,63.9952,197.6737],[27.2016,63.9908,191.1364],[27.2931,63.9863,170.423],[27.292,63.9818,162.044],[27.3428,63.9793,154.0],[27.3417,63.9749,156.6722],[27.3823,63.9729,170.4665],[27.3812,63.9684,166.056],[27.4218,63.9664,160.5365],[27.4206,63.9619,162.379],[27.4308,63.9614,157.8721],[27.4273,63.948,151.1696],[27.4476,63.947,151.9379],[27.4464,63.9425,162.5115],[27.4566,63.942,163.1487],[27.4578,63.9465,156.0078],[27.4781,63.9455,165.7965],[27.4793,63.9499,165.4566],[27.4996,63.9489,175.5953],[27.5008,63.9534,199.5655],[27.4906,63.9539,193.2437],[27.4918,63.9583,197.4979],[27.5527,63.9552,183.4214],[27.5516,63.9508,175.019],[27.5719,63.9498,182.3501],[27.5707,63.9453,182.4601],[27.5808,63.9448,183.1187],[27.5796,63.9403,174.7413],[27.5999,63.9393,172.6039],[27.5987,63.9348,172.0036],[27.619,63.9338,161.3083],[27.6178,63.9293,161.2243],[27.6279,63.9288,159.0554],[27.6267,63.9243,157.5],[27.647,63.9233,157.5],[27.6458,63.9188,157.5],[27.656,63.9183,157.5],[27.6572,63.9227,157.5],[27.6673,63.9222,157.5],[27.6876,63.9212,157.5],[27.6864,63.9167,157.5],[27.727,63.9146,157.5],[27.7257,63.9101,157.5],[27.746,63.9091,166.9046],[27.7448,63.9046,167.174],[27.7651,63.9036,171.9935],[27.7638,63.8991,173.581],[27.774,63.8986,167.3315],[27.7727,63.8941,181.8743],[27.793,63.8931,176.1354],[27.7918,63.8886,166.477],[27.8019,63.8881,177.8136],[27.8007,63.8836,170.7914],[27.8209,63.8825,187.48],[27.8197,63.8781,176.2584],[27.8298,63.8775,183.2493],[27.8286,63.8731,177.5784],[27.8488,63.872,190.2282],[27.8476,63.8675,185.5696],[27.8577,63.867,187.0514],[27.8564,63.8625,178.736],[27.8666,63.862,182.5924],[27.8653,63.8576,180.0911],[27.8856,63.8565,175.6638],[27.8843,63.852,167.0383],[27.9248,63.8498,163.5983],[27.9235,63.8454,164.051],[27.9336,63.8448,163.4412],[27.9324,63.8404,163.6404],[27.9425,63.8398,163.4806],[27.9412,63.8354,163.5413],[27.9513,63.8348,163.4131],[27.9501,63.8304,163.5074],[27.9602,63.8298,163.8375],[27.959,63.8254,163.9044],[27.9792,63.8243,163.5263],[27.9779,63.8198,163.6157],[27.988,63.8193,163.4287],[27.9867,63.8148,163.6696],[27.9968,63.8143,163.594],[27.9956,63.8098,163.6595],[28.0057,63.8093,163.6627],[28.0044,63.8048,163.4878],[28.0246,63.8037,163.5801],[28.0233,63.7993,163.4724],[28.0334,63.7987,163.5299],[28.0322,63.7943,163.7173],[28.0423,63.7937,163.5446],[28.041,63.7892,163.5853],[28.0511,63.7887,163.4272],[28.0498,63.7842,163.3381],[28.0599,63.7837,163.3069],[28.0586,63.7793,163.4708],[28.0687,63.7787,163.665],[28.0674,63.7742,164.8838],[28.0775,63.7737,164.2866],[28.0763,63.7692,166.7422],[28.0863,63.7687,167.7226],[28.0851,63.7642,172.4097],[28.0951,63.7637,169.6803],[28.0939,63.7592,180.2204],[28.104,63.7587,186.7418],[28.1014,63.7497,188.4417],[28.1115,63.7492,186.849],[28.1102,63.7447,186.7596],[28.1203,63.7442,196.6933],[28.119,63.7397,195.4297],[28.1291,63.7392,198.3917],[28.1278,63.7347,194.0062],[28.1379,63.7341,200.1712],[28.1366,63.7297,196.5824],[28.1467,63.7291,196.2243],[28.1454,63.7247,188.4943],[28.1554,63.7241,193.3008],[28.1542,63.7197,185.972],[28.1642,63.7191,186.1436],[28.1629,63.7146,186.4735],[28.1931,63.713,187.0939],[28.1918,63.7085,191.4189],[28.212,63.7074,186.9324],[28.2107,63.7029,188.1132],[28.2207,63.7024,190.6246],[28.2194,63.6979,200.8822],[28.2295,63.6974,195.5109],[28.2282,63.6929,229.8747],[28.2383,63.6923,199.716],[28.237,63.6879,218.0534],[28.247,63.6873,203.7464],[28.2444,63.6784,193.2398],[28.2545,63.6778,195.6651],[28.2532,63.6734,193.6886],[28.2733,63.6723,197.0782],[28.272,63.6678,190.3948],[28.282,63.6672,187.8327],[28.2872,63.6851,223.3518],[28.2973,63.6845,212.0938],[28.3012,63.6979,217.2801],[28.3112,63.6973,224.7113],[28.3164,63.7151,228.5778],[28.3265,63.7145,241.3533],[28.3304,63.7279,261.75],[28.3405,63.7273,251.4153],[28.3458,63.7451,264.5541],[28.3558,63.7446,268.0596],[28.3598,63.7579,261.7234],[28.3698,63.7574,305.9421],[28.3738,63.7707,289.9586],[28.3839,63.7701,319.0995],[28.3878,63.7835,292.3987],[28.3979,63.7829,265.905],[28.4019,63.7963,247.1226],[28.412,63.7957,227.0504],[28.416,63.8091,225.5696],[28.4261,63.8085,209.3862],[28.43,63.8219,204.3693],[28.4401,63.8213,201.1786],[28.4441,63.8347,216.7314],[28.4542,63.8341,221.042],[28.4582,63.8474,191.6222],[28.4683,63.8469,175.5217],[28.4737,63.8647,227.9687],[28.4636,63.8652,229.7494],[28.4663,63.8741,224.7541],[28.4865,63.873,196.6415],[28.4878,63.8774,193.3679],[28.4979,63.8769,163.673],[28.4993,63.8813,161.8135],[28.5296,63.8796,199.1721],[28.5283,63.8751,189.2677],[28.6092,63.8704,202.9229],[28.6078,63.866,182.0681],[28.7089,63.8601,185.3813],[28.7075,63.8556,181.6624],[28.7782,63.8514,196.0021],[28.7768,63.847,196.1028],[28.9282,63.8379,202.3222],[28.9296,63.8423,209.828],[28.9801,63.8393,176.2644],[28.9815,63.8437,177.1345],[29.032,63.8406,196.8513],[29.0334,63.8451,225.0838],[29.0738,63.8426,191.7475],[29.0752,63.847,197.8112],[29.1257,63.8439,176.9009]]]]}}