{"type": "Feature","bbox": [25.1137,60.1234,26.0163,60.7378],"geometry": {"type": "MultiPolygon","coordinates": [[[[25.2229,60.1271,0.0],[25.2193,60.1234,8.9851],[25.2224,60.1234,10.8001],[25.2245,60.1255,13.7647],[25.2229,60.1271,0.0]]],
[[[25.287,60.1526,0.0],[25.287,60.1536,4.2537],[25.2839,60.1536,19.9104],[25.2854,60.1521,13.552],[25.287,60.1526,0.0]]],
[[[25.2245,60.1589,17.3002],[25.2229,60.1604,9.5685],[25.2214,60.1599,17.1952],[25.2214,60.1589,13.2455],[25.2245,60.1589,17.3002]]],
[[[25.2396,60.1792,26.0644],[25.2359,60.1786,14.668],[25.2359,60.1755,2.8639],[25.2432,60.1755,13.9333],[25.2432,60.1786,26.6594],[25.2396,60.1792,26.0644]]],
[[[25.4422,60.1641,17.1778],[25.4432,60.1661,0.0],[25.438,60.1672,0.0],[25.4349,60.1703,18.0452],[25.4292,60.1708,21.8078],[25.425,60.1688,12.3183],[25.4172,60.1682,0.0],[25.4089,60.1609,3.7672],[25.4125,60.1583,9.5309],[25.4208,60.1583,0.0],[25.4224,60.1599,2.0382],[25.4172,60.163,15.2001],[25.4193,60.1661,6.1724],[25.4292,60.1667,0.0],[25.4307,60.1651,0.0],[25.4255,60.163,8.0629],[25.4312,60.1625,16.0298],[25.4417,60.1583,2.2936],[25.4453,60.1609,0.0],[25.4422,60.1641,17.1778]]],
[[[25.4359,60.172,0.0],[25.4417,60.1688,2.9759],[25.4495,60.1714,0.0],[25.4479,60.1729,0.0],[25.4359,60.172,0.0]]],
[[[25.3521,60.1708,0.0],[25.35,60.1729,0.0],[25.3438,60.1729,15.6598],[25.3396,60.175,28.2254],[25.3255,60.1745,4.1334],[25.3276,60.1714,20.5578],[25.3354,60.1708,20.0909],[25.3438,60.1667,0.0],[25.3516,60.1693,3.8957],[25.3521,60.1708,0.0]]],
[[[25.4562,60.175,13.7296],[25.462,60.1734,17.3232],[25.4641,60.1755,0.0],[25.463,60.1786,8.5996],[25.4641,60.1807,0.0],[25.4583,60.1833,20.2303],[25.4542,60.1833,14.18],[25.4443,60.1807,4.8453],[25.4401,60.1766,8.4841],[25.4417,60.175,10.8309],[25.4562,60.175,13.7296]]],
[[[25.2104,60.2042,20.7016],[25.2062,60.2042,22.5244],[25.2047,60.2026,11.6624],[25.212,60.2026,7.9583],[25.2104,60.2042,20.7016]]],
[[[25.2786,60.2109,0.0],[25.2771,60.2125,13.9455],[25.2755,60.212,13.4363],[25.2771,60.2104,0.0],[25.2786,60.2109,0.0]]],
[[[25.2337,60.2125,0.0],[25.2396,60.2125,4.7991],[25.2474,60.2161,0.0],[25.2375,60.2167,11.3924],[25.2333,60.2146,20.5745],[25.2292,60.2167,0.0],[25.2193,60.2161,18.2334],[25.2229,60.2125,4.0138],[25.2337,60.2125,0.0]]],
[[[25.3245,60.2234,9.6999],[25.3229,60.225,0.0],[25.3151,60.2255,15.8138],[25.3104,60.2292,6.9155],[25.3047,60.2286,5.9895],[25.3026,60.2266,0.0],[25.3047,60.2234,0.0],[25.3104,60.2208,3.4838],[25.3245,60.2234,9.6999]]],
[[[25.5063,60.2167,15.8563],[25.5021,60.2167,15.6045],[25.5005,60.2151,7.6551],[25.5078,60.2151,12.4771],[25.5063,60.2167,15.8563]]],
[[[25.4958,60.225,16.5834],[25.4943,60.2234,0.0],[25.4964,60.2214,0.0],[25.5036,60.2214,16.0877],[25.5016,60.2245,24.3683],[25.4958,60.225,16.5834]]],
[[[25.3187,60.2354,19.4135],[25.3146,60.2354,11.2892],[25.313,60.2339,0.0],[25.3203,60.2339,18.726],[25.3187,60.2354,19.4135]]],
[[[25.3375,60.2438,12.8231],[25.3333,60.2417,14.3806],[25.3292,60.2417,4.6521],[25.3276,60.2422,8.5072],[25.3286,60.2453,17.7296],[25.325,60.2479,14.3564],[25.3042,60.2479,0.0],[25.2984,60.2422,0.0],[25.3063,60.2396,13.1506],[25.3229,60.2396,2.556],[25.3292,60.2354,0.0],[25.3453,60.2328,0.0],[25.3474,60.2307,16.6461],[25.3464,60.2276,0.0],[25.35,60.225,5.0962],[25.3589,60.2328,7.0999],[25.3682,60.2359,0.0],[25.3604,60.2396,16.3602],[25.35,60.2396,4.2276],[25.3417,60.2438,0.0],[25.3375,60.2438,12.8231]]],
[[[25.4724,60.1828,15.543],[25.4667,60.1833,13.2687],[25.4651,60.1818,13.9422],[25.4708,60.1813,9.2726],[25.4724,60.1828,15.543]]],
[[[25.4953,60.1995,16.2425],[25.4896,60.2,16.9833],[25.488,60.1984,0.0],[25.4938,60.1979,13.884],[25.4953,60.1995,16.2425]]],
[[[25.3354,60.2062,17.0841],[25.337,60.2068,21.2837],[25.337,60.2078,13.1913],[25.3339,60.2078,6.9219],[25.3354,60.2062,17.0841]]],
[[[25.487,60.2161,12.9331],[25.4839,60.2161,0.0],[25.4818,60.213,0.0],[25.4891,60.213,19.7352],[25.487,60.2161,12.9331]]],
[[[25.5458,60.1896,8.7941],[25.5474,60.1911,11.7739],[25.5443,60.1911,17.0184],[25.5443,60.1901,8.7941],[25.5458,60.1896,8.7941]]],
[[[25.5464,60.2089,5.7029],[25.5333,60.2146,10.6365],[25.525,60.2146,20.1664],[25.5172,60.212,0.0],[25.5187,60.2104,0.0],[25.5271,60.2104,10.6592],[25.5349,60.2078,0.1816],[25.5318,60.2026,0.0],[25.5349,60.2005,12.2467],[25.5276,60.1932,15.6931],[25.5292,60.1917,2.8333],[25.5333,60.1937,14.3886],[25.5375,60.1917,0.0],[25.5432,60.1922,7.745],[25.5422,60.1953,0.0],[25.5432,60.1974,0.0],[25.5396,60.2021,2.7734],[25.5422,60.2057,4.3373],[25.5474,60.2068,5.7234],[25.5464,60.2089,5.7029]]],
[[[25.5021,60.2104,11.5112],[25.5005,60.2089,2.5603],[25.5042,60.2062,4.4077],[25.5083,60.2104,13.2772],[25.5063,60.2125,0.0],[25.5021,60.2104,11.5112]]],
[[[25.5651,60.2182,7.8719],[25.5589,60.2151,10.4639],[25.5703,60.2151,0.0],[25.5682,60.2182,5.9822],[25.5651,60.2182,7.8719]]],
[[[25.8875,60.225,12.7598],[25.8755,60.2276,5.6869],[25.8708,60.2333,4.3285],[25.8693,60.2328,5.022],[25.8703,60.2276,2.4715],[25.8682,60.2255,0.0],[25.8583,60.2271,0.0],[25.8521,60.2229,11.1601],[25.8453,60.2286,6.0746],[25.8396,60.2313,17.4186],[25.8354,60.2271,0.0],[25.8312,60.2292,8.3606],[25.8271,60.2292,15.5453],[25.8214,60.2245,0.0],[25.8224,60.2214,17.0125],[25.8214,60.2193,5.2112],[25.8245,60.2172,29.8595],[25.812,60.2026,6.3954],[25.8068,60.2005,9.0569],[25.8312,60.1958,0.0],[25.8417,60.2021,27.4716],[25.8641,60.2047,7.7373],[25.863,60.2078,0.0],[25.8646,60.2083,3.5268],[25.8688,60.2062,0.0],[25.8729,60.2062,0.0],[25.8771,60.2083,0.0],[25.8854,60.2083,7.2464],[25.8896,60.2062,0.0],[25.9203,60.2068,13.2146],[25.9182,60.2099,0.0],[25.9104,60.2125,8.4089],[25.9005,60.213,11.4654],[25.8932,60.2203,15.4841],[25.8901,60.2214,4.4646],[25.8911,60.2245,3.9631],[25.8875,60.225,12.7598]]],
[[[25.9063,60.2167,12.8854],[25.9078,60.2182,11.0103],[25.9047,60.2182,14.9072],[25.9047,60.2172,8.8474],[25.9063,60.2167,12.8854]]],
[[[25.688,60.213,14.0157],[25.6891,60.2182,0.0],[25.6839,60.2193,3.2317],[25.6786,60.2266,9.987],[25.6729,60.2313,7.376],[25.6682,60.2276,18.8821],[25.663,60.2266,0.0],[25.6609,60.2234,0.0],[25.6641,60.2214,7.4811],[25.6589,60.2203,15.504],[25.6568,60.2182,19.0868],[25.6583,60.2167,9.7899],[25.6661,60.2161,0.0],[25.6729,60.2125,14.8647],[25.6833,60.2125,11.3012],[25.6875,60.2104,9.343],[25.6891,60.2109,5.249],[25.688,60.213,14.0157]]],
[[[25.925,60.2396,0.0],[25.9266,60.2401,0.0],[25.9266,60.2432,0.0],[25.9188,60.2458,0.0],[25.9063,60.2458,1.2515],[25.9,60.2417,1.3676],[25.8839,60.2411,7.8057],[25.9,60.2354,0.0],[25.9146,60.2396,14.5309],[25.925,60.2396,0.0]]],
[[[25.5083,60.2188,15.5746],[25.5099,60.2193,1.0551],[25.5099,60.2203,17.5648],[25.5068,60.2203,25.7814],[25.5083,60.2188,15.5746]]],
[[[25.5583,60.2271,0.0],[25.5547,60.2266,19.9547],[25.5526,60.2234,0.0],[25.5641,60.2234,9.0178],[25.562,60.2266,2.2968],[25.5583,60.2271,0.0]]],
[[[25.5333,60.2271,12.1761],[25.5349,60.2276,7.6901],[25.5349,60.2286,13.0189],[25.5318,60.2286,6.3005],[25.5333,60.2271,12.1761]]],
[[[25.5323,60.2371,18.6375],[25.5354,60.2354,16.1294],[25.5391,60.238,0.0],[25.5339,60.2422,0.0],[25.537,60.2474,0.0],[25.5339,60.2495,0.5722],[25.5391,60.2516,0.0],[25.5354,60.2542,13.2905],[25.5255,60.2536,11.211],[25.5214,60.2495,5.372],[25.5224,60.2443,7.8258],[25.5151,60.2401,15.9149],[25.5187,60.2354,0.0],[25.5229,60.2354,0.0],[25.5271,60.2375,13.2111],[25.5323,60.2371,18.6375]]],
[[[25.2417,60.2333,0.0],[25.2313,60.2333,2.8336],[25.2255,60.2349,0.0],[25.2234,60.2328,1.1099],[25.2245,60.2297,26.0951],[25.2172,60.2286,19.2573],[25.2182,60.2255,21.3843],[25.2172,60.2234,12.2077],[25.225,60.2229,1.106],[25.2292,60.2208,19.0628],[25.2417,60.2208,0.0],[25.2458,60.2229,0.5932],[25.25,60.2188,0.0],[25.2641,60.2193,16.7507],[25.2625,60.2208,0.0],[25.2542,60.2208,4.5358],[25.2505,60.2234,0.0],[25.2516,60.2266,0.0],[25.25,60.2292,0.0],[25.2516,60.2328,4.1532],[25.2417,60.2333,0.0]]],
[[[25.2943,60.2266,12.0247],[25.2979,60.2313,14.8471],[25.2932,60.237,0.0],[25.2833,60.2375,0.0],[25.2797,60.2349,11.8595],[25.2849,60.2328,4.4163],[25.2901,60.2255,24.421],[25.2943,60.2266,12.0247]]],
[[[25.2505,60.2411,0.0],[25.2563,60.2375,0.0],[25.2583,60.2396,0.0],[25.2563,60.2417,18.502],[25.2505,60.2411,0.0]]],
[[[25.2854,60.2458,8.8142],[25.2839,60.2443,20.2359],[25.2859,60.2422,3.5457],[25.2891,60.2422,6.7246],[25.287,60.2453,7.6036],[25.2854,60.2458,8.8142]]],
[[[25.35,60.2417,5.7239],[25.3516,60.2422,13.3131],[25.3516,60.2432,10.9579],[25.3484,60.2432,3.735],[25.35,60.2417,5.7239]]],
[[[25.3625,60.2417,0.0],[25.3667,60.2417,11.7394],[25.3682,60.2432,15.4822],[25.3589,60.2453,18.5136],[25.3625,60.2417,0.0]]],
[[[25.3312,60.2479,0.0],[25.3328,60.2484,0.0],[25.3328,60.2495,0.0],[25.3297,60.2495,16.533],[25.3312,60.2479,0.0]]],
[[[25.3807,60.2641,10.5166],[25.375,60.2646,16.7821],[25.3734,60.263,22.7476],[25.3792,60.2625,0.0],[25.3807,60.2641,10.5166]]],
[[[25.2479,60.2438,21.7743],[25.2495,60.2453,22.056],[25.2464,60.2453,24.2349],[25.2464,60.2443,23.6576],[25.2479,60.2438,21.7743]]],
[[[25.2625,60.2458,0.0],[25.2641,60.2474,11.4718],[25.2609,60.2474,16.4329],[25.2609,60.2464,11.7228],[25.2625,60.2458,0.0]]],
[[[25.3078,60.2516,14.0374],[25.3021,60.2521,0.0],[25.3005,60.2505,0.0],[25.3063,60.25,0.0],[25.3078,60.2516,14.0374]]],
[[[25.5099,60.2714,0.0],[25.5151,60.2786,4.6262],[25.5229,60.2792,0.0],[25.5266,60.2818,8.4406],[25.525,60.2833,12.965],[25.5167,60.2833,0.0],[25.5151,60.2849,0.0],[25.5229,60.2875,15.3126],[25.5271,60.2875,10.2617],[25.5313,60.2854,0.0],[25.537,60.2859,16.4073],[25.5391,60.288,22.7619],[25.538,60.2911,18.5883],[25.5401,60.2953,4.215],[25.5453,60.2964,15.188],[25.5443,60.2995,11.2388],[25.5464,60.3016,0.0],[25.5516,60.3026,0.0],[25.5521,60.3042,0.0],[25.5505,60.3068,0.2873],[25.5516,60.3099,1.5925],[25.5484,60.3151,14.9322],[25.5516,60.3203,7.4571],[25.5417,60.3208,5.5467],[25.5276,60.3255,28.1098],[25.5255,60.3286,0.0],[25.5307,60.3297,0.0],[25.5333,60.3333,0.0],[25.5453,60.3339,4.5475],[25.5521,60.3396,4.6038],[25.5589,60.3339,14.8276],[25.5729,60.3312,0.0],[25.5745,60.3328,0.0],[25.5714,60.3349,1.6366],[25.5792,60.3417,2.3551],[25.5807,60.3411,1.7662],[25.5797,60.338,3.1833],[25.5807,60.3359,6.5383],[25.5776,60.3307,9.9227],[25.5786,60.3276,4.4347],[25.5714,60.3234,0.0],[25.5786,60.3182,15.9483],[25.5771,60.3146,0.0],[25.5797,60.3109,0.0],[25.5854,60.3104,0.0],[25.5891,60.3141,0.0],[25.5859,60.3151,13.8977],[25.5839,60.3182,2.3617],[25.5875,60.3208,0.0],[25.5953,60.3214,0.0],[25.6016,60.3297,4.062],[25.5964,60.3318,0.0],[25.5958,60.3333,0.0],[25.5995,60.338,0.0],[25.5984,60.3411,0.8528],[25.6057,60.3411,0.0],[25.6026,60.337,0.0],[25.6047,60.3318,0.0],[25.6203,60.3318,0.0],[25.6245,60.338,0.0],[25.6214,60.3422,0.0],[25.6214,60.3453,7.7309],[25.6266,60.3464,0.0],[25.6286,60.3484,0.0],[25.6276,60.3516,0.581],[25.6297,60.3536,5.5036],[25.6354,60.3563,23.8585],[25.6432,60.3568,0.0],[25.6422,60.3599,0.6015],[25.6464,60.3661,29.3992],[25.6542,60.3688,0.0],[25.6578,60.3661,-0.1981],[25.6589,60.363,0.0822],[25.6667,60.3625,7.2991],[25.6682,60.3609,15.8269],[25.6589,60.3599,0.0],[25.6599,60.3568,0.0037],[25.6521,60.3542,3.5465],[25.6479,60.3563,11.3949],[25.6422,60.3536,0.0],[25.6401,60.3505,0.0],[25.6437,60.3458,1.2094],[25.6401,60.3401,6.1973],[25.6458,60.3333,0.0],[25.6688,60.3333,0.0],[25.6703,60.3318,7.6214],[25.6625,60.3292,8.8244],[25.6542,60.3292,4.3011],[25.65,60.3312,0.0],[25.6458,60.3312,0.0],[25.6417,60.3292,6.6363],[25.6313,60.3292,5.1994],[25.6297,60.3276,14.9614],[25.6318,60.3234,0.0],[25.6411,60.3224,2.2641],[25.6359,60.3141,3.1361],[25.6391,60.3099,7.3276],[25.638,60.3068,0.0],[25.6516,60.3078,0.1322],[25.6464,60.3005,4.2698],[25.6542,60.3,0.0],[25.6599,60.2974,0.0],[25.6641,60.2932,8.1352],[25.663,60.2901,0.0],[25.6661,60.2891,13.63],[25.6609,60.2818,0.0],[25.6682,60.2807,10.023],[25.6714,60.2776,9.8107],[25.6979,60.2771,0.0],[25.7021,60.2792,4.772],[25.7062,60.2771,0.0],[25.7141,60.2766,14.9761],[25.7125,60.2729,10.4675],[25.7141,60.2703,11.8205],[25.713,60.2672,11.6471],[25.7151,60.2651,0.0],[25.7286,60.262,8.1652],[25.7318,60.2589,6.9575],[25.737,60.2578,7.8808],[25.75,60.2479,2.1636],[25.7583,60.2479,0.0],[25.7625,60.25,4.7393],[25.7724,60.2495,1.3745],[25.7776,60.2422,2.8717],[25.7828,60.2411,5.1681],[25.7875,60.2375,2.1058],[25.7911,60.2401,9.5271],[25.7901,60.2432,9.3421],[25.7938,60.2479,0.0],[25.7922,60.2505,9.5747],[25.7932,60.2536,0.0],[25.7922,60.2557,0.0],[25.7979,60.2562,0.0],[25.8021,60.2542,5.8605],[25.8042,60.2562,11.2582],[25.8,60.2604,14.2377],[25.7958,60.2583,-0.4392],[25.788,60.2609,5.5555],[25.7901,60.2641,0.0],[25.8,60.2646,6.2694],[25.8042,60.2625,0.5898],[25.8083,60.2646,3.2],[25.8167,60.2646,1.8639],[25.8208,60.2625,0.0],[25.8292,60.2625,12.8389],[25.8354,60.2667,10.0363],[25.8474,60.2672,5.3639],[25.8422,60.2724,8.3606],[25.8516,60.2734,0.0],[25.8495,60.2766,11.77],[25.8417,60.2813,0.0],[25.8375,60.2813,0.0],[25.8333,60.2792,17.8347],[25.825,60.2792,0.0],[25.8188,60.2833,4.2586],[25.8104,60.2833,0.0],[25.8089,60.2818,0.0],[25.8141,60.2807,14.8224],[25.8161,60.2776,1.0842],[25.8104,60.2771,0.0],[25.8063,60.2792,0.0],[25.8,60.2792,3.0134],[25.7818,60.2839,6.4548],[25.7797,60.288,2.9291],[25.7807,60.2911,0.0],[25.7797,60.2922,0.0],[25.7714,60.2943,1.9501],[25.7766,60.3016,0.0],[25.7672,60.3026,0.0],[25.7661,60.3057,0.0],[25.7609,60.3068,9.0846],[25.762,60.3099,0.0],[25.7542,60.3125,0.0],[25.7438,60.3083,0.0],[25.7401,60.3109,0.373],[25.7401,60.3141,0.0],[25.7464,60.3203,0.0],[25.7563,60.3208,0.1464],[25.762,60.3161,3.3889],[25.7609,60.313,0.0],[25.7703,60.3099,11.9237],[25.7734,60.3068,0.0],[25.7891,60.3016,13.6949],[25.7911,60.2995,24.9401],[25.7901,60.2964,0.0],[25.8021,60.2875,0.0],[25.8208,60.2854,0.0],[25.8354,60.2896,17.3382],[25.8578,60.2891,0.4527],[25.8578,60.2859,6.3608],[25.8547,60.2818,0.0],[25.8599,60.2776,13.8726],[25.8568,60.2734,0.0],[25.8682,60.2703,0.0],[25.8724,60.2672,0.0],[25.8703,60.2651,5.4852],[25.8651,60.2641,4.4361],[25.8682,60.2589,0.0],[25.8625,60.2562,12.5825],[25.8542,60.2562,15.671],[25.8458,60.2604,9.6772],[25.8359,60.2578,0.0],[25.8375,60.2562,5.4039],[25.8453,60.2557,2.8337],[25.8474,60.2536,0.0],[25.8464,60.2505,7.1887],[25.8563,60.25,11.483],[25.8625,60.2542,0.0],[25.8667,60.2521,0.0],[25.8708,60.2542,8.0315],[25.8937,60.2438,0.0],[25.9042,60.2479,0.0],[25.9224,60.2505,0.0],[25.9266,60.2526,0.0],[25.9255,60.2557,-0.6689],[25.9307,60.2568,0.0],[25.9349,60.261,7.4339],[25.9333,60.2625,0.0],[25.9292,60.2604,14.7292],[25.9255,60.2609,0.0],[25.9266,60.2641,0.0],[25.925,60.2646,0.0],[25.9208,60.2625,10.4955],[25.9151,60.263,6.722],[25.9161,60.2661,10.8376],[25.912,60.2724,0.0],[25.9068,60.2734,0.5334],[25.9099,60.2786,7.8347],[25.9036,60.2828,6.3503],[25.8979,60.2813,16.5603],[25.8937,60.2833,1.8999],[25.8859,60.2839,2.4954],[25.887,60.287,0.0],[25.8859,60.2911,0.0],[25.8995,60.2964,0.0],[25.9016,60.2984,0.0],[25.9016,60.3016,2.2789],[25.8974,60.3057,3.19],[25.888,60.3089,2.3056],[25.8849,60.312,1.261],[25.8797,60.313,9.858],[25.8828,60.3182,1.8489],[25.8771,60.3187,0.0],[25.8724,60.3224,-0.7996],[25.8672,60.3234,0.0],[25.8724,60.3255,-0.4559],[25.8734,60.3286,-0.3395],[25.8786,60.3297,0.0],[25.8901,60.337,0.0],[25.8958,60.3354,0.0],[25.9057,60.338,0.0],[25.9089,60.3411,8.0686],[25.9141,60.3422,12.1192],[25.9161,60.3443,16.5077],[25.9146,60.3479,0.0],[25.9161,60.3505,10.5059],[25.9151,60.3536,0.0],[25.9161,60.3557,0.0],[25.9109,60.3589,0.0],[25.9089,60.362,0.0],[25.9141,60.3682,0.0],[25.9042,60.3688,0.0],[25.8901,60.3734,2.3924],[25.8911,60.3766,0.0],[25.8859,60.3797,-0.6036],[25.887,60.3828,0.2605],[25.8828,60.3891,0.0],[25.8734,60.3901,5.5757],[25.8714,60.3922,0.0],[25.8729,60.3958,0.0],[25.863,60.3984,0.0],[25.8578,60.4036,-0.2045],[25.8521,60.4042,0.0352],[25.8505,60.4057,-0.2583],[25.8625,60.4083,-1.0767],[25.8745,60.4036,0.0],[25.8776,60.4005,-0.4434],[25.8854,60.3979,0.0],[25.8932,60.3974,2.2461],[25.8953,60.3932,9.2284],[25.8943,60.3901,0.0],[25.8995,60.387,0.0],[25.8984,60.3797,0.0],[25.9078,60.3766,8.1264],[25.913,60.3714,0.0],[25.9307,60.3682,7.0195],[25.9367,60.3623,0.0],[25.9394,60.3622,5.0272],[25.9427,60.3801,13.826],[25.9518,60.3797,37.4029],[25.9551,60.3975,9.6054],[25.946,60.3979,21.9095],[25.9485,60.4114,12.8682],[25.9394,60.4118,22.1029],[25.941,60.4207,24.8554],[25.932,60.4211,8.0944],[25.9328,60.4256,24.4401],[25.9237,60.426,24.3564],[25.9245,60.4305,35.7873],[25.9155,60.4309,23.9636],[25.9163,60.4353,37.6779],[25.8981,60.4361,22.1904],[25.8989,60.4406,21.4501],[25.8717,60.4418,25.1707],[25.8725,60.4463,22.6521],[25.8635,60.4467,28.6017],[25.8643,60.4511,20.9638],[25.8552,60.4515,28.5336],[25.856,60.456,26.6494],[25.8469,60.4564,50.7151],[25.8478,60.4609,37.6519],[25.8387,60.4613,53.0197],[25.8395,60.4658,44.7029],[25.8304,60.4662,53.4062],[25.8312,60.4706,33.2884],[25.8221,60.471,30.6165],[25.8229,60.4755,54.7465],[25.8138,60.4759,24.4709],[25.8147,60.4804,27.4485],[25.8056,60.4808,30.8978],[25.812,60.5165,30.8731],[25.8211,60.5161,71.7599],[25.8284,60.556399999999996,63.306399999999996],[25.8374,60.556,77.68],[25.8391,60.5649,59.3582],[25.8482,60.5645,48.9426],[25.8498,60.5735,53.234],[25.9318,60.5699,23.2426],[25.9326,60.5744,26.9579],[25.9417,60.5739,41.6199],[25.9425,60.5784,54.7773],[25.9516,60.578,46.2974],[25.9524,60.5825,48.901],[25.9615,60.5821,54.3831],[25.9632,60.591,38.7983],[25.9723,60.5906,37.1327],[25.9732,60.5951,49.8905],[25.964,60.5955,35.224],[25.965699999999998,60.6045,51.3591],[25.9566,60.6049,32.3667],[25.9574,60.6093,35.5388],[25.9483,60.6097,24.509],[25.9491,60.6142,24.093],[25.9582,60.6138,23.2238],[25.9591,60.6183,37.3336],[26.0047,60.6162,19.0609],[26.0055,60.6207,24.3384],[26.0146,60.6203,21.6286],[26.0163,60.6292,25.526],[26.0072,60.6297,31.3928],[26.0088,60.6386,27.7072],[25.9997,60.639,45.6552],[26.0014,60.6479,32.5596],[25.9649,60.6496,59.9235],[25.964,60.6451,35.4132],[25.9458,60.6459,51.4433],[25.9449,60.6414,37.0999],[25.9267,60.6422,41.3245],[25.9259,60.6378,57.8803],[25.9076,60.6386,52.3452],[25.9093,60.6475,81.9816],[25.9184,60.6471,56.8199],[25.9209,60.6605,51.9718],[25.93,60.6601,71.7111],[25.9325,60.6735,80.6837],[25.9416,60.6731,39.4552],[25.9441,60.6866,37.8358],[25.9349,60.687,62.8664],[25.9391,60.7093,44.0955],[25.9299,60.7097,61.5675],[25.9316,60.7187,52.3898],[25.9224,60.7191,61.5956],[25.9249,60.7325,67.6522],[25.9158,60.7329,55.6079],[25.9166,60.7374,92.0445],[25.9074,60.7378,92.1642],[25.9066,60.7333,79.5377],[25.87,60.7349,85.9155],[25.8692,60.7304,77.4216],[25.86,60.7308,76.6437],[25.8592,60.7263,62.9694],[25.85,60.7267,57.8107],[25.8492,60.7223,61.1499],[25.8401,60.7227,68.241],[25.8385,60.7137,61.8905],[25.811,60.7149,57.8857],[25.8102,60.7104,55.5834],[25.7827,60.7116,51.0105],[25.7819,60.7071,52.4029],[25.7362,60.7091,66.9401],[25.737,60.7136,65.706],[25.7279,60.714,83.2819],[25.7287,60.7184,69.9277],[25.7195,60.7188,84.4856],[25.7187,60.7144,89.1519],[25.7096,60.7147,93.9297],[25.7088,60.7103,88.2826],[25.6996,60.7107,85.0549],[25.698,60.7017,71.9693],[25.6889,60.7021,63.3016],[25.6873,60.6931,50.6865],[25.6782,60.6935,52.1305],[25.6774,60.6891,61.1229],[25.6408,60.6906,44.8824],[25.64,60.6861,44.0136],[25.6309,60.6865,44.7556],[25.6293,60.6776,44.5544],[25.6201,60.6779,52.1158],[25.6194,60.6735,51.2701],[25.5919,60.6746,51.6994],[25.5927,60.6791,53.4364],[25.5836,60.6795,54.5182],[25.5844,60.6839,57.2354],[25.5661,60.6847,65.798],[25.5669,60.6892,62.3512],[25.5577,60.6895,58.0549],[25.5585,60.694,59.0437],[25.5402,60.6948,62.4851],[25.541,60.6992,72.7566],[25.5227,60.7,67.2039],[25.5234,60.7045,72.8006],[25.5143,60.7048,72.4412],[25.5135,60.7004,70.6646],[25.4952,60.7011,77.7955],[25.4945,60.6967,78.1575],[25.4853,60.697,83.6744],[25.4846,60.6925,83.8677],[25.4754,60.6929,74.7372],[25.4746,60.6884,95.3466],[25.4655,60.6888,74.2633],[25.4647,60.6843,75.2361],[25.4556,60.6847,75.3613],[25.4541,60.6758,82.971],[25.4449,60.6761,81.6443],[25.4442,60.6716,78.3645],[25.435,60.672,96.4606],[25.4335,60.6631,81.3744],[25.4244,60.6634,75.9103],[25.4236,60.659,78.6195],[25.4328,60.6586,75.4574],[25.4297,60.6407,83.7767],[25.4389,60.6403,85.9361],[25.4381,60.6359,70.1777],[25.4473,60.6355,67.3157],[25.4465,60.631,63.773],[25.4556,60.6306,61.2043],[25.4548,60.6262,62.0232],[25.464,60.6258,82.4167],[25.4632,60.6213,62.9018],[25.4723,60.6209,74.8312],[25.4716,60.6165,79.3119],[25.4807,60.6161,60.7454],[25.4792,60.6072,78.3126],[25.4883,60.6068,61.4595],[25.4868,60.5978,68.4165],[25.4959,60.5975,76.2159],[25.4944,60.5885,76.659],[25.5035,60.5881,63.3928],[25.5027,60.5837,55.9146],[25.5119,60.5833,62.8067],[25.5111,60.5788,58.3661],[25.5202,60.5784,45.3013],[25.5194,60.574,42.1636],[25.5103,60.5743,42.4548],[25.5073,60.556399999999996,47.868899999999996],[25.4891,60.5572,40.105],[25.4883,60.5527,58.7114],[25.4701,60.5535,69.2899],[25.4693,60.549,52.3489],[25.4511,60.5497,58.6207],[25.4504,60.5452,80.1855],[25.4321,60.546,69.4155],[25.4314,60.5415,73.6268],[25.4132,60.5423,83.4297],[25.4117,60.5333,79.9204],[25.4208,60.5329,64.1663],[25.4185,60.5195,62.7464],[25.4276,60.5191,57.2944],[25.4261,60.5102,73.9982],[25.4352,60.5098,63.8645],[25.4307,60.483,60.4124],[25.4398,60.4826,42.1724],[25.4391,60.4781,56.1237],[25.4481,60.4778,44.3591],[25.4474,60.4733,52.0465],[25.4656,60.4725,46.4301],[25.4648,60.4681,70.3721],[25.4739,60.4677,58.0954],[25.4731,60.4632,45.1079],[25.4822,60.4628,46.8258],[25.4815,60.4584,63.3532],[25.4996,60.4576,40.9085],[25.4989,60.4532,43.1263],[25.508,60.4528,44.0736],[25.5064,60.4438,46.837],[25.5155,60.4435,52.0104],[25.5147,60.439,43.6614],[25.5057,60.4394,38.5062],[25.5049,60.4349,36.2819],[25.4958,60.4352,38.0094],[25.4943,60.4263,26.7665],[25.4762,60.4271,17.0465],[25.4754,60.4226,11.9248],[25.4663,60.423,11.8199],[25.4656,60.4185,41.2897],[25.4475,60.4192,32.6858],[25.4467,60.4147,26.2537],[25.4286,60.4155,42.5229],[25.4278,60.411,21.5018],[25.4006,60.4121,40.1953],[25.3999,60.4076,14.3359],[25.3727,60.4087,25.6617],[25.3719,60.4043,22.2167],[25.3629,60.4046,22.277],[25.3636,60.4091,45.4413],[25.3545,60.4095,63.424],[25.356,60.4184,37.4872],[25.3469,60.4188,30.2531],[25.3484,60.4277,29.3805],[25.3393,60.4281,40.8451],[25.3401,60.4326,54.4269],[25.331,60.4329,61.2987],[25.3317,60.4374,70.4198],[25.3227,60.4378,59.0123],[25.3234,60.4422,58.832],[25.3143,60.4426,56.0318],[25.3151,60.4471,43.3062],[25.306,60.4474,79.6711],[25.3067,60.4519,65.4694],[25.2976,60.4523,69.6734],[25.2984,60.4567,55.1315],[25.2893,60.4571,46.7206],[25.29,60.4616,60.0708],[25.2809,60.4619,46.9185],[25.2816,60.4664,50.3581],[25.2726,60.4668,46.4073],[25.274,60.4757,63.3542],[25.2649,60.4761,58.3037],[25.2657,60.4806,75.7742],[25.2566,60.4809,70.3506],[25.2573,60.4854,70.2212],[25.2482,60.4857,75.9316],[25.2489,60.4902,61.4888],[25.2398,60.4906,53.8092],[25.2406,60.495,45.6849],[25.2315,60.4954,44.7689],[25.2322,60.4999,65.2625],[25.214,60.5006,73.6562],[25.2147,60.5051,64.6406],[25.1692,60.5068,43.8877],[25.1657,60.4845,55.9027],[25.1566,60.4848,61.9193],[25.1488,60.4356,36.5574],[25.1578,60.4352,64.2392],[25.155,60.4173,38.18],[25.1641,60.417,39.6289],[25.1626,60.408,36.1288],[25.1536,60.4084,49.276],[25.1472,60.3681,51.9292],[25.1562,60.3677,59.3269],[25.1548,60.3588,36.9697],[25.1458,60.3591,48.6795],[25.1444,60.3502,42.7932],[25.1353,60.3505,61.6771],[25.1346,60.346,38.2002],[25.1527,60.3453,43.2715],[25.1513,60.3364,30.4676],[25.1241,60.3374,34.0602],[25.1234,60.3329,45.8622],[25.1144,60.3333,32.0542],[25.1137,60.3288,41.4886],[25.1227,60.3285,32.9109],[25.122,60.324,41.5154],[25.1401,60.3233,35.2866],[25.1394,60.3188,62.7285],[25.1575,60.3181,35.6674],[25.1568,60.3136,61.0353],[25.1749,60.3129,65.4981],[25.1735,60.304,58.7031],[25.1825,60.3036,53.0859],[25.1818,60.2992,39.4012],[25.1908,60.2988,57.3939],[25.1901,60.2943,51.0368],[25.1992,60.294,46.5873],[25.1985,60.2895,52.3553],[25.1894,60.2899,64.9049],[25.1873,60.2764,32.5238],[25.1692,60.2771,46.7829],[25.1685,60.2727,53.5629],[25.1504,60.2733,52.2101],[25.1497,60.2689,48.0414],[25.1407,60.2692,12.0156],[25.14,60.2648,14.0508],[25.149,60.2644,34.841],[25.1483,60.2599,11.3122],[25.1573,60.2596,42.2174],[25.1559,60.2506,21.944],[25.165,60.2503,7.2845],[25.1635,60.2413,41.0047],[25.1726,60.241,25.3213],[25.1712,60.232,0.4134],[25.1802,60.2317,9.4189],[25.1795,60.2272,2.1108],[25.1855,60.2269,7.3869],[25.1839,60.2307,18.4327],[25.1896,60.2292,12.0704],[25.1911,60.2297,9.8173],[25.1901,60.2328,0.0],[25.1917,60.2333,0.0],[25.1958,60.2313,6.253],[25.2,60.2333,0.0],[25.2078,60.2339,15.6154],[25.2109,60.2391,5.6044],[25.2161,60.2401,0.7336],[25.2182,60.2422,6.3962],[25.2172,60.2453,0.0],[25.2313,60.2458,0.0],[25.237,60.2443,23.9542],[25.2354,60.2479,1.8247],[25.237,60.2516,5.4791],[25.2328,60.2557,0.0],[25.2271,60.2562,15.0643],[25.2255,60.2578,0.0],[25.2375,60.2583,0.0],[25.2417,60.2604,0.0],[25.2453,60.2578,6.473],[25.2443,60.2526,13.6426],[25.2521,60.25,0.0],[25.2646,60.25,0.0],[25.275,60.2542,21.2506],[25.2854,60.2542,0.0],[25.2896,60.2562,0.0],[25.2938,60.2542,0.0],[25.3146,60.2542,0.0],[25.3224,60.2568,0.0],[25.325,60.2604,1.6127],[25.3333,60.2604,0.0],[25.3375,60.2583,0.0],[25.3563,60.2562,0.0],[25.3578,60.2557,14.9499],[25.3568,60.2526,0.0],[25.3583,60.2521,0.0],[25.3682,60.2578,0.0],[25.3646,60.2604,20.2675],[25.3604,60.2583,4.4967],[25.3521,60.2583,0.0],[25.3505,60.2589,0.0],[25.3484,60.2641,0.0],[25.3604,60.2646,0.0],[25.362,60.2651,0.0],[25.3609,60.2682,13.5833],[25.3708,60.2687,16.5576],[25.375,60.2708,0.0],[25.3792,60.2687,0.0],[25.3891,60.2682,8.2925],[25.3839,60.2661,12.28],[25.3849,60.263,5.949],[25.3797,60.2557,25.8064],[25.3875,60.2521,0.0],[25.3917,60.2542,8.352],[25.4104,60.2542,0.0],[25.425,60.2583,0.0],[25.4309,60.2577,13.1061],[25.4328,60.2557,5.3684],[25.4297,60.2536,21.2687],[25.4312,60.2521,20.0309],[25.4453,60.2526,10.3774],[25.4464,60.2557,0.0],[25.45,60.2583,0.0],[25.4516,60.2578,0.0],[25.4505,60.2547,0.0],[25.4562,60.2521,11.2857],[25.4604,60.2521,0.0],[25.4682,60.2568,0.0],[25.463,60.2589,17.1997],[25.4646,60.2604,0.0],[25.4703,60.2599,0.0],[25.475,60.2562,0.0],[25.4807,60.2568,0.0],[25.4854,60.2604,6.6743],[25.4891,60.2578,11.6182],[25.4771,60.2521,16.0589],[25.4708,60.2521,0.0],[25.4667,60.25,19.2203],[25.4604,60.25,3.779],[25.4458,60.2458,16.8575],[25.4167,60.2458,0.0],[25.4151,60.2464,4.311],[25.4161,60.2495,17.8443],[25.4068,60.2516,0.0],[25.4078,60.2484,3.2051],[25.4068,60.2464,0.0],[25.4089,60.2422,0.0],[25.4141,60.2411,14.1643],[25.413,60.238,0.0],[25.4182,60.237,0.0],[25.4172,60.2318,0.0],[25.4203,60.2286,6.041],[25.4193,60.2255,14.3526],[25.4224,60.2255,15.0307],[25.4271,60.2292,17.8734],[25.4354,60.225,16.3824],[25.4438,60.225,0.0],[25.4484,60.2307,8.3447],[25.4578,60.2318,0.0],[25.4641,60.2359,0.0],[25.4682,60.2401,0.0],[25.4672,60.2432,0.0],[25.4849,60.2443,0.0],[25.4755,60.2495,2.5827],[25.4833,60.2521,17.1185],[25.4896,60.2479,2.5828],[25.4974,60.2505,6.3522],[25.5016,60.2547,8.5417],[25.4984,60.2578,10.6306],[25.5063,60.2583,0.0],[25.5099,60.2609,0.0],[25.5083,60.2646,18.1589],[25.5099,60.2714,0.0]]],
[[[25.8391,60.188,8.7948],[25.8375,60.1896,12.966],[25.8359,60.1891,4.7871],[25.8359,60.188,14.3475],[25.8391,60.188,8.7948]]],
[[[25.862,60.1964,12.0993],[25.862,60.1974,11.4112],[25.8589,60.1974,9.9838],[25.8589,60.1964,12.2577],[25.862,60.1964,12.0993]]],
[[[25.8724,60.1984,5.5005],[25.8708,60.2,13.2829],[25.8693,60.1995,15.2182],[25.8708,60.1979,0.0],[25.8724,60.1984,5.5005]]],
[[[25.8813,60.2021,0.0],[25.8771,60.2021,0.0],[25.8755,60.2005,14.9743],[25.887,60.2005,12.9266],[25.8854,60.2021,0.0],[25.8813,60.2021,0.0]]],
[[[25.9313,60.1979,7.8736],[25.9349,60.1995,8.8948],[25.9271,60.2021,0.0],[25.9214,60.2016,0.2267],[25.9214,60.2005,0.3983],[25.9313,60.1979,7.8736]]],
[[[25.9188,60.2146,17.2201],[25.9229,60.2125,5.3851],[25.9266,60.2161,0.0],[25.9151,60.2161,11.9052],[25.9188,60.2146,17.2201]]],
[[[25.9375,60.2188,14.5511],[25.9339,60.2172,4.9771],[25.9479,60.2167,13.1388],[25.9516,60.2203,0.0],[25.9458,60.2208,0.0],[25.9417,60.2188,15.8573],[25.9375,60.2188,14.5511]]],
[[[25.9611,60.2205,7.0995],[25.9589,60.2172,14.1141],[25.9688,60.2167,15.5286],[25.9828,60.2224,0.0],[25.9646,60.2229,18.6974],[25.9611,60.2205,7.0995]]],
[[[26.0068,60.2266,6.4214],[26.0125,60.2229,4.7353],[26.0146,60.225,6.7557],[26.0125,60.2271,9.3555],[26.0068,60.2266,6.4214]]],
[[[25.9313,60.2313,0.0],[25.9188,60.2354,9.291],[25.9146,60.2354,5.5211],[25.9042,60.2313,11.0683],[25.8984,60.2307,13.8207],[25.8943,60.2255,3.731],[25.9021,60.2229,0.0],[25.9146,60.2229,15.6365],[25.9208,60.2188,0.0],[25.925,60.2208,9.822],[25.937,60.2214,0.0],[25.937,60.2245,14.2077],[25.9354,60.225,7.4489],[25.9193,60.2255,0.0],[25.9208,60.2271,14.7531],[25.9271,60.2271,0.0],[25.9349,60.2297,12.3629],[25.9313,60.2313,0.0]]],
[[[25.9646,60.2292,4.2634],[25.9609,60.2255,5.5475],[25.9667,60.225,10.812],[25.9703,60.2276,0.0],[25.9688,60.2292,3.5056],[25.9646,60.2292,4.2634]]],
[[[25.9458,60.2292,16.6271],[25.9422,60.2286,12.8001],[25.9422,60.2276,14.5408],[25.9495,60.2276,9.8058],[25.9458,60.2292,16.6271]]],
[[[26.0141,60.2297,12.1333],[26.0125,60.2313,11.9809],[26.0109,60.2307,14.0425],[26.0125,60.2292,6.8109],[26.0141,60.2297,12.1333]]],
[[[25.9745,60.2318,0.0],[25.9745,60.2328,2.2409],[25.9714,60.2328,14.8185],[25.9714,60.2318,12.5656],[25.9745,60.2318,0.0]]],
[[[25.9297,60.2339,16.3216],[25.9354,60.2333,5.3391],[25.9391,60.237,3.8499],[25.9333,60.2354,1.532],[25.9276,60.237,15.401],[25.9297,60.2339,16.3216]]],
[[[25.9349,60.2505,0.0],[25.9333,60.2521,5.7629],[25.9318,60.2516,5.4244],[25.9318,60.2505,17.3465],[25.9349,60.2505,0.0]]],
[[[25.8474,60.263,21.0422],[25.8474,60.2641,12.7813],[25.8443,60.2641,1.5451],[25.8443,60.263,10.0989],[25.8474,60.263,21.0422]]],
[[[25.8557,60.2672,1.8293],[25.8557,60.2682,6.1955],[25.8526,60.2682,19.4809],[25.8526,60.2672,9.0048],[25.8557,60.2672,1.8293]]],
[[[25.7891,60.2901,11.3032],[25.7891,60.2911,12.3314],[25.7859,60.2911,6.2247],[25.7859,60.2901,0.5031],[25.7891,60.2901,11.3032]]],
[[[25.8953,60.3193,3.2579],[25.8937,60.3208,9.6037],[25.8922,60.3203,16.2385],[25.8937,60.3187,2.2659],[25.8953,60.3193,3.2579]]],
[[[25.9099,60.3109,0.0],[25.9089,60.3089,0.0],[25.9104,60.3083,13.916],[25.9141,60.3089,15.9845],[25.9146,60.3104,10.6664],[25.9125,60.3125,13.7034],[25.9099,60.3109,0.0]]],
[[[25.6182,60.3026,3.4923],[25.6167,60.3042,4.7639],[25.6089,60.3047,0.0],[25.612,60.3078,0.0],[25.6042,60.3146,0.0],[25.5984,60.3141,0.0],[25.587,60.3068,4.9826],[25.5776,60.3036,6.8048],[25.5755,60.3016,0.3932],[25.5766,60.2984,7.6816],[25.575,60.2958,14.3243],[25.5766,60.2932,4.4661],[25.5755,60.2901,0.0],[25.5766,60.288,0.0],[25.5734,60.2828,0.0],[25.5745,60.2797,6.7604],[25.5729,60.2771,8.14],[25.5745,60.2734,16.2047],[25.5714,60.2693,5.9004],[25.5766,60.2682,17.7897],[25.5771,60.2667,0.0],[25.5734,60.2609,0.0],[25.5786,60.2599,17.0937],[25.5797,60.2568,11.8562],[25.5849,60.2557,11.8111],[25.5839,60.2526,0.0],[25.5891,60.2516,6.5763],[25.5901,60.2484,20.2006],[25.5964,60.2422,13.8674],[25.6021,60.2417,9.7712],[25.6125,60.2375,12.9269],[25.6208,60.2375,0.0],[25.625,60.2396,14.3499],[25.6328,60.2401,2.1464],[25.6339,60.2432,2.1508],[25.6375,60.2458,2.7737],[25.6411,60.2432,0.0],[25.6411,60.2401,3.8887],[25.637,60.2359,9.0932],[25.6292,60.2354,4.6452],[25.6187,60.2313,2.7909],[25.6104,60.2313,0.0],[25.5964,60.2266,7.326],[25.6,60.2229,1.3459],[25.6161,60.2203,8.1702],[25.6182,60.2172,0.0],[25.6083,60.2188,0.0],[25.6068,60.2172,3.8024],[25.6125,60.2125,0.0],[25.6266,60.212,18.1996],[25.6286,60.2089,12.3686],[25.6255,60.2047,12.6462],[25.6313,60.2042,7.5511],[25.6432,60.2109,0.0],[25.6417,60.2125,6.1172],[25.6354,60.2125,11.2271],[25.6297,60.2151,14.8933],[25.6318,60.2182,0.0],[25.637,60.2193,0.0],[25.6354,60.2229,3.6658],[25.638,60.2266,8.449],[25.6458,60.2292,7.312],[25.6563,60.2292,4.0597],[25.6641,60.2318,0.0],[25.6661,60.2359,0.0],[25.6651,60.2391,3.702],[25.6771,60.2396,5.0551],[25.6786,60.2411,9.1224],[25.6693,60.2484,16.8183],[25.6708,60.2521,5.5789],[25.6693,60.2547,0.0],[25.6703,60.2578,3.3177],[25.6667,60.2604,0.9855],[25.6568,60.2609,0.693],[25.6578,60.2641,0.0],[25.6526,60.2651,2.7096],[25.6536,60.2682,0.0],[25.6516,60.2724,0.0],[25.6437,60.275,11.3725],[25.6359,60.2755,11.3501],[25.637,60.2786,0.0],[25.6307,60.2828,10.1131],[25.6187,60.2833,0.0],[25.6109,60.288,8.6863],[25.612,60.2911,0.0],[25.6089,60.2943,8.5521],[25.6089,60.2974,4.5126],[25.6182,60.3026,3.4923]]],
[[[25.5766,60.3047,0.0],[25.575,60.3063,0.0],[25.5734,60.3057,0.0],[25.575,60.3042,0.0],[25.5766,60.3047,0.0]]],
[[[25.6146,60.3125,0.0],[25.6203,60.3109,10.3792],[25.6245,60.3161,5.4411],[25.6109,60.3141,9.3558],[25.6146,60.3125,0.0]]],
[[[25.6536,60.3589,0.0],[25.6521,60.3604,8.0573],[25.6505,60.3599,5.9832],[25.6521,60.3583,0.0],[25.6536,60.3589,0.0]]],
[[[25.9005,60.3203,0.0],[25.9036,60.3193,-0.6254],[25.9078,60.3245,-0.1986],[25.9042,60.3271,4.0743],[25.8964,60.3245,1.3532],[25.9016,60.3224,-0.4048],[25.9005,60.3203,0.0]]],
[[[25.8729,60.3979,5.7644],[25.8729,60.3958,0.0],[25.8766,60.3964,2.0047],[25.8766,60.3974,0.0],[25.8729,60.3979,5.7644]]]]}
,"properties": {"GID_3": "FIN.4.1.2_1","GID_0": "FIN","country": "Finland","GID_1": "FIN.4_1","province": "SouthernFinland","NL_NAME_1": "NA","GID_2": "FIN.4.1_1","county": "EasternUusimaa","NL_NAME_2": "NA","city": "Porvoo","VARNAME_3": "NA","NL_NAME_3": "NA","TYPE_3": "Seutukunta|Ekonomiskregion","ENGTYPE_3": "Sub-Region","CC_3": "NA","HASC_3": "FI.ES.PV","name": "Porvoo.city","area_km2": 1577.019,"hist_schema_id": "Elevation0-9000","hist_area_km2": {"0": 204.729,"25": 609.435,"50": 537.275,"75": 210.747,"100": 14.822}}}