{"type": "Feature","bbox": [22.788,63.4982,24.4878,64.175],"geometry": {"type": "MultiPolygon","coordinates": [[[[23.3871,63.7572,31.9414],[23.4026,63.7568,24.1023],[23.402,63.7524,28.7565],[23.4324,63.7517,26.5275],[23.4314,63.7427,35.3201],[23.4415,63.7424,29.232],[23.4409,63.7379,39.7886],[23.4511,63.7377,36.2933],[23.4516,63.7422,26.3231],[23.4618,63.742,26.6225],[23.4634,63.7554,39.3755],[23.4533,63.7556,32.8084],[23.4543,63.7646,31.8453],[23.4645,63.7644,37.9913],[23.4656,63.7734,34.275],[23.4757,63.7731,41.3718],[23.4763,63.7776,45.5125],[23.4864,63.7774,54.4355],[23.4859,63.7729,50.0012],[23.5061,63.7724,50.4404],[23.5056,63.7679,55.0814],[23.5157,63.7677,50.9322],[23.5152,63.7632,50.7156],[23.5253,63.763,51.873],[23.5248,63.7585,51.3098],[23.5349,63.7582,52.0245],[23.5343,63.7537,52.1075],[23.5445,63.7535,49.7867],[23.5439,63.749,48.0],[23.5642,63.7485,53.6845],[23.5636,63.744,54.6933],[23.5738,63.7438,53.2642],[23.5732,63.7393,58.5597],[23.5833,63.7391,53.6829],[23.5828,63.7346,57.6447],[23.5929,63.7343,56.5239],[23.5923,63.7299,53.4825],[23.6025,63.7296,57.9189],[23.6019,63.7251,58.5512],[23.6222,63.7246,63.6824],[23.6216,63.7201,66.9505],[23.6317,63.7199,73.9655],[23.6311,63.7154,71.909],[23.6514,63.7149,65.6597],[23.6508,63.7104,65.4062],[23.6609,63.7102,65.6236],[23.6603,63.7057,69.198],[23.6806,63.7052,70.9593],[23.68,63.7007,75.6003],[23.6901,63.7004,69.8334],[23.6895,63.6959,69.729],[23.6996,63.6957,70.9806],[23.6991,63.6912,77.2847],[23.7092,63.691,71.4222],[23.7086,63.6865,70.6217],[23.7288,63.686,77.8839],[23.7282,63.6815,74.6057],[23.7383,63.6812,74.8581],[23.7378,63.6767,83.7462],[23.7479,63.6765,78.6371],[23.7473,63.672,87.6892],[23.7574,63.6717,90.8743],[23.7568,63.6673,87.8675],[23.777,63.6667,89.7839],[23.7764,63.6623,96.4711],[23.7966,63.6617,87.4152],[23.796,63.6572,96.0997],[23.8364,63.6562,96.158],[23.8358,63.6517,85.8796],[23.8661,63.6509,106.0648],[23.8655,63.6464,105.301],[23.8857,63.6459,103.2232],[23.8851,63.6414,106.5629],[23.8952,63.6412,102.4525],[23.8964,63.6501,103.0389],[23.9065,63.6499,101.9579],[23.9089,63.6678,105.6631],[23.8988,63.6681,105.0654],[23.9001,63.677,102.1646],[23.89,63.6773,103.924],[23.8906,63.6818,103.0667],[23.8805,63.682,105.7903],[23.8817,63.691,98.685],[23.8716,63.6913,97.6777],[23.8722,63.6958,104.2003],[23.8621,63.696,95.4586],[23.8633,63.705,94.354],[23.8532,63.7053,94.5735],[23.8538,63.7098,92.219],[23.8437,63.71,87.2834],[23.8443,63.7145,86.7998],[23.8342,63.7148,83.5114],[23.8347,63.7193,81.8313],[23.7943,63.7203,73.2255],[23.7937,63.7158,80.5122],[23.7835,63.7161,75.678],[23.7829,63.7116,81.8805],[23.7627,63.7121,90.2324],[23.7621,63.7076,80.2712],[23.752,63.7079,77.0642],[23.7514,63.7034,83.8331],[23.7312,63.7039,76.046],[23.7318,63.7084,73.4063],[23.7419,63.7081,71.8031],[23.7442,63.7261,65.6467],[23.7341,63.7263,76.9091],[23.7347,63.7308,65.403],[23.7144,63.7313,66.5232],[23.715,63.7358,60.129],[23.7252,63.7356,64.2059],[23.7263,63.7445,56.0492],[23.7466,63.744,68.1596],[23.7472,63.7485,81.5461],[23.7573,63.7482,74.3403],[23.7567,63.7438,70.942],[23.777,63.7433,75.5618],[23.7764,63.7388,82.4427],[23.7865,63.7385,80.2448],[23.7859,63.734,85.531],[23.8062,63.7335,80.5474],[23.8068,63.738,93.5237],[23.8169,63.7377,92.8814],[23.8175,63.7422,82.8464],[23.8276,63.7419,87.8934],[23.8283,63.7464,86.5705],[23.8384,63.7462,96.6012],[23.839,63.7506,89.3121],[23.8592,63.7501,88.7052],[23.8586,63.7456,91.2715],[23.8688,63.7454,92.3066],[23.8682,63.7409,91.2505],[23.8783,63.7406,95.0698],[23.8777,63.7361,94.1718],[23.9081,63.7353,95.0],[23.9087,63.7398,109.2359],[23.9188,63.7396,106.8652],[23.9194,63.744,107.2189],[23.9296,63.7438,107.3233],[23.9302,63.7483,109.8838],[23.9403,63.748,111.927],[23.9416,63.757,109.0667],[23.9517,63.7567,107.4049],[23.9511,63.7522,106.6938],[23.9612,63.7519,114.6555],[23.9606,63.7474,106.8178],[23.9707,63.7472,105.6027],[23.9701,63.7427,110.2711],[23.9802,63.7424,106.5695],[23.9783,63.729,103.2076],[23.9581,63.7295,107.8694],[23.9574,63.725,104.1514],[23.9676,63.7248,111.8485],[23.9669,63.7203,102.3291],[23.9771,63.72,108.5892],[23.9764,63.7155,105.1526],[23.9866,63.7152,107.5305],[23.9853,63.7063,117.167],[23.9752,63.7065,109.5808],[23.9746,63.702,111.2414],[23.9644,63.7023,100.6215],[23.9626,63.6889,114.373],[23.9727,63.6886,126.0083],[23.9714,63.6796,113.8809],[23.9815,63.6794,115.6363],[23.9809,63.6749,113.8038],[23.991,63.6746,117.5166],[23.9916,63.6791,124.4152],[24.0119,63.6785,120.1987],[24.0112,63.674,117.4814],[24.0213,63.6738,121.653],[24.0201,63.6648,121.5602],[24.0403,63.6643,116.1572],[24.0409,63.6687,116.6953],[24.0712,63.6679,113.5741],[24.0719,63.6724,124.1898],[24.1224,63.671,117.4503],[24.1217,63.6665,119.3301],[24.1318,63.6662,124.7603],[24.1312,63.6617,120.8341],[24.1413,63.6614,118.7941],[24.1406,63.657,118.0629],[24.1507,63.6567,128.1696],[24.1501,63.6522,117.8097],[24.1602,63.6519,122.3403],[24.1576,63.634,122.7117],[24.1475,63.6343,118.5324],[24.1481,63.6388,118.5319],[24.1279,63.6393,117.0435],[24.1273,63.6348,135.0074],[24.1374,63.6346,123.9255],[24.1367,63.6301,125.2534],[24.1468,63.6298,122.1991],[24.1462,63.6253,120.762],[24.1562,63.625,123.9942],[24.1537,63.6071,137.588],[24.1436,63.6074,131.4828],[24.1423,63.5984,137.8209],[24.1523,63.5981,146.4382],[24.1517,63.5936,141.8441],[24.1618,63.5933,151.3691],[24.1611,63.5889,150.1237],[24.1712,63.5886,147.7185],[24.1705,63.5841,145.1226],[24.1806,63.5838,142.7244],[24.1793,63.5748,139.0412],[24.1692,63.5751,142.305],[24.1686,63.5706,138.7501],[24.1585,63.5709,139.7874],[24.1572,63.562,135.8853],[24.1472,63.5622,133.6048],[24.1465,63.5578,132.3381],[24.1666,63.5572,137.5162],[24.166,63.5527,139.6805],[24.176,63.5524,135.4058],[24.1754,63.5479,133.5494],[24.1955,63.5474,139.9654],[24.1948,63.5429,133.7431],[24.2049,63.5426,142.853],[24.2042,63.5381,132.7544],[24.2243,63.5375,132.4799],[24.2237,63.5331,132.6008],[24.2337,63.5328,132.4635],[24.2331,63.5283,132.4178],[24.2431,63.528,132.9657],[24.2425,63.5235,133.4716],[24.2626,63.5229,139.1019],[24.2619,63.5184,141.3672],[24.272,63.5181,138.8496],[24.2713,63.5137,137.5374],[24.2914,63.5131,149.1996],[24.2907,63.5086,135.4988],[24.3007,63.5083,134.1479],[24.3001,63.5038,139.1898],[24.3202,63.5032,134.0626],[24.3195,63.4987,135.1719],[24.3396,63.4982,142.685],[24.3403,63.5026,139.676],[24.3503,63.5023,136.7769],[24.3517,63.5113,138.9179],[24.3617,63.511,141.6636],[24.3624,63.5155,137.914],[24.3724,63.5152,138.9826],[24.3731,63.5197,139.639],[24.3831,63.5194,140.0914],[24.3838,63.5238,140.2708],[24.3939,63.5236,145.4478],[24.3946,63.528,142.6754],[24.4046,63.5277,144.2124],[24.4053,63.5322,143.8809],[24.4153,63.5319,141.9324],[24.4147,63.5274,146.397],[24.4247,63.5271,147.2823],[24.424,63.5226,153.406],[24.4341,63.5223,154.2793],[24.4334,63.5179,153.0719],[24.4434,63.5176,151.2858],[24.4427,63.5131,150.4394],[24.4528,63.5128,155.3962],[24.4542,63.5217,150.8864],[24.4642,63.5214,157.3447],[24.4649,63.5259,153.2683],[24.475,63.5256,155.2191],[24.4757,63.5301,152.6853],[24.4857,63.5298,154.4503],[24.4878,63.5432,151.0282],[24.4777,63.5435,148.5864],[24.4784,63.548,147.3725],[24.4583,63.5486,142.0311],[24.459,63.5531,139.5351],[24.449,63.5534,141.3471],[24.4497,63.5579,136.4481],[24.4396,63.5582,138.8741],[24.4403,63.5627,135.7283],[24.4302,63.563,135.8041],[24.4296,63.5585,136.6742],[24.4195,63.5588,143.4393],[24.4202,63.5633,134.1665],[24.4101,63.5636,140.1876],[24.4108,63.5681,133.0345],[24.4007,63.5684,132.7733],[24.4014,63.5728,130.8414],[24.3914,63.5732,130.2062],[24.3921,63.5776,129.7779],[24.382,63.5779,129.0633],[24.3827,63.5824,129.6848],[24.3625,63.583,128.7897],[24.3632,63.5875,127.7078],[24.3532,63.5878,129.8922],[24.3538,63.5923,128.4226],[24.3438,63.5926,129.1437],[24.3444,63.5971,129.2045],[24.3344,63.5974,129.3516],[24.3351,63.6018,129.4878],[24.325,63.6021,130.0719],[24.3243,63.5977,128.5827],[24.3142,63.598,128.0181],[24.3135,63.5935,132.8912],[24.2934,63.5941,133.9697],[24.2927,63.5896,143.812],[24.2625,63.5905,136.4994],[24.2632,63.5949,138.1662],[24.2531,63.5952,136.5767],[24.2538,63.5997,136.4711],[24.2638,63.5994,136.6883],[24.2652,63.6084,137.5391],[24.2753,63.6081,138.9078],[24.2759,63.6126,137.9781],[24.2659,63.6129,137.4695],[24.2665,63.6174,140.6583],[24.2564,63.6176,143.0202],[24.2571,63.6221,145.7878],[24.247,63.6224,155.8658],[24.2477,63.6269,153.2722],[24.2376,63.6272,154.8713],[24.2383,63.6317,153.6229],[24.2181,63.6323,151.3969],[24.2187,63.6367,141.976],[24.2087,63.637,136.1569],[24.2093,63.6415,134.4744],[24.2194,63.6412,136.823],[24.2201,63.6457,134.7835],[24.2302,63.6454,140.9956],[24.2308,63.6499,135.8341],[24.2207,63.6502,136.5724],[24.2214,63.6547,133.2215],[24.2113,63.655,132.5281],[24.212,63.6595,131.4453],[24.1918,63.66,135.5172],[24.1924,63.6645,134.2412],[24.1823,63.6648,140.1205],[24.183,63.6693,138.7982],[24.1729,63.6696,129.6048],[24.1735,63.674,133.4868],[24.1533,63.6746,126.2152],[24.154,63.6791,126.7672],[24.1439,63.6794,126.8035],[24.1445,63.6839,123.7153],[24.1344,63.6842,127.5681],[24.1351,63.6886,123.1386],[24.125,63.6889,126.5217],[24.1256,63.6934,125.0865],[24.1155,63.6937,124.6132],[24.1162,63.6982,125.4095],[24.106,63.6985,126.7453],[24.1067,63.7029,122.2353],[24.0966,63.7032,127.4811],[24.0972,63.7077,121.233],[24.0871,63.708,121.9571],[24.0877,63.7125,120.6972],[24.0776,63.7127,123.784],[24.0783,63.7172,122.1292],[24.0682,63.7175,130.4071],[24.0688,63.722,127.5779],[24.0587,63.7223,120.7133],[24.0593,63.7268,119.5336],[24.0391,63.7273,122.029],[24.0397,63.7318,128.3275],[24.0296,63.7321,122.7665],[24.0302,63.7366,120.2838],[24.0201,63.7368,112.73779999999999],[24.0207,63.7413,109.8645],[24.0106,63.7416,110.9375],[24.0112,63.7461,115.896],[24.0011,63.7463,117.5953],[24.0017,63.7508,106.8119],[23.9916,63.7511,106.6901],[23.9922,63.7556,103.9778],[23.9821,63.7559,103.4843],[23.9827,63.7604,109.6334],[23.9726,63.7606,101.7372],[23.9732,63.7651,106.3264],[23.9631,63.7654,111.9575],[23.9637,63.7699,99.9826],[23.9536,63.7701,105.5275],[23.9542,63.7746,101.1918],[23.944,63.7749,98.6823],[23.9447,63.7794,101.8297],[23.9345,63.7797,98.7719],[23.9351,63.7841,94.215],[23.9453,63.7839,104.6148],[23.9459,63.7883,114.1152],[23.9561,63.7881,114.2933],[23.9567,63.7926,111.8246],[23.9668,63.7923,122.467],[23.9681,63.8013,105.4668],[23.9782,63.801,104.4648],[23.9789,63.8055,105.4757],[23.989,63.8052,101.9233],[23.9896,63.8097,98.3268],[23.9998,63.8094,98.7193],[24.001,63.8184,100.6926],[24.0112,63.8181,93.7748],[24.0118,63.8226,92.6688],[24.022,63.8223,93.9666],[24.0226,63.8268,91.6076],[24.0328,63.8265,95.342],[24.0341,63.8355,90.5191],[24.0442,63.8352,91.3201],[24.0449,63.8397,95.4499],[24.055,63.8394,98.8887],[24.0557,63.8439,96.3979],[24.0658,63.8436,104.369],[24.0671,63.8526,98.0594],[24.0773,63.8523,103.0863],[24.0779,63.8568,88.7388],[24.0881,63.8565,85.9238],[24.0888,63.861,83.766],[24.0989,63.8607,78.0723],[24.1002,63.8697,82.1719],[24.1409,63.8686,81.5063],[24.1403,63.8641,84.454],[24.1708,63.8632,99.8855],[24.1714,63.8677,105.4914],[24.202,63.8669,98.6305],[24.2026,63.8713,102.6152],[24.223,63.8708,102.2418],[24.2236,63.8752,98.6679],[24.244,63.8747,98.5727],[24.2467,63.8926,90.2067],[24.2365,63.8929,95.5307],[24.2385,63.9063,86.5152],[24.2283,63.9066,91.5665],[24.2303,63.9201,78.4171],[24.2201,63.9204,81.3798],[24.2222,63.9338,91.37],[24.1814,63.935,94.1447],[24.182,63.9395,101.9057],[24.1719,63.9398,102.5342],[24.1732,63.9487,87.7453],[24.163,63.949,85.6368],[24.1643,63.958,87.7127],[24.1541,63.9583,88.8314],[24.1548,63.9627,84.8167],[24.1446,63.963,91.8496],[24.1459,63.972,83.376],[24.1357,63.9723,83.6314],[24.137,63.9812,88.9241],[24.1268,63.9815,83.1331],[24.1274,63.986,83.1987],[24.1172,63.9863,85.5736],[24.1185,63.9953,75.9886],[24.1083,63.9955,86.6158],[24.1096,64.0045,71.6733],[24.0994,64.0048,70.1507],[24.1027,64.0272,85.1651],[24.0924,64.0275,69.4263],[24.097,64.0589,69.4439],[24.0868,64.0592,68.6046],[24.0887,64.0726,59.9677],[24.0682,64.0732,73.8673],[24.0689,64.0777,55.6494],[24.0484,64.0782,60.032],[24.049,64.0827,52.4969],[24.0285,64.0833,52.328],[24.0292,64.0878,50.8696],[24.0087,64.0883,52.1233],[24.0093,64.0928,49.5682],[23.958,64.0941,50.1928],[23.9587,64.0986,46.7487],[23.9381,64.0992,45.0534],[23.9388,64.1037,43.4508],[23.9182,64.1042,39.3943],[23.9189,64.1087,41.5289],[23.8984,64.1092,45.6367],[23.899,64.1137,40.1855],[23.8887,64.114,44.7073],[23.8893,64.1185,43.4023],[23.8688,64.119,32.2493],[23.8694,64.1235,37.7387],[23.8489,64.124,36.2125],[23.8495,64.1285,36.442],[23.829,64.129,26.9696],[23.8296,64.1335,30.0288],[23.8193,64.1338,24.927],[23.8199,64.1383,25.8573],[23.7994,64.1388,20.2851],[23.8,64.1433,20.5247],[23.7794,64.1438,16.9518],[23.78,64.1483,21.8678],[23.7698,64.1485,21.4073],[23.7704,64.153,19.5968],[23.7498,64.1535,12.119],[23.7504,64.158,19.3935],[23.7298,64.1585,23.8176],[23.7305,64.163,12.992],[23.7202,64.1633,17.0868],[23.7208,64.1678,14.9813],[23.7002,64.1683,8.4471],[23.7008,64.1728,8.7169],[23.6917,64.173,0.0],[23.6947,64.175,8.2431],[23.6901,64.1724,0.0],[23.6922,64.1693,0.0],[23.6953,64.1682,0.0],[23.6932,64.1651,3.5192],[23.6833,64.1646,0.0],[23.6755,64.162,5.9345],[23.6729,64.1583,0.6927],[23.6745,64.1547,4.7538],[23.6724,64.1526,2.6872],[23.6672,64.1516,0.6247],[23.662,64.1443,2.1498],[23.6568,64.1443,4.9923],[23.6479,64.15,0.0],[23.6422,64.1495,11.6508],[23.6443,64.1464,0.0],[23.6536,64.1412,8.8509],[23.6516,64.138,1.0443],[23.6437,64.1375,8.1646],[23.6391,64.1412,0.0],[23.6276,64.1432,0.0],[23.6297,64.1401,0.0],[23.6411,64.1328,2.7699],[23.6359,64.1255,0.0],[23.6391,64.1245,4.2484],[23.638,64.1214,0.0],[23.6401,64.1193,0.0],[23.6432,64.1182,4.2034],[23.6411,64.1151,4.3288],[23.6271,64.1167,0.3152],[23.6229,64.1188,0.0],[23.6104,64.1208,6.9906],[23.6042,64.125,5.8607],[23.5938,64.125,1.1311],[23.587,64.1193,3.8913],[23.5818,64.1182,0.0],[23.5839,64.1151,0.0],[23.5932,64.1099,11.1434],[23.5922,64.1068,0.0],[23.5974,64.1036,3.7434],[23.5964,64.1005,0.4584],[23.5974,64.0964,9.8258],[23.5901,64.0953,0.0],[23.588,64.0911,5.1244],[23.5901,64.088,3.0832],[23.5958,64.0854,0.0],[23.5995,64.088,0.1312],[23.5964,64.0911,7.1995],[23.6057,64.0911,1.7004],[23.6234,64.0776,0.0],[23.6328,64.0724,1.4425],[23.6276,64.0703,0.9238],[23.6234,64.0661,0.0],[23.6245,64.0609,0.4289],[23.6203,64.0568,18.5664],[23.6151,64.0557,0.0],[23.6161,64.0526,0.2882],[23.6104,64.0458,0.0],[23.6026,64.0463,5.6472],[23.6036,64.0495,0.0],[23.6005,64.0505,0.0],[23.5953,64.0557,0.0],[23.5875,64.0563,0.0],[23.5818,64.0505,0.0],[23.5875,64.05,0.3524],[23.5891,64.0484,-0.0319],[23.5812,64.0458,0.2098],[23.5734,64.0453,0.0],[23.5687,64.0417,0.258],[23.5583,64.0417,5.3535],[23.5396,64.05,0.0],[23.5255,64.0505,0.0],[23.5214,64.0526,0.4445],[23.5224,64.0557,4.6391],[23.5208,64.0563,0.0],[23.5167,64.0563,0.0],[23.5125,64.0542,0.3939],[23.5021,64.0563,0.0],[23.4979,64.0542,-0.0774],[23.4875,64.0542,0.2359],[23.4833,64.0563,0.0],[23.4792,64.0563,0.4548],[23.4661,64.062,1.2892],[23.4589,64.063,5.1674],[23.4599,64.0703,0.0],[23.4542,64.0708,1.5104],[23.4422,64.0755,8.9727],[23.4432,64.0787,0.0],[23.4375,64.0813,3.4601],[23.425,64.0813,2.1546],[23.4125,64.0854,1.1334],[23.4078,64.0818,0.0],[23.4026,64.0807,0.0],[23.4005,64.0787,0.0],[23.4016,64.0734,0.0],[23.3974,64.0693,0.0],[23.3859,64.0661,0.0],[23.3755,64.0557,0.0],[23.3786,64.0537,0.0],[23.3776,64.0505,0.0],[23.3807,64.0484,3.0437],[23.3776,64.0453,0.0],[23.3786,64.0422,0.0],[23.3771,64.0396,0.0],[23.3786,64.0359,0.0],[23.3755,64.0318,0.0],[23.3911,64.0224,0.0],[23.3932,64.0193,1.3573],[23.3896,64.0146,0.0],[23.3911,64.0109,0.0],[23.3849,64.0047,0.0],[23.3755,64.0036,3.032],[23.3734,64.0005,0.0],[23.3911,63.9995,7.1411],[23.3901,63.9964,0.0],[23.3911,63.9943,0.0],[23.387,63.9901,0.0],[23.3818,63.988,6.273],[23.3911,63.9849,3.6159],[23.3953,63.9818,0.6586],[23.3901,63.9766,0.0],[23.3891,63.9734,0.1975],[23.3833,63.9729,0.0],[23.3729,63.9688,4.5555],[23.3688,63.9708,5.758],[23.3672,63.9693,9.8117],[23.3724,63.9661,12.3615],[23.3714,63.963,4.9384],[23.3849,63.9599,0.1107],[23.4016,63.9495,0.0],[23.4036,63.9474,-0.028],[23.4026,63.9443,0.0571],[23.4057,63.9432,-0.0298],[23.4036,63.9401,0.0],[23.3984,63.9391,3.1888],[23.3953,63.9359,9.9434],[23.3875,63.9333,9.8222],[23.3792,63.9333,10.309],[23.3693,63.9286,10.2878],[23.3708,63.9271,4.9347],[23.3766,63.9266,9.05],[23.3828,63.9214,-0.1394],[23.3708,63.9208,6.2811],[23.3667,63.9229,7.4716],[23.363,63.9203,2.357],[23.3651,63.9172,0.4957],[23.3682,63.9161,4.5769],[23.3661,63.913,0.0],[23.3563,63.9146,0.0],[23.3453,63.9224,11.4506],[23.3359,63.9255,15.4873],[23.3349,63.9286,4.6085],[23.3297,63.9297,2.7106],[23.3224,63.9349,0.0],[23.3151,63.9359,2.7989],[23.3161,63.9391,0.0],[23.3063,63.9396,0.0],[23.3047,63.9401,7.7409],[23.3057,63.9432,10.7363],[23.3016,63.9453,8.1772],[23.2917,63.9458,7.6297],[23.2875,63.9479,4.4689],[23.2839,63.9453,0.0],[23.287,63.9432,5.6607],[23.2839,63.9391,10.9485],[23.2859,63.9359,0.0],[23.3016,63.9328,3.6515],[23.3005,63.9297,0.0],[23.3026,63.9255,0.0],[23.3161,63.9224,1.518],[23.3203,63.9193,0.0],[23.3104,63.9188,0.0],[23.2964,63.9141,13.1372],[23.2917,63.9104,21.2526],[23.2792,63.9125,-0.0124],[23.2724,63.9161,2.3889],[23.2667,63.9167,7.152],[23.2604,63.9125,0.0],[23.2563,63.9146,0.0],[23.2458,63.9146,0.0],[23.2396,63.9104,7.2406],[23.225,63.9104,3.9638],[23.2141,63.9182,6.2387],[23.2104,63.9188,3.1957],[23.2089,63.9172,2.2367],[23.2182,63.9109,0.0],[23.2026,63.9099,0.0],[23.2057,63.9068,4.0269],[23.2021,63.9042,0.0],[23.1984,63.9047,12.2139],[23.1917,63.9125,2.9483],[23.175,63.9125,13.1343],[23.1708,63.9146,0.0],[23.1589,63.9141,4.3602],[23.1536,63.9068,0.0],[23.15,63.9063,1.0911],[23.1333,63.9167,9.8303],[23.1297,63.9141,0.0],[23.1276,63.9089,0.0],[23.1313,63.9063,0.0],[23.137,63.9057,15.0748],[23.1432,63.9005,15.2189],[23.138,63.8953,0.0],[23.1411,63.8922,0.0],[23.1359,63.8911,-0.0421],[23.1313,63.8875,2.8344],[23.1234,63.888,0.0],[23.1141,63.8953,0.0],[23.1068,63.8964,2.7818],[23.1078,63.8995,0.0],[23.1057,63.9016,0.0],[23.1,63.9042,4.765],[23.0943,63.9047,15.2336],[23.0922,63.9068,18.9086],[23.0932,63.9099,3.4482],[23.087,63.9141,0.0],[23.0708,63.9146,0.0],[23.0693,63.913,14.3423],[23.075,63.9125,0.0],[23.0786,63.9099,0.0],[23.0755,63.9047,0.0],[23.0812,63.9021,2.727],[23.0911,63.9016,3.3301],[23.0984,63.8964,15.5152],[23.0995,63.8943,4.3553],[23.0984,63.8922,0.0],[23.1047,63.888,0.0],[23.1146,63.8875,4.8601],[23.1203,63.8849,17.2562],[23.1193,63.8818,0.0],[23.1245,63.8776,0.0],[23.1172,63.8703,0.0],[23.1203,63.8672,0.0],[23.1172,63.863,0.0],[23.1203,63.8609,5.9403],[23.1167,63.8583,0.0],[23.1026,63.8568,0.0],[23.1005,63.8599,11.4004],[23.1057,63.8682,0.0],[23.0984,63.8693,0.1231],[23.0922,63.8734,0.149],[23.0901,63.8755,3.7237],[23.0911,63.8786,0.0],[23.0896,63.8792,0.0],[23.0812,63.8792,0.0],[23.0771,63.8812,0.0],[23.0625,63.8729,2.5312],[23.0563,63.8729,6.7416],[23.0521,63.875,0.0],[23.0417,63.875,6.9861],[23.0401,63.8734,0.0],[23.0432,63.8714,14.4076],[23.0411,63.8693,12.0],[23.0297,63.8661,4.4277],[23.0318,63.863,2.789],[23.0375,63.8625,3.4818],[23.0391,63.8609,0.0],[23.0255,63.8557,2.1696],[23.0286,63.8526,0.5],[23.0229,63.8521,0.0],[23.0151,63.8484,0.0],[23.0255,63.8422,2.5524],[23.0391,63.8391,-0.5],[23.0432,63.8359,-0.5],[23.0391,63.8318,0.0],[23.0339,63.8307,0.0],[23.0271,63.825,3.1019],[23.0214,63.8255,0.0],[23.0146,63.8292,0.0],[23.0099,63.8255,13.8075],[22.9984,63.8224,8.4204],[23.0,63.8208,0.0],[23.0057,63.8203,0.0],[23.0078,63.8182,2.0998],[23.0068,63.8151,0.0],[23.0144,63.8137,0.0],[23.0216,63.8144,4.6584],[23.0234,63.813,4.1444],[23.0164,63.8078,1.7691],[23.0201,63.8033,11.119],[23.0086,63.7962,6.506],[23.0118,63.7944,0.3732],[23.0238,63.7959,10.402],[23.0362,63.787,5.5169],[23.0399,63.7872,14.3095],[23.0394,63.7827,6.0],[23.0597,63.7823,23.6792],[23.0592,63.7778,15.2714],[23.0693,63.7776,23.1986],[23.0689,63.7731,21.8504],[23.0891,63.7727,23.0878],[23.0887,63.7682,25.8849],[23.0988,63.768,26.1174],[23.0983,63.7635,29.4232],[23.1085,63.7633,29.9279],[23.108,63.7588,30.6959],[23.1282,63.7584,21.4697],[23.1278,63.7539,28.3982],[23.1379,63.7537,31.6903],[23.1374,63.7492,28.9645],[23.1475,63.749,27.6903],[23.147,63.7445,26.4388],[23.1673,63.7441,20.9459],[23.1668,63.7396,13.7922],[23.1769,63.7394,22.6917],[23.1764,63.7349,19.8531],[23.1967,63.7344,23.5378],[23.1962,63.7299,33.2624],[23.2063,63.7297,18.4183],[23.2058,63.7252,28.7561],[23.216,63.725,28.111],[23.2155,63.7205,19.0032],[23.2357,63.7201,19.7273],[23.2352,63.7156,20.5118],[23.2453,63.7154,20.9603],[23.2464,63.7243,20.9115],[23.2565,63.7241,24.0763],[23.2575,63.7331,29.5333],[23.2676,63.7329,31.9171],[23.2692,63.7463,41.7323],[23.2793,63.7461,20.1489],[23.2798,63.7506,26.9613],[23.29,63.7504,29.9644],[23.2905,63.7549,18.0207],[23.3108,63.7544,31.9995],[23.3113,63.7589,36.0022],[23.3871,63.7572,31.9414]]],
[[[23.2057,63.9203,3.0645],[23.2026,63.9203,8.55],[23.2026,63.9193,8.5929],[23.2057,63.9193,3.3849],[23.2057,63.9203,3.0645]]],
[[[23.1786,63.9214,6.9313],[23.1688,63.925,4.9293],[23.1651,63.9224,1.5475],[23.1667,63.9208,0.0],[23.1786,63.9214,6.9313]]],
[[[23.1182,63.9349,0.0],[23.1151,63.9349,7.3243],[23.1151,63.9339,1.2003],[23.1167,63.9333,1.0086],[23.1182,63.9349,0.0]]],
[[[22.9995,63.8359,0.0],[22.9979,63.8375,0.0],[22.9922,63.838,0.0],[22.9875,63.8417,5.3496],[22.9792,63.8354,6.8022],[22.975,63.8375,0.0],[22.9672,63.837,0.0],[22.9734,63.8318,0.0],[22.9849,63.8307,0.0],[22.9797,63.8224,0.0],[22.9833,63.8187,0.0],[22.987,63.8193,2.5961],[22.9839,63.8224,9.5666],[22.9901,63.8245,0.0],[22.9911,63.8266,2.3365],[22.9901,63.8286,6.4517],[22.9958,63.8271,0.0],[23.0016,63.8318,9.7641],[22.9984,63.8339,6.2545],[22.9995,63.8359,0.0]]],
[[[22.8771,63.8958,0.0],[22.8708,63.8979,1.2062],[22.8708,63.8958,0.8693],[22.8682,63.8943,0.0],[22.863,63.8943,8.4314],[22.8641,63.8974,0.0],[22.8589,63.8984,1.1305],[22.8578,63.9016,7.3936],[22.8542,63.9042,8.7064],[22.8505,63.9005,8.4272],[22.8557,63.8964,4.4555],[22.8521,63.8937,0.0],[22.8464,63.8964,9.0252],[22.8474,63.8995,5.9826],[22.8411,63.9036,13.1088],[22.825,63.9042,0.0],[22.8234,63.9036,0.0],[22.8245,63.9005,0.0],[22.8193,63.8984,0.0],[22.8255,63.8943,2.9231],[22.8312,63.8937,0.0],[22.8328,63.8922,8.8156],[22.8229,63.8875,10.8496],[22.8188,63.8875,10.398],[22.8146,63.8896,0.0],[22.8109,63.888,0.0],[22.8188,63.8833,0.0],[22.8266,63.8849,9.1353],[22.8255,63.8818,0.0],[22.8266,63.8776,7.3046],[22.8214,63.8755,0.0],[22.825,63.8729,0.0],[22.8307,63.8724,8.6823],[22.8337,63.8694,0.0],[22.8412,63.8674,0.0],[22.8438,63.8688,6.5587],[22.8479,63.8667,0.0],[22.8604,63.8667,0.0],[22.8688,63.8625,0.0],[22.8786,63.862,0.0],[22.8833,63.8583,0.0],[22.8911,63.8589,1.6756],[22.888,63.862,0.59],[22.8901,63.8641,0.0],[22.8937,63.8646,1.1736],[22.9016,63.862,0.0],[22.9078,63.8578,8.0568],[22.9068,63.8547,0.0],[22.9099,63.8526,8.6309],[22.9,63.8521,0.0],[22.8958,63.85,6.3633],[22.8917,63.8521,6.7109],[22.8859,63.8474,0.0],[22.9016,63.8359,6.7507],[22.8778,63.8345,15.4518],[22.8714,63.8315,6.2874],[22.8709,63.8266,16.6448],[22.881,63.8264,1.5],[22.8801,63.8174,13.5072],[22.8903,63.8172,5.2701],[22.8894,63.8082,12.4447],[22.8792,63.8084,7.2323],[22.8784,63.8006,4.8581],[22.8807,63.7966,0.0],[22.8983,63.7868,0.0],[22.9233,63.776,13.4523],[22.9369,63.7758,0.0],[22.9374,63.7803,7.5505],[22.9577,63.7799,3.068],[22.9582,63.7844,17.9897],[22.9785,63.784,5.4646],[22.9789,63.7885,4.1954],[22.9896,63.7883,3.9411],[22.988,63.7932,4.8688],[22.9958,63.8021,0.0],[22.9901,63.8109,8.2733],[22.9911,63.8141,0.0],[22.9854,63.8167,5.3595],[22.9771,63.8167,5.4035],[22.9724,63.8203,0.0],[22.9542,63.825,16.0839],[22.9458,63.825,0.6303],[22.9422,63.8276,0.0],[22.9438,63.8292,0.0],[22.9661,63.8297,0.0],[22.9641,63.8328,0.0],[22.9589,63.8359,0.0],[22.9609,63.8411,0.0],[22.9661,63.8422,5.2694],[22.9651,63.8453,8.8518],[22.9661,63.8474,0.0],[22.963,63.8495,2.3826],[22.9729,63.85,0.0],[22.9766,63.8526,0.0],[22.9667,63.8563,0.0],[22.9547,63.8547,5.8335],[22.9502,63.8612,0.0],[22.9464,63.863,14.2119],[22.9484,63.8661,3.3397],[22.9521,63.8667,3.8504],[22.9583,63.8625,0.0],[22.9661,63.863,14.0574],[22.9609,63.8672,11.3441],[22.9578,63.8724,5.5031],[22.95,63.8708,7.0977],[22.9484,63.8714,0.0],[22.9495,63.8745,0.0],[22.9401,63.8776,0.0],[22.938,63.8807,1.9245],[22.9432,63.8828,0.0],[22.9401,63.8839,10.5547],[22.9411,63.887,0.0],[22.9391,63.8891,0.8457],[22.9333,63.8917,0.0],[22.9229,63.8917,3.6445],[22.9188,63.8896,5.4228],[22.9172,63.8901,10.8431],[22.9182,63.8932,3.1903],[22.9141,63.8953,2.8842],[22.9026,63.8964,0.0],[22.9036,63.8995,0.0],[22.9021,63.9,0.0],[22.8875,63.8979,8.4546],[22.8833,63.9,0.0],[22.8771,63.8958,0.0]]],
[[[22.8708,63.9,0.0],[22.8672,63.8995,7.069],[22.8672,63.8984,9.6996],[22.8708,63.8979,1.2062],[22.8708,63.9,0.0]]],
[[[22.8995,63.9057,7.965],[22.8964,63.9057,5.0395],[22.8964,63.9047,8.5968],[22.8979,63.9042,0.0],[22.8995,63.9057,7.965]]],
[[[22.7964,63.9109,0.0],[22.8161,63.913,1.9203],[22.8151,63.9161,5.8521],[22.8161,63.9182,0.0],[22.8083,63.9229,0.0],[22.7901,63.9203,3.3478],[22.788,63.9172,2.9696],[22.7901,63.913,0.0],[22.7964,63.9109,0.0]]],
[[[22.9547,63.9182,0.0],[22.9568,63.9151,0.0],[22.9599,63.9151,0.0],[22.9578,63.9182,10.501],[22.9547,63.9182,0.0]]],
[[[22.813,63.9266,6.9677],[22.8109,63.9234,0.0],[22.8203,63.9234,5.4935],[22.8182,63.9266,5.2465],[22.813,63.9266,6.9677]]],
[[[22.8312,63.9333,0.3595],[22.8276,63.9318,4.1184],[22.837,63.9318,0.0],[22.8354,63.9333,0.9538],[22.8312,63.9333,0.3595]]],
[[[22.8224,63.9391,4.4575],[22.8125,63.9417,1.3275],[22.8089,63.938,0.0],[22.8146,63.9354,0.0],[22.8188,63.9354,0.0],[22.8224,63.9391,4.4575]]],
[[[22.8432,63.9505,3.3283],[22.8422,63.9484,0.0],[22.8495,63.9484,1.6053],[22.8474,63.9516,2.5461],[22.8432,63.9505,3.3283]]],
[[[23.5745,64.0484,0.0],[23.5745,64.0495,0.0],[23.5714,64.0495,2.1675],[23.5714,64.0484,1.4156],[23.5745,64.0484,0.0]]],
[[[23.5495,64.0641,0.0],[23.537,64.0724,4.9537],[23.5276,64.0724,0.0],[23.5276,64.0693,0.0],[23.5328,64.0682,5.4474],[23.5401,64.063,0.2457],[23.5547,64.0568,3.105],[23.5646,64.0542,0.0],[23.5682,64.0568,0.0],[23.5625,64.0604,16.5621],[23.5526,64.0609,0.119],[23.5495,64.0641,0.0]]],
[[[23.5411,64.0755,0.0],[23.5401,64.0734,0.0],[23.5422,64.0714,0.0],[23.5516,64.0714,0.0],[23.5443,64.0776,6.2424],[23.5453,64.087,6.8115],[23.5396,64.0896,3.2547],[23.5318,64.087,9.7361],[23.5339,64.0839,1.7583],[23.537,64.0828,0.3158],[23.5359,64.0797,1.6143],[23.5411,64.0755,0.0]]],
[[[23.6333,64.1542,14.7163],[23.6318,64.1526,12.0444],[23.6354,64.15,1.0238],[23.6391,64.1526,11.9958],[23.6375,64.1542,14.9002],[23.6333,64.1542,14.7163]]],
[[[23.5089,64.0828,1.9354],[23.5125,64.0792,0.0],[23.5245,64.0797,5.9848],[23.5234,64.0828,9.5311],[23.5245,64.0849,11.677],[23.5229,64.0854,1.0566],[23.5167,64.0854,12.571],[23.5089,64.0828,1.9354]]],
[[[23.4099,64.0901,8.3146],[23.4083,64.0917,9.0873],[23.3984,64.0932,2.6114],[23.4005,64.0901,3.8109],[23.4063,64.0875,0.0],[23.4099,64.0901,8.3146]]],
[[[23.6167,64.1625,4.2096],[23.6151,64.162,8.1488],[23.6151,64.1609,2.8848],[23.6182,64.1609,9.2655],[23.6167,64.1625,4.2096]]],
[[[23.1125,63.9375,4.693],[23.1109,63.9359,0.0],[23.1141,63.9359,8.1665],[23.1141,63.937,6.829],[23.1125,63.9375,4.693]]],
[[[23.2026,63.9495,14.7908],[23.2057,63.9536,0.0],[23.2021,63.9542,4.0042],[23.1979,63.9521,11.247],[23.1938,63.9542,3.1587],[23.1859,63.9536,0.4903],[23.1891,63.9505,12.0646],[23.1859,63.9464,14.9828],[23.1953,63.9411,20.8043],[23.2005,63.9359,0.0],[23.2042,63.9354,0.0],[23.2083,63.9375,18.5595],[23.2125,63.9354,0.0],[23.2229,63.9354,0.0],[23.2266,63.938,1.4947],[23.2208,63.9417,0.0],[23.2026,63.9443,22.0574],[23.2036,63.9474,17.8304],[23.2026,63.9495,14.7908]]],
[[[23.0542,63.9479,7.1843],[23.0526,63.9464,5.6528],[23.0578,63.9464,4.0984],[23.0578,63.9474,2.8307],[23.0542,63.9479,7.1843]]],
[[[23.1479,63.9792,11.7076],[23.1464,63.9776,1.8078],[23.1495,63.9776,9.5786],[23.1495,63.9786,11.3497],[23.1479,63.9792,11.7076]]]]}
,"properties": {"GID_3": "FIN.5.2.2_1","GID_0": "FIN","country": "Finland","GID_1": "FIN.5_1","province": "WesternFinland","NL_NAME_1": "NA","GID_2": "FIN.5.2_1","county": "CentralOstrobothnia","NL_NAME_2": "NA","city": "Kokkola","VARNAME_3": "NA","NL_NAME_3": "NA","TYPE_3": "Seutukunta|Ekonomiskregion","ENGTYPE_3": "Sub-Region","CC_3": "NA","HASC_3": "FI.LS.KO","name": "Kokkola.city","area_km2": 2010.787,"hist_schema_id": "Elevation0-9000","hist_area_km2": {"0": 298.866,"25": 670.828,"50": 399.098,"75": 268.286,"100": 184.483,"125": 118.84,"150": 70.377}}}