{"type":"Feature","properties":{"GID_3":"FIN.1.4.2_1","GID_0":"FIN","country":"Finland","GID_1":"FIN.1_1","province":"EasternFinland","NL_NAME_1":"NA","GID_2":"FIN.1.4_1","county":"SouthernSavonia","NL_NAME_2":"NA","city":"Mikkeli","VARNAME_3":"NA","NL_NAME_3":"NA","TYPE_3":"Seutukunta|Ekonomiskregion","ENGTYPE_3":"Sub-Region","CC_3":"NA","HASC_3":"FI.IS.MK","name":"Mikkeli.city"},
"geometry":{"type": "MultiPolygon","coordinates": [[[[27.755,61.4576,72.0],[27.7456,61.4581,80.5033],[27.749,61.4715,88.4938],[27.7583,61.4709,100.4733],[27.7605,61.4799,85.6642],[27.7512,61.4804,99.5665],[27.7534,61.4893,72.0],[27.7441,61.4898,83.8611],[27.7463,61.4987,78.3648],[27.765,61.4977,101.0808],[27.7683,61.5111,95.9465],[27.7777,61.5105,101.262],[27.7766,61.5061,108.9839],[27.7953,61.505,88.7447],[27.7942,61.5005,101.8191],[27.8129,61.4995,80.5],[27.8162,61.5129,81.0],[27.8256,61.5123,105.0778],[27.8279,61.5213,127.9344],[27.8372,61.5207,90.7022],[27.8383,61.5252,89.3991],[27.8477,61.5246,109.9595],[27.8522,61.5425,72.5],[27.8616,61.5419,72.5],[27.8627,61.5464,72.5],[27.9002,61.5443,72.5],[27.9024,61.5532,104.8402],[27.8931,61.5537,116.0817],[27.8953,61.5626,110.7738],[27.886,61.5631,124.4952],[27.8871,61.5676,94.5277],[27.8777,61.5681,139.9499],[27.88,61.577,81.6983],[27.8706,61.5776,72.5],[27.8786,61.6088,72.5],[27.8692,61.6093,72.5],[27.8715,61.6182,72.5],[27.8621,61.6188,72.5],[27.8632,61.6232,72.5],[27.8538,61.6238,72.5],[27.8549,61.6282,72.5],[27.8643,61.6277,82.1965],[27.8655,61.6321,72.5],[27.8749,61.6316,72.5],[27.876,61.6361,72.5],[27.8854,61.6355,72.5],[27.8865,61.64,103.701],[27.8771,61.6405,93.285],[27.8805,61.6539,85.7004],[27.8711,61.6544,72.5],[27.8723,61.6589,72.5],[27.8535,61.66,72.5],[27.8546,61.6644,72.5],[27.8452,61.665,93.9064],[27.8464,61.6694,115.1839],[27.8276,61.6705,108.877],[27.8298,61.6794,98.2164],[27.8204,61.6799,87.5664],[27.8216,61.6844,106.2599],[27.7933,61.686,72.5],[27.7922,61.6815,72.5],[27.7546,61.6836,168.8164],[27.7557,61.6881,159.1135],[27.7275,61.6897,96.5],[27.7286,61.6941,96.5],[27.7192,61.6946,115.8733],[27.7203,61.6991,149.7086],[27.7109,61.6996,126.1476],[27.712,61.7041,126.2335],[27.7026,61.7046,123.9383],[27.7015,61.7002,120.2695],[27.6544,61.7028,84.5],[27.6533,61.6983,98.4697],[27.6439,61.6988,84.5],[27.6461,61.7078,91.4363],[27.6367,61.7083,84.5],[27.6378,61.7127,110.4838],[27.6284,61.7132,84.5],[27.6295,61.7177,84.5],[27.6201,61.7182,100.2358],[27.6212,61.7227,84.5],[27.6023,61.7237,84.5],[27.6034,61.7282,84.5],[27.594,61.7287,84.5],[27.5951,61.7332,84.5],[27.5857,61.7337,91.0078],[27.5868,61.7381,84.5],[27.5773,61.7387,97.5854],[27.5784,61.7431,105.6488],[27.569,61.7436,132.7405],[27.5701,61.7481,114.498],[27.5607,61.7486,110.7874],[27.5618,61.7531,94.5088],[27.5524,61.7536,93.8151],[27.5534,61.758,123.1498],[27.544,61.7585,94.3826],[27.5473,61.7719,94.4388],[27.5567,61.7714,94.4117],[27.5578,61.7759,94.5688],[27.5484,61.7764,96.0263],[27.5506,61.7853,110.2923],[27.5411,61.7858,94.4395],[27.5433,61.7947,94.3572],[27.5339,61.7953,94.9297],[27.535,61.7997,94.8922],[27.5256,61.8002,94.8709],[27.5266,61.8047,94.7721],[27.5172,61.8052,101.4059],[27.5183,61.8097,94.7438],[27.5088,61.8102,110.6056],[27.5099,61.8146,125.5523],[27.5005,61.8151,120.695],[27.5016,61.8196,116.7196],[27.4921,61.8201,112.8746],[27.4932,61.8246,108.1454],[27.4838,61.8251,113.6996],[27.4859,61.834,121.4557],[27.4765,61.8345,125.4593],[27.4776,61.839,126.1527],[27.4681,61.8395,115.4931],[27.4692,61.8439,119.1493],[27.4597,61.8445,121.0437],[27.4608,61.8489,121.3691],[27.4514,61.8494,117.0038],[27.4524,61.8539,130.173],[27.443,61.8544,114.0],[27.4441,61.8588,120.0797],[27.4346,61.8594,126.9579],[27.4368,61.8683,126.9888],[27.4273,61.8688,120.7825],[27.4305,61.8822,129.5412],[27.4211,61.8827,128.7161],[27.4243,61.8961,130.9597],[27.4265,61.905,130.7229],[27.436,61.9045,127.3122],[27.4392,61.9179,129.3948],[27.4298,61.9184,129.768],[27.4308,61.9228,129.2812],[27.4403,61.9223,127.9268],[27.4414,61.9268,117.1206],[27.4509,61.9263,123.8556],[27.452,61.9307,121.1068],[27.4615,61.9302,124.28],[27.4625,61.9347,124.9048],[27.472,61.9342,124.0696],[27.4731,61.9386,123.8326],[27.4636,61.9391,138.4376],[27.4647,61.9436,126.6519],[27.4552,61.9441,128.1877],[27.4563,61.9486,129.9493],[27.4373,61.9496,113.8042],[27.4384,61.9541,117.9252],[27.4289,61.9546,114.2253],[27.43,61.959,118.7197],[27.4205,61.9595,109.3244],[27.4216,61.964,114.7792],[27.4121,61.9645,116.4024],[27.4132,61.969,110.9644],[27.4037,61.9695,110.1866],[27.4059,61.9784,109.0759],[27.3964,61.9789,109.9752],[27.3996,61.9923,104.9605],[27.3901,61.9928,104.9548],[27.3934,62.0061,105.3605],[27.3743,62.0072,104.7119],[27.3733,62.0027,104.9387],[27.3637,62.0032,105.3214],[27.3627,61.9987,105.3209],[27.3532,61.9992,105.3561],[27.351,61.9903,105.0283],[27.3605,61.9898,105.1683],[27.3573,61.9764,115.1023],[27.3668,61.9759,113.0746],[27.3646,61.967,120.7153],[27.3741,61.9665,115.5517],[27.3698,61.9487,127.2631],[27.3603,61.9492,141.6595],[27.356,61.9313,134.0495],[27.3465,61.9318,134.4427],[27.3454,61.9273,135.3367],[27.3265,61.9283,148.0431],[27.3254,61.9239,137.4858],[27.3064,61.9249,153.5607],[27.3054,61.9204,145.927],[27.2864,61.9214,131.7588],[27.2853,61.917,131.5051],[27.2664,61.9179,126.5374],[27.2653,61.9135,120.0082],[27.2463,61.9145,115.8059],[27.2453,61.91,118.8912],[27.2168,61.9115,107.3408],[27.2158,61.907,103.8126],[27.1968,61.908,99.5],[27.1978,61.9125,99.5],[27.1884,61.913,99.5],[27.1905,61.9219,99.5],[27.181,61.9224,99.5],[27.182,61.9268,99.5],[27.1725,61.9273,99.5],[27.1736,61.9318,99.5],[27.1641,61.9323,99.5],[27.1651,61.9367,99.5],[27.1556,61.9372,99.5],[27.1567,61.9417,99.5],[27.1472,61.9422,99.5],[27.1482,61.9466,99.5],[27.1387,61.9471,99.5],[27.1398,61.9516,104.3336],[27.1208,61.9526,99.5],[27.1239,61.966,105.7619],[27.1144,61.9664,99.5],[27.1155,61.9709,99.5],[27.0869,61.9724,99.5],[27.089,61.9813,99.5],[27.0795,61.9818,99.5],[27.0837,61.9996,99.5],[27.0741,62.0001,99.5],[27.0752,62.0046,99.5],[27.0562,62.0055,109.96],[27.0572,62.01,102.2097],[27.0477,62.0105,99.5],[27.0466,62.006,101.4003],[27.0371,62.0065,99.5],[27.0276,62.007,99.5],[27.0286,62.0114,106.1613],[27.0096,62.0124,102.6824],[27.0106,62.0168,103.7805],[27.0011,62.0173,106.7903],[27.0021,62.0218,104.2198],[26.9926,62.0223,104.6436],[26.9947,62.0312,103.6445],[26.9851,62.0317,105.0396],[26.9862,62.0361,103.1469],[26.9671,62.0371,107.6583],[26.9681,62.0416,106.7733],[26.9491,62.0425,110.0719],[26.9501,62.047,102.8146],[26.9215,62.0484,114.9069],[26.9225,62.0528,111.2407],[26.8939,62.0543,119.3489],[26.8929,62.0498,117.5852],[26.8834,62.0503,122.0717],[26.8824,62.0458,126.8051],[26.8728,62.0463,115.4389],[26.8738,62.0507,125.356],[26.8643,62.0512,120.2126],[26.8653,62.0557,127.1746],[26.8558,62.0561,121.9314],[26.8568,62.0606,123.2868],[26.8472,62.0611,128.0894],[26.8493,62.07,126.1314],[26.8397,62.0705,120.2076],[26.840699999999998,62.0749,131.8409],[26.8312,62.0754,118.4538],[26.8382,62.1067,102.0],[26.8287,62.1071,102.0],[26.8307,62.1161,102.0],[26.8402,62.1156,102.0],[26.8422,62.1245,109.2512],[26.8518,62.1241,102.0],[26.8538,62.133,116.0885],[26.8443,62.1334,112.9011],[26.8463,62.1424,117.2283],[26.8367,62.1428,122.3811],[26.8377,62.1473,126.3602],[26.8282,62.1478,117.3601],[26.8302,62.1567,124.8012],[26.8206,62.1572,123.5714],[26.8236,62.1706,123.4704],[26.8141,62.171,116.0],[26.8151,62.1755,132.0813],[26.8055,62.176,119.1049],[26.8065,62.1804,129.5709],[26.7586,62.1828,130.2703],[26.7596,62.1872,124.5],[26.75,62.1877,136.4902],[26.751,62.1922,134.5325],[26.7415,62.1926,156.6352],[26.7425,62.1971,141.1242],[26.7329,62.1975,140.5828],[26.7319,62.1931,136.1695],[26.7223,62.1935,127.9662],[26.7233,62.198,134.3775],[26.7137,62.1985,142.9583],[26.715699999999998,62.2074,145.3467],[26.7061,62.2078,137.2766],[26.7071,62.2123,141.2939],[26.6975,62.2128,143.0257],[26.6995,62.2217,154.1104],[26.6899,62.2221,149.6852],[26.6909,62.2266,156.5408],[26.6813,62.2271,166.5038],[26.6833,62.236,170.1965],[26.6737,62.2365,160.3833],[26.6766,62.2499,164.2471],[26.6959,62.249,210.8386],[26.6929,62.2355,168.8622],[26.7025,62.2351,172.4204],[26.7015,62.2306,157.0306],[26.7303,62.2293,150.1451],[26.7332,62.2427,166.7334],[26.7236,62.2431,168.4453],[26.7266,62.2565,167.0514],[26.717,62.257,158.5326],[26.72,62.2704,177.2396],[26.7104,62.2708,169.5961],[26.7134,62.2842,179.4783],[26.7038,62.2847,151.5],[26.7058,62.2936,171.1509],[26.6962,62.2941,161.9494],[26.6972,62.2986,146.5],[26.6875,62.299,168.2479],[26.6895,62.3079,158.287],[26.6799,62.3084,155.3679],[26.6789,62.3039,158.968],[26.6597,62.3048,140.3063],[26.6587,62.3004,155.1646],[26.6395,62.3013,140.1088],[26.6385,62.2968,133.9323],[26.6193,62.2977,125.4349],[26.6173,62.2888,123.849],[26.6269,62.2883,126.5942],[26.6259,62.2839,123.9537],[26.6355,62.2834,126.724],[26.6287,62.2521,153.7865],[26.6383,62.2517,146.905],[26.6353,62.2383,142.9385],[26.6545,62.2374,134.0592],[26.6535,62.2329,129.5],[26.6631,62.2324,129.5],[26.6592,62.2146,128.3473],[26.64,62.2155,134.9819],[26.639,62.211,132.0632],[26.6198,62.2119,160.8903],[26.6218,62.2209,139.774],[26.6122,62.2213,131.5],[26.6132,62.2258,131.5],[26.6036,62.2262,145.5459],[26.6046,62.2307,137.2477],[26.595,62.2312,152.5346],[26.596,62.2356,149.0188],[26.5864,62.2361,163.661],[26.5873,62.2405,137.0],[26.5777,62.241,144.4967],[26.5787,62.2454,149.4841],[26.5691,62.2459,140.9546],[26.5701,62.2504,125.0],[26.5605,62.2508,135.3297],[26.5624,62.2598,121.2693],[26.5528,62.2602,112.2688],[26.5538,62.2647,104.763],[26.5442,62.2651,102.8791],[26.5432,62.2606,123.4529],[26.524,62.2615,127.9386],[26.5231,62.2571,134.4748],[26.5135,62.2575,133.0107],[26.5125,62.253,137.6655],[26.5029,62.2535,131.2455],[26.5019,62.249,132.55],[26.4827,62.2499,134.3681],[26.4808,62.241,136.8156],[26.4904,62.2405,139.761],[26.4895,62.2361,134.5172],[26.499,62.2356,135.4513],[26.4971,62.2267,129.8978],[26.4875,62.2271,142.5414],[26.4866,62.2226,129.8231],[26.477,62.2231,124.2896],[26.476,62.2186,117.7703],[26.4664,62.2191,110.5],[26.4655,62.2146,110.5],[26.4559,62.215,115.8083],[26.4549,62.2106,117.509],[26.4453,62.211,108.646],[26.4472,62.2199,114.8962],[26.4376,62.2204,104.8027],[26.4386,62.2248,98.5],[26.4194,62.2257,125.9847],[26.4156,62.2079,111.5],[26.3869,62.2092,164.8167],[26.3859,62.2047,155.6686],[26.3571,62.206,144.5009],[26.3562,62.2015,139.608],[26.3466,62.202,145.5693],[26.3457,62.1975,132.05],[26.3361,62.1979,135.3419],[26.3352,62.1935,128.5272],[26.3256,62.1939,123.7493],[26.3265,62.1984,124.1037],[26.3169,62.1988,122.6978],[26.316,62.1943,112.7261],[26.3064,62.1948,106.7273],[26.3046,62.1858,126.6326],[26.295,62.1862,117.1903],[26.2922,62.1728,121.0823],[26.2826,62.1733,108.3523],[26.2807,62.1643,132.4311],[26.2712,62.1647,135.8082],[26.2693,62.1558,139.9225],[26.2597,62.1562,138.062],[26.257,62.1428,157.6944],[26.2474,62.1432,137.581],[26.2456,62.1343,145.9375],[26.236,62.1348,155.0264],[26.2342,62.1258,146.8129],[26.2246,62.1262,131.9996],[26.2228,62.1173,191.8953],[26.2323,62.1169,139.9747],[26.2305,62.1079,188.0213],[26.24,62.1075,174.008],[26.2391,62.103,192.2343],[26.2487,62.1026,189.8005],[26.2478,62.0981,197.2968],[26.2573,62.0977,209.2575],[26.2564,62.0932,214.0017],[26.2659,62.0928,214.0663],[26.2641,62.0839,197.2581],[26.2737,62.0834,193.3928],[26.2727,62.079,190.0593],[26.2823,62.0785,201.5855],[26.2814,62.0741,194.6765],[26.2909,62.0736,196.3227],[26.2891,62.0647,191.501],[26.2986,62.0643,189.3625],[26.2977,62.0598,182.4453],[26.3072,62.0594,158.433],[26.3063,62.0549,154.2727],[26.3158,62.0545,146.8602],[26.314,62.0455,128.2817],[26.3235,62.0451,135.5054],[26.3226,62.0406,135.2425],[26.3321,62.0402,138.2556],[26.3312,62.0357,130.312],[26.340699999999998,62.0353,134.6785],[26.3398,62.0308,131.5397],[26.3493,62.0304,122.143],[26.3475,62.0215,122.4936],[26.357,62.021,126.5435],[26.3561,62.0166,113.5191],[26.3656,62.0161,120.7031],[26.3647,62.0117,121.8706],[26.3742,62.0112,126.8099],[26.3723,62.0023,114.6704],[26.3818,62.0018,116.3555],[26.3809,61.9974,115.7867],[26.3904,61.9969,112.1001],[26.3895,61.9925,124.7985],[26.399,61.992,111.5445],[26.3972,61.9831,113.6208],[26.4067,61.9827,94.2263],[26.4057,61.9782,97.3752],[26.4152,61.9777,95.046],[26.4134,61.9688,101.2796],[26.3943,61.9697,113.6724],[26.3934,61.9652,109.6134],[26.3839,61.9656,116.4686],[26.383,61.9612,115.6175],[26.3734,61.9616,121.218],[26.3725,61.9571,125.0062],[26.3535,61.958,120.7483],[26.3526,61.9536,128.1229],[26.3431,61.954,130.8454],[26.3421,61.9495,116.911],[26.3326,61.9499,113.57],[26.3298,61.9365,110.715],[26.3393,61.9361,107.8459],[26.3366,61.9227,107.5207],[26.3461,61.9223,119.2207],[26.3396,61.891,99.5252],[26.3301,61.8914,99.5059],[26.3283,61.8825,98.4649],[26.3472,61.8816,100.5293],[26.3482,61.8861,111.0311],[26.3766,61.8848,101.5374],[26.3729,61.8669,91.5],[26.3824,61.8665,94.118],[26.3805,61.8575,91.5],[26.39,61.8571,91.5],[26.3881,61.8482,122.6108],[26.3787,61.8486,130.6811],[26.3712,61.8128,101.0],[26.3807,61.8124,113.6536],[26.3798,61.8079,101.0],[26.3892,61.8075,101.0],[26.3883,61.803,101.0],[26.4167,61.8017,101.0],[26.4158,61.7972,101.0],[26.4252,61.7968,101.0],[26.4243,61.7923,101.0],[26.4337,61.7919,124.6702],[26.4328,61.7874,129.4176],[26.4423,61.787,132.3511],[26.4413,61.7825,118.7154],[26.4508,61.7821,160.3701],[26.4499,61.7776,168.5968],[26.4593,61.7772,183.5011],[26.4575,61.7682,143.248],[26.4669,61.7678,131.5493],[26.4659,61.7633,120.6095],[26.4754,61.7629,129.6122],[26.4744,61.7584,120.1301],[26.4839,61.758,101.9893],[26.482,61.7491,106.7353],[26.4915,61.7486,91.5],[26.4896,61.7397,110.7325],[26.499,61.7392,109.0105],[26.4971,61.7303,91.5],[26.5066,61.7299,91.5],[26.5056,61.7254,109.91],[26.5151,61.7249,91.5],[26.5132,61.716,114.4954],[26.5226,61.7156,91.5],[26.5207,61.7066,91.5],[26.5302,61.7062,91.5],[26.5283,61.6972,91.5],[26.5377,61.6968,91.5],[26.5339,61.6789,91.5],[26.5245,61.6794,91.5],[26.5132,61.6258,91.5],[26.5038,61.6262,91.5],[26.5047,61.6307,91.5],[26.4765,61.632,91.5],[26.4774,61.6365,91.5],[26.4492,61.6378,91.5],[26.4501,61.6423,91.5],[26.4313,61.6431,91.5],[26.4322,61.6476,91.5],[26.4228,61.648,91.5],[26.4237,61.6525,91.5],[26.3861,61.6543,91.5],[26.387,61.6587,91.5],[26.3776,61.6591,91.5],[26.373,61.6368,106.0134],[26.3541,61.6377,107.3505],[26.3514,61.6243,114.6875],[26.3608,61.6238,106.2054],[26.3599,61.6194,107.1064],[26.3505,61.6198,113.6466],[26.3496,61.6153,114.3553],[26.3401,61.6158,102.5],[26.3392,61.6113,110.4722],[26.3298,61.6117,102.5],[26.3289,61.6073,102.5],[26.3195,61.6077,102.5],[26.3149,61.5853,123.153],[26.3244,61.5849,135.9145],[26.3216,61.5715,134.939],[26.3122,61.5719,132.0641],[26.3131,61.5764,126.4989],[26.2755,61.5781,112.0414],[26.2737,61.5692,117.1985],[26.2831,61.5687,128.865],[26.2813,61.5598,141.0136],[26.2907,61.5594,140.0993],[26.2889,61.5504,135.9747],[26.2983,61.55,156.2779],[26.2928,61.5232,134.315],[26.2741,61.524,137.2049],[26.2732,61.5196,130.3371],[26.2638,61.52,145.9708],[26.2602,61.5021,109.0],[26.2696,61.5017,117.1197],[26.2678,61.4928,119.0792],[26.2771,61.4923,131.2156],[26.2753,61.4834,123.6708],[26.2847,61.483,108.5],[26.2829,61.474,122.1159],[26.2923,61.4736,111.9435],[26.2896,61.4602,104.0],[26.2802,61.4606,112.7942],[26.2793,61.4562,119.2393],[26.2699,61.4566,122.973],[26.269,61.4521,126.8857],[26.2597,61.4525,129.3175],[26.2588,61.4481,128.5082],[26.2494,61.4485,131.259],[26.2477,61.4395,145.5148],[26.257,61.4391,133.2887],[26.2552,61.4302,126.8648],[26.2646,61.4298,119.0],[26.2637,61.4253,144.6746],[26.273,61.4249,128.4842],[26.2721,61.4204,131.9635],[26.2815,61.42,144.3297],[26.2806,61.4155,133.1533],[26.2899,61.4151,154.2839],[26.289,61.4106,159.9974],[26.2984,61.4102,147.8994],[26.2974,61.4057,146.7439],[26.3161,61.4048,146.3475],[26.3152,61.4004,119.4548],[26.3246,61.3999,129.1001],[26.3237,61.3955,133.2327],[26.3143,61.3959,94.5],[26.3125,61.387,119.1474],[26.3032,61.3874,94.5],[26.3023,61.3829,122.4342],[26.2929,61.3834,105.7593],[26.2893,61.3655,80.5],[26.2987,61.365,146.5524],[26.2996,61.3695,80.5],[26.3182,61.3687,123.5965],[26.3164,61.3597,117.1186],[26.3258,61.3593,130.1404],[26.3249,61.3548,110.0],[26.3342,61.3544,121.393],[26.3333,61.3499,113.3262],[26.3426,61.3495,128.4754],[26.3417,61.345,140.7189],[26.351,61.3446,121.2022],[26.3501,61.3401,135.4758],[26.3688,61.3392,130.7751],[26.3679,61.3348,137.7666],[26.3772,61.3344,113.7867],[26.3763,61.3299,102.0929],[26.3949,61.329,91.0221],[26.394,61.3245,89.5699],[26.4872,61.3202,97.2123],[26.4863,61.3157,122.0308],[26.4956,61.3153,126.661],[26.4928,61.3018,94.1666],[26.5021,61.3014,116.0175],[26.5002,61.2925,94.3374],[26.5096,61.292,97.669],[26.5068,61.2786,91.5],[26.5161,61.2782,97.8893],[26.5152,61.2737,94.0018],[26.5245,61.2733,99.6862],[26.5254,61.2777,96.249],[26.544,61.2769,98.2073],[26.5533,61.2764,82.5],[26.5524,61.2719,82.5],[26.571,61.271,99.6599],[26.5719,61.2755,88.6524],[26.5905,61.2746,134.0401],[26.5914,61.2791,124.7157],[26.6007,61.2786,121.8188],[26.6017,61.2831,137.6335],[26.611,61.2826,111.3826],[26.6119,61.2871,116.9608],[26.6212,61.2867,91.5716],[26.6222,61.2911,82.0],[26.6408,61.2902,101.7262],[26.6389,61.2813,75.5],[26.6482,61.2808,75.5],[26.6454,61.2674,87.6702],[26.6547,61.267,106.9211],[26.6528,61.2581,74.5],[26.6621,61.2576,74.5],[26.6611,61.2531,87.0336],[26.6704,61.2527,74.5],[26.6676,61.2393,74.5],[26.6583,61.2397,74.5],[26.6564,61.2308,74.5],[26.6471,61.2313,74.5],[26.6461,61.2268,74.5],[26.6369,61.2272,74.5],[26.635,61.2183,74.5],[26.6442,61.2179,74.5],[26.6433,61.2134,74.5],[26.6526,61.2129,74.5],[26.6516,61.2085,74.5],[26.6702,61.2076,74.5],[26.6712,61.212,74.5],[26.6897,61.2111,74.5],[26.6907,61.2156,74.5],[26.6999,61.2151,74.5],[26.7009,61.2196,74.5],[26.7195,61.2187,80.8474],[26.7204,61.2232,74.5],[26.7297,61.2227,74.5],[26.7307,61.2272,74.5],[26.7492,61.2262,74.5],[26.7521,61.2397,76.9422],[26.7614,61.2392,74.5],[26.7643,61.2526,104.9203],[26.7736,61.2521,97.1234],[26.7774,61.27,77.5],[26.796,61.2691,98.7836],[26.797,61.2735,114.1267],[26.8063,61.2731,104.3574],[26.8073,61.2775,94.9933],[26.8259,61.2766,124.0495],[26.8268,61.2811,126.2654],[26.8454,61.2801,123.8758],[26.8464,61.2846,109.0],[26.8836,61.2827,113.0],[26.8797,61.2649,113.5],[26.889,61.2644,113.5],[26.886,61.251,121.6103],[26.8953,61.2505,127.8092],[26.8934,61.2416,112.0],[26.9027,61.2411,129.199],[26.9017,61.2367,112.0],[26.911,61.2362,131.2498],[26.91,61.2318,112.0],[26.9193,61.2313,145.3967],[26.9183,61.2268,134.316],[26.9276,61.2263,129.928],[26.9246,61.213,111.0],[26.9339,61.2125,144.9542],[26.9319,61.2036,135.5238],[26.9227,61.204,138.5862],[26.9217,61.1996,136.2769],[26.9177,61.1817,113.9017],[26.927,61.1812,119.5948],[26.926,61.1768,97.5],[26.9446,61.1758,132.954],[26.9436,61.1713,101.166],[26.9714,61.1699,112.6074],[26.9704,61.1655,100.0],[26.9982,61.164,91.4751],[26.9972,61.1596,103.8084],[27.025,61.1581,122.8984],[27.024,61.1537,85.9857],[27.0703,61.1513,106.5276],[27.0713,61.1558,112.7142],[27.0898,61.1548,124.4434],[27.0908,61.1593,111.9787],[27.1001,61.1588,121.1741],[27.1011,61.1632,137.2492],[27.1289,61.1618,90.0],[27.1299,61.1663,98.5522],[27.2132,61.1619,119.3736],[27.2142,61.1663,127.5687],[27.2698,61.1634,119.5463],[27.2708,61.1678,97.0],[27.2801,61.1673,97.0],[27.2811,61.1718,110.0637],[27.2904,61.1713,102.2314],[27.2914,61.1758,126.6516],[27.3099,61.1748,106.0309],[27.3089,61.1703,95.3676],[27.3367,61.1688,96.0909],[27.3377,61.1733,100.7406],[27.3562,61.1723,104.5723],[27.3573,61.1767,99.9747],[27.3666,61.1762,87.1759],[27.3676,61.1807,84.3504],[27.3583,61.1812,82.4946],[27.3615,61.1946,79.9735],[27.3707,61.1941,79.6389],[27.3718,61.1986,79.4871],[27.3811,61.198,80.3751],[27.3821,61.2025,87.3909],[27.3914,61.202,78.5691],[27.3924,61.2065,96.2859],[27.3831,61.207,79.0398],[27.3852,61.2159,85.3412],[27.376,61.2164,78.6029],[27.3739,61.2075,84.7816],[27.3553,61.2085,93.1684],[27.3564,61.2129,89.3245],[27.3378,61.2139,80.8372],[27.3389,61.2184,89.2556],[27.3296,61.2189,82.2344],[27.3306,61.2234,86.388],[27.3214,61.2239,83.0055],[27.3255,61.2417,89.254],[27.3441,61.2407,86.5274],[27.3462,61.2496,83.5784],[27.3369,61.2501,85.9168],[27.3379,61.2546,83.6296],[27.3286,61.2551,86.9314],[27.3297,61.2595,83.4825],[27.3204,61.26,99.5349],[27.3214,61.2645,91.1857],[27.3122,61.265,101.1519],[27.3132,61.2695,99.2317],[27.3039,61.27,96.2942],[27.307,61.2834,92.5099],[27.2977,61.2838,87.3398],[27.2998,61.2928,104.7122],[27.2905,61.2933,87.3683],[27.2916,61.2977,87.2708],[27.273,61.2987,92.5892],[27.274,61.3032,98.0738],[27.2275,61.3056,118.2872],[27.2285,61.3101,119.4078],[27.2192,61.3106,130.9147],[27.2213,61.3195,96.2318],[27.2306,61.319,103.7028],[27.2296,61.3146,118.6122],[27.2575,61.3131,104.5048],[27.2606,61.3265,93.8028],[27.2326,61.3279,113.9308],[27.2337,61.3324,102.9443],[27.2057,61.3339,85.5],[27.2047,61.3294,100.4199],[27.1861,61.3304,102.0515],[27.1851,61.3259,96.0133],[27.1478,61.3279,81.5],[27.1458,61.319,83.0],[27.1272,61.3199,83.0],[27.1282,61.3244,97.1176],[27.1096,61.3254,103.5172],[27.1106,61.3298,98.4199],[27.092,61.3308,83.5],[27.093,61.3353,119.9385],[27.0744,61.3362,83.5],[27.0754,61.3407,83.5],[27.0567,61.3417,83.5],[27.0578,61.3461,83.5],[27.0391,61.3471,83.5],[27.0401,61.3515,83.5],[27.0215,61.3525,83.5],[27.0205,61.348,90.8012],[27.0019,61.349,85.6879],[27.0009,61.3445,110.1799],[26.9543,61.3469,82.5],[26.9563,61.3558,84.5],[26.9656,61.3554,84.5],[26.9666,61.3598,117.4135],[26.9759,61.3593,132.6784],[26.9779,61.3683,114.2265],[26.9872,61.3678,110.8697],[26.9882,61.3722,105.6413],[26.9975,61.3718,108.5043],[26.9985,61.3762,103.9766],[27.0079,61.3758,106.7748],[27.0089,61.3802,120.7749],[27.0182,61.3797,119.6546],[27.0192,61.3842,108.5381],[27.0752,61.3813,125.2033],[27.0741,61.3769,129.3548],[27.0928,61.3759,103.9082],[27.0918,61.3714,105.3184],[27.1384,61.369,80.5],[27.1404,61.378,85.3629],[27.1498,61.3775,92.6233],[27.1528,61.3909,90.0],[27.1621,61.3904,102.1917],[27.1652,61.4038,95.3099],[27.2212,61.4008,117.916],[27.2222,61.4053,96.5067],[27.3808,61.3969,107.0413],[27.3798,61.3924,118.8576],[27.4171,61.3904,106.7529],[27.416,61.3859,124.8277],[27.4533,61.3839,84.3977],[27.4522,61.3794,102.2751],[27.4895,61.3774,105.5468],[27.4884,61.3729,96.5],[27.5071,61.3719,88.418],[27.506,61.3675,105.8008],[27.534,61.3659,112.6898],[27.5329,61.3615,101.9699],[27.5608,61.3599,115.13],[27.5597,61.3555,105.5011],[27.6249,61.3518,72.5],[27.626,61.3563,92.8112],[27.6633,61.3542,72.5],[27.6643,61.3587,86.3824],[27.6923,61.3571,88.5689],[27.6934,61.3616,72.5],[27.712,61.3605,93.1625],[27.7131,61.365,72.5],[27.7317,61.3639,72.5],[27.7328,61.3684,72.5],[27.7514,61.3674,72.5],[27.7526,61.3718,72.5],[27.7339,61.3729,72.5],[27.735,61.3773,99.6707],[27.7164,61.3784,72.5],[27.7175,61.3828,72.5],[27.7082,61.3834,72.5],[27.7093,61.3878,97.3836],[27.6906,61.3889,81.8314],[27.6917,61.3933,87.1096],[27.6731,61.3944,72.5],[27.6742,61.3988,72.5],[27.6835,61.3983,72.5],[27.6912,61.4295,72.5],[27.7099,61.4285,106.2624],[27.711,61.4329,101.8433],[27.739,61.4313,92.0155],[27.7401,61.4358,73.0],[27.7588,61.4347,73.0],[27.761,61.4437,86.2859],[27.7516,61.4442,98.1236],[27.755,61.4576,72.0]]]]}}