{"type":"Feature","properties":{"ISO3166-1-Alpha-3":"FIN","country":"Finland","fill":"#00F","id":"3180","name":"Northern Ostrobothnia"},
"geometry":{"type": "MultiPolygon","coordinates": [[[[24.26865,64.50373,0.4417],[24.26116,64.50556,0.0],[24.25554,64.50629,0.0],[24.25042,64.50369,1.9505],[24.25579,64.50015,0.4622],[24.26555,64.49999,0.39],[24.26865,64.50373,0.4417]]],
[[[24.38396,64.63516,0.0],[24.38185,64.64199,0.0],[24.37843,64.6389,6.321],[24.37965,64.63516,0.0],[24.38396,64.63516,0.0]]],
[[[24.4065,64.67284,0.0],[24.40927,64.67931,0.0],[24.40317,64.68126,0.0],[24.3982,64.67935,4.9861],[24.40138,64.67125,7.5277],[24.4065,64.67284,0.0]]],
[[[24.379,64.68179,0.0],[24.38518,64.68338,0.0],[24.3816,64.6857,0.0],[24.37582,64.68179,0.0],[24.379,64.68179,0.0]]],
[[[24.45362,64.69798,0.0],[24.44516,64.70315,6.3577],[24.43523,64.70055,0.0],[24.43295,64.69538,4.4295],[24.45118,64.69493,0.0],[24.45362,64.69798,0.0]]],
[[[24.39308,64.7097,0.0],[24.38705,64.71141,0.9557],[24.38705,64.70893,0.0],[24.38958,64.70742,0.0],[24.39308,64.7097,0.0]]],
[[[24.68979,64.8544,0.0],[24.6985,64.85598,1.8051],[24.70655,64.86225,0.5246],[24.70582,64.86575,0.0],[24.69532,64.85875,1.0988],[24.68979,64.8583,0.0],[24.68824,64.85432,0.0],[24.68979,64.8544,0.0]]],
[[[24.77801,64.92333,0.0],[24.78354,64.9276,0.0],[24.77589,64.93391,0.0],[24.76751,64.93476,0.0],[24.75937,64.93134,0.0],[24.75449,64.92605,0.0],[24.75058,64.92101,0.0],[24.76954,64.91918,0.0],[24.77801,64.92333,0.0]]],
[[[25.31723,64.99925,0.4617],[25.30535,65.00125,5.8327],[25.29168,65.00174,1.115],[25.28582,65.00251,10.8257],[25.2837,65.00015,0.0],[25.28704,64.99954,0.5647],[25.29534,64.99799,1.3525],[25.30535,64.9986,8.0182],[25.31577,64.99453,14.4314],[25.32374,64.99836,0.0],[25.31723,64.99925,0.4617]]],
[[[24.87301,65.06583,2.7164],[24.89698,65.07242,-0.0296],[24.8831,65.0869,0.0],[24.83451,65.0948,0.6904],[24.74089,65.08327,6.9776],[24.65419,65.08022,3.8247],[24.58579,65.04938,4.3156],[24.56275,65.03718,1.7939],[24.5699,65.02291,0.0],[24.57901,65.00954,0.9486],[24.59737,64.99252,0.0],[24.6316,64.96784,0.0],[24.65838,64.97199,6.2356],[24.68393,64.99657,4.9391],[24.69752,64.98664,4.1479],[24.70607,64.97651,0.0],[24.71062,64.97297,0.0],[24.70069,64.95816,0.0],[24.71315,64.95173,0.0],[24.73471,64.95091,0.0],[24.75213,64.95311,0.0],[24.76108,64.95645,8.0737],[24.77125,64.96385,3.8425],[24.78012,64.96678,5.3583],[24.79282,64.96772,2.5709],[24.8047,64.96723,2.5976],[24.81609,64.96809,10.5707],[24.82732,64.97297,7.0311],[24.81239,64.97919,7.6727],[24.75077,64.97597,0.0],[24.72237,65.00347,6.9536],[24.80155,65.02427,4.3163],[24.81966,65.04328,0.4651],[24.87738,65.04525,0.0],[24.96222,65.03478,5.7455],[25.02801,65.03462,5.0758],[25.06182,65.04348,0.0],[25.03359,65.05751,0.0],[24.99344,65.0551,4.1667],[24.93627,65.05914,3.8703],[24.90652,65.06048,5.2217],[24.88284,65.05914,6.6344],[24.87301,65.06583,2.7164]]],
[[[25.33855,65.08731,1.4016],[25.34596,65.09288,0.2956],[25.34734,65.09581,0.8693],[25.34482,65.09829,7.1332],[25.34067,65.10025,3.5414],[25.32602,65.0996,0.3277],[25.30958,65.09793,0.1577],[25.31235,65.0858,0.2395],[25.33009,65.0797,0.0282],[25.33855,65.08731,1.4016]]],
[[[25.23837,65.08808,0.1696],[25.23951,65.09349,0.0],[25.23723,65.09687,0.0],[25.2326,65.10419,0.0594],[25.22592,65.10619,2.4201],[25.2199,65.10668,0.0006],[25.20346,65.10419,2.6804],[25.19776,65.1009,0.0],[25.19508,65.09585,0.0],[25.19825,65.09361,0.0],[25.20704,65.09252,2.5006],[25.21616,65.09097,0.5102],[25.22364,65.0895,1.6316],[25.22796,65.08849,0.1852],[25.23414,65.08735,0.1289],[25.23837,65.08808,0.1696]]],
[[[25.19736,65.10944,0.0],[25.19207,65.11209,0.0],[25.18556,65.11294,0.0],[25.17872,65.11546,0.0],[25.16969,65.11595,0.0],[25.16538,65.11477,0.0],[25.16057,65.11384,0.8613],[25.15594,65.11258,3.8493],[25.15284,65.11107,0.4932],[25.15122,65.1079,1.7319],[25.14568,65.10513,0.0],[25.14072,65.09919,0.0],[25.14951,65.10017,0.0],[25.15716,65.10419,0.0],[25.16212,65.10883,2.9138],[25.16855,65.10932,0.8177],[25.17815,65.10668,0.0],[25.18719,65.10912,0.0],[25.19736,65.10944,0.0]]],
[[[25.12997,65.13154,3.1704],[25.13535,65.13292,0.3187],[25.13762,65.13801,0.0],[25.13217,65.14252,0.0],[25.12745,65.13972,0.0],[25.12355,65.13504,0.0],[25.12119,65.13093,1.2436],[25.12208,65.13028,0.0],[25.12997,65.13154,3.1704]]],
[[[24.91953,65.23871,0.0],[24.91651,65.24274,0.0],[24.90935,65.24433,0.0],[24.91586,65.23871,0.0],[24.91953,65.23871,0.0]]],
[[[25.21713,65.26244,0.0],[25.22706,65.26687,0.0],[25.21404,65.26785,0.0],[25.20265,65.26708,0.0],[25.19988,65.26268,0.0],[25.19614,65.26036,0.0],[25.20607,65.25804,4.6499],[25.21713,65.26244,0.0]]],
[[[25.28549,65.33409,2.9926],[25.27719,65.33775,5.1175],[25.26515,65.33731,2.2806],[25.2505,65.33539,4.068],[25.23878,65.33202,0.5626],[25.24676,65.33104,0.9082],[25.25091,65.32966,1.0389],[25.25522,65.32713,1.8093],[25.26092,65.3253,1.5159],[25.27866,65.33214,5.4726],[25.28688,65.32966,12.6843],[25.28549,65.33409,2.9926]]],
[[[24.82805,65.37576,3.8145],[24.83237,65.37885,0.0],[24.844,65.385,3.887],[24.84628,65.39098,0.0],[24.82488,65.38992,0.0],[24.81682,65.38923,1.2982],[24.81593,65.38666,0.4809],[24.8165,65.38109,2.2292],[24.81927,65.37824,0.0],[24.81959,65.376,1.5916],[24.82114,65.37519,0.0],[24.82805,65.37576,3.8145]]],
[[[24.99936,65.4256,0.0],[24.99716,65.42512,0.0],[24.99529,65.42341,0.0],[24.9922,65.42385,0.0],[24.99,65.42145,0.0],[24.99497,65.41848,0.0],[24.99024,65.41287,0.0],[24.99236,65.40835,2.9113],[24.99773,65.4064,6.1255],[25.00489,65.41031,1.5751],[25.0114,65.41096,4.8301],[25.01759,65.41523,0.0],[25.0206,65.41706,0.0],[25.01564,65.41966,0.0],[24.99936,65.4256,0.0]]],
[[[25.33408,65.42471,1.0044],[25.33041,65.42621,0.0],[25.32765,65.42857,0.0],[25.32309,65.42744,0.0],[25.32,65.4256,0.0],[25.32057,65.42186,1.2663],[25.32521,65.42251,3.721],[25.33253,65.41751,0.0],[25.33562,65.41966,0.8507],[25.33408,65.42471,1.0044]]],
[[[29.1691,66.4192,225.119],[28.7345,66.48437,294.9346],[28.68934,66.473,337.0659],[28.685,66.46749,329.8051],[28.68045,66.45258,322.1229],[28.67611,66.42752,313.9824],[28.66939,66.41507,334.6977],[28.65751,66.41083,341.9464],[28.62392,66.41091,312.5611],[28.61079,66.40913,309.3396],[28.59095,66.39972,278.9554],[28.5709,66.38608,290.3458],[28.55395,66.36784,275.0915],[28.54361,66.34468,315.0624],[28.54816,66.31063,283.1185],[28.57369,66.28608,321.9254],[28.61089,66.27012,323.4602],[28.65058,66.26022,305.1831],[28.65007,66.25857,321.1551],[28.64686,66.25177,346.2752],[28.64624,66.25022,319.7835],[28.65988,66.25061,315.489],[28.69699,66.2572,286.7061],[28.72086,66.2589,270.476],[28.73564,66.25782,271.4487],[28.74897,66.25195,264.4844],[28.74556,66.24451,254.7287],[28.74804,66.24252,262.3556],[28.75662,66.24128,248.7532],[28.76189,66.23994,256.6046],[28.76406,66.2389,257.7744],[28.76138,66.23319,245.1436],[28.74102,66.21053,239.5],[28.73657,66.2065,239.5],[28.73719,66.20154,239.5],[28.74257,66.19968,239.5],[28.76541,66.18904,239.5],[28.76262,66.18121,239.5],[28.73347,66.1678,239.5],[28.72045,66.15813,239.5],[28.71931,66.15103,239.5],[28.71104,66.137,239.5],[28.69802,66.13196,239.5],[28.66795,66.12664,239.5],[28.61958,66.12459,239.5],[28.60852,66.11808,239.5],[28.62154,66.10196,291.2879],[28.63188,66.09287,248.5294],[28.6389,66.08852,239.5],[28.64448,66.08325,239.5],[28.63591,66.07555,239.5],[28.63353,66.0739,239.5],[28.69513,66.05251,251.1319],[28.72613,66.04543,259.9517],[28.74143,66.04491,283.5395],[28.75652,66.04279,277.6273],[28.75642,66.02057,287.4518],[28.7405,66.00471,334.1727],[28.722,65.99825,376.5401],[28.67539,65.99225,333.8431],[28.54754,65.99912,302.1045],[28.4601,65.98801,253.0665],[28.43695,65.98714,263.1148],[28.41359,65.99011,257.9073],[28.4139,65.99148,260.6279],[28.41762,65.99918,254.26],[28.41814,66.00062,259.0875],[28.41432,66.00303,255.8348],[28.41029,66.00341,257.6232],[28.38941,66.00326,243.5917],[28.38755,66.00047,257.6817],[28.3892,65.9968,244.6664],[28.39396,65.98282,246.3771],[28.39592,65.97923,268.6274],[28.39613,65.97535,251.9223],[28.38228,65.97308,247.611],[28.37628,65.96962,250.7036],[28.39416,65.95747,255.0288],[28.41525,65.9491,240.7806],[28.49669,65.90151,239.3594],[28.51457,65.87464,302.6091],[28.50537,65.85913,253.697],[28.47002,65.83862,261.0223],[28.423,65.82885,239.7135],[28.33122,65.82497,300.0135],[28.23893,65.80802,258.4403],[28.19397,65.80539,260.0694],[27.76495,65.82932,342.6702],[27.76547,65.83159,341.2677],[27.76971,65.84267,333.9879],[27.74283,65.8581,313.2188],[27.72041,65.87859,243.8701],[27.68299,65.92461,242.1113],[27.63772,65.95365,219.8121],[27.5999,65.95112,216.4915],[27.56775,65.93401,214.2389],[27.57303,65.93055,211.0182],[27.55432,65.92492,206.719],[27.53551,65.92613,208.1645],[27.43071,65.95174,202.4633],[27.40032,65.94161,205.8001],[27.16943,65.78405,160.865],[27.10215,65.75084,173.899],[26.8418,65.70521,149.7379],[26.18799,65.71893,135.9538],[26.16422,65.72581,133.5272],[26.15843,65.7418,141.8254],[26.15833,65.76875,122.3913],[26.16298,65.80929,122.1057],[26.12836,65.81394,126.6386],[25.87576,65.7594,114.384],[25.76228,65.74637,109.2253],[25.50597,65.75327,90.8082],[25.38825,65.73614,78.4653],[25.1925,65.64778,37.5779],[25.12346,65.60638,21.3112],[25.09319,65.59192,8.364],[25.09319,65.59191,8.364],[25.09636,65.58503,5.0453],[25.10157,65.57689,6.9891],[25.12485,65.5611,0.9401],[25.14682,65.55903,0.0],[25.1701,65.56224,0.0],[25.19711,65.56265,0.84],[25.219,65.55728,5.1208],[25.29371,65.52509,18.7641],[25.32358,65.50678,15.8255],[25.35182,65.48412,9.7676],[25.35865,65.46552,9.0997],[25.34449,65.42853,5.3707],[25.35548,65.41181,6.1769],[25.34669,65.40575,9.7411],[25.33009,65.39053,12.043],[25.3213,65.38508,5.6323],[25.3069,65.38158,6.5985],[25.28004,65.38117,0.0],[25.26612,65.37763,0.0],[25.33497,65.34349,8.8357],[25.32244,65.33356,7.4047],[25.31625,65.33137,0.0],[25.30698,65.32982,0.0],[25.3108,65.32685,7.1991],[25.31739,65.31932,9.5071],[25.3213,65.31623,8.1996],[25.30787,65.30215,9.7429],[25.2942,65.27114,7.3635],[25.2798,65.26097,0.0],[25.28907,65.26114,0.0],[25.29721,65.25951,0.0],[25.31381,65.25414,6.6411],[25.30885,65.24909,0.0],[25.30014,65.23363,0.2224],[25.30787,65.23273,1.6039],[25.32065,65.22842,2.7303],[25.32748,65.22687,7.9354],[25.31625,65.22211,3.1405],[25.30445,65.21967,16.3447],[25.29217,65.21906,1.726],[25.2798,65.21996,0.0],[25.28566,65.20478,0.0],[25.28248,65.19139,4.2887],[25.27263,65.18041,0.0],[25.25929,65.17219,0.0],[25.22584,65.15664,0.0],[25.21827,65.14574,0.0],[25.21144,65.12377,0.0],[25.32407,65.10981,0.0],[25.35548,65.0965,0.0],[25.36354,65.09077,0.0],[25.36997,65.08442,0.0],[25.37436,65.07636,0.0],[25.37599,65.06574,0.0],[25.38087,65.05598,0.0],[25.39259,65.04767,0.0],[25.41627,65.03506,3.9486],[25.41326,65.02924,3.3141],[25.4131,65.02448,0.5208],[25.41619,65.01992,4.0504],[25.42311,65.01459,10.1025],[25.41676,64.9986,0.0],[25.42433,64.98908,0.0],[25.43629,64.98029,0.0],[25.44353,64.96678,0.0],[25.43816,64.95307,0.0],[25.42156,64.94888,0.0],[25.3991,64.95189,6.4636],[25.37599,64.95995,5.9286],[25.3401,64.97724,3.6603],[25.32163,64.98359,2.484],[25.22096,64.99055,3.0973],[25.20395,64.98664,0.0],[25.21144,64.98041,2.0911],[25.20623,64.97748,7.5903],[25.19606,64.96979,0.0],[25.19093,64.96678,0.0],[25.22348,64.93891,0.0],[25.24122,64.92902,0.0],[25.2798,64.92231,0.0],[25.30633,64.90888,0.0],[25.3213,64.90473,0.0],[25.33481,64.90693,0.7274],[25.34783,64.91157,7.4488],[25.35955,64.91112,0.0],[25.3685,64.8985,0.0],[25.36671,64.89175,0.0],[25.35182,64.86066,0.5091],[25.35043,64.85171,0.4413],[25.36215,64.83308,1.577],[25.35483,64.82958,1.2996],[25.25953,64.81647,18.99],[25.22511,64.82274,8.9808],[25.24155,64.82811,7.1717],[25.24977,64.82954,2.3017],[25.25929,64.82958,0.9567],[25.25929,64.83584,1.601],[25.23561,64.8371,1.9986],[25.21762,64.84146,1.8022],[25.20248,64.84919,4.3741],[25.18727,64.86066,5.8691],[25.18393,64.86579,5.4642],[25.17986,64.87995,1.1748],[25.17726,64.88422,1.6792],[25.16668,64.88841,2.2681],[25.15846,64.8867,6.136],[25.15105,64.88386,2.0434],[25.14324,64.88422,3.491],[25.12973,64.89378,3.2786],[25.12176,64.9051,6.9379],[25.11232,64.91446,8.169],[25.09474,64.91836,7.3805],[25.07374,64.91608,0.0],[24.89698,64.87311,2.8299],[24.77312,64.86579,2.0383],[24.73634,64.85537,8.8855],[24.7317,64.83584,17.7534],[24.68963,64.8347,4.9944],[24.67066,64.82974,0.0],[24.66277,64.81257,0.0],[24.6657,64.80707,0.4638],[24.67677,64.79955,3.9471],[24.67652,64.79487,6.3616],[24.6683,64.78913,8.1838],[24.65854,64.78864,6.3666],[24.57838,64.80793,3.3217],[24.55665,64.80915,2.7572],[24.53842,64.80532,0.0],[24.55006,64.79658,0.0],[24.58766,64.7812,4.4275],[24.55714,64.7709,0.0],[24.54371,64.76472,0.0],[24.5324,64.75385,0.0],[24.5324,64.74771,0.0],[24.53647,64.74413,0.0],[24.54607,64.73338,0.0],[24.53028,64.71784,0.0],[24.51157,64.71003,2.1469],[24.47096,64.69929,2.071],[24.44117,64.6811,0.0],[24.42937,64.67878,0.0],[24.42286,64.6756,0.0],[24.4183,64.66804,12.5384],[24.41432,64.65908,0.0],[24.40886,64.65143,1.9166],[24.38266,64.62865,0.0],[24.3755,64.61725,0.0],[24.36793,64.59687,0.0],[24.37086,64.59516,0.0],[24.37452,64.5878,0.0],[24.37387,64.57954,0.0],[24.35499,64.57241,0.0],[24.35564,64.56452,0.3753],[24.36012,64.55537,0.0],[24.36109,64.54841,0.0],[24.34409,64.53075,1.5738],[24.32569,64.5246,8.6626],[24.30633,64.52204,3.2636],[24.28598,64.51496,8.3039],[24.28094,64.51016,9.9055],[24.27516,64.49763,1.1807],[24.26889,64.49006,8.2687],[24.25758,64.48599,9.0133],[24.2295,64.48916,1.7327],[24.21778,64.48701,0.0],[24.21225,64.48102,8.0218],[24.21046,64.47309,5.6588],[24.21079,64.456,14.0536],[24.20574,64.45222,13.6692],[24.16928,64.45222,5.2391],[24.12916,64.44082,4.1444],[24.12501,64.44233,1.4117],[24.11549,64.4348,6.7153],[24.10483,64.43122,3.8168],[24.09327,64.43041,0.9628],[24.08058,64.43171,0.0],[24.08473,64.41474,0.0],[24.06861,64.40559,9.7406],[24.0254,64.39765,2.285],[24.00441,64.38911,7.0397],[23.9961,64.37987,0.0],[23.98422,64.3498,2.3173],[23.9712,64.33515,8.8136],[23.94093,64.31656,18.8747],[23.92905,64.30142,11.1721],[23.92514,64.28547,8.0168],[23.92758,64.27119,3.8762],[23.93458,64.25849,7.2681],[23.94337,64.24677,12.7546],[23.92449,64.25471,10.6175],[23.8816,64.2661,6.7593],[23.86109,64.26789,11.5532],[23.84164,64.23615,14.6578],[23.83351,64.22687,22.4514],[23.8191,64.22065,19.3238],[23.77272,64.20893,10.8586],[23.75766,64.20954,11.7589],[23.73569,64.21621,2.591],[23.72438,64.20893,8.9541],[23.71941,64.19428,5.2298],[23.71681,64.17853,1.5376],[23.72364,64.17853,3.2721],[23.70647,64.16808,14.7281],[23.88219,64.11071,43.0321],[24.03639,64.07785,56.5398],[24.09396,64.04772,70.6455],[24.10182,64.02364,73.5378],[24.12724,63.97775,87.5488],[24.14522,63.95899,83.9677],[24.1937,63.93553,90.6925],[24.22388,63.92537,82.4191],[24.22698,63.91739,74.4586],[24.24072,63.89269,96.0054],[24.2431,63.8838,93.9628],[24.27173,63.86812,108.9132],[24.35658,63.85021,114.7816],[24.40826,63.83414,111.6883],[24.44846,63.81006,125.6374],[24.56442,63.70211,129.2163],[24.63036,63.65898,141.5098],[24.76865,63.60459,140.5409],[25.00068,63.48401,173.3943],[25.02868,63.45804,170.8551],[25.08067,63.47104,171.7861],[25.10517,63.50047,182.7982],[25.12181,63.53803,160.9921],[25.15054,63.57545,133.6884],[25.19054,63.59674,142.3997],[25.23157,63.60092,139.6186],[25.31053,63.59232,126.3608],[25.35838,63.58211,129.128],[25.44509,63.5417,138.4774],[25.4914,63.53155,139.0],[25.73634,63.51767,152.5206],[25.78667,63.50336,149.4603],[25.86729,63.45726,166.6289],[25.91214,63.43853,160.2574],[25.97106,63.43029,168.2195],[26.02904,63.43463,183.5565],[26.13776,63.45628,182.0476],[26.16732,63.4808,160.5611],[26.17549,63.4908,154.4485],[26.18055,63.50279,160.33],[26.19161,63.53865,150.3429],[26.19905,63.55297,173.3995],[26.22024,63.57082,176.2852],[26.24494,63.57948,186.333],[26.28566,63.58875,183.5066],[26.28928,63.62271,169.9223],[26.25187,63.78174,146.1046],[26.23802,63.80685,174.7583],[26.29858,63.85378,163.4147],[26.69401,64.00527,162.41],[26.87209,64.0334,198.8935],[26.80346,64.05873,203.1189],[26.78847,64.07733,202.5787],[26.77938,64.11898,173.0566],[26.77328,64.24468,142.5674],[26.76005,64.2644,159.8022],[26.72253,64.26672,140.8053],[26.70073,64.27029,133.9977],[26.69143,64.27305,137.884],[26.68429,64.28112,133.7725],[26.68988,64.30837,130.4956],[26.67696,64.31589,129.2057],[26.66218,64.31716,129.4942],[26.59314,64.31561,130.4346],[26.55738,64.31858,121.3323],[26.53133,64.32605,113.7164],[26.48751,64.34631,110.2541],[26.47469,64.3509,116.3473],[26.47314,64.37333,112.153],[26.46632,64.39436,104.1217],[26.41465,64.43069,110.6393],[26.31791,64.4693,109.7009],[26.296,64.48043,106.6794],[26.31615,64.48893,106.0],[26.32266,64.49384,109.0876],[26.32473,64.50128,110.3768],[26.32339,64.50082,109.5688],[26.3207,64.50084,110.7081],[26.31936,64.50268,109.2644],[26.35036,64.50852,110.2457],[26.36462,64.51332,108.2612],[26.43304,64.54521,121.8813],[26.4596,64.55131,133.5658],[26.53567,64.55942,173.5717],[26.55004,64.56402,175.8554],[26.54725,64.56505,176.842],[26.53877,64.56642,170.0326],[26.53557,64.57097,163.2829],[26.54818,64.57479,126.7904],[26.5612,64.57694,123.948],[26.57536,64.58924,115.5968],[26.5858,64.60376,114.8733],[26.60089,64.61027,106.0029],[26.62352,64.61249,102.9421],[26.63313,64.61536,113.1133],[26.64709,64.62466,108.2805],[26.64874,64.6312,110.5075],[26.64357,64.63936,105.3996],[26.64626,64.64727,109.1754],[26.76925,64.65251,133.3611],[26.80873,64.659,129.8016],[26.8694,64.69145,135.3793],[26.88687,64.6977,138.5062],[26.90423,64.70719,144.4055],[26.90537,64.71463,144.2107],[26.90888,64.72711,137.6634],[26.90816,64.73233,136.06],[26.89493,64.73225,138.1443],[26.89224,64.73248,137.5742],[26.90733,64.75207,135.9743],[26.92914,64.76638,134.5728],[26.9927,64.79369,147.362],[27.11528,64.82659,147.9902],[27.17997,64.82653,148.9836],[27.29676,64.8131,153.4704],[27.33407,64.813,172.8992],[27.36022,64.8178,178.8102],[27.37914,64.83279,160.3519],[27.3657,64.83651,159.8867],[27.38802,64.8455,163.0916],[27.39164,64.85589,170.0245],[27.38606,64.867,167.9951],[27.38399,64.87718,162.9446],[27.39112,64.89924,161.7888],[27.39795,64.91407,145.5559],[27.40311,64.92242,136.4787],[27.40508,64.93167,144.9704],[27.38864,64.9387,145.8622],[27.38441,64.93986,144.2623],[27.38203,64.94232,141.9719],[27.39236,64.95159,167.2329],[27.38007,64.9641,143.1259],[27.33252,64.9918,137.5207],[27.28095,65.01567,139.961],[27.2824,65.04879,136.2942],[27.3072,65.06854,139.4509],[27.36343,65.08567,152.4823],[27.76433,65.10724,177.9521],[27.85859,65.09014,222.0102],[27.8835,65.09215,224.7958],[27.90324,65.10652,256.877],[27.91616,65.12765,212.9224],[27.92701,65.15176,253.9448],[27.94034,65.17525,142.9437],[27.97817,65.21142,158.7081],[28.02344,65.23147,171.6177],[28.07563,65.24126,173.192],[28.55312,65.28465,284.7475],[28.61379,65.29651,290.4702],[28.61172,65.31312,261.7446],[28.60604,65.31632,260.263],[28.57389,65.31883,253.0949],[28.5832,65.31989,244.2249],[28.59705,65.32459,240.1483],[28.61937,65.33963,258.8619],[28.65048,65.36565,241.9386],[28.65906,65.37436,241.7433],[28.65596,65.37684,241.8503],[28.65172,65.38237,242.0065],[28.64852,65.38469,242.0489],[28.68179,65.39601,242.1274],[28.94855,65.44673,261.7964],[29.11588,65.45518,254.5962],[29.1966,65.47414,255.7341],[29.24662,65.52189,240.193],[29.28238,65.52406,276.5219],[29.35235,65.51474,245.4283],[29.42128,65.49928,230.6038],[29.48877,65.49192,240.5733],[29.73083,65.49691,235.1649],[29.73153,65.49692,236.1602],[29.74545,65.5114,235.6234],[29.82576,65.55197,267.2105],[29.83857,65.56489,244.4467],[29.80674,65.58486,233.3469],[29.73232,65.60871,263.2546],[29.70287,65.62938,321.7504],[29.76426,65.64809,252.5628],[30.00301,65.67814,248.3464],[30.06471,65.66168,243.6039],[30.0985,65.65638,251.7225],[30.1139,65.6655,254.3393],[30.11628,65.68721,257.7917],[30.11173,65.71201,261.4539],[30.08352,65.80461,269.3353],[30.07515,65.82281,250.8154],[30.03928,65.86539,260.9533],[30.00972,65.91569,274.6713],[29.99794,65.93153,261.5667],[29.95846,65.97388,275.4804],[29.94885,65.99127,292.4644],[29.92053,66.06863,264.3255],[29.90017,66.10806,289.8996],[29.87536,66.13359,290.1537],[29.79237,66.18087,306.821],[29.65088,66.28789,143.555],[29.59321,66.34593,239.5858],[29.5697,66.37817,253.6684],[29.55166,66.41279,268.5498],[29.54619,66.43197,275.0572],[29.54582,66.43197,272.7068],[29.30625,66.42985,252.6149],[29.22026,66.41755,204.969],[29.1691,66.4192,225.119]]]]}}