{"type": "Feature","bbox": [23.5109,63.43,30.1289,66.4864],"geometry": {"type": "MultiPolygon","coordinates": [[[[25.2476,63.6082,145.9364],[25.2484,63.6126,143.1632],[25.2585,63.6123,149.3883],[25.2577,63.6078,148.5618],[25.2778,63.6071,138.4322],[25.277,63.6026,137.9175],[25.2971,63.6019,135.576],[25.2963,63.5974,128.4032],[25.3063,63.597,127.7493],[25.3055,63.5926,126.7531],[25.3256,63.5918,127.7331],[25.3248,63.5873,124.2277],[25.3449,63.5866,124.2439],[25.3441,63.5821,133.119],[25.3541,63.5818,124.6079],[25.3533,63.5773,132.4118],[25.3734,63.5765,149.6061],[25.3726,63.5721,122.8475],[25.3826,63.5717,142.5445],[25.3818,63.5672,126.1413],[25.4019,63.5665,139.4845],[25.401,63.562,125.4894],[25.4111,63.5617,134.6591],[25.4103,63.5572,125.4415],[25.4203,63.5568,133.7103],[25.4195,63.5523,132.6902],[25.4396,63.5516,138.0479],[25.4387,63.5471,135.2082],[25.4487,63.5467,140.3366],[25.4479,63.5423,139.2412],[25.468,63.5415,148.3336],[25.4671,63.537,147.2803],[25.4772,63.5367,149.8512],[25.4763,63.5322,147.5267],[25.5064,63.5311,146.5805],[25.5056,63.5266,139.0],[25.7363,63.5177,152.5206],[25.7355,63.5133,148.709],[25.7555,63.5125,152.3907],[25.7546,63.508,143.2092],[25.7747,63.5072,152.2792],[25.7738,63.5027,139.2925],[25.7938,63.5019,154.8024],[25.7929,63.4975,148.5351],[25.813,63.4967,144.5976],[25.8121,63.4922,143.0201],[25.8221,63.4918,146.3023],[25.8203,63.4829,151.9823],[25.8303,63.4825,153.162],[25.8294,63.478,154.7772],[25.8394,63.4776,154.2387],[25.8385,63.4731,154.899],[25.8485,63.4727,169.0382],[25.8476,63.4682,156.9171],[25.8576,63.4678,178.184],[25.8567,63.4634,169.7807],[25.8667,63.463,180.4739],[25.8649,63.454,161.4632],[25.8749,63.4536,161.6678],[25.874,63.4491,158.2794],[25.884,63.4487,159.8173],[25.8831,63.4443,157.5216],[25.8931,63.4439,164.9507],[25.8921,63.4394,154.5268],[25.9321,63.4378,161.8169],[25.9312,63.4333,157.4922],[26.0112,63.43,179.2979],[26.0121,63.4345,179.5761],[26.0321,63.4337,185.1162],[26.0331,63.4381,181.3821],[26.0531,63.4373,179.8771],[26.054,63.4418,179.0521],[26.074,63.441,166.7979],[26.075,63.4454,170.5691],[26.085,63.445,164.4256],[26.0859,63.4495,167.9031],[26.1059,63.4487,166.8713],[26.1069,63.4531,168.5948],[26.1269,63.4523,175.2125],[26.1278,63.4568,178.8726],[26.1378,63.4563,182.0476],[26.1388,63.4608,170.9698],[26.1488,63.4604,166.8367],[26.1507,63.4693,153.1629],[26.1607,63.4689,160.4613],[26.1636,63.4823,162.8551],[26.1736,63.4819,161.0396],[26.1755,63.4909,154.4485],[26.1855,63.4904,150.3711],[26.203,63.5709,196.3734],[26.213,63.5705,184.5875],[26.214,63.575,175.998],[26.224,63.5745,176.3003],[26.225,63.579,166.0622],[26.2451,63.5782,182.8655],[26.2461,63.5826,189.3238],[26.2661,63.5818,195.7512],[26.2671,63.5863,192.2599],[26.2872,63.5854,185.4269],[26.2882,63.5899,179.1266],[26.2983,63.5894,180.1765],[26.2992,63.5939,173.133],[26.2892,63.5943,183.4335],[26.2941,63.6167,173.2044],[26.2841,63.6171,174.2957],[26.289,63.6395,169.4073],[26.2789,63.6399,169.2881],[26.2838,63.6623,144.6765],[26.2738,63.6627,150.5257],[26.2787,63.685,144.916],[26.2686,63.6855,155.034],[26.2736,63.7078,154.4899],[26.2635,63.7083,159.4012],[26.2684,63.7306,127.8483],[26.2583,63.731,133.4967],[26.2632,63.7534,142.7849],[26.2531,63.7538,137.7055],[26.258,63.7762,152.1652],[26.2479,63.7766,147.2557],[26.2519,63.7945,141.9075],[26.2418,63.7949,162.296],[26.2447,63.8083,163.8506],[26.2346,63.8088,170.4702],[26.2365,63.8177,161.5547],[26.2264,63.8181,164.4925],[26.2284,63.8271,164.4734],[26.2183,63.8275,167.4382],[26.2192,63.832,164.8076],[26.2294,63.8316,161.5824],[26.2304,63.836,149.596],[26.2405,63.8356,142.2305],[26.2415,63.8401,137.4455],[26.2516,63.8396,136.8203],[26.2526,63.8441,138.6773],[26.2627,63.8437,130.9587],[26.2637,63.8482,130.8866],[26.2739,63.8477,134.0351],[26.2749,63.8522,138.109],[26.285,63.8518,140.5016],[26.286,63.8562,145.1363],[26.2962,63.8558,159.7746],[26.2972,63.8603,163.9639],[26.3073,63.8599,170.8156],[26.3083,63.8643,167.9802],[26.3184,63.8639,169.4318],[26.3204,63.8728,171.6758],[26.3306,63.8724,170.1717],[26.3316,63.8769,162.4154],[26.3417,63.8764,158.8792],[26.3427,63.8809,160.2115],[26.3529,63.8805,163.0575],[26.3539,63.8849,152.8429],[26.364,63.8845,148.936],[26.365,63.889,151.4506],[26.3752,63.8885,148.625],[26.3762,63.893,153.8024],[26.3864,63.8926,151.3356],[26.3874,63.897,151.634],[26.3975,63.8966,152.5357],[26.3986,63.9011,155.1894],[26.4086,63.9007,167.0956],[26.4097,63.9051,167.9375],[26.4199,63.9047,174.6728],[26.4209,63.9091,176.0294],[26.4311,63.9087,178.819],[26.4321,63.9132,182.5756],[26.4422,63.9127,177.2638],[26.4433,63.9172,177.1807],[26.4534,63.9168,173.6886],[26.4544,63.9212,170.5687],[26.4646,63.9208,166.4625],[26.465699999999998,63.9253,164.3679],[26.4758,63.9248,165.3961],[26.4768,63.9293,163.3094],[26.487,63.9288,162.8501],[26.4891,63.9378,165.4624],[26.4992,63.9373,165.0547],[26.5003,63.9418,166.293],[26.5105,63.9414,167.5525],[26.5115,63.9458,169.8807],[26.5217,63.9454,171.9774],[26.5227,63.9499,174.3682],[26.5329,63.9494,173.6344],[26.5339,63.9539,174.0601],[26.5441,63.9534,179.3821],[26.5451,63.9579,178.2693],[26.5553,63.9575,182.5026],[26.5563,63.9619,177.9366],[26.5665,63.9615,181.2305],[26.5686,63.9704,182.8007],[26.5788,63.97,182.1446],[26.5798,63.9744,178.1266],[26.59,63.974,183.6447],[26.591,63.9785,185.3939],[26.6012,63.978,191.6855],[26.6023,63.9825,190.5843],[26.6227,63.9816,203.1044],[26.6237,63.986,197.0694],[26.6339,63.9856,198.5984],[26.6349,63.99,196.2043],[26.6553,63.9891,193.7382],[26.6564,63.9936,181.8153],[26.6768,63.9927,180.1751],[26.6778,63.9972,174.2426],[26.688,63.9967,175.0669],[26.6891,64.0012,181.0095],[26.7094,64.0002,175.4036],[26.7105,64.0047,182.8147],[26.7309,64.0038,161.417],[26.732,64.0083,171.8813],[26.7421,64.0078,171.0713],[26.7432,64.0123,176.5882],[26.7636,64.0114,172.0581],[26.7647,64.0158,174.8857],[26.7851,64.0149,189.3493],[26.7862,64.0194,188.0734],[26.7963,64.0189,198.0996],[26.7974,64.0234,193.6915],[26.8178,64.0224,175.0224],[26.8189,64.0269,174.4347],[26.8291,64.0264,179.0584],[26.8302,64.0309,173.6665],[26.8506,64.03,178.0628],[26.8517,64.0344,181.9157],[26.8721,64.0335,198.8935],[26.8732,64.0379,193.1988],[26.8528,64.0389,186.7614],[26.8539,64.0434,186.7448],[26.8233,64.0448,194.3755],[26.8244,64.0492,197.2159],[26.8039,64.0502,199.3386],[26.805,64.0546,206.6901],[26.7846,64.0556,202.4966],[26.7868,64.0645,205.2127],[26.7766,64.065,208.8764],[26.7852,64.1007,169.3672],[26.775,64.1012,163.6968],[26.7826,64.1325,187.9535],[26.7724,64.1329,186.5889],[26.781,64.1687,168.841],[26.7708,64.1691,167.9873],[26.7784,64.2004,166.3098],[26.7682,64.2009,163.1258],[26.7769,64.2366,141.4396],[26.7666,64.2371,138.9063],[26.7731,64.2639,162.6033],[26.7011,64.2671,133.7857],[26.7022,64.2716,135.3039],[26.6919,64.272,134.7989],[26.693,64.2765,133.2046],[26.6827,64.277,129.798],[26.6913,64.3127,130.2311],[26.681,64.3132,129.0152],[26.6821,64.3176,129.7643],[26.6512,64.319,130.6461],[26.6501,64.3145,128.6042],[26.5471,64.3191,117.8551],[26.5481,64.3235,121.0473],[26.5275,64.3244,113.3267],[26.5285,64.3289,118.9503],[26.5182,64.3294,115.7388],[26.5193,64.3338,108.6038],[26.509,64.3343,108.4509],[26.51,64.3388,105.8312],[26.4997,64.3392,108.2564],[26.5008,64.3437,105.3169],[26.4905,64.3441,109.1074],[26.4915,64.3486,106.7314],[26.4709,64.3495,114.2168],[26.4719,64.3539,120.2598],[26.4616,64.3544,114.3572],[26.4637,64.3633,110.571],[26.474,64.3629,112.0554],[26.4792,64.3852,109.3362],[26.4689,64.3857,111.4023],[26.471,64.3946,108.2465],[26.4607,64.3951,106.2095],[26.4617,64.3995,104.2261],[26.4514,64.4,103.6438],[26.4535,64.4089,105.2529],[26.4431,64.4094,106.4681],[26.4452,64.4183,107.8308],[26.4349,64.4187,103.3444],[26.4359,64.4232,107.2767],[26.4256,64.4237,110.4062],[26.4266,64.4281,107.7518],[26.4162,64.4286,103.8389],[26.4173,64.433,107.4274],[26.4069,64.4335,105.1259],[26.408,64.438,106.7544],[26.3873,64.4388,111.3004],[26.3883,64.4433,109.5259],[26.3779,64.4437,110.0287],[26.379,64.4482,113.3404],[26.3686,64.4487,113.8714],[26.3697,64.4531,113.4217],[26.3489,64.454,117.649],[26.35,64.4585,111.5316],[26.3396,64.4589,114.2264],[26.3406,64.4634,112.1462],[26.3199,64.4642,112.6339],[26.3209,64.4687,110.0686],[26.3106,64.4691,109.3214],[26.3116,64.4736,110.373],[26.3012,64.474,108.9845],[26.3022,64.4785,110.7279],[26.2919,64.479,113.2526],[26.2929,64.4834,108.5106],[26.3033,64.483,105.5],[26.3043,64.4875,108.331],[26.3147,64.487,106.0],[26.3157,64.4915,106.6076],[26.3261,64.4911,109.5075],[26.3281,64.5,110.8768],[26.3178,64.5005,111.7281],[26.3188,64.5049,110.05],[26.3395,64.504,113.875],[26.3406,64.5085,112.0542],[26.351,64.5081,111.4049],[26.352,64.5126,107.9448],[26.3624,64.5121,107.8568],[26.3634,64.5166,108.6571],[26.3738,64.5162,114.7267],[26.3759,64.5251,110.0295],[26.3863,64.5247,111.7651],[26.3873,64.5291,109.592],[26.3977,64.5287,110.7515],[26.3998,64.5376,113.5548],[26.4102,64.5372,117.073],[26.4112,64.5417,119.432],[26.4216,64.5412,117.803],[26.4226,64.5457,120.0531],[26.433,64.5453,121.8813],[26.4351,64.5542,129.3039],[26.4455,64.5538,130.1396],[26.4466,64.5582,132.8664],[26.457,64.5578,137.7077],[26.4591,64.5667,148.3254],[26.4799,64.5658,162.1043],[26.4788,64.5614,144.7377],[26.5516,64.5582,165.3125],[26.5527,64.5627,168.1879],[26.5423,64.5632,177.4921],[26.5434,64.5676,163.7597],[26.533,64.5681,180.2384],[26.5351,64.577,130.5559],[26.5559,64.5761,122.408],[26.557,64.5806,126.5544],[26.5674,64.5801,119.3211],[26.5663,64.5757,123.0773],[26.5767,64.5752,121.0369],[26.5821,64.5976,117.1638],[26.5925,64.5971,113.4845],[26.5957,64.6105,106.1737],[26.6061,64.6101,110.4406],[26.6072,64.6145,106.8385],[26.6176,64.6141,106.1781],[26.6187,64.6186,108.1691],[26.6395,64.6177,112.1934],[26.6406,64.6221,107.9452],[26.6511,64.6217,108.1038],[26.6543,64.6351,108.7306],[26.6439,64.6355,108.9379],[26.6461,64.6445,106.0046],[26.6356,64.6449,102.0568],[26.6367,64.6494,100.9523],[26.6472,64.6489,105.2399],[26.6482,64.6534,105.2498],[26.6587,64.653,107.9047],[26.6576,64.6485,109.0354],[26.668,64.648,110.7232],[26.6669,64.6435,105.771],[26.6774,64.6431,108.0134],[26.6763,64.6386,110.0988],[26.7075,64.6373,123.5116],[26.7086,64.6417,120.4132],[26.7295,64.6408,122.8913],[26.7306,64.6453,125.7256],[26.741,64.6448,127.4748],[26.7421,64.6493,130.1252],[26.763,64.6484,127.5551],[26.7641,64.6528,129.0249],[26.7849,64.6519,135.0592],[26.786,64.6564,129.6831],[26.8069,64.6554,130.4775],[26.808,64.6599,129.4887],[26.8393,64.6585,130.8948],[26.8416,64.6674,132.2277],[26.852,64.667,137.9795],[26.8576,64.6893,136.4224],[26.8785,64.6883,136.7775],[26.8808,64.6973,140.1765],[26.9016,64.6963,142.6922],[26.9039,64.7053,144.3221],[26.8935,64.7057,137.5305],[26.898,64.7236,134.0345],[26.9084,64.7231,138.0403],[26.9107,64.7321,137.8482],[26.8898,64.733,136.984],[26.8921,64.742,136.0483],[26.9025,64.7415,136.8033],[26.9071,64.7594,136.1904],[26.9175,64.7589,134.0644],[26.9187,64.7634,135.314],[26.9292,64.7629,137.6145],[26.9303,64.7673,134.3715],[26.9408,64.7669,140.0506],[26.9419,64.7713,140.7436],[26.9524,64.7709,143.4568],[26.9535,64.7753,143.9281],[26.964,64.7748,148.4194],[26.9651,64.7793,141.7567],[26.9756,64.7788,143.5024],[26.9767,64.7833,142.7452],[26.9872,64.7828,142.7495],[26.9884,64.7873,148.7062],[26.9989,64.7868,147.0529],[27.0,64.7913,147.3737],[27.021,64.7903,148.6154],[27.0221,64.7948,147.5495],[27.0326,64.7943,151.2784],[27.0338,64.7988,150.7955],[27.0442,64.7983,152.3626],[27.0454,64.8028,151.531],[27.0559,64.8023,152.037],[27.057,64.8067,155.6844],[27.0675,64.8063,157.3413],[27.0687,64.8107,155.1408],[27.0792,64.8102,155.4223],[27.0803,64.8147,146.1725],[27.0908,64.8142,148.0417],[27.092,64.8187,150.2048],[27.1025,64.8182,149.7608],[27.1037,64.8227,145.9362],[27.1141,64.8222,151.8343],[27.1153,64.8266,147.9902],[27.1258,64.8261,156.1961],[27.127,64.8306,140.4174],[27.1375,64.8301,147.5771],[27.1387,64.8346,152.3964],[27.2016,64.8316,154.8002],[27.2004,64.8272,146.1576],[27.2738,64.8237,153.0743],[27.2726,64.8192,152.2046],[27.3355,64.8162,171.1944],[27.3343,64.8118,178.3153],[27.3553,64.8108,184.7119],[27.3565,64.8152,179.8558],[27.367,64.8147,179.5631],[27.3706,64.8281,168.1224],[27.3811,64.8276,175.9559],[27.3823,64.8321,160.4604],[27.3718,64.8326,160.8679],[27.3731,64.837,160.0046],[27.3626,64.8375,161.5022],[27.3638,64.842,160.6736],[27.3743,64.8415,160.5592],[27.3755,64.846,165.5503],[27.3965,64.8449,161.6301],[27.4014,64.8628,168.9975],[27.3909,64.8633,168.5913],[27.3933,64.8722,168.8815],[27.3828,64.8727,164.3604],[27.3853,64.8817,166.9395],[27.3748,64.8822,163.8664],[27.3796,64.9,164.1102],[27.3901,64.8995,161.7888],[27.395,64.9174,141.9383],[27.4056,64.9169,143.8371],[27.4092,64.9303,139.3319],[27.3987,64.9308,139.6301],[27.3999,64.9352,150.1278],[27.3894,64.9358,146.8663],[27.3906,64.9402,144.8534],[27.3801,64.9407,143.0759],[27.3813,64.9452,141.8622],[27.3919,64.9447,146.3528],[27.3943,64.9536,169.3999],[27.3838,64.9541,178.298],[27.3862,64.963,143.3595],[27.3757,64.9635,143.1878],[27.3769,64.968,142.7676],[27.3664,64.9685,141.1373],[27.3676,64.973,140.5271],[27.3571,64.9735,140.7519],[27.3583,64.978,138.4188],[27.3477,64.9784,141.0314],[27.349,64.9829,137.7483],[27.3384,64.9834,139.3913],[27.3396,64.9879,138.676],[27.3291,64.9884,137.8064],[27.3303,64.9929,136.7049],[27.3197,64.9934,138.0313],[27.321,64.9978,139.7443],[27.3104,64.9983,137.6534],[27.3116,65.0028,139.4623],[27.3011,65.0033,139.4379],[27.3023,65.0078,135.4427],[27.2917,65.0083,141.0388],[27.2929,65.0127,137.2581],[27.2824,65.0132,141.0372],[27.2836,65.0177,139.9629],[27.273,65.0182,142.3751],[27.2742,65.0227,140.7377],[27.2637,65.0232,141.4252],[27.2673,65.0366,137.5465],[27.2779,65.0361,140.4159],[27.2815,65.0495,136.2942],[27.2921,65.0489,135.6712],[27.2957,65.0623,133.5932],[27.3063,65.0618,137.8601],[27.31,65.0752,151.6733],[27.3205,65.0747,143.3748],[27.3242,65.0881,181.6041],[27.3348,65.0876,179.9686],[27.336,65.0921,171.7938],[27.4737,65.0855,165.9122],[27.4749,65.0899,166.2561],[27.5173,65.0879,170.1355],[27.5185,65.0924,178.4993],[27.5608,65.0903,180.9899],[27.5621,65.0947,187.6236],[27.5833,65.0937,185.7101],[27.5845,65.0982,197.7187],[27.5951,65.0976,192.5413],[27.5964,65.1021,196.6621],[27.607,65.1016,196.1767],[27.6082,65.106,206.353],[27.6188,65.1055,211.6496],[27.6201,65.11,222.2771],[27.6307,65.1095,239.8022],[27.632,65.1139,252.694],[27.653199999999998,65.1129,279.5698],[27.6544,65.1173,294.811],[27.665,65.1168,329.9543],[27.6663,65.1213,334.2216],[27.6981,65.1197,243.8108],[27.6968,65.1152,243.0532],[27.7498,65.1126,194.8722],[27.7485,65.1081,190.2599],[27.8014,65.1055,197.6737],[27.8001,65.101,183.027],[27.8636,65.0977,239.8426],[27.8623,65.0933,221.5529],[27.894,65.0917,308.0779],[27.898,65.105,226.3013],[27.9086,65.1045,259.373],[27.9218,65.1491,233.8513],[27.9324,65.1486,297.1773],[27.9497,65.2065,142.89],[27.9603,65.206,140.9153],[27.9617,65.2104,161.7673],[27.9723,65.2099,160.447],[27.9736,65.2143,157.7048],[27.9843,65.2138,162.3555],[27.9856,65.2183,156.2488],[27.9962,65.2177,150.0766],[27.9976,65.2222,155.9131],[28.0082,65.2216,155.0789],[28.0109,65.2306,170.2774],[28.0215,65.23,174.0314],[28.0229,65.2345,165.217],[28.0335,65.2339,165.9604],[28.0348,65.2384,168.6722],[28.0561,65.2373,175.7036],[28.0575,65.2417,165.9564],[28.0894,65.2401,188.5517],[28.090699999999998,65.2445,173.5819],[28.112,65.2434,207.7359],[28.1134,65.2479,188.1301],[28.1453,65.2462,205.0963],[28.1466,65.2506,183.6429],[28.1786,65.2489,190.7844],[28.1799,65.2534,198.9855],[28.2118,65.2517,239.6197],[28.2132,65.2562,243.6064],[28.2451,65.2545,250.102],[28.2465,65.2589,209.4969],[28.2678,65.2578,220.7608],[28.2692,65.2623,228.4237],[28.3011,65.2606,225.1407],[28.3025,65.265,223.6012],[28.3344,65.2633,265.9923],[28.3358,65.2678,248.3384],[28.3677,65.266,231.5439],[28.3691,65.2705,236.4101],[28.4117,65.2682,281.954],[28.4131,65.2726,285.7949],[28.445,65.2709,264.3246],[28.4464,65.2754,259.1473],[28.4784,65.2736,256.3123],[28.4798,65.2781,250.1038],[28.5117,65.2763,269.77],[28.5131,65.2808,255.5545],[28.5451,65.279,282.9546],[28.5465,65.2835,275.2102],[28.5891,65.2811,277.658],[28.5905,65.2856,274.3791],[28.6118,65.2844,289.1184],[28.6147,65.2933,289.6457],[28.6041,65.2939,283.939],[28.6113,65.3161,249.0124],[28.5687,65.3185,238.4642],[28.5701,65.323,239.1031],[28.5808,65.3224,235.8825],[28.5822,65.3268,251.2809],[28.6142,65.3251,244.0637],[28.6215,65.3473,267.2343],[28.6321,65.3467,250.5699],[28.6365,65.3601,242.1704],[28.6472,65.3595,242.0418],[28.6501,65.3684,241.9141],[28.6608,65.3678,241.7647],[28.6622,65.3723,241.7818],[28.6516,65.3729,242.0613],[28.6559,65.3862,241.9416],[28.6453,65.3868,242.2572],[28.6467,65.3913,242.0151],[28.6681,65.3901,249.6656],[28.6696,65.3945,242.0538],[28.6802,65.3939,244.0451],[28.6817,65.3984,245.8765],[28.7031,65.3972,287.3749],[28.7046,65.4016,285.5442],[28.7259,65.4004,258.602],[28.7274,65.4049,253.4772],[28.7381,65.4043,253.6712],[28.7396,65.4087,261.9955],[28.7609,65.4075,258.6799],[28.7624,65.412,254.8783],[28.7731,65.4114,252.68],[28.7746,65.4158,251.4448],[28.796,65.4146,254.9117],[28.7975,65.4191,252.1905],[28.8188,65.4179,259.3592],[28.8203,65.4223,258.7304],[28.831,65.4217,268.824],[28.8325,65.4262,257.2626],[28.8539,65.425,269.1871],[28.8554,65.4294,278.9541],[28.8661,65.4288,270.2983],[28.8676,65.4333,277.7253],[28.889,65.4321,266.3099],[28.8905,65.4365,276.134],[28.9119,65.4353,253.2913],[28.9134,65.4397,264.6608],[28.9241,65.4391,251.5],[28.9256,65.4436,256.7706],[28.947,65.4423,265.7193],[28.9485,65.4468,261.7964],[29.0127,65.4431,257.0085],[29.0112,65.4386,253.9247],[29.054,65.4361,235.5],[29.0555,65.4406,235.5],[29.0769,65.4394,259.5443],[29.0784,65.4438,252.6429],[29.0998,65.4426,260.2082],[29.1013,65.447,273.7531],[29.1227,65.4457,262.6748],[29.1258,65.4546,259.1486],[29.1365,65.454,265.9415],[29.1381,65.4585,251.8764],[29.1488,65.4578,261.5231],[29.1503,65.4623,240.5516],[29.161,65.4616,238.5416],[29.1641,65.4706,244.1489],[29.1748,65.4699,255.5289],[29.1764,65.4744,256.7863],[29.1871,65.4737,256.623],[29.1902,65.4826,259.2776],[29.2009,65.482,273.7179],[29.2025,65.4865,267.4612],[29.2132,65.4858,263.2993],[29.2226,65.5125,274.3905],[29.2119,65.5131,284.5717],[29.2134,65.5176,268.9962],[29.2349,65.5163,255.1578],[29.2365,65.5208,246.3289],[29.2901,65.5176,242.1787],[29.2916,65.522,276.3051],[29.3452,65.5188,248.2699],[29.3436,65.5144,248.7868],[29.3865,65.5118,230.9953],[29.3849,65.5074,227.0434],[29.4171,65.5054,237.0672],[29.4155,65.501,228.5009],[29.4583,65.4984,228.0433],[29.4567,65.4939,221.1091],[29.4995,65.4913,234.3837],[29.4979,65.4869,225.4303],[29.5086,65.4862,221.6484],[29.5102,65.4907,221.2281],[29.5209,65.49,223.0459],[29.5225,65.4945,222.9242],[29.5333,65.4938,230.1619],[29.5365,65.5027,217.3536],[29.5472,65.5021,216.9596],[29.5488,65.5065,217.405],[29.6131,65.5025,217.8911],[29.6114,65.4981,223.6897],[29.6649,65.4948,236.0072],[29.6666,65.4992,221.4478],[29.7415,65.4946,221.9236],[29.7432,65.499,226.4163],[29.7691,65.4974,237.0226],[29.7964,65.5138,233.1406],[29.8033,65.5134,227.2414],[29.8054,65.5191,231.3312],[29.8243,65.5303,259.3726],[29.8314,65.5298,253.1519],[29.8337,65.5358,270.1917],[29.8382,65.5385,259.5268],[29.8455,65.538,253.302],[29.8478,65.5442,257.1212],[29.8761,65.5611,247.2425],[29.8777,65.5652,247.4854],[29.8385,65.5779,225.8405],[29.8391,65.5794,225.7244],[29.8288,65.5811,229.4165],[29.83,65.5845,231.004],[29.816,65.5854,228.6139],[29.8094,65.588,236.285],[29.8102,65.5903,242.5222],[29.7999,65.5919,245.404],[29.8012,65.5954,240.4502],[29.7894,65.5961,254.2096],[29.7821,65.5991,257.6331],[29.7814,65.6012,255.2388],[29.7783,65.6014,255.591],[29.745,65.6215,263.2916],[29.7467,65.6261,260.7643],[29.7344,65.6279,263.3396],[29.809,65.6449,252.6005],[29.8196,65.6442,262.8133],[29.8209,65.6476,246.902],[29.8445,65.6518,288.5306],[29.845,65.6531,268.3427],[29.856,65.6556,274.0616],[29.8677,65.6549,270.8253],[29.8691,65.6586,268.0461],[29.8801,65.6586,263.7906],[29.8812,65.6613,279.0688],[29.8926,65.6624,284.3929],[29.8932,65.6641,293.454],[29.9341,65.6734,251.6673],[29.9407,65.673,251.4829],[29.9416,65.6751,252.3382],[30.0066,65.6899,273.3749],[30.0438,65.6828,251.9754],[30.0428,65.6801,257.8221],[30.0623,65.6789,249.5759],[30.0745,65.6763,248.5159],[30.0734,65.6736,262.849],[30.0988,65.672,255.044],[30.1051,65.67,253.1023],[30.1039,65.6671,254.6087],[30.1254,65.6657,254.7319],[30.1289,65.6746,268.9165],[30.1238,65.6749,262.8512],[30.1278,65.7349,288.0749],[30.1016,65.831,271.262],[30.1033,65.8354,270.3562],[30.0997,65.8357,271.798],[30.0898,65.8576,267.6936],[30.0921,65.8635,274.6086],[30.087,65.8638,271.3129],[30.0839,65.8708,268.2654],[30.0865,65.8775,276.2426],[30.0807,65.8779,272.0233],[30.072,65.8972,267.9185],[30.0752,65.9055,266.2961],[30.068,65.906,270.7501],[30.0647,65.9134,259.9322],[30.0588,65.9205,266.0322],[30.0604,65.9246,257.8917],[30.0551,65.925,259.7778],[30.0417,65.941,264.3514],[30.0325,65.9672,262.2841],[30.0343,65.9718,262.2281],[30.0201,65.9727,262.4128],[30.0074,65.9885,271.2719],[30.0086,65.9916,267.8199],[30.0048,65.9919,272.1679],[29.9921,66.0066,270.1577],[29.9937,66.0107,270.1303],[29.9883,66.0111,269.7208],[29.9841,66.0161,283.6048],[29.9879,66.0228,256.7868],[29.9799,66.0326,270.5854],[29.9823,66.0388,269.2312],[29.9752,66.0392,277.9654],[29.9728,66.0429,257.6223],[29.9749,66.0483,270.4505],[29.969,66.0487,273.7656],[29.9658,66.0537,272.1528],[29.9674,66.0579,263.9092],[29.9629,66.0582,259.7845],[29.9588,66.0645,268.5461],[29.96,66.0675,268.354],[29.9567,66.0677,270.8877],[29.9448,66.086,281.6534],[29.9468,66.091,276.5531],[29.9413,66.0914,273.9582],[29.9168,66.1293,269.6458],[29.9076,66.1345,287.6301],[29.9093,66.1388,309.0669],[29.9003,66.1394,311.4769],[29.872,66.1583,342.8318],[29.8724,66.1593,338.9933],[29.863,66.1641,317.6464],[29.8649,66.1689,305.475],[29.8545,66.1695,306.048],[29.8556,66.174,281.2726],[29.8467,66.1746,281.6508],[29.845,66.1757,283.3642],[29.8464,66.1791,283.1765],[29.8389,66.1796,284.3803],[29.836,66.1814,291.0527],[29.8371,66.1842,289.329],[29.831,66.1846,289.0868],[29.827,66.1872,291.9478],[29.8278,66.1894,281.0786],[29.8232,66.1897,281.0918],[29.791,66.2104,257.6041],[29.7925,66.2143,287.9369],[29.7841,66.2148,254.936],[29.7819,66.2162,264.9727],[29.7832,66.2194,289.7889],[29.7763,66.2198,293.3547],[29.7549,66.2336,269.6242],[29.7553,66.2347,263.2751],[29.7528,66.2349,263.9594],[29.7187,66.2568,182.2563],[29.7198,66.2596,189.8668],[29.7137,66.26,182.7036],[29.7097,66.2626,190.9485],[29.7105,66.2648,166.5851],[29.7059,66.265,171.0698],[29.7015,66.2679,140.7346],[29.7012,66.2699,145.5873],[29.6988,66.27,145.4688],[29.692,66.2754,140.9409],[29.6936,66.2794,137.6675],[29.6862,66.2799,142.2104],[29.6745,66.2885,163.2176],[29.6749,66.2896,174.9808],[29.6699,66.292,170.7014],[29.662,66.3096,230.6452],[29.6265,66.37,267.9964],[29.6282,66.3743,260.295],[29.6238,66.3745,254.5636],[29.6124,66.3922,247.1221],[29.6145,66.3978,242.5193],[29.6085,66.3982,245.9354],[29.6051,66.4028,253.4489],[29.6068,66.4074,291.3005],[29.6005,66.4078,299.8128],[29.589,66.4202,281.7205],[29.5915,66.4265,287.4701],[29.5828,66.427,281.9745],[29.5783,66.4318,288.0234],[29.5266,66.4349,277.7773],[29.5249,66.4304,271.8515],[29.4472,66.435,271.6267],[29.4455,66.4306,273.5362],[29.3789,66.4344,273.6994],[29.3772,66.43,287.8393],[29.2995,66.4345,247.3952],[29.2978,66.4301,241.8729],[29.2645,66.432,231.9011],[29.2563,66.4097,226.1855],[29.2119,66.4123,218.1967],[29.2136,66.4167,208.9325],[29.1581,66.4199,224.3468],[29.1597,66.4243,219.8007],[29.1041,66.4275,227.3132],[29.1058,66.4319,225.1746],[29.0502,66.4351,237.7687],[29.0518,66.4395,243.0669],[28.9962,66.4426,244.234],[28.9978,66.4471,250.936],[28.9422,66.4502,260.7344],[28.9438,66.4546,252.0727],[28.8882,66.4577,256.795],[28.8898,66.4621,254.0962],[28.8341,66.4652,265.8653],[28.8357,66.4696,264.6997],[28.7689,66.4733,300.5916],[28.7705,66.4778,287.9012],[28.7148,66.4808,326.3985],[28.7163,66.4852,326.1458],[28.694,66.4864,413.4755],[28.6679,66.4107,360.3471],[28.6123,66.4137,311.8015],[28.6092,66.4047,305.0522],[28.5981,66.4053,301.9045],[28.5966,66.4009,278.7039],[28.5855,66.4015,278.2934],[28.5779,66.3792,287.0647],[28.5557,66.3804,279.7295],[28.5376,66.3269,311.8567],[28.5487,66.3263,311.968],[28.5457,66.3174,303.1036],[28.5567,66.3168,303.2028],[28.5537,66.3079,286.6264],[28.5648,66.3073,292.0259],[28.5618,66.2984,290.4712],[28.5728,66.2978,292.0898],[28.5698,66.2889,335.7997],[28.5809,66.2883,314.6721],[28.5778,66.2794,303.4421],[28.5889,66.2788,301.6748],[28.5859,66.2699,293.7548],[28.5969,66.2693,296.0308],[28.5954,66.2648,304.2487],[28.6175,66.2637,303.1403],[28.619,66.2681,309.2067],[28.6411,66.2669,287.2245],[28.6396,66.2625,320.039],[28.6506,66.2619,308.09],[28.6461,66.2485,302.564],[28.6682,66.2473,295.4757],[28.6712,66.2562,298.1262],[28.6822,66.2556,296.5078],[28.6838,66.2601,291.5282],[28.7059,66.2589,269.7438],[28.7074,66.2634,282.5701],[28.7184,66.2627,278.3398],[28.7169,66.2583,272.7417],[28.75,66.2565,275.74],[28.7454,66.2431,260.3177],[28.7565,66.2425,253.1807],[28.7549,66.2381,254.8301],[28.7659,66.2375,248.9509],[28.7629,66.2286,257.8032],[28.7518,66.2292,264.7401],[28.7442,66.2069,239.5],[28.7331,66.2075,239.5],[28.7316,66.203,239.5],[28.7426,66.2025,239.5],[28.7411,66.198,239.5],[28.7521,66.1974,239.5],[28.7506,66.1929,239.5],[28.7616,66.1923,239.5],[28.7601,66.1879,239.5],[28.7711,66.1873,239.5],[28.768,66.1784,239.5],[28.757,66.179,239.5],[28.7554,66.1745,239.5],[28.7444,66.1751,239.5],[28.7414,66.1662,239.5],[28.7304,66.1668,239.5],[28.7288,66.1624,239.5],[28.7178,66.163,239.5],[28.7117,66.1451,239.5],[28.7227,66.1446,239.5],[28.7197,66.1356,239.5],[28.7087,66.1362,239.5],[28.7072,66.1318,239.5],[28.6962,66.1324,239.5],[28.6947,66.1279,239.5],[28.6727,66.1291,239.5],[28.6712,66.1247,239.5],[28.6053,66.1282,239.5],[28.6038,66.1238,239.5],[28.6147,66.1232,239.5],[28.6117,66.1143,239.5],[28.6227,66.1137,239.5],[28.6182,66.1003,290.1769],[28.6292,66.0997,282.3842],[28.6262,66.0908,239.5],[28.6371,66.0902,244.0615],[28.6356,66.0858,249.0733],[28.6466,66.0852,239.5],[28.6436,66.0763,239.5],[28.6326,66.0769,239.5],[28.6311,66.0724,239.5],[28.6421,66.0718,239.5],[28.6406,66.0674,239.5],[28.6844,66.065,239.5],[28.6829,66.0605,239.5],[28.7048,66.0593,249.4694],[28.7033,66.0549,247.0766],[28.7142,66.0543,250.816],[28.7112,66.0454,250.0635],[28.7441,66.0436,274.9696],[28.7456,66.048,288.9391],[28.7565,66.0474,279.7189],[28.7459,66.0162,333.4958],[28.7568,66.0156,323.3538],[28.7523,66.0023,335.2986],[28.7195,66.0041,322.3167],[28.7179,65.9996,366.6644],[28.6742,66.002,357.2188],[28.6727,65.9976,338.5674],[28.6618,65.9982,334.8608],[28.6573,65.9848,321.2678],[28.6026,65.9878,307.3255],[28.6056,65.9967,281.3818],[28.5947,65.9973,263.5455],[28.5962,66.0017,258.8694],[28.5087,66.0064,250.7325],[28.5072,66.002,267.9913],[28.4853,66.0032,260.7916],[28.4809,65.9898,258.0412],[28.459,65.991,244.5829],[28.4576,65.9865,253.0506],[28.4138,65.9888,257.7298],[28.4182,66.0022,243.5642],[28.3854,66.0039,243.6015],[28.3839,65.9995,244.325],[28.3949,65.9989,243.7291],[28.3876,65.9766,252.5465],[28.3985,65.976,262.5246],[28.397,65.9716,256.7542],[28.3752,65.9727,250.4328],[28.3723,65.9638,255.9243],[28.3832,65.9632,289.7404],[28.3818,65.9588,259.8805],[28.4036,65.9576,267.3138],[28.4021,65.9532,244.8629],[28.424,65.952,251.1695],[28.4225,65.9476,239.093],[28.4334,65.947,243.7451],[28.432,65.9425,237.9428],[28.4429,65.9419,252.5197],[28.44,65.933,237.7051],[28.4509,65.9324,241.2647],[28.4479,65.9235,243.4283],[28.4588,65.923,249.3265],[28.4574,65.9185,243.9264],[28.4683,65.9179,244.1391],[28.4668,65.9135,251.0029],[28.4777,65.9129,258.5437],[28.4763,65.9084,247.3353],[28.4872,65.9078,250.6003],[28.4857,65.9034,240.9366],[28.4966,65.9028,240.7835],[28.4951,65.8983,237.0582],[28.506,65.8978,239.0567],[28.5045,65.8933,238.1451],[28.5154,65.8927,243.5751],[28.5081,65.8704,293.96],[28.5189,65.8699,285.9669],[28.5175,65.8654,276.116],[28.5116,65.8476,253.2521],[28.5007,65.8482,247.5636],[28.4993,65.8437,243.5966],[28.4666,65.8455,236.5644],[28.4652,65.841,245.9289],[28.4434,65.8422,231.5],[28.442,65.8377,231.5],[28.4202,65.8389,242.3263],[28.4188,65.8344,241.7876],[28.4079,65.835,256.5352],[28.4065,65.8305,256.0658],[28.3847,65.8317,256.8448],[28.3833,65.8272,269.9167],[28.3615,65.8284,274.5303],[28.3601,65.8239,295.4563],[28.3492,65.8245,296.312],[28.3478,65.8201,277.1369],[28.3261,65.8212,313.4495],[28.3246,65.8167,284.6612],[28.3029,65.8179,259.6518],[28.3015,65.8134,282.4894],[28.2906,65.814,253.1046],[28.2892,65.8095,243.4494],[28.2675,65.8107,243.6215],[28.266,65.8062,259.5792],[28.2443,65.8074,251.1226],[28.2429,65.8029,318.6323],[28.232,65.8035,262.7668],[28.2306,65.799,274.0196],[28.2089,65.8001,299.4381],[28.2103,65.8046,263.7361],[28.156,65.8074,264.1495],[28.1574,65.8119,247.6058],[27.8965,65.8251,275.7104],[27.8951,65.8207,283.0827],[27.7646,65.8271,337.9713],[27.77,65.845,341.2729],[27.7591,65.8455,325.3537],[27.7604,65.85,336.8394],[27.7495,65.8505,283.1982],[27.7522,65.8594,341.9236],[27.7413,65.86,313.2581],[27.7427,65.8644,332.0033],[27.7318,65.865,322.1474],[27.7344,65.8739,284.7688],[27.7235,65.8744,260.1462],[27.7262,65.8834,257.7879],[27.7153,65.8839,251.0255],[27.7167,65.8883,257.1675],[27.7057,65.8889,271.44],[27.7084,65.8978,308.5754],[27.6975,65.8983,329.4488],[27.6988,65.9028,319.1129],[27.6879,65.9033,314.3535],[27.6919,65.9167,262.2739],[27.681,65.9172,278.2],[27.6837,65.9262,237.9819],[27.6727,65.9267,231.8517],[27.6767,65.9401,244.613],[27.6658,65.9406,240.6832],[27.6685,65.9495,229.3792],[27.6575,65.9501,230.7081],[27.6602,65.959,215.1451],[27.6383,65.96,213.2038],[27.637,65.9556,211.504],[27.6151,65.9566,216.3929],[27.6138,65.9522,213.7644],[27.5919,65.9532,212.7075],[27.5893,65.9443,222.1688],[27.5784,65.9448,213.4672],[27.5757,65.9359,222.8453],[27.5648,65.9364,211.2701],[27.5635,65.9319,210.8334],[27.5744,65.9314,211.9977],[27.5738,65.9291,215.6626],[27.5731,65.927,226.614],[27.5622,65.9275,210.5256],[27.5609,65.923,208.7523],[27.539,65.9241,205.5886],[27.5403,65.9285,204.5715],[27.5185,65.9296,202.4453],[27.5198,65.934,209.1566],[27.5089,65.9345,205.5967],[27.5102,65.939,217.9622],[27.4992,65.9395,212.0623],[27.5005,65.944,233.0975],[27.4786,65.945,206.822],[27.4799,65.9495,224.1739],[27.469,65.95,216.2194],[27.4703,65.9545,219.5761],[27.4594,65.955,210.9661],[27.4607,65.9594,218.2788],[27.4388,65.9604,205.5632],[27.4362,65.9515,206.9523],[27.4253,65.952,202.2297],[27.4227,65.9431,199.77],[27.4118,65.9436,201.6539],[27.4092,65.9347,202.9585],[27.3982,65.9352,209.7285],[27.3957,65.9263,205.5178],[27.3848,65.9268,219.6942],[27.3822,65.9178,212.8156],[27.3713,65.9184,219.0939],[27.3687,65.9094,210.3302],[27.3578,65.9099,208.8851],[27.3553,65.901,209.6598],[27.3443,65.9015,204.687],[27.3418,65.8926,195.4239],[27.3309,65.8931,186.4898],[27.3283,65.8841,181.8962],[27.3174,65.8847,182.6292],[27.3149,65.8757,178.6545],[27.304,65.8762,178.6079],[27.3015,65.8673,179.2824],[27.2906,65.8678,172.1474],[27.288,65.8589,180.8367],[27.2771,65.8594,170.3067],[27.2746,65.8504,170.5331],[27.2637,65.8509,168.9825],[27.2612,65.842,169.8894],[27.2503,65.8425,164.0896],[27.2478,65.8336,170.1917],[27.2369,65.8341,163.2948],[27.2344,65.8251,162.7515],[27.2235,65.8256,162.9516],[27.2211,65.8167,164.2196],[27.2102,65.8172,169.5383],[27.2077,65.8083,168.4029],[27.1968,65.8088,173.7948],[27.1943,65.7998,169.3277],[27.1834,65.8003,171.3767],[27.181,65.7914,166.6894],[27.1701,65.7919,164.8543],[27.1676,65.7829,161.8217],[27.1567,65.7834,160.4883],[27.1543,65.7745,172.8385],[27.1434,65.775,179.3239],[27.1409,65.766,188.8067],[27.1301,65.7665,178.6124],[27.1276,65.7576,173.5336],[27.1168,65.7581,184.3565],[27.1131,65.7447,161.3893],[27.1022,65.7452,164.3359],[27.0998,65.7362,182.5174],[27.0889,65.7367,166.6594],[27.0877,65.7323,166.3203],[27.0769,65.7327,149.8202],[27.0757,65.7283,149.4716],[27.0648,65.7288,149.1943],[27.066,65.7332,147.576],[27.0443,65.7342,150.347],[27.0455,65.7387,146.2509],[27.0347,65.7392,144.1458],[27.0335,65.7347,144.4758],[27.0118,65.7357,143.1152],[27.0105,65.7312,144.627],[26.9888,65.7321,145.0229],[26.9876,65.7277,146.9069],[26.9768,65.7282,145.6929],[26.9756,65.7237,150.947],[26.9539,65.7247,143.4245],[26.9527,65.7202,143.5888],[26.931,65.7211,142.8443],[26.9298,65.7167,143.3572],[26.9081,65.7176,148.6091],[26.9069,65.7132,146.0609],[26.8852,65.7141,158.2084],[26.884,65.7096,159.2381],[26.8732,65.7101,170.905],[26.872,65.7057,165.781],[26.8503,65.7066,160.302],[26.8492,65.7021,177.7885],[26.8275,65.7031,154.8621],[26.8263,65.6986,187.4609],[26.8154,65.6991,168.524],[26.8166,65.7035,149.5967],[26.5888,65.7132,131.3721],[26.5877,65.7088,140.012],[26.4357,65.715,135.8949],[26.4346,65.7105,135.0764],[26.2609,65.7175,133.3241],[26.262,65.722,134.1368],[26.1642,65.7259,133.5272],[26.1663,65.7348,134.6498],[26.1554,65.7352,145.6447],[26.1671,65.7845,127.8317],[26.1562,65.7849,131.2651],[26.1647,65.8207,123.6341],[26.1538,65.8211,129.1713],[26.1527,65.8166,125.9697],[26.1309,65.8175,125.4745],[26.1299,65.813,124.4569],[26.119,65.8134,129.514],[26.1179,65.809,132.6033],[26.0961,65.8098,130.5712],[26.0951,65.8053,128.1013],[26.0842,65.8057,129.7141],[26.0831,65.8013,124.2783],[26.0613,65.8021,121.4218],[26.0603,65.7976,122.0669],[26.0494,65.798,131.4482],[26.0483,65.7936,131.3701],[26.0266,65.7944,135.7291],[26.0255,65.7899,133.9127],[26.0146,65.7903,126.4921],[26.0136,65.7859,127.1436],[25.9918,65.7867,118.3198],[25.9908,65.7822,115.1479],[25.9799,65.7826,115.0479],[25.9789,65.7782,115.6608],[25.9571,65.779,120.9041],[25.956,65.7745,127.465],[25.9343,65.7753,119.7719],[25.9333,65.7708,120.0097],[25.9224,65.7712,113.8779],[25.9213,65.7668,113.358],[25.8996,65.7676,114.3171],[25.8986,65.7631,116.2029],[25.8877,65.7635,117.2442],[25.8867,65.759,112.5445],[25.8649,65.7598,116.3784],[25.8639,65.7554,112.8084],[25.853,65.7558,111.0105],[25.852,65.7513,110.1399],[25.8302,65.7521,116.2756],[25.8292,65.7476,113.6484],[25.8184,65.748,113.3297],[25.8174,65.7436,104.8055],[25.7956,65.7443,111.1501],[25.7946,65.7399,103.9447],[25.7076,65.743,102.7669],[25.7066,65.7386,100.1836],[25.5543,65.744,90.8708],[25.5533,65.7395,89.9033],[25.4228,65.744,80.6529],[25.4218,65.7396,80.9956],[25.411,65.7399,79.9715],[25.41,65.7355,79.1932],[25.3883,65.7362,78.4653],[25.3873,65.7317,73.9318],[25.3765,65.7321,75.1973],[25.3755,65.7276,77.5127],[25.3647,65.728,81.3881],[25.3637,65.7235,76.3002],[25.3529,65.7239,78.8287],[25.3501,65.7104,69.2426],[25.3392,65.7108,75.2534],[25.3374,65.7018,71.1246],[25.3265,65.7022,77.3228],[25.3247,65.6933,66.2231],[25.3138,65.6936,66.7666],[25.312,65.6846,71.7181],[25.3012,65.685,65.5228],[25.3002,65.6805,66.1422],[25.2785,65.6813,60.802],[25.2776,65.6768,58.4301],[25.2668,65.6771,56.5677],[25.2659,65.6727,53.5454],[25.2441,65.6734,53.5636],[25.2433,65.6689,49.2913],[25.2324,65.6693,38.9072],[25.2315,65.6648,41.0657],[25.2206,65.6652,39.2156],[25.2198,65.6607,44.4828],[25.2089,65.661,35.0124],[25.2071,65.6521,36.7207],[25.1963,65.6524,36.0586],[25.1954,65.6479,34.6969],[25.1845,65.6483,34.9398],[25.1836,65.6438,30.845],[25.1728,65.6442,32.7441],[25.171,65.6352,25.7875],[25.1602,65.6356,27.1251],[25.1584,65.6266,21.7213],[25.1476,65.627,30.3171],[25.145,65.6135,21.4527],[25.1341,65.6139,19.316],[25.1324,65.6049,15.0748],[25.1215,65.6053,18.8402],[25.1206,65.6008,14.2322],[25.1098,65.6011,11.9981],[25.109,65.5966,11.7771],[25.0981,65.597,10.694],[25.0964,65.588,9.2825],[25.0857,65.5884,6.493],[25.0851,65.5854,5.1557],[25.0891,65.5839,10.9749],[25.0839,65.5787,1.276],[25.087,65.5755,8.7787],[25.0839,65.5714,2.4662],[25.0917,65.5687,0.0],[25.0979,65.5687,0.0],[25.1026,65.5724,6.1475],[25.1078,65.5724,3.1678],[25.1141,65.5682,0.4482],[25.113,65.5651,0.0],[25.1182,65.562,8.2931],[25.1172,65.5589,0.0],[25.1182,65.5568,11.0737],[25.1151,65.5526,0.1393],[25.1208,65.55,0.0],[25.1286,65.5568,0.0],[25.1255,65.5599,0.0],[25.1349,65.5589,0.0],[25.1422,65.5661,0.0],[25.1495,65.5672,0.0],[25.1542,65.5708,2.6583],[25.1578,65.5682,0.0],[25.1568,65.5651,0.0],[25.1625,65.5625,0.0],[25.175,65.5667,1.4962],[25.1854,65.5604,0.0],[25.1917,65.5604,0.0],[25.1958,65.5625,6.8254],[25.2062,65.5625,0.2249],[25.212,65.5599,0.6082],[25.2104,65.5583,0.6995],[25.2047,65.5578,0.0],[25.2026,65.5557,0.667],[25.2042,65.5542,1.3579],[25.2099,65.5536,0.0],[25.2089,65.5505,0.0],[25.212,65.5484,8.0439],[25.2089,65.5443,4.7758],[25.2109,65.5422,3.1789],[25.2182,65.5411,0.0],[25.2214,65.538,0.0],[25.2354,65.5354,0.0],[25.2401,65.5318,0.0],[25.2474,65.5307,0.0],[25.2578,65.5245,5.5226],[25.2599,65.5224,9.0785],[25.2589,65.5193,0.9401],[25.2641,65.5162,0.0],[25.2609,65.5109,0.0],[25.2766,65.5078,4.3661],[25.2755,65.5047,0.0],[25.2828,65.5036,0.0],[25.2849,65.5016,0.0],[25.2818,65.4964,2.0789],[25.2849,65.4943,3.9287],[25.2818,65.4901,0.6956],[25.2891,65.4891,2.3578],[25.2958,65.4833,0.0],[25.3229,65.4854,0.6631],[25.3307,65.4807,2.3393],[25.3292,65.4792,0.0],[25.3208,65.4792,0.0],[25.3193,65.4776,0.0],[25.3307,65.4693,5.2705],[25.325,65.4688,0.937],[25.3172,65.4651,0.0],[25.3208,65.4625,0.0],[25.3271,65.4625,1.5142],[25.3312,65.4646,0.0],[25.3438,65.4646,8.1673],[25.3453,65.4641,7.6856],[25.3443,65.4609,0.0],[25.3495,65.4589,2.2286],[25.3438,65.4542,0.8568],[25.3312,65.4542,0.0],[25.3234,65.4505,0.0],[25.3318,65.4443,0.0],[25.3417,65.4437,0.2585],[25.3516,65.4411,1.1558],[25.35,65.4396,0.0],[25.3333,65.4396,7.4779],[25.3318,65.438,0.0],[25.35,65.4354,0.7432],[25.3589,65.4297,0.0],[25.3661,65.4287,0.2467],[25.362,65.4234,0.0],[25.3521,65.4208,0.701],[25.3479,65.4229,0.4583],[25.3396,65.4229,0.0],[25.3271,65.4271,2.3842],[25.3193,65.4266,0.0],[25.3172,65.4234,0.0],[25.3245,65.4224,3.721],[25.3307,65.4182,4.0544],[25.3276,65.4141,0.0],[25.3286,65.4109,0.0],[25.3203,65.4068,1.8574],[25.313,65.4057,0.0],[25.3099,65.4026,0.4873],[25.3021,65.4,0.0],[25.2875,65.4083,0.0],[25.2609,65.4078,1.5972],[25.2589,65.4057,0.0],[25.2604,65.4021,0.0],[25.2589,65.3984,0.0],[25.262,65.3953,2.7688],[25.2609,65.3922,0.0],[25.2714,65.3859,0.0],[25.2813,65.3854,0.0],[25.2828,65.3839,0.0],[25.2771,65.3792,3.9206],[25.2729,65.3812,0.0],[25.2651,65.3807,0.0],[25.263,65.3776,0.0],[25.2687,65.3771,0.4513],[25.2703,65.3755,0.3438],[25.2667,65.3729,0.2848],[25.2568,65.3724,0.0],[25.2589,65.3693,0.0],[25.2646,65.3667,0.0],[25.2708,65.3667,0.0],[25.275,65.3688,0.0],[25.3021,65.3688,0.0],[25.3063,65.3708,1.6078],[25.3307,65.3609,0.0],[25.3208,65.3604,0.2742],[25.3167,65.3583,0.0],[25.3068,65.3609,1.0196],[25.3047,65.363,0.0],[25.3057,65.3662,1.436],[25.2917,65.3667,0.0],[25.2901,65.3651,0.0],[25.2953,65.362,8.3708],[25.2922,65.3568,0.2206],[25.2953,65.3547,1.9627],[25.2854,65.3542,0.0],[25.2792,65.35,4.8926],[25.2714,65.3505,0.0],[25.2729,65.3521,0.7858],[25.2786,65.3526,0.0],[25.2807,65.3547,0.0],[25.275,65.3583,0.0],[25.2526,65.3505,3.0238],[25.2547,65.3484,0.0],[25.262,65.3474,9.4678],[25.2708,65.3417,0.0],[25.2755,65.3453,0.0],[25.2792,65.3458,0.0],[25.2807,65.3453,3.3094],[25.2797,65.3422,5.8397],[25.2839,65.338,0.0],[25.3104,65.3333,0.0],[25.3187,65.3292,0.0],[25.3271,65.3292,0.0],[25.3396,65.325,0.0],[25.3604,65.325,1.2715],[25.3667,65.3292,9.2131],[25.3745,65.3287,0.0],[25.3724,65.3255,9.5631],[25.3651,65.3245,0.0],[25.3604,65.3208,5.1691],[25.3458,65.3229,8.5632],[25.3396,65.3208,14.6653],[25.3297,65.3234,4.749],[25.325,65.3271,0.0],[25.3104,65.3271,4.4204],[25.3063,65.3292,4.6774],[25.2979,65.3292,5.6868],[25.2938,65.3313,0.0],[25.2896,65.3313,0.0],[25.2792,65.3375,0.0],[25.2646,65.3375,2.2806],[25.2604,65.3354,3.6887],[25.2417,65.3354,0.0],[25.2339,65.3318,0.9519],[25.2359,65.3297,1.5674],[25.2417,65.3292,0.0],[25.2474,65.3266,0.0],[25.2464,65.3234,0.0],[25.2516,65.3203,7.2601],[25.2505,65.3172,8.3024],[25.2526,65.3151,0.0],[25.2625,65.3146,1.9614],[25.2724,65.312,0.0],[25.2766,65.3099,0.0],[25.2755,65.3068,0.0],[25.2875,65.3021,0.0],[25.2932,65.3016,7.4966],[25.2953,65.2995,0.0],[25.2943,65.2963,0.0],[25.3016,65.2953,0.0],[25.3089,65.2901,0.0],[25.3161,65.2891,0.0],[25.3125,65.2854,3.1395],[25.2958,65.2854,6.1898],[25.2901,65.287,3.7732],[25.2911,65.2839,0.8682],[25.2849,65.2776,0.8721],[25.2651,65.2724,0.0],[25.263,65.2693,0.0],[25.2687,65.2667,0.0],[25.275,65.2667,0.0],[25.2792,65.2688,7.2264],[25.2833,65.2667,0.0],[25.2875,65.2688,4.0633],[25.2938,65.2688,7.2978],[25.2979,65.2667,0.0],[25.3167,65.2667,0.0],[25.3266,65.2641,0.3729],[25.3328,65.2589,0.0],[25.3109,65.2578,0.0],[25.3089,65.2547,0.0],[25.312,65.2526,1.6641],[25.3078,65.2484,4.235],[25.3005,65.2474,3.6259],[25.3005,65.2443,12.0833],[25.3083,65.2417,4.9906],[25.3312,65.2396,4.5012],[25.3411,65.237,0.0],[25.3432,65.2349,3.3898],[25.3396,65.2312,3.2823],[25.3229,65.2312,1.4243],[25.3187,65.2333,0.0],[25.2958,65.2333,3.6522],[25.2833,65.2375,0.0],[25.2776,65.2318,0.0],[25.2849,65.2307,2.6761],[25.287,65.2286,5.9377],[25.2839,65.2245,1.4216],[25.287,65.2224,0.0],[25.2849,65.2193,0.0],[25.2771,65.2188,0.1926],[25.2724,65.2224,0.0],[25.2687,65.2229,0.0],[25.2609,65.2203,7.9934],[25.2589,65.2172,0.0],[25.2609,65.2151,0.0],[25.2708,65.2125,0.0],[25.2911,65.212,0.0],[25.2953,65.2089,5.5123],[25.288,65.2078,8.4165],[25.2859,65.2047,0.0],[25.3016,65.2016,8.4722],[25.3005,65.1984,0.0],[25.3021,65.1979,0.0],[25.3063,65.1979,0.0],[25.3104,65.1958,0.0],[25.3229,65.1958,11.7077],[25.3297,65.1922,0.0],[25.337,65.1911,3.3107],[25.3401,65.188,3.7545],[25.3474,65.187,4.6779],[25.3563,65.1813,0.8569],[25.375,65.1813,10.5132],[25.3766,65.1797,10.5062],[25.3729,65.1771,9.0669],[25.3563,65.1771,8.0978],[25.3516,65.1807,0.0],[25.3375,65.1833,8.0357],[25.3328,65.187,0.0],[25.3255,65.188,4.6696],[25.3266,65.1911,0.0],[25.325,65.1917,0.0],[25.3104,65.1917,5.332],[25.3063,65.1937,5.6923],[25.2979,65.1937,6.9789],[25.2938,65.1958,0.0],[25.2854,65.1958,1.2464],[25.2813,65.1979,0.0],[25.263,65.1974,0.7436],[25.2661,65.1953,4.1454],[25.2651,65.1922,2.3115],[25.2672,65.1901,0.0],[25.2766,65.187,1.1054],[25.2807,65.1839,3.9082],[25.2687,65.1729,1.4515],[25.2604,65.1729,0.0],[25.25,65.1687,5.1349],[25.2458,65.1708,0.0],[25.2292,65.1708,4.5476],[25.2234,65.1661,0.0],[25.2266,65.1641,0.5878],[25.2255,65.1609,2.2793],[25.2328,65.1557,3.7001],[25.2318,65.1422,3.3224],[25.237,65.1391,0.0],[25.2359,65.1359,0.0],[25.237,65.1339,0.9079],[25.2318,65.1328,1.2441],[25.2276,65.1276,1.0714],[25.2333,65.125,0.0],[25.2375,65.1271,0.0],[25.2479,65.1271,8.1257],[25.2521,65.125,0.0],[25.2563,65.1271,11.9887],[25.2687,65.1271,11.0344],[25.2729,65.125,0.0],[25.2813,65.125,12.5806],[25.2854,65.1229,0.0],[25.2938,65.1229,0.0],[25.3,65.1188,0.0],[25.3063,65.1208,1.5994],[25.3151,65.1151,0.0],[25.3307,65.112,4.3543],[25.3359,65.1068,0.0],[25.3417,65.1042,0.0],[25.3474,65.1036,0.4253],[25.3375,65.1,0.5959],[25.3167,65.1,0.0],[25.3125,65.0979,2.1895],[25.2922,65.0974,0.0],[25.2938,65.0938,0.0],[25.2922,65.0901,0.0],[25.2964,65.0859,0.0],[25.3266,65.0828,0.1251],[25.3255,65.0797,0.0],[25.3354,65.0729,0.0],[25.3417,65.0729,0.0],[25.3453,65.0755,-0.0183],[25.3432,65.0787,0.0],[25.3359,65.0797,-0.0254],[25.3339,65.0818,2.5161],[25.3339,65.0849,2.4355],[25.3401,65.0911,1.1431],[25.3474,65.0922,0.0],[25.3547,65.0995,0.0],[25.3599,65.1005,0.0],[25.362,65.1036,0.938],[25.3589,65.1057,1.904],[25.3625,65.1062,2.0931],[25.3724,65.1036,0.0],[25.3776,65.0984,0.0],[25.3807,65.0974,0.0],[25.3755,65.0901,0.0],[25.3776,65.088,0.0],[25.3833,65.0875,2.3792],[25.3891,65.0849,2.3243],[25.3859,65.0807,0.0],[25.388,65.0776,0.384],[25.3911,65.0766,0.323],[25.388,65.0714,0.0],[25.3974,65.0641,0.0],[25.3922,65.0568,0.0],[25.3979,65.0542,0.0],[25.4078,65.0536,0.8911],[25.4068,65.0505,0.4348],[25.4141,65.0453,0.0],[25.413,65.0422,0.0],[25.4245,65.0411,4.8636],[25.4229,65.0396,0.0],[25.4089,65.0391,0.0],[25.412,65.0359,0.0],[25.4089,65.0318,0.0],[25.4141,65.0286,3.3953],[25.413,65.0255,1.074],[25.4141,65.0234,0.9325],[25.4068,65.0162,0.0],[25.4099,65.013,0.0],[25.3984,65.012,1.9984],[25.3943,65.0068,2.0685],[25.4042,65.0042,1.6751],[25.4203,65.0036,0.0],[25.4224,65.0005,12.533],[25.4203,64.9984,8.2623],[25.4047,64.9974,2.6167],[25.4063,64.9958,2.0108],[25.412,64.9953,0.0],[25.4151,64.9922,0.0],[25.4292,64.9896,1.7867],[25.4339,64.9859,0.0],[25.4521,64.9812,0.0],[25.4604,64.9812,0.1528],[25.4646,64.9792,0.0],[25.4687,64.9792,0.2217],[25.4734,64.9755,0.0],[25.4807,64.9745,0.0],[25.487,64.9703,1.2219],[25.4859,64.963,0.0],[25.4891,64.962,1.3163],[25.4828,64.9547,0.4611],[25.4771,64.9542,0.0],[25.4604,64.9479,0.2095],[25.4333,64.9479,0.0],[25.4271,64.9458,0.3128],[25.4224,64.9495,0.0],[25.4151,64.9505,0.1375],[25.4089,64.9547,2.0951],[25.4099,64.9578,0.168],[25.4036,64.962,0.0],[25.3854,64.9625,0.0594],[25.3625,64.9708,0.0351],[25.3568,64.9714,-0.0313],[25.3333,64.9875,8.3394],[25.3292,64.9875,15.2233],[25.325,64.9896,8.3217],[25.3063,64.9896,2.4004],[25.2938,64.9938,0.0],[25.2854,64.9938,5.9669],[25.2813,64.9958,0.0],[25.2729,64.9958,0.2852],[25.2687,64.9979,3.121],[25.2604,64.9979,0.0],[25.2542,65.0021,0.0],[25.225,65.0021,0.8548],[25.2208,65.0042,0.0],[25.213,65.0036,0.3157],[25.2182,64.9984,0.0],[25.2089,64.9932,0.2646],[25.2099,64.9901,0.0],[25.2089,64.988,0.0],[25.212,64.987,0.0],[25.2109,64.9838,0.0],[25.212,64.9818,0.1109],[25.1938,64.9812,0.0778],[25.1922,64.9797,0.0854],[25.1995,64.9745,4.2049],[25.1984,64.9714,0.0],[25.212,64.962,5.3257],[25.2089,64.9568,2.6289],[25.2141,64.9537,1.3607],[25.213,64.9505,0.0],[25.2203,64.9495,0.0],[25.2234,64.9443,0.2784],[25.2333,64.9437,0.6506],[25.2411,64.9411,0.0],[25.2484,64.9359,0.0],[25.2724,64.9307,2.443],[25.2745,64.9287,0.5585],[25.2734,64.9255,0.0],[25.2807,64.9245,0.3997],[25.2797,64.9213,0.0],[25.2896,64.9208,1.042],[25.2958,64.9167,0.0],[25.3224,64.912,1.3637],[25.3266,64.9099,0.6673],[25.3255,64.9068,0.0],[25.3333,64.9042,0.0],[25.3474,64.9068,0.0],[25.3521,64.9104,0.0],[25.3583,64.9104,0.0],[25.3766,64.9057,0.4995],[25.387,64.8974,0.0],[25.3807,64.8901,0.0],[25.3714,64.8891,0.6119],[25.3693,64.8859,0.0],[25.375,64.8854,0.0],[25.3766,64.8839,0.5492],[25.3724,64.8797,0.0],[25.3651,64.8786,0.7591],[25.363,64.8766,0.0],[25.3661,64.8734,0.0],[25.362,64.8693,0.2584],[25.3568,64.8682,0.0],[25.3536,64.8651,0.3142],[25.3464,64.8641,0.3738],[25.3443,64.8609,0.0],[25.3474,64.8588,0.0],[25.3266,64.838,0.0192],[25.3214,64.837,0.0],[25.3161,64.8318,-0.1834],[25.3083,64.8292,0.0304],[25.2964,64.8297,0.0],[25.2974,64.8328,0.0],[25.2943,64.8349,0.7799],[25.2974,64.8391,0.0353],[25.2901,64.8443,0.1102],[25.2943,64.8495,0.1878],[25.2995,64.8505,0.0],[25.3036,64.8547,0.0],[25.3016,64.8578,-0.1456],[25.2974,64.8599,0.0642],[25.2734,64.8672,-0.0325],[25.2667,64.8708,0.0502],[25.2609,64.8714,-0.0811],[25.262,64.8745,0.0],[25.2604,64.875,0.1233],[25.2563,64.875,0.0],[25.2521,64.8729,-0.0628],[25.2208,64.8729,0.0567],[25.212,64.8786,0.0],[25.2005,64.8797,0.3458],[25.2016,64.8828,0.0],[25.1964,64.887,0.0],[25.2078,64.888,0.413],[25.2099,64.8912,0.0],[25.2078,64.8953,0.0],[25.1958,64.9,0.0],[25.1901,64.9005,0.1349],[25.1854,64.9042,0.0],[25.1646,64.9042,0.0],[25.1599,64.9005,-0.0792],[25.1542,64.9,0.0341],[25.1458,64.9042,0.3041],[25.1443,64.9036,0.0],[25.1453,64.9005,0.0],[25.1437,64.9,0.0],[25.1318,64.9047,0.3922],[25.1349,64.9099,0.0],[25.1318,64.9109,0.0412],[25.1328,64.9141,0.0],[25.1266,64.9182,3.609],[25.1208,64.9167,2.8435],[25.1167,64.9187,0.0],[25.1063,64.9187,1.4339],[25.1021,64.9208,1.3667],[25.0875,64.9208,0.0],[25.0807,64.9151,0.0],[25.0646,64.9104,1.334],[25.0438,64.9104,0.0],[25.0396,64.9083,0.454],[25.0333,64.9083,0.321],[25.0292,64.9104,0.0],[25.0208,64.9104,0.4164],[25.0167,64.9125,0.0],[25.0083,64.9125,0.1623],[25.0021,64.9146,0.0],[24.9792,64.9063,0.6545],[24.9562,64.9063,-0.0234],[24.9526,64.9026,0.0],[24.9599,64.8974,-0.0022],[24.9589,64.8943,0.0],[24.962,64.8922,-0.1349],[24.9578,64.888,-0.255],[24.9354,64.8812,0.0637],[24.9208,64.8812,0.2938],[24.9125,64.8854,0.0],[24.9,64.8812,2.3436],[24.8937,64.8854,0.0],[24.8729,64.8854,0.3664],[24.8688,64.8833,0.9263],[24.8625,64.8854,0.0],[24.8583,64.8833,0.2549],[24.8521,64.8833,0.3858],[24.8479,64.8854,0.0],[24.8354,64.8854,0.3904],[24.8312,64.8875,0.0],[24.8229,64.8875,1.916],[24.8167,64.8896,0.0],[24.812,64.8839,0.1229],[24.7984,64.8807,0.0],[24.7917,64.875,0.6263],[24.7792,64.875,0.0],[24.775,64.8729,2.5141],[24.7708,64.875,0.0],[24.7458,64.875,0.2403],[24.7417,64.8729,0.9102],[24.7333,64.8729,0.2925],[24.7255,64.8703,0.0],[24.7193,64.8682,-0.0104],[24.7146,64.8646,0.0],[24.6938,64.8625,0.0],[24.6901,64.8599,0.0],[24.6932,64.8568,0.0],[24.688,64.8557,0.0],[24.6932,64.8505,0.0],[24.6849,64.8422,0.366],[24.6714,64.8391,0.0],[24.6693,64.837,0.2309],[24.6724,64.8349,0.3096],[24.6714,64.8318,0.2567],[24.6724,64.8297,0.0],[24.6693,64.8234,0.0],[24.6729,64.8187,0.0],[24.6714,64.8161,0.0],[24.6724,64.813,0.0],[24.6661,64.8068,0.4638],[24.6583,64.8042,0.0],[24.6505,64.8047,1.8625],[24.6443,64.8089,5.29],[24.6474,64.813,0.0],[24.6464,64.8161,2.8243],[24.6474,64.8182,0.0],[24.6443,64.8203,1.3524],[24.6464,64.8224,0.704],[24.6536,64.8234,0.0],[24.6536,64.8266,0.0],[24.6495,64.8307,0.0],[24.6375,64.8313,0.0],[24.6333,64.8333,0.0],[24.6292,64.8313,0.0],[24.6229,64.8313,0.3369],[24.6188,64.8333,0.0],[24.6146,64.8333,0.0],[24.5958,64.8271,1.3012],[24.5896,64.8271,0.0],[24.5583,64.8187,1.6852],[24.5443,64.8182,0.0],[24.5422,64.8141,6.8458],[24.5432,64.8109,0.6556],[24.5422,64.8089,0.0],[24.5474,64.8057,1.0089],[24.5464,64.8026,0.0],[24.5563,64.8,0.0],[24.5661,64.7995,0.0],[24.5693,64.7943,0.0],[24.5786,64.787,0.2383],[24.5776,64.7839,0.0],[24.5807,64.7828,0.582],[24.5724,64.7735,0.0],[24.5646,64.7708,2.0301],[24.5547,64.7703,0.0],[24.5641,64.7641,0.0],[24.562,64.7609,0.0],[24.5562,64.7604,0.0],[24.5547,64.7589,0.0],[24.5641,64.7536,1.6352],[24.5609,64.7495,4.6605],[24.562,64.7464,0.0],[24.5609,64.7443,0.0],[24.5661,64.7411,0.0],[24.5651,64.738,0.0],[24.5682,64.7359,0.0],[24.5557,64.7234,0.0],[24.538,64.7182,0.493],[24.5349,64.7151,0.6912],[24.525,64.7146,0.0],[24.5208,64.7125,1.9773],[24.5104,64.7146,0.0],[24.5057,64.7109,12.8209],[24.5005,64.7099,0.0],[24.5021,64.7063,0.0],[24.5005,64.7026,3.5067],[24.5057,64.6995,10.8923],[24.5042,64.6979,15.2331],[24.4979,64.7,0.0],[24.4932,64.6964,7.8268],[24.4854,64.6958,11.6784],[24.4839,64.6964,8.4449],[24.4849,64.6995,4.5027],[24.4729,64.7,0.9666],[24.4682,64.6964,9.0219],[24.4557,64.6922,14.1459],[24.4479,64.6917,10.5974],[24.4443,64.6943,0.0],[24.4453,64.6995,16.504],[24.4318,64.6995,11.2832],[24.4328,64.6901,6.2098],[24.4276,64.688,0.0],[24.4333,64.6854,0.0],[24.4417,64.6917,1.8169],[24.4516,64.6891,1.2097],[24.4547,64.6859,7.5354],[24.4604,64.6854,0.0],[24.462,64.6839,0.0],[24.4578,64.6797,5.4306],[24.4526,64.6787,0.0],[24.4458,64.6729,7.3271],[24.4292,64.6729,7.7005],[24.425,64.6708,8.3747],[24.4151,64.6703,0.0],[24.4109,64.663,4.362],[24.4146,64.6604,2.8666],[24.4224,64.662,6.8026],[24.4193,64.6568,12.3929],[24.425,64.6542,8.0034],[24.4292,64.6542,8.2379],[24.4417,64.6583,8.406],[24.4453,64.6547,16.5319],[24.4401,64.6536,11.008],[24.4354,64.65,23.7352],[24.4276,64.6495,9.8295],[24.4214,64.6432,8.2985],[24.4229,64.6417,5.9863],[24.4286,64.6412,11.3096],[24.4276,64.638,13.636],[24.4286,64.6359,22.7832],[24.4234,64.6349,14.0185],[24.4214,64.6328,12.8122],[24.4224,64.6297,9.5148],[24.4167,64.6312,7.1313],[24.4089,64.6307,0.0],[24.4078,64.6276,15.184],[24.3943,64.6245,6.3277],[24.3786,64.6068,5.7182],[24.363,64.6057,0.0],[24.3651,64.6026,0.0],[24.3682,64.6016,0.0],[24.3672,64.5984,1.3517],[24.3745,64.5974,1.1811],[24.3724,64.5943,0.0],[24.3672,64.5922,0.7259],[24.3766,64.5891,1.015],[24.3755,64.5859,0.0],[24.3807,64.5828,0.0],[24.3786,64.5797,0.3603],[24.3708,64.5771,0.0],[24.3625,64.5771,0.0],[24.3589,64.5745,0.0],[24.3641,64.5693,2.7848],[24.3568,64.5651,7.996],[24.3641,64.5641,2.7683],[24.3703,64.5599,0.0],[24.375,64.5542,1.39],[24.3661,64.5443,0.0],[24.3547,64.5411,0.0],[24.3474,64.5339,0.0],[24.3396,64.5313,1.1461],[24.3354,64.5313,0.0],[24.3312,64.5292,4.4371],[24.3146,64.5292,0.0],[24.3042,64.525,0.0],[24.2896,64.525,1.7171],[24.2807,64.5307,0.0],[24.2734,64.5318,9.8342],[24.2766,64.5359,0.0],[24.275,64.5375,0.0],[24.2687,64.5375,1.0788],[24.2646,64.5354,3.185],[24.2464,64.5349,0.0],[24.2443,64.5318,0.5487],[24.2536,64.5286,2.9865],[24.2599,64.5245,0.8316],[24.2589,64.5214,0.0],[24.262,64.5203,0.0],[24.2609,64.5172,0.0],[24.2682,64.5162,3.8527],[24.2729,64.5125,0.0],[24.2786,64.512,0.6217],[24.2755,64.5068,0.0],[24.2776,64.5047,0.0],[24.2849,64.5036,0.3524],[24.2891,64.5005,0.0],[24.275,64.4979,1.1807],[24.2661,64.5036,0.7911],[24.2563,64.5062,2.9185],[24.2526,64.5036,3.3037],[24.2536,64.5005,0.4592],[24.2458,64.4979,5.0724],[24.2417,64.5,0.0],[24.2297,64.4995,0.0],[24.2193,64.4891,2.2802],[24.2286,64.4828,-0.0797],[24.2276,64.4797,0.6724],[24.2286,64.4776,1.3223],[24.2208,64.475,0.1043],[24.2193,64.4766,0.0],[24.2224,64.4807,0.4579],[24.2167,64.4833,0.1029],[24.2083,64.4833,11.803],[24.2042,64.4854,0.7484],[24.1995,64.4818,0.0],[24.1943,64.4807,3.5355],[24.1995,64.4755,0.0],[24.1932,64.4693,5.2687],[24.1797,64.4661,1.0797],[24.1807,64.4609,0.4252],[24.1786,64.4589,0.1781],[24.1708,64.4563,0.1981],[24.1604,64.4563,4.7213],[24.1562,64.4583,0.0],[24.1375,64.4521,7.6523],[24.1333,64.4542,3.0488],[24.1318,64.4537,7.1814],[24.1328,64.4505,3.447],[24.1307,64.4484,3.3993],[24.1151,64.4474,1.3142],[24.1203,64.4422,0.3809],[24.1125,64.4396,0.5503],[24.1083,64.4417,0.0],[24.1021,64.4396,1.537],[24.0979,64.4417,0.0],[24.0818,64.4411,2.9896],[24.0833,64.4396,4.4191],[24.0891,64.4391,1.6733],[24.0911,64.4359,0.0],[24.088,64.4318,0.0],[24.0974,64.4286,1.232],[24.0995,64.4245,1.1038],[24.0932,64.4172,0.0],[24.0667,64.4104,9.6015],[24.0521,64.4104,5.6364],[24.0479,64.4125,0.3621],[24.0339,64.4141,0.9365],[24.0349,64.4109,3.5354],[24.0307,64.4047,0.0],[24.0286,64.4026,3.1003],[24.0234,64.4016,4.8423],[24.0161,64.3943,0.1178],[24.0063,64.3938,0.0],[23.9984,64.3912,0.0],[24.0016,64.3891,8.8571],[24.0005,64.3859,8.2492],[24.0016,64.3839,6.5731],[23.9974,64.3776,0.6892],[23.9901,64.3766,0.0],[23.9891,64.3734,0.4373],[23.9839,64.3682,0.0],[23.9891,64.363,0.8025],[23.9839,64.362,2.9561],[23.9849,64.3588,0.116],[23.9786,64.3526,0.0046],[23.9693,64.3516,0.0],[23.9661,64.3484,0.5107],[23.9547,64.3453,0.8141],[23.9516,64.3422,1.7066],[23.9438,64.3396,0.346],[23.9297,64.3391,0.0],[23.9224,64.3318,3.1377],[23.9172,64.3307,0.0],[23.913,64.3266,0.0],[23.9182,64.3214,5.2703],[23.9151,64.3161,1.0116],[23.9161,64.313,1.3109],[23.913,64.3099,0.2131],[23.9161,64.3078,0.0],[23.9151,64.3047,0.0],[23.9161,64.3026,0.0],[23.9146,64.3,0.0],[23.9161,64.2963,0.0],[23.913,64.2922,0.0],[23.9161,64.2901,0.9598],[23.9109,64.2839,0.0],[23.9141,64.2828,2.654],[23.9182,64.2776,4.7611],[23.9125,64.2771,0.0],[23.9068,64.2797,6.2104],[23.9078,64.2828,0.9578],[23.9,64.2875,0.0],[23.8917,64.2875,0.0],[23.8875,64.2854,1.5304],[23.8667,64.2854,0.3824],[23.8625,64.2875,0.0],[23.8542,64.2875,0.5513],[23.85,64.2896,0.1164],[23.8464,64.287,0.0],[23.8474,64.2839,0.0],[23.8432,64.2797,0.0],[23.838,64.2786,0.301],[23.8349,64.2734,0.1272],[23.825,64.2729,2.7112],[23.8214,64.2703,0.0],[23.8245,64.2672,2.5395],[23.8172,64.2589,0.0],[23.8292,64.2604,0.0],[23.8307,64.2599,0.2064],[23.8297,64.2568,0.0],[23.8328,64.2547,0.6303],[23.8193,64.2516,0.0],[23.8203,64.2464,0.0],[23.8141,64.2401,0.0],[23.8063,64.2375,0.0],[23.7984,64.237,0.0],[23.7938,64.2333,3.9307],[23.7854,64.2333,0.0],[23.7828,64.2297,5.8687],[23.7755,64.2286,0.0],[23.7745,64.2255,3.9733],[23.7646,64.225,0.0],[23.7542,64.2208,7.512],[23.7396,64.2208,5.3692],[23.7354,64.2229,1.7782],[23.7125,64.2229,0.0],[23.7083,64.225,0.0],[23.6922,64.2203,7.0833],[23.6839,64.2151,0.0],[23.6974,64.2099,1.3474],[23.6943,64.2047,0.0],[23.7099,64.2016,0.4369],[23.7151,64.1964,3.6712],[23.7182,64.1953,0.0037],[23.7151,64.1901,0.0],[23.7182,64.1891,0.0],[23.7203,64.1859,1.6919],[23.7161,64.1818,-0.0141],[23.7083,64.1792,0.8042],[23.7005,64.1787,2.3857],[23.6917,64.173,0.0],[23.7008,64.1728,8.7169],[23.7002,64.1683,8.4471],[23.7208,64.1678,14.9813],[23.7202,64.1633,17.0868],[23.7305,64.163,12.992],[23.7298,64.1585,23.8176],[23.7504,64.158,19.3935],[23.7498,64.1535,12.119],[23.7704,64.153,19.5968],[23.7698,64.1485,21.4073],[23.78,64.1483,21.8678],[23.7794,64.1438,16.9518],[23.8,64.1433,20.5247],[23.7994,64.1388,20.2851],[23.8199,64.1383,25.8573],[23.8193,64.1338,24.927],[23.8296,64.1335,30.0288],[23.829,64.129,26.9696],[23.8495,64.1285,36.442],[23.8489,64.124,36.2125],[23.8694,64.1235,37.7387],[23.8688,64.119,32.2493],[23.8893,64.1185,43.4023],[23.8887,64.114,44.7073],[23.899,64.1137,40.1855],[23.8984,64.1092,45.6367],[23.9189,64.1087,41.5289],[23.9182,64.1042,39.3943],[23.9388,64.1037,43.4508],[23.9381,64.0992,45.0534],[23.9587,64.0986,46.7487],[23.958,64.0941,50.1928],[24.0093,64.0928,49.5682],[24.0087,64.0883,52.1233],[24.0292,64.0878,50.8696],[24.0285,64.0833,52.328],[24.049,64.0827,52.4969],[24.0484,64.0782,60.032],[24.0689,64.0777,55.6494],[24.0682,64.0732,73.8673],[24.0887,64.0726,59.9677],[24.0868,64.0592,68.6046],[24.097,64.0589,69.4439],[24.0924,64.0275,69.4263],[24.1027,64.0272,85.1651],[24.0994,64.0048,70.1507],[24.1096,64.0045,71.6733],[24.1083,63.9955,86.6158],[24.1185,63.9953,75.9886],[24.1172,63.9863,85.5736],[24.1274,63.986,83.1987],[24.1268,63.9815,83.1331],[24.137,63.9812,88.9241],[24.1357,63.9723,83.6314],[24.1459,63.972,83.376],[24.1446,63.963,91.8496],[24.1548,63.9627,84.8167],[24.1541,63.9583,88.8314],[24.1643,63.958,87.7127],[24.163,63.949,85.6368],[24.1732,63.9487,87.7453],[24.1719,63.9398,102.5342],[24.182,63.9395,101.9057],[24.1814,63.935,94.1447],[24.2222,63.9338,91.37],[24.2201,63.9204,81.3798],[24.2303,63.9201,78.4171],[24.2283,63.9066,91.5665],[24.2385,63.9063,86.5152],[24.2365,63.8929,95.5307],[24.2467,63.8926,90.2067],[24.244,63.8747,98.5727],[24.2643,63.8741,99.1547],[24.2637,63.8696,104.0076],[24.2738,63.8693,106.9372],[24.2731,63.8648,104.4366],[24.2833,63.8645,99.9655],[24.2826,63.86,109.4012],[24.3233,63.8589,109.3689],[24.3226,63.8544,115.0874],[24.3531,63.8535,116.7914],[24.3524,63.849,115.9585],[24.3931,63.8478,117.6634],[24.3924,63.8433,116.6942],[24.4229,63.8424,113.5526],[24.4222,63.8379,111.3867],[24.4323,63.8376,111.7541],[24.4316,63.8331,111.0589],[24.4418,63.8328,118.3028],[24.4404,63.8239,118.6673],[24.4505,63.8236,118.7733],[24.4484,63.8101,125.6374],[24.4586,63.8098,128.2093],[24.4572,63.8009,130.3477],[24.4673,63.8005,138.6503],[24.4659,63.7916,129.5125],[24.476,63.7913,133.3532],[24.4746,63.7823,119.0284],[24.4848,63.782,137.3614],[24.4833,63.773,117.673],[24.4935,63.7727,127.365],[24.4921,63.7638,124.9343],[24.5022,63.7635,122.276],[24.5001,63.75,126.5983],[24.5102,63.7497,134.2339],[24.5088,63.7407,126.7296],[24.5189,63.7404,126.6193],[24.5175,63.7315,129.9216],[24.5276,63.7312,129.9073],[24.5262,63.7222,127.073],[24.5363,63.7219,127.6815],[24.5349,63.7129,127.5408],[24.545,63.7126,127.4559],[24.5435,63.7037,128.5312],[24.5537,63.7033,127.1461],[24.5522,63.6944,128.2521],[24.5623,63.6941,129.0925],[24.5616,63.6896,131.9363],[24.5717,63.6893,129.497],[24.5703,63.6803,129.2969],[24.5804,63.68,129.3611],[24.5797,63.6755,129.4704],[24.5898,63.6752,137.9465],[24.589,63.6707,129.9659],[24.5991,63.6704,132.1568],[24.5977,63.6614,131.6077],[24.6078,63.6611,132.1586],[24.6071,63.6567,132.8851],[24.6172,63.6563,136.2712],[24.6164,63.6518,135.5564],[24.6265,63.6515,136.0746],[24.6258,63.647,135.2012],[24.646,63.6464,141.2421],[24.6452,63.6419,149.7783],[24.6553,63.6416,143.1841],[24.6546,63.6371,143.196],[24.6748,63.6365,152.1857],[24.674,63.632,158.6641],[24.6942,63.6314,149.7445],[24.6935,63.6269,150.2078],[24.7136,63.6262,150.5684],[24.7129,63.6217,150.9972],[24.733,63.6211,143.8568],[24.7323,63.6166,148.896],[24.7424,63.6163,138.1476],[24.7416,63.6118,150.4607],[24.7618,63.6112,144.158],[24.761,63.6067,138.38],[24.7711,63.6064,144.8935],[24.7704,63.6019,137.5137],[24.7905,63.6012,133.7353],[24.7898,63.5968,137.2704],[24.7998,63.5964,134.0069],[24.7991,63.5919,130.8595],[24.8192,63.5913,128.1653],[24.8185,63.5868,130.938],[24.8285,63.5865,130.0399],[24.8278,63.582,131.2466],[24.8378,63.5817,131.9114],[24.8363,63.5727,135.7297],[24.8464,63.5724,128.586],[24.8456,63.5679,131.7068],[24.8557,63.5676,130.8059],[24.8549,63.5631,132.9092],[24.865,63.5627,129.6382],[24.8642,63.5583,132.9534],[24.8743,63.5579,130.3506],[24.8727,63.549,136.6462],[24.8828,63.5486,134.0106],[24.882,63.5442,137.5887],[24.8921,63.5438,138.4214],[24.8913,63.5393,141.5841],[24.9014,63.539,143.1816],[24.8998,63.53,147.1134],[24.9099,63.5297,144.0426],[24.9091,63.5252,164.997],[24.9192,63.5249,150.7431],[24.9184,63.5204,155.2478],[24.9284,63.5201,152.2171],[24.9277,63.5156,154.4896],[24.9377,63.5153,151.356],[24.9369,63.5108,165.672],[24.947,63.5104,161.7532],[24.9462,63.506,163.527],[24.9562,63.5056,162.8363],[24.9555,63.5011,163.6674],[24.9655,63.5008,160.912],[24.9647,63.4963,162.2395],[24.9748,63.496,164.3446],[24.974,63.4915,164.9704],[24.984,63.4912,168.6428],[24.9832,63.4867,169.2638],[24.9933,63.4863,171.4941],[24.9925,63.4819,172.859],[25.0025,63.4815,172.8692],[25.0017,63.477,170.69],[25.0118,63.4767,174.9408],[25.011,63.4722,171.4277],[25.021,63.4719,182.4337],[25.0202,63.4674,180.0115],[25.0302,63.467,175.1569],[25.0287,63.4581,170.8551],[25.0487,63.4574,168.1351],[25.0495,63.4619,167.1649],[25.0695,63.4612,173.5355],[25.0703,63.4657,173.0425],[25.0804,63.4653,173.4536],[25.0812,63.4698,168.2113],[25.0912,63.4695,172.8167],[25.0936,63.4829,178.3204],[25.1036,63.4825,186.7261],[25.106,63.496,182.4016],[25.116,63.4956,182.7148],[25.1232,63.5359,157.218],[25.1332,63.5356,154.5963],[25.1405,63.5759,144.2006],[25.1505,63.5755,133.6884],[25.1513,63.58,134.8411],[25.1614,63.5797,134.359],[25.1622,63.5841,135.4439],[25.1722,63.5838,141.8162],[25.1731,63.5883,135.5249],[25.1932,63.5876,141.0949],[25.194,63.592,143.8624],[25.2041,63.5917,140.3289],[25.2049,63.5961,142.1767],[25.2149,63.5958,149.9672],[25.2158,63.6003,134.4],[25.2258,63.5999,152.0792],[25.2266,63.6044,144.6075],[25.2367,63.604,146.9154],[25.2375,63.6085,142.4767],[25.2476,63.6082,145.9364]]],
[[[23.6542,64.1729,1.0298],[23.6604,64.1687,0.0],[23.6682,64.1693,1.2449],[23.6604,64.175,2.1903],[23.6526,64.1745,5.8141],[23.6542,64.1729,1.0298]]],
[[[23.6818,64.1736,6.5788],[23.6828,64.1766,0.0],[23.6766,64.1807,0.0],[23.6708,64.1813,2.4932],[23.6672,64.1787,8.864],[23.6766,64.1745,0.0],[23.6797,64.1713,1.9761],[23.6849,64.1713,2.5157],[23.6818,64.1736,6.5788]]],
[[[23.6828,64.1828,0.0],[23.6854,64.1813,0.0],[23.6891,64.1818,0.2743],[23.6859,64.1839,1.3394],[23.687,64.187,0.0],[23.6734,64.187,11.8304],[23.6776,64.1839,3.395],[23.6828,64.1828,0.0]]],
[[[23.5651,64.1922,5.8822],[23.5708,64.1917,0.0],[23.5724,64.1932,4.0791],[23.5687,64.1958,0.0],[23.5568,64.1953,2.551],[23.5568,64.1943,1.8662],[23.5651,64.1922,5.8822]]],
[[[23.6495,64.2057,0.0],[23.6443,64.213,12.4483],[23.6453,64.2161,9.0321],[23.6359,64.2161,0.0],[23.6339,64.213,0.0],[23.6411,64.212,11.4199],[23.6401,64.2089,11.638],[23.6432,64.2068,1.4471],[23.6411,64.2047,0.0],[23.6276,64.1995,0.0],[23.6286,64.1964,7.8067],[23.6229,64.1979,0.0],[23.613,64.1953,9.0623],[23.6104,64.1917,1.4888],[23.6005,64.1911,12.9049],[23.5964,64.186,1.6069],[23.6021,64.1833,0.0],[23.6146,64.1813,0.0],[23.6188,64.1833,0.0],[23.6313,64.1833,0.0],[23.6375,64.1875,0.0],[23.6479,64.1875,1.8456],[23.6542,64.1896,0.4942],[23.6651,64.1818,14.2746],[23.6682,64.1818,13.244],[23.6672,64.1849,8.0448],[23.6682,64.187,0.0],[23.6609,64.188,10.4066],[23.662,64.1911,3.4412],[23.6589,64.1922,11.7727],[23.6599,64.1953,2.8791],[23.6505,64.2026,0.7012],[23.6495,64.2057,0.0]]],
[[[23.612,64.2109,0.0],[23.612,64.212,0.0751],[23.6089,64.212,2.0778],[23.6089,64.2109,5.8608],[23.612,64.2109,0.0]]],
[[[23.6724,64.2255,0.0],[23.6724,64.2266,0.4707],[23.6693,64.2266,0.7767],[23.6693,64.2255,0.9035],[23.6724,64.2255,0.0]]],
[[[23.6458,64.2375,3.0213],[23.6422,64.2338,0.0],[23.6516,64.2338,0.0],[23.6516,64.2349,0.0],[23.6458,64.2375,3.0213]]],
[[[23.5125,64.3146,3.7721],[23.5141,64.3161,3.641],[23.5109,64.3161,3.5328],[23.5109,64.3151,3.7721],[23.5125,64.3146,3.7721]]],
[[[24.3974,64.6776,6.4563],[24.3964,64.6734,3.0869],[24.3984,64.6713,5.7701],[24.4016,64.6713,7.5277],[24.4005,64.6745,10.636],[24.4036,64.6787,11.3425],[24.4,64.6792,6.9358],[24.3974,64.6776,6.4563]]],
[[[24.4234,64.6828,6.9122],[24.4214,64.6797,0.0],[24.4271,64.6792,6.3732],[24.4307,64.6818,5.4258],[24.4292,64.6833,0.0],[24.4234,64.6828,6.9122]]],
[[[24.9526,65.0339,0.0],[24.9667,65.0333,1.6794],[24.9708,65.0312,0.0],[24.9771,65.0312,0.0],[24.9813,65.0333,6.2897],[24.9854,65.0312,0.0],[25.0208,65.0312,0.0],[25.025,65.0333,1.4262],[25.0333,65.0333,0.0],[25.0438,65.0375,0.2837],[25.0521,65.0375,0.0],[25.0599,65.0401,0.0],[25.062,65.0432,0.0],[25.0474,65.0536,0.0491],[25.0292,65.0583,0.0],[25.0146,65.0583,0.0],[25.0104,65.0563,0.9532],[25.0042,65.0583,0.0],[25.0,65.0563,0.2958],[24.9792,65.0563,0.4823],[24.975,65.0583,0.0],[24.9625,65.0583,1.4502],[24.9542,65.0625,0.0],[24.9396,65.0625,0.0],[24.9354,65.0604,2.4263],[24.925,65.0604,0.3285],[24.9208,65.0625,0.0],[24.9,65.0625,0.0487],[24.8958,65.0604,-0.0941],[24.8854,65.0604,0.0],[24.8797,65.063,0.1038],[24.8839,65.0682,0.0],[24.9042,65.0687,0.0],[24.9057,65.0703,0.0],[24.9,65.0729,0.0],[24.8943,65.0734,0.0829],[24.8953,65.0766,0.0042],[24.8932,65.0787,0.005],[24.8792,65.0875,0.0],[24.8667,65.0896,1.2904],[24.8563,65.0938,0.0],[24.8458,65.0938,0.4406],[24.8417,65.0958,0.0],[24.8229,65.0958,0.0],[24.7917,65.0875,0.0887],[24.7854,65.0875,0.0],[24.7813,65.0854,0.6815],[24.7667,65.0854,0.0],[24.7625,65.0833,0.5242],[24.7375,65.0833,4.2939],[24.7333,65.0854,0.0],[24.7292,65.0833,5.1215],[24.7229,65.0833,6.8711],[24.7188,65.0854,0.0],[24.6979,65.0854,0.0],[24.6938,65.0833,0.0],[24.6563,65.0813,1.3453],[24.6521,65.0833,0.0],[24.6479,65.0833,0.0],[24.638,65.0807,0.0],[24.6328,65.0734,1.612],[24.6229,65.0729,0.0],[24.6125,65.0687,2.5179],[24.6068,65.0682,0.0],[24.6021,65.0646,0.0],[24.5943,65.0641,0.0],[24.5859,65.0557,0.0],[24.587,65.0505,3.7257],[24.5807,65.0443,4.3478],[24.5583,65.0417,0.0],[24.5542,65.0375,0.0],[24.5547,65.0359,0.0],[24.5641,65.0328,0.0],[24.563,65.0255,0.0],[24.5688,65.0229,0.0],[24.5745,65.0224,2.246],[24.5734,65.0151,0.0],[24.5766,65.0141,0.0],[24.5755,65.0109,0.0],[24.5766,65.0089,0.0],[24.5734,65.0047,0.0],[24.5859,64.9964,0.8875],[24.6,64.9938,2.032],[24.6047,64.9901,0.0],[24.6104,64.9896,0.3645],[24.6161,64.987,0.0],[24.6203,64.9828,1.7159],[24.6203,64.9797,1.085],[24.6146,64.9792,0.0],[24.613,64.9776,0.0],[24.6234,64.9714,0.0],[24.6328,64.9682,3.48],[24.6359,64.9651,0.0],[24.6432,64.9641,0.0],[24.65,64.9604,0.0],[24.7042,64.9604,0.0],[24.713,64.9682,1.2979],[24.7182,64.9703,0.8681],[24.7026,64.9734,5.0197],[24.7005,64.9766,0.0],[24.7083,64.9771,3.6655],[24.7125,64.975,0.0],[24.7167,64.975,0.0],[24.7208,64.9771,4.7352],[24.7396,64.9771,0.0],[24.7443,64.9807,0.1214],[24.7474,64.9807,0.2284],[24.7536,64.9755,3.2567],[24.7333,64.975,0.0],[24.7318,64.9734,0.0],[24.7349,64.9724,0.0],[24.7339,64.9693,0.0],[24.7359,64.9672,0.0],[24.7391,64.9661,0.4054],[24.738,64.9589,1.3549],[24.7437,64.9563,0.5334],[24.7521,64.9563,6.2093],[24.762,64.9537,4.1744],[24.7589,64.9495,0.0],[24.7599,64.9443,0.0598],[24.7557,64.9401,0.0],[24.7484,64.9391,0.0],[24.7583,64.9354,0.0],[24.7792,64.9354,0.0],[24.7828,64.938,0.0],[24.7797,64.9411,0.0],[24.7896,64.9417,0.4984],[24.7943,64.9453,0.1856],[24.8042,64.9458,0.0],[24.8083,64.9479,0.1423],[24.8125,64.9458,0.0],[24.8167,64.9479,0.0],[24.8208,64.9479,0.0],[24.8276,64.9537,0.0],[24.8328,64.9547,0.0],[24.8359,64.9578,0.0],[24.85,64.9625,0.1858],[24.8625,64.9625,0.0],[24.8667,64.9646,0.2884],[24.875,64.9646,0.0],[24.8807,64.9693,0.0],[24.8734,64.9755,0.0984],[24.8745,64.9786,0.0],[24.8693,64.9818,0.0656],[24.8724,64.987,0.0],[24.8693,64.9891,0.0],[24.8776,64.9974,0.0],[24.8828,64.9995,0.0],[24.8714,65.0068,0.2692],[24.8724,65.0099,0.9576],[24.8651,65.0151,0.2308],[24.8661,65.0182,0.1789],[24.8563,65.0208,0.4377],[24.8464,65.0214,0.909],[24.8438,65.025,0.0],[24.8474,65.0307,0.0],[24.8422,65.0318,0.0562],[24.8411,65.0349,0.0],[24.8354,65.0354,0.7535],[24.8312,65.0333,0.2928],[24.825,65.0333,0.0],[24.8172,65.038,0.4824],[24.8234,65.0453,0.5542],[24.8286,65.0463,0.0],[24.8307,65.0484,0.0628],[24.8292,65.05,0.1991],[24.8234,65.0505,0.0],[24.8255,65.0536,0.8424],[24.8375,65.0542,0.0],[24.8474,65.0516,0.3954],[24.8542,65.0479,0.0],[24.8625,65.0479,0.0],[24.8667,65.0458,0.0],[24.8708,65.0479,0.0214],[24.8958,65.0479,0.0],[24.9099,65.0432,0.0882],[24.912,65.0411,0.1761],[24.9109,65.038,0.0],[24.9188,65.0333,0.1597],[24.9438,65.0333,0.0],[24.9479,65.0354,1.1398],[24.9526,65.0339,0.0]]],
[[[25.1896,65.1104,3.1535],[25.1911,65.112,6.142],[25.1813,65.1146,0.0],[25.1563,65.1146,0.0],[25.1458,65.1104,0.0],[25.1401,65.1099,0.0],[25.138,65.1068,0.0],[25.1437,65.1062,0.0],[25.1453,65.1047,0.0],[25.1401,65.1036,0.0],[25.138,65.1005,0.0],[25.15,65.1,0.0],[25.1536,65.1026,5.3653],[25.1526,65.1057,1.7181],[25.1542,65.1062,1.9989],[25.1604,65.1062,0.0],[25.1646,65.1083,0.6219],[25.175,65.1083,4.1376],[25.1813,65.1062,0.0],[25.1859,65.1099,2.8121],[25.1896,65.1104,3.1535]]],
[[[25.1005,65.1297,0.0],[25.1083,65.125,0.0],[25.1161,65.1255,0.0],[25.1193,65.1286,1.5063],[25.1328,65.1318,0.0],[25.1349,65.1359,3.0283],[25.1339,65.138,2.1168],[25.1349,65.1412,3.5962],[25.1255,65.1412,0.0],[25.1286,65.138,0.4157],[25.1224,65.1318,3.6317],[25.1021,65.1312,0.0],[25.1005,65.1297,0.0]]],
[[[24.8646,65.3604,0.0],[24.8661,65.362,0.328],[24.863,65.362,0.3698],[24.863,65.3609,0.1336],[24.8646,65.3604,0.0]]],
[[[24.8604,65.3625,0.6494],[24.862,65.363,1.1074],[24.862,65.3641,1.1889],[24.8589,65.3641,1.3964],[24.8604,65.3625,0.6494]]],
[[[24.8557,65.388,1.6421],[24.8536,65.3912,0.0],[24.8438,65.3938,1.4114],[24.8375,65.3896,0.0],[24.8312,65.3896,1.1914],[24.8271,65.3917,0.6579],[24.8172,65.3891,1.2982],[24.8151,65.387,0.0],[24.8182,65.3839,1.3208],[24.8151,65.3797,0.0],[24.8214,65.3755,1.5916],[24.8354,65.3729,0.0],[24.837,65.3745,0.0],[24.8339,65.3786,0.0],[24.8453,65.3818,0.0],[24.8484,65.3849,0.0],[24.8536,65.3859,0.0],[24.8557,65.388,1.6421]]],
[[[25.1911,65.1495,4.1701],[25.1854,65.15,0.7985],[25.1839,65.1484,0.0],[25.1896,65.1479,0.0],[25.1911,65.1495,4.1701]]],
[[[25.2849,65.2089,0.0],[25.2833,65.2104,9.284],[25.2797,65.2099,9.0464],[25.2813,65.2083,1.3162],[25.2849,65.2089,0.0]]],
[[[25.2,65.2417,0.0],[25.2016,65.2432,4.0056],[25.1984,65.2432,5.5743],[25.1984,65.2422,0.0],[25.2,65.2417,0.0]]],
[[[25.2006,65.2621,3.9835],[25.1984,65.2589,0.4386],[25.2104,65.2583,0.0],[25.212,65.2589,0.0],[25.2109,65.262,1.3475],[25.2208,65.2625,0.0],[25.2245,65.2662,1.4673],[25.2062,65.2667,2.806],[25.2006,65.2621,3.9835]]],
[[[25.2047,65.2755,4.4996],[25.2109,65.2714,6.1616],[25.2141,65.2714,3.2064],[25.213,65.2745,4.0442],[25.2141,65.2766,3.9369],[25.2099,65.2786,5.6334],[25.2026,65.2786,2.6326],[25.2047,65.2755,4.4996]]],
[[[25.2083,65.2813,4.6729],[25.2099,65.2828,0.0],[25.2068,65.2828,2.7323],[25.2068,65.2818,4.6729],[25.2083,65.2813,4.6729]]],
[[[25.2766,65.288,0.9419],[25.275,65.2896,1.788],[25.2714,65.2891,2.0621],[25.2729,65.2875,4.8655],[25.2766,65.288,0.9419]]],
[[[25.2245,65.3037,0.0],[25.2193,65.3005,6.0733],[25.237,65.3005,1.5221],[25.2313,65.3063,1.0699],[25.2234,65.3057,5.2526],[25.2245,65.3037,0.0]]],
[[[25.2521,65.3438,0.0],[25.2484,65.3422,0.0],[25.2578,65.3422,0.0],[25.2563,65.3438,0.0],[25.2521,65.3438,0.0]]],
[[[25.013,65.4193,1.3137],[25.0021,65.4229,0.0],[24.9943,65.4224,0.0],[24.9922,65.4193,0.0],[24.9953,65.4182,0.0],[24.9943,65.4151,0.0],[24.9953,65.413,0.593],[24.9901,65.4068,0.0],[25.0063,65.4063,0.0],[25.0187,65.4021,4.4184],[25.0307,65.4026,0.0],[25.0286,65.4057,0.0],[25.0255,65.4068,0.0],[25.0266,65.4099,0.0],[25.0245,65.412,0.0],[25.013,65.4193,1.3137]]],
[[[25.1807,64.9068,0.5064],[25.1807,64.9078,0.0],[25.1776,64.9078,0.0],[25.1776,64.9068,0.0],[25.1807,64.9068,0.5064]]],
[[[25.2151,64.9432,0.4879],[25.2193,64.9401,0.0],[25.2224,64.9401,0.0],[25.2203,64.9432,0.3678],[25.2151,64.9432,0.4879]]],
[[[25.2771,65.0083,2.1047],[25.2729,65.0083,0.0],[25.2714,65.0068,0.0],[25.2807,65.0068,0.7196],[25.2771,65.0083,2.1047]]],
[[[25.25,65.0146,0.0],[25.2484,65.013,0.6535],[25.2505,65.0109,0.0],[25.2557,65.0109,0.0],[25.2557,65.012,0.7922],[25.25,65.0146,0.0]]],
[[[25.2474,65.0609,2.2374],[25.2474,65.062,1.5273],[25.2443,65.062,2.9846],[25.2443,65.0609,1.6644],[25.2474,65.0609,2.2374]]],
[[[25.2557,65.0755,2.0821],[25.2557,65.0766,2.1222],[25.2526,65.0766,2.4819],[25.2526,65.0755,1.6123],[25.2557,65.0755,2.0821]]],
[[[25.2479,65.0854,0.5616],[25.2464,65.0839,2.1344],[25.2484,65.0818,0.4449],[25.2536,65.0818,0.2378],[25.2536,65.0828,0.0531],[25.2479,65.0854,0.5616]]],
[[[25.2146,65.1062,3.2],[25.2005,65.1099,0.0],[25.2016,65.1068,0.0],[25.1964,65.1016,0.0],[25.1943,65.0964,4.9149],[25.1979,65.0938,2.0292],[25.212,65.0911,0.3411],[25.2109,65.088,2.9909],[25.2125,65.0875,0.0],[25.2245,65.0891,1.6316],[25.2266,65.087,0.4072],[25.2255,65.0839,0.0],[25.2333,65.0833,0.0],[25.2411,65.0859,0.0],[25.2401,65.0891,0.0],[25.2411,65.0911,0.0561],[25.238,65.0922,0.0791],[25.2391,65.0953,0.2169],[25.2339,65.0964,2.4554],[25.2359,65.0995,0.0],[25.2438,65.1021,-0.0117],[25.2536,65.1026,0.0],[25.2521,65.1042,0.0],[25.2333,65.1042,0.1061],[25.2292,65.1062,0.0],[25.2146,65.1062,3.2]]],
[[[25.3047,65.0005,9.9957],[25.3021,65.0021,0.0],[25.2938,65.0021,0.0],[25.2896,65.0042,0.0],[25.2859,65.0016,12.114],[25.2896,64.9979,0.0],[25.3042,64.9979,0.0],[25.3146,64.9938,11.2152],[25.3224,64.9943,0.0],[25.3214,64.9974,2.4934],[25.3224,64.9995,0.0],[25.3047,65.0005,9.9957]]],
[[[25.287,65.0203,6.97],[25.2839,65.0203,0.3591],[25.2818,65.0172,0.0],[25.2911,65.0172,0.0],[25.287,65.0203,6.97]]],
[[[25.3,65.0708,1.2498],[25.3016,65.0714,0.4994],[25.3016,65.0724,0.1037],[25.2984,65.0724,1.6931],[25.3,65.0708,1.2498]]],
[[[25.3479,65.4271,5.0184],[25.3495,65.4287,0.0],[25.3464,65.4287,8.7942],[25.3464,65.4276,5.0184],[25.3479,65.4271,5.0184]]]]}
,"properties": {"GID_2": "FIN.3.2_1","GID_0": "FIN","country": "Finland","GID_1": "FIN.3_1","province": "Oulu","NL_NAME_1": "NA","county": "NorthernOstrobothnia","VARNAME_2": "Pohjois-Pohjanmaa|NorraÖsterbot","NL_NAME_2": "NA","TYPE_2": "Maakunta|landskap","ENGTYPE_2": "Region","CC_2": "NA","HASC_2": "NA","name": "Northern_Ostrobothnia.county","area_km2": 36947.14,"hist_schema_id": "Elevation0-9000","hist_area_km2": {"0": 1091.19,"25": 2102.91,"50": 3122.2,"75": 4124.28,"100": 5611.82,"125": 6469.33,"150": 3166.25,"175": 1630.65,"200": 825.47,"225": 1275.77,"250": 3298.91,"275": 2367.15,"300": 1110.23,"325": 502.47,"350": 181.64,"375": 51.07,"400": 9.53,"425": 3.73,"450": 1.72,"475": 0.75}}}