{"type": "Feature","bbox": [30.41238098854879,62.752658400001337,30.870411570365661,63.062918189998129],"geometry": {"type": "Polygon","coordinates": [[[30.528360454638658,62.81476923082613,142.0],[30.510109878756509,62.803877758122269,170.7376],[30.43828503173637,62.782683540968776,92.0],[30.41238098854879,62.780034263824604,101.3866],[30.44829341205886,62.775913166044745,92.0],[30.531009731782859,62.785921546367234,162.1183],[30.559268687987498,62.777090622553288,164.1967],[30.5704545248185,62.775913166044745,172.3003],[30.582229089903763,62.787099002875749,144.5],[30.593709290861881,62.800934116850954,150.8546],[30.604012035311513,62.8079988559021,144.7816],[30.622851339447919,62.805938307012184,144.2389],[30.62962171437195,62.797401747325353,146.9629],[30.625206252464977,62.785921546367234,153.7416],[30.610782410235544,62.77385261715483,144.5],[30.670832692170393,62.752658400001337,168.2457],[30.68643399090837,62.753247128255623,162.1593],[30.6932043658324,62.763255508578084,164.5626],[30.683195985509911,62.773263888900573,150.9235],[30.651993388033958,62.786804638748634,151.9814],[30.659941219466532,62.791220100655607,155.1659],[30.667594686771935,62.796224290816838,142.6993],[30.674365061695966,62.801817209232325,143.231],[30.679663615984339,62.8079988559021,154.8755],[30.665239773754877,62.812414317809072,140.0],[30.639924458821554,62.825660703529991,145.7121],[30.62461752421072,62.829193073055592,161.5354],[30.645223013109927,62.841262002267996,140.0],[30.690260724561085,62.848621105446284,176.0924],[30.727350604579669,62.867754773709834,172.5962],[30.74913354998742,62.870404050854006,163.5355],[30.789167071277319,62.869520958472634,181.7316],[30.810655652557926,62.873936420379607,190.8887],[30.817131663354843,62.885416621337725,176.2583],[30.8186034839905,62.9010179200757,142.0],[30.823607674151731,62.917796675322222,142.0],[30.834499146855592,62.929571240407483,142.0],[30.844801891305195,62.936047251204371,155.448],[30.853338450992027,62.9454669032726,142.0],[30.858048277026143,62.965778028044667,142.0],[30.858048277026143,63.030243771886518,143.192],[30.861875010678858,63.040840880463264,142.0],[30.868939749730004,63.047316891260152,142.0],[30.870411570365661,63.053204173802783,142.0],[30.858048277026143,63.061152005235328,142.0],[30.846568076067996,63.062918189998129,153.9201],[30.809478196049412,63.054970358565583,142.0],[30.756492653165708,63.0570309074555,142.0],[30.729411153469584,63.0552647226927,142.0],[30.706156387426205,63.047611255387295,142.0],[30.690260724561085,63.035836690302006,142.0],[30.688788903925428,63.026122674106659,142.0],[30.714398582985893,62.999924266791965,142.9394],[30.702329653773489,62.988444065833818,151.379],[30.693498729959543,62.967838576934611,142.0],[30.679663615984339,62.958713288993522,142.0],[30.665239773754877,62.956064011849321,142.0],[30.6496384750169,62.957830196612122,142.0],[30.636980817550238,62.96430620740901,142.0],[30.631976627389008,62.9760807724943,142.0],[30.514525340663482,62.951354185815234,174.1245],[30.553087041317724,62.921623408974938,166.5332],[30.64463428485567,62.891009539753242,168.7227],[30.68643399090837,62.869520958472634,154.9584],[30.546611030520836,62.824188882894333,152.812],[30.528360454638658,62.81476923082613,142.0]]]}
,"properties": {"featurecla": "Reservoir","scalerank": 4,"name": "Koitere","name_abb": "Koitere","name_alt": null,"note": null,"delta": null,"dam_name": "Kaltimo","year": 1958,"admin": null,"min_zoom": 4.0,"min_label": 5.0,"area_km2": 272.739,"hist_schema_id": "Elevation0-9000","hist_area_km2": {"100": 1.4353,"125": 0.8048,"150": 238.5598,"175": 29.7174,"200": 2.2217}}}