{"type": "Feature","bbox": [29.672349572939765,61.686471531530458,30.183071333513226,62.1053516844388],"geometry": {"type": "Polygon","coordinates": [[[30.180716420496168,61.795091894442038,129.0591],[30.152163100164387,61.828060676680764,86.7264],[30.154812377308588,61.827766312553649,89.2272],[30.156872926198503,61.836891600494738,95.6252],[30.158933475088418,61.856613997012545,108.9242],[30.154518013181445,61.862501279555175,85.8664],[30.147453274130271,61.866328013207891,89.6457],[30.144215268731841,61.871920931623407,91.6634],[30.152163100164387,61.883106768454411,86.8362],[30.133618160155095,61.882223676073011,79.5],[30.092407182356652,61.885756045598583,125.6761],[30.076511519491561,61.889288415124156,79.5],[30.076805883618675,61.923729017998568,95.8394],[30.039127275345834,61.958463985000094,108.629],[29.921087260366022,62.024695913604745,79.5],[29.896066309559842,62.028228283130318,92.5879],[29.891062119398612,62.032643745037291,89.6672],[29.889001570508668,62.039414119961322,89.9494],[29.884586108601695,62.04765631552101,79.5],[29.882231195584637,62.056192875207813,100.4637],[29.882231195584637,62.065023799021759,106.5305],[29.877227005423407,62.072088538072933,79.5],[29.845435679693196,62.076503999979906,79.5],[29.802458517131981,62.08857292919231,104.5079],[29.734460403764558,62.08857292919231,79.5],[29.717092920263781,62.092399662845025,82.59],[29.701785985652947,62.100053130150428,85.3072],[29.687362143423485,62.1053516844388,79.5],[29.672349572939765,62.102408043167486,103.2102],[29.681769225007969,62.092399662845025,93.2839],[29.695604338983173,62.084157467285337,114.3674],[29.711500001848293,62.077681456488421,95.7196],[29.727690028840527,62.075032179344248,83.1279],[29.722391474552154,62.056487239334956,105.9568],[29.731811126620357,62.045007038376809,102.8603],[29.748295517739734,62.042652125359751,110.3854],[29.764779908859111,62.05089432091944,88.4767],[29.782441756487003,62.0558985110807,103.0498],[29.850439869854426,62.040297212342722,79.5],[29.848379320964511,62.035881750435749,79.5],[29.844846951438939,62.024107185350459,113.4398],[29.843080766676138,62.019691723443486,122.9201],[29.879287554313322,62.014393169155113,124.3441],[29.897243766068357,62.008505886612483,102.3851],[29.904897233373788,61.995848229145821,86.5434],[29.910195787662161,61.984662392314817,87.7925],[29.92255908100168,61.977597653263672,86.1572],[29.9384547438668,61.973476555483813,79.5],[29.952878586096261,61.9714160065939,79.5],[29.950818037206318,61.967000544686925,86.1611],[29.947874395935003,61.955814707855922,104.9585],[29.946108211172231,61.951399245948949,107.9671],[29.98614173246213,61.951399245948949,97.1113],[29.997327569293134,61.945511963406318,79.5],[29.98702482484353,61.9304993929226,81.7605],[30.01204577564971,61.92137410498151,97.6523],[30.022642884226457,61.914603730057479,79.5],[30.028530166769087,61.903123529099361,79.5],[30.009396498505538,61.903417893226475,79.5],[29.972012254359811,61.911071360531906,79.5],[29.952878586096261,61.909893904023392,79.5],[29.941987113392372,61.903712257353618,79.5],[29.935511102595484,61.894586969412529,79.5],[29.931095640688511,61.884872953217183,79.5],[29.925502722272995,61.87633639353038,79.5],[29.924030901637337,61.872215295750522,79.5],[29.91932107560325,61.862795643682318,79.5],[29.913728157187734,61.857791453521088,79.5],[29.911373244170676,61.865739284953634,79.5],[29.906369054009446,61.868682926224949,79.5],[29.8948888530513,61.867505469716434,79.5],[29.883408652093181,61.86456182844509,79.5],[29.877227005423407,61.862206915428061,79.5],[29.873989000024949,61.847488709071456,80.5871],[29.885469200983096,61.839246513511767,83.4629],[29.918732347348964,61.828060676680764,99.6094],[29.898715586704014,61.8171692039769,79.5],[29.890767755271469,61.814814290959845,107.3057],[29.898126858449757,61.807455187781557,79.5],[29.87752136955055,61.803922818255984,79.5],[29.85985952192263,61.804511546510241,79.5],[29.847790592710254,61.800684812857526,79.5],[29.843080766676138,61.783611693483891,93.2915],[29.849851141600169,61.768304758873057,90.3023],[29.90165922797533,61.7353359766343,80.3063],[29.915788706077649,61.733275427744388,108.3085],[29.933744917832684,61.740340166795534,111.2709],[29.950523673079203,61.751231639499423,85.8859],[29.959648961020292,61.759768199186226,102.2216],[29.971423526105553,61.786260970628092,97.0953],[29.979665721665242,61.790382068407922,110.0671],[29.994383928021819,61.780079323958319,92.8894],[30.002626123581507,61.795091894442038,94.7965],[30.014989416921026,61.804805910637384,91.517],[30.029118895023345,61.805689003018756,83.088],[30.042365280744292,61.793031345552095,79.5],[30.033239992803203,61.7780187750684,81.2292],[30.025292161370629,61.743283808066849,95.8826],[30.014989416921026,61.732392335362988,99.6427],[30.017638694065226,61.721206498531984,104.2484],[30.016755601683826,61.705310835666864,99.7333],[30.0211710635908,61.697657368361433,99.4999],[30.033534356930318,61.690886993437431,107.0364],[30.05207929693961,61.686765895657572,108.4408],[30.070918601076045,61.686471531530458,111.7073],[30.083281894415592,61.690886993437431,100.1635],[30.065914410914814,61.696479911852919,93.6923],[30.05384548170241,61.706782656302522,79.5],[30.05296238932101,61.717968493133526,79.5],[30.06974114456753,61.725621960438957,82.8828],[30.082398802034191,61.7232670474219,94.8807],[30.124492872214006,61.706782656302522,114.1103],[30.138327986189211,61.697657368361433,95.2847],[30.142154719841926,61.71414175948081,113.9796],[30.133029431900837,61.723561411549042,80.9286],[30.121549230942691,61.730331786473073,79.5],[30.117428133162861,61.738573982032761,79.5],[30.126553421103949,61.74917109060948,87.0673],[30.141860355714783,61.75093727537228,103.6667],[30.158639110961275,61.75005418299088,104.5528],[30.172768589063594,61.752114731880795,95.5949],[30.165115121758191,61.759768199186226,85.4598],[30.172768589063594,61.766538574110257,91.6219],[30.165409485885306,61.771542764271487,106.1464],[30.158050382707017,61.781256780466833,106.843],[30.152163100164387,61.786849698882349,116.3769],[30.183071333513226,61.781845508721091,153.1665],[30.180716420496168,61.795091894442038,129.0591]]]}
,"properties": {"featurecla": "Lake","scalerank": 9,"name": "null518","name_abb": null,"name_alt": null,"note": "_untitled_226","delta": null,"dam_name": null,"year": -99,"admin": null,"min_zoom": 7.0,"min_label": 8.0,"area_km2": 344.9219,"hist_schema_id": "Elevation0-9000","hist_area_km2": {"75": 233.3901,"100": 92.9092,"125": 17.9511,"150": 0.6515,"175": 0.02}}}