{"type": "Feature","bbox": [28.938794168127657,62.712330514584323,30.404433157116245,63.602487635030485],"geometry": {"type": "Polygon","coordinates": [[[29.871045358753634,63.32872899679802,117.7253],[29.876343913042007,63.319309344729817,107.2748],[29.883997380347438,63.312833333932929,92.5],[29.893711396542784,63.309006600280213,92.5],[29.904897233373788,63.308417872025956,92.5],[29.871339722880776,63.286046198363948,92.5],[29.831600565717991,63.281336372329832,92.5],[29.754771528536651,63.293994029796494,122.0992],[29.785385397758319,63.293110937415094,92.5],[29.79568814220795,63.30782914377167,94.591],[29.789506495538177,63.326079719653848,102.9331],[29.771550283783142,63.334910643467794,97.8362],[29.746823697104077,63.333733186959279,107.834],[29.748884245993992,63.329023360925163,107.8959],[29.763308088223454,63.318720616475559,94.9148],[29.775377017435858,63.301353132974782,110.9874],[29.760070082824996,63.3025305894833,92.5],[29.727690028840527,63.315188246949958,92.5],[29.715621099628123,63.315776975204244,107.5942],[29.696781795491688,63.314305154568586,92.5],[29.685890322787827,63.315188246949958,92.5],[29.6511553557863,63.326374083780962,92.5],[29.637614605938239,63.32872899679802,92.5],[29.627900589742893,63.327257176162362,92.5],[29.616420388784746,63.323430442509647,92.5],[29.604057095445228,63.321369893619732,92.5],[29.590221981470023,63.324902263145304,92.5],[29.55990247637547,63.343741567281739,111.3596],[29.531643520170832,63.36640760507089,92.5],[29.527522422391,63.373472344122035,92.5],[29.520752047466971,63.393489104766985,92.5],[29.517808406195655,63.397610202546844,99.8079],[29.508094390000309,63.399376387309616,109.7677],[29.497497281423563,63.403791849216617,108.3133],[29.487783265228217,63.410562224140619,92.5],[29.487194536973959,63.418215691446051,92.5],[29.45128211346389,63.429990256531312,92.5],[29.375336168663921,63.4373493597096,94.9363],[29.32176189752596,63.464430859405724,103.1816],[29.304688778152325,63.463842131151466,92.5],[29.287026930524405,63.460015397498751,92.5],[29.268187626388,63.45913230511735,92.5],[29.256413061302709,63.462075946388666,92.5],[29.247876501615906,63.467374500677039,92.5],[29.2340413876407,63.479443429889443,92.5],[29.236690664784902,63.482387071160758,92.5],[29.240223034310475,63.489451810211932,92.5],[29.241400490819018,63.49681091339022,92.5],[29.237279393039159,63.50004891878865,104.6698],[29.199306420639175,63.496516549263077,92.5],[29.180172752375626,63.498871462280135,92.5],[29.172224920943052,63.5106460273654,109.2303],[29.170164372053137,63.518005130543685,92.5],[29.165160181891906,63.523303684832058,92.5],[29.157506714586475,63.526541690230516,92.5],[29.148087062518272,63.527424782611916,92.5],[29.144260328865556,63.530074059756089,92.5],[29.144260328865556,63.53596134229872,92.5],[29.145437785374071,63.543026081349893,92.5],[29.144849057119814,63.548618999765381,92.5],[29.127481573619036,63.567458303901816,92.5],[29.10275498694,63.583942695021193,107.1601],[29.073024210099703,63.5960116242336,92.5],[29.041821612623721,63.602487635030485,118.7522],[29.054479270090383,63.58453142327545,126.6401],[29.073024210099703,63.570401945173131,97.8467],[29.089214237091937,63.554506282308012,107.9957],[29.096278976143083,63.530957152137489,134.8553],[29.104226807575657,63.514767125145255,173.3884],[29.122771747584949,63.493278543864619,171.4857],[29.1445546929927,63.474439239728213,148.5639],[29.161333448239191,63.466491408295639,107.2522],[29.164865817764763,63.464430859405724,105.6101],[29.160744719984933,63.459426669244493,100.3277],[29.152502524425245,63.454716843210377,92.5],[29.144849057119814,63.452361930193319,92.5],[29.136901225687268,63.453833750828977,92.5],[29.116884465042318,63.466491408295639,92.5],[29.048591987547752,63.479443429889443,97.8453],[29.033285052936918,63.485036348304931,92.5],[29.024159764995829,63.492395451483247,100.065],[29.016800661817541,63.50004891878865,92.5],[29.007675373876452,63.507408021966938,101.7504],[28.991779711011361,63.515061489272369,92.5],[28.975295319891984,63.519476951179342,111.3455],[28.938794168127657,63.521243135942143,110.4379],[29.090097329473338,63.424397338115824,98.7576],[29.105992992338429,63.41144531652202,140.0214],[29.116001372660918,63.406146762233647,119.9875],[29.139844866958583,63.401142572072416,130.9363],[29.1419054158485,63.394372197148385,164.3595],[29.140727959339983,63.385541273334439,160.972],[29.144849057119814,63.375827257139093,108.9938],[29.166337638400421,63.362286507291032,111.7386],[29.247876501615906,63.342564110773225,92.5],[29.230509018115129,63.334321915213536,92.5],[29.213730262868637,63.32872899679802,122.512],[29.213730262868637,63.321369893619732,115.9119],[29.26318343622674,63.297526399322066,116.4166],[29.277901642583345,63.293994029796494,108.9481],[29.291442392431378,63.288401111380978,92.5],[29.296152218465494,63.276626546295716,116.1528],[29.302628229262382,63.26691253010037,115.2749],[29.322350625780217,63.267206894227513,92.5],[29.314402794347671,63.255432329142252,92.5],[29.301156408626724,63.251899959616651,104.701],[29.268187626388,63.253077416125194,110.7416],[29.276135457820544,63.244540856438363,95.9645],[29.286143838143005,63.239536666277132,102.2139],[29.297329674974009,63.238064845641475,96.4653],[29.3091042400593,63.239242302149989,97.627],[29.310281696567813,63.22511282404767,95.3952],[29.328826636577105,63.211866438326751,134.4585],[29.353847587383314,63.202152422131405,148.6825],[29.373864348028263,63.19832568847869,152.7704],[29.376807989299579,63.195382047207374,129.4347],[29.382106543587952,63.188317308156229,112.8451],[29.389760010893355,63.180958204977941,121.6057],[29.439507548378629,63.171244188782595,112.6828],[29.453342662353805,63.171244188782595,112.8495],[29.449810292828232,63.17507092243531,109.2896],[29.4421568255228,63.187728579901972,92.5],[29.438918820124343,63.191555313554659,95.3202],[29.531643520170832,63.184784938630628,97.0836],[29.54076880811192,63.181252569105055,99.3842],[29.559608112248327,63.168006183384136,123.6624],[29.566084123045243,63.168006183384136,122.2913],[29.571971405587874,63.176837107198082,105.9175],[29.575503775113447,63.185373666884914,92.5],[29.580213601147562,63.1927327700632,134.5757],[29.589633253215766,63.19832568847869,92.5],[29.590516345597166,63.187728579901972,128.4865],[29.599347269411112,63.166534362748479,96.7595],[29.600230361792512,63.161235808460106,126.4142],[29.592282530359967,63.150344335756245,133.6648],[29.590516345597166,63.143279596705071,122.7307],[29.594637443376996,63.13739231416244,134.2199],[29.60346836719097,63.130033210984152,154.935],[29.627900589742893,63.120319194788806,136.2102],[29.656159545947531,63.122379743678721,121.4502],[29.683241045643655,63.132682488128324,124.3707],[29.713266186611065,63.1526992487733,115.0495],[29.754771528536651,63.164768177985678,120.2644],[29.781558664105631,63.182135661486456,117.9647],[29.78891776728392,63.184784938630628,130.8686],[29.798337419352123,63.181841297359313,130.7416],[29.80981762031027,63.168006183384136,214.6372],[29.832189293972277,63.160941444332963,114.7526],[29.832189293972277,63.15240488464616,121.0687],[29.826596375556761,63.143868324959328,111.6041],[29.823064006031188,63.140041591306641,117.5486],[29.8139387180901,63.124734656695779,130.5883],[29.797748691097866,63.107661537322144,229.8677],[29.793627593318007,63.094120787474083,219.4246],[29.819531636505616,63.088527869058595,274.7579],[29.833366750480792,63.083229314770222,143.7982],[29.906957782263703,63.034659233793491,165.5512],[29.92844636354431,63.024062125216744,179.7738],[29.952289857841976,63.016703022038456,235.1928],[29.9802544499195,63.014053744894284,109.8516],[29.997327569293134,63.008460826478768,92.5],[30.012634503903968,62.994625712503591,166.3397],[30.018227422319484,62.976669500748557,107.8279],[30.007630313742737,62.958713288993522,102.8084],[30.022348520099314,62.948704908671033,112.9576],[30.046192014396979,62.937813435967172,112.7484],[30.071212965203188,62.930454332788884,122.6448],[30.090052269339594,62.9316317892974,111.5638],[30.082398802034191,62.939873984857087,98.3393],[30.0603214924993,62.954003462959406,92.5],[30.055906030592325,62.962245658519095,92.5],[30.064442590279157,62.971370946460183,92.5],[30.083281894415592,62.971370946460183,96.5],[30.101826834424884,62.964894935663295,92.5],[30.11065775823883,62.955180919467949,96.352],[30.118311225544261,62.938696528348572,104.56],[30.136856165553553,62.920445952466395,119.6837],[30.159816567469818,62.904844653728418,124.6434],[30.179538963987625,62.896896822295872,116.5236],[30.195434626852744,62.896896822295872,117.2348],[30.217806300514752,62.8933644527703,108.0301],[30.238117425286845,62.886888441973383,92.5],[30.248420169736448,62.876880061650922,92.5],[30.244004707829475,62.863633675930004,97.8965],[30.199850088759717,62.829193073055592,120.7101],[30.207503556065149,62.815357959080387,92.5],[30.143037812223298,62.79563556256258,112.4939],[30.124787236341149,62.777090622553288,92.5],[30.11654504078146,62.74706548158585,82.5],[30.095939551882253,62.739412014280418,89.9587],[30.071212965203188,62.736174008881989,101.6698],[30.049135655668294,62.719395253635469,82.5],[30.062676405516356,62.712330514584323,82.5],[30.088874812831079,62.7279318133223,106.044],[30.118899953798518,62.727343085068014,109.5655],[30.1465701817489,62.730875454593615,90.0557],[30.165115121758191,62.759723139052511,89.9371],[30.154223649054302,62.777679350807546,94.0734],[30.155106741435702,62.789159551765664,129.9318],[30.172474224936479,62.794458106054037,130.7354],[30.207797920192263,62.79563556256258,141.0253],[30.240766702431017,62.801228480978068,100.9795],[30.23605687639693,62.805938307012184,106.3292],[30.231935778617071,62.811825589554815,95.2016],[30.227225952582955,62.81476923082613,92.5],[30.244004707829475,62.830370529564107,107.1227],[30.267848202127141,62.832431078454022,113.2575],[30.293752245314721,62.825660703529991,92.5],[30.316712647230986,62.81476923082613,92.5],[30.305232446272868,62.8106481330463,106.1129],[30.274912941178286,62.8079988559021,100.0104],[30.404433157116245,62.787393367002892,93.3024],[30.377351657420121,62.816829779716045,93.7085],[30.336140679621678,62.832725442581165,92.5],[30.248420169736448,62.8489154695734,96.4237],[30.256956729423251,62.855980208624572,92.5],[30.266376381491483,62.860395670531545,111.2277],[30.276973490068229,62.8627505835486,96.174],[30.288748055153491,62.863339311802861,113.3768],[30.256073637041879,62.890126447371841,92.5],[30.220455577658925,62.911026300398191,92.5],[30.22428231131164,62.921034680720652,102.4057],[30.227225952582955,62.924861414373368,116.4511],[30.119783046179919,62.978141321384214,117.8669],[30.07062423694893,63.011404467750083,92.5],[30.007630313742737,63.064978738888044,92.5],[30.002626123581507,63.073220934447733,98.0865],[30.000859938818706,63.088527869058595,124.9464],[30.003509215962907,63.104423531923686,156.2539],[30.00792467786988,63.111193906847717,104.4715],[30.009102134378395,63.116786825263233,103.4849],[30.000859938818706,63.130033210984152,101.4111],[29.989968466114846,63.139452863052355,92.5],[29.9784882651567,63.145634509722129,92.5],[29.96936297721561,63.154465433536075,92.5],[29.966713700071438,63.171244188782595,92.5],[29.969951705469896,63.176837107198082,128.1171],[29.977016444521041,63.178014563706625,136.8947],[29.983786819445072,63.1797807484694,104.8393],[29.98702482484353,63.188317308156229,92.5],[29.985553004207873,63.195382047207374,110.0402],[29.983786819445072,63.20009187324149,115.9723],[29.98525864008073,63.203035514512806,109.8229],[29.994383928021819,63.205979155784121,92.5],[29.977899536902441,63.215693171979467,92.5],[29.969951705469896,63.2224635469035,92.5],[29.962298238164465,63.236298660878674,92.5],[29.952878586096261,63.237181753260074,92.5],[29.941398385138115,63.23688738913296,92.5],[29.919615439730364,63.243657764056962,92.5],[29.916671798459049,63.247778861836821,92.5],[29.922264716874565,63.25690414977791,92.5],[29.940515292756714,63.276920910422859,92.5],[29.946108211172231,63.281042008202689,92.5],[29.957294048003234,63.28192510058409,92.5],[29.995561384530333,63.273977269151544,98.267],[30.014989416921026,63.267206894227513,130.4117],[30.020876699463656,63.26279143232054,158.7051],[30.031768172167546,63.246895769455421,136.844],[30.076511519491561,63.246895769455421,178.4439],[30.076511519491561,63.253077416125194,152.2396],[30.053551117575267,63.2624970681934,92.5],[30.013517596285368,63.294582758050751,92.5],[29.993795199767561,63.301353132974782,92.5],[29.967008064198581,63.304885502500355,92.5],[29.877227005423407,63.334910643467794,101.416],[29.871045358753634,63.32872899679802,117.7253]]]}
,"properties": {"featurecla": "Lake","scalerank": 4,"name": "Pielinen","name_abb": "Pielinen","name_alt": null,"note": null,"delta": null,"dam_name": null,"year": -99,"admin": null,"min_zoom": 4.0,"min_label": 5.0,"area_km2": 1153.4607,"hist_schema_id": "Elevation0-9000","hist_area_km2": {"75": 4.7263,"100": 991.0389,"125": 103.7108,"150": 31.6296,"175": 12.6555,"200": 6.1148,"225": 2.3568,"250": 0.5948,"275": 0.3454,"300": 0.1631,"325": 0.1151,"350": 0.0096}}}