{"type":"Feature","properties":{"featurecla":"Reservoir","scalerank":4,"name":"Rikkavesi","name_abb":"Rikkavesi","name_alt":null,"note":null,"delta":null,"dam_name":"Puntarikoski","year":1957,"admin":null,"min_zoom":4.0,"min_label":5.0},
"geometry":{"type": "Polygon","coordinates": [[[29.45128211346389,62.9036671972199,87.2144],[29.438918820124343,62.911026300398191,88.5198],[29.437152635361571,62.904844653728418,90.2031],[29.43450335821737,62.898663007058673,93.2077],[29.432442809327455,62.891892632134642,89.158],[29.43214844520034,62.883650436574953,89.1102],[29.425966798530567,62.885710985464868,86.5],[29.410954228046847,62.888065898481926,89.304],[29.404772581377074,62.8898320832447,90.8946],[29.405950037885617,62.878057518159437,95.6466],[29.41124859217399,62.869226594345491,94.2147],[29.420079515987936,62.864222404184261,89.1341],[29.43214844520034,62.863339311802861,87.8198],[29.43038226043754,62.859512578150145,90.1507],[29.428321711547625,62.853036567353257,92.1222],[29.425378070276309,62.8489154695734,92.3967],[29.473653787125897,62.825660703529991,89.9824],[29.477480520778613,62.813591774317615,118.941],[29.486605808719673,62.805349578757927,178.6642],[29.508094390000309,62.794458106054037,91.5956],[29.511038031271625,62.789453915892807,98.9205],[29.509566210635967,62.785038453985834,96.2779],[29.510743667144482,62.781506084460261,103.5925],[29.537530802713462,62.7773849866804,102.7006],[29.546067362400294,62.774441345409087,95.6024],[29.552543373197182,62.770320247629257,100.7299],[29.567261579553758,62.750597851111422,91.4523],[29.576386867494847,62.742355655551734,112.2886],[29.589633253215766,62.739117650153304,121.7627],[29.584040334800278,62.761489323815312,102.3526],[29.600524725919655,62.763844236832341,116.9562],[29.625251312598692,62.753541492382737,123.2459],[29.644973709116528,62.739117650153304,86.5],[29.63849769831964,62.741178199043219,86.5],[29.62436822021732,62.743827476187391,110.9736],[29.617892209420404,62.745888025077335,105.351],[29.623190763708777,62.730875454593615,117.3589],[29.633199144031266,62.717040340618411,101.5357],[29.658808823091704,62.692019389812231,86.5],[29.685595958660684,62.679950460599827,119.5695],[29.738581501544388,62.688487020286658,123.5289],[29.830128745082334,62.719395253635469,121.5386],[29.810111984437384,62.734996552373445,104.3109],[29.802458517131981,62.739117650153304,86.5],[29.821886549522645,62.742355655551734,139.9688],[29.836310391752107,62.746182389204449,87.4896],[29.843669494930396,62.755307677145538,95.6766],[29.843080766676138,62.77385261715483,117.0758],[29.830128745082334,62.801228480978068,123.078],[29.820709093014131,62.815946687334673,110.6431],[29.812761261581585,62.822128334004418,95.2642],[29.780969935851346,62.8627505835486,105.8267],[29.767723550130427,62.884827893083468,102.0707],[29.749767338375392,62.895719365787329,94.7164],[29.611121834496373,62.959007653120665,86.5],[29.57991923702042,62.98285114741833,86.5],[29.575209410986332,62.989327158215218,90.9844],[29.568144671935158,63.00610591346171,91.6815],[29.563140481773928,63.014053744894284,91.2311],[29.557841927485555,63.018469206801257,88.9809],[29.520752047466971,63.041429608717522,86.5],[29.507505661746023,63.041135244590379,86.5],[29.495142368406505,63.037897239191949,88.9684],[29.479835433795671,63.040840880463264,88.8161],[29.49396491189799,62.994331348376448,103.902],[29.506622569364652,62.974020223604356,106.2643],[29.524578781119658,62.965778028044667,100.3847],[29.55489828621424,62.96106820201058,96.8808],[29.586100883690193,62.948999272798176,90.9476],[29.614948568149089,62.9333979740602,90.2807],[29.637614605938239,62.917796675322222,92.7504],[29.637614605938239,62.911026300398191,91.768],[29.604645823699485,62.914558669923764,89.0844],[29.561963025265385,62.9445838108912,86.5],[29.535175889696404,62.951354185815234,89.7627],[29.543712449383236,62.933692338187313,102.912],[29.583451606545992,62.8898320832447,94.1951],[29.60346836719097,62.859512578150145,94.8271],[29.607295100843658,62.855391480370315,98.0573],[29.625545676725835,62.842733822903654,99.51],[29.631432959268466,62.835374719725337,101.3652],[29.604940187826628,62.833314170835422,86.5],[29.551071552561524,62.851270382590457,99.3068],[29.527816786518116,62.8489154695734,90.2709],[29.563140481773928,62.837729632742395,86.5],[29.576092503367704,62.835374719725337,93.8685],[29.563140481773928,62.81476923082613,86.5],[29.569322128443673,62.81476923082613,102.4218],[29.554603922087097,62.813297410190472,86.5],[29.531349156043689,62.820362149241646,86.5],[29.487194536973959,62.84155636639511,86.5],[29.4821903468127,62.846854920683484,90.3402],[29.481601618558443,62.852447839099,94.8056],[29.481601618558443,62.858040757514487,86.5],[29.479835433795671,62.863339311802861,86.5],[29.474831243634412,62.866282953074176,89.0806],[29.467472140456124,62.868049137836977,89.1149],[29.459818673150693,62.870992779108292,86.5],[29.453342662353805,62.876880061650922,86.5],[29.451870841718147,62.885122257210611,86.5],[29.453342662353805,62.894541909278814,86.5],[29.45128211346389,62.9036671972199,87.2144]]]}}