{"type":"Feature","properties":{"featurecla":"Lake","scalerank":4,"name":"null325","name_abb":null,"name_alt":null,"note":"_untitled_20","delta":null,"dam_name":null,"year":-99,"admin":null,"min_zoom":4.0,"min_label":5.0},
"geometry":{"type": "Polygon","coordinates": [[[29.199306420639175,62.6955517593378,84.5941],[29.178995295867082,62.701733406007577,89.0119],[29.168398187290364,62.703793954897492,83.1762],[29.155740529823703,62.701439041880434,78.0],[29.147203970136871,62.696140487592061,81.5905],[29.148087062518272,62.688192656159515,95.4598],[29.17546292634151,62.667292803133165,84.5218],[29.206665523817463,62.654635145666504,83.212],[29.256707425429852,62.647864770742473,86.8614],[29.302922593389525,62.651691504395188,81.714],[29.322350625780217,62.670825172658738,87.8461],[29.370920706756948,62.64933659137813,78.0],[29.391820559783298,62.6434493088355,81.3843],[29.41448659757242,62.639916939309927,89.1971],[29.433914629963112,62.640211303437042,93.6854],[29.453048298226662,62.643743672962643,81.0987],[29.473653787125897,62.650808412013788,115.6578],[29.455697575370863,62.657873151064962,114.1324],[29.456580667752263,62.667587167260308,127.7276],[29.467472140456124,62.677301183455654,90.5823],[29.479835433795671,62.6843659225068,106.0902],[29.482779075066986,62.687898292032372,116.7408],[29.482779075066986,62.692019389812231,93.0292],[29.4848396239569,62.6955517593378,93.9929],[29.493670547770847,62.698201036482004,78.8424],[29.501324015076278,62.696140487592061,80.34],[29.521635139848343,62.678184275837026,95.9124],[29.532526612552232,62.672002629167281,110.1568],[29.543712449383236,62.667881531387422,127.4851],[29.569322128443673,62.664054797734707,147.744],[29.55489828621424,62.692019389812231,98.2123],[29.529582971280917,62.713213606965695,94.3045],[29.496908553169305,62.727343085068014,103.8432],[29.459524309023578,62.73293600348353,78.0],[29.441568097268544,62.730875454593615,78.8173],[29.421256972496451,62.724105079669584,83.6358],[29.404772581377074,62.71203615045718,78.0],[29.39034873914764,62.677006819328511,78.0],[29.375630532791035,62.672885721548681,78.0],[29.367093973104232,62.680539188854084,86.1535],[29.377396717553836,62.698201036482004,82.9376],[29.363855967705774,62.71615724823701,86.0097],[29.358263049290287,62.735879644754846,103.2961],[29.348254668967797,62.750303486984308,79.9416],[29.322350625780217,62.753247128255623,78.0],[29.33088718546702,62.754424584764138,90.9137],[29.337951924518194,62.756190769526938,83.5838],[29.344133571187967,62.760017503179654,81.9588],[29.349726489603455,62.7670822422308,82.9146],[29.322350625780217,62.786804638748634,88.8984],[29.320584441017417,62.791220100655607,89.0317],[29.3176407997461,62.79386937779978,84.775],[29.317052071491844,62.796813019071095,80.1342],[29.322350625780217,62.801228480978068,87.7412],[29.296740946719751,62.805938307012184,78.0],[29.264655256862397,62.801522845105211,78.0],[29.234335751767844,62.791808828909865,78.0],[29.213730262868637,62.780034263824604,78.0],[29.196068415240717,62.756779497781196,84.4762],[29.20225006191049,62.740295106661819,83.0968],[29.222855550809697,62.728520541576557,86.6971],[29.247876501615906,62.719395253635469,84.4138],[29.241694854946132,62.711447422202923,89.7526],[29.244344132090333,62.702616498388977,83.8585],[29.261417251463968,62.6843659225068,78.0],[29.241694854946132,62.692019389812231,78.0],[29.199306420639175,62.6955517593378,84.5941]]]}}