{"type": "Feature","bbox": [22.8005,60.0042,23.9192,60.7669],"geometry": {"type": "MultiPolygon","coordinates": [[[[22.925,60.0687,3.0533],[22.9167,60.0687,15.4211],[22.9125,60.0708,17.0878],[22.9083,60.0708,16.4637],[22.9042,60.0667,3.6339],[22.9,60.0667,0.0],[22.8958,60.0687,0.0656],[22.8813,60.0687,0.0],[22.8526,60.0578,27.283],[22.8505,60.0557,30.0886],[22.8505,60.0526,18.8376],[22.8667,60.0521,33.4611],[22.8708,60.05,4.3594],[22.8786,60.0495,4.4277],[22.8813,60.0458,0.0],[22.8854,60.0479,0.0],[22.8891,60.0453,16.2058],[22.8849,60.0401,0.0],[22.8792,60.0375,0.0],[22.8583,60.0458,0.0],[22.8526,60.0411,17.391],[22.8526,60.038,8.6218],[22.8599,60.0328,0.0],[22.8563,60.0271,0.0],[22.8604,60.0208,23.4235],[22.8547,60.0141,18.2004],[22.8563,60.0125,0.0],[22.862,60.012,16.2956],[22.8589,60.0068,14.7138],[22.8646,60.0042,0.0],[22.8688,60.0062,5.4776],[22.8745,60.0047,14.4513],[22.8828,60.0109,20.4509],[22.8776,60.0151,12.0346],[22.8818,60.0203,0.0],[22.8974,60.0214,22.6994],[22.8964,60.0245,0.0],[22.8974,60.0266,3.0792],[22.8859,60.0328,0.0],[22.8979,60.0375,3.2235],[22.9161,60.0401,0.0],[22.9151,60.0453,0.0],[22.9203,60.0536,0.0],[22.9172,60.0547,0.2495],[22.9151,60.0578,0.0],[22.9203,60.0599,0.0],[22.9146,60.0604,9.9014],[22.913,60.062,-0.2949],[22.925,60.0625,0.0],[22.9328,60.0651,0.0],[22.9307,60.0682,20.8467],[22.925,60.0687,3.0533]]],
[[[22.8266,60.0391,13.5298],[22.8255,60.0359,0.0],[22.8328,60.0359,3.1851],[22.837,60.0432,24.4743],[22.8255,60.0432,0.0],[22.8234,60.0401,0.0],[22.8266,60.0391,13.5298]]],
[[[22.8161,60.0495,0.0],[22.8083,60.05,4.7871],[22.8042,60.0521,0.0],[22.8005,60.0495,0.0],[22.8036,60.0474,2.7783],[22.8026,60.0443,0.0],[22.8063,60.0396,21.5312],[22.8047,60.0359,0.0],[22.8125,60.0313,7.0861],[22.8203,60.0422,0.0],[22.8161,60.0495,0.0]]],
[[[22.8608,60.0744,8.096],[22.8589,60.0714,0.0],[22.8771,60.0708,0.0],[22.8813,60.075,0.0],[22.8771,60.0792,1.2731],[22.8688,60.0792,0.3054],[22.8608,60.0744,8.096]]],
[[[22.8396,60.0771,18.841],[22.8359,60.0755,11.1752],[22.8432,60.0755,0.0],[22.8432,60.0766,0.0],[22.8396,60.0771,18.841]]],
[[[22.8599,60.0766,0.0],[22.8568,60.0766,9.1458],[22.8568,60.0755,14.6587],[22.8599,60.0755,9.7204],[22.8599,60.0766,0.0]]],
[[[22.9417,60.1229,6.4094],[22.9333,60.1229,0.4098],[22.9292,60.125,1.4662],[22.925,60.125,0.0],[22.9208,60.1229,16.7517],[22.9083,60.1229,22.2321],[22.9042,60.1208,19.4328],[22.8922,60.1203,0.0],[22.8786,60.1089,0.9348],[22.8724,60.1047,10.5664],[22.8672,60.1036,17.1887],[22.8646,60.0938,0.0],[22.8661,60.0911,0.0],[22.8651,60.088,0.0],[22.8682,60.0859,0.4969],[22.8583,60.0854,10.9748],[22.8542,60.0875,0.0],[22.85,60.0875,0.0],[22.8458,60.0854,14.7902],[22.838,60.0849,0.0],[22.8359,60.0818,0.0],[22.8479,60.0771,0.0],[22.8708,60.0833,0.3129],[22.8792,60.0833,0.0],[22.8818,60.0797,0.0],[22.8896,60.0792,8.4809],[22.8937,60.0771,0.0],[22.9042,60.0812,0.3542],[22.9083,60.0812,9.386],[22.9125,60.0792,0.0],[22.9182,60.0818,0.0],[22.9255,60.0911,3.2612],[22.9333,60.0917,6.9438],[22.9375,60.0938,4.678],[22.9458,60.0938,1.0255],[22.9474,60.0922,19.8694],[22.9396,60.0896,20.0826],[22.9318,60.0891,9.1348],[22.9318,60.0859,17.2028],[22.9578,60.0839,0.0],[22.9682,60.0922,4.0314],[22.9667,60.0958,12.6767],[22.9682,60.0995,4.5263],[22.9651,60.1047,44.165],[22.9661,60.1078,2.547],[22.9568,60.1109,0.5636],[22.9578,60.1141,0.0],[22.9568,60.1161,13.384],[22.9599,60.1172,21.8756],[22.962,60.1203,3.7458],[22.9542,60.1229,0.0],[22.9417,60.1229,6.4094]]],
[[[22.8578,60.2703,10.4277],[22.8568,60.2672,1.3186],[22.8583,60.2667,3.3046],[22.8625,60.2708,11.1757],[22.8604,60.2729,6.0869],[22.8547,60.2724,8.5936],[22.8578,60.2703,10.4277]]],
[[[22.9168,60.2638,57.6234],[22.916,60.2556,29.7946],[22.9313,60.2562,0.0],[22.937,60.2589,0.0],[22.9411,60.263,0.0],[22.9401,60.2661,38.1444],[22.9495,60.2693,0.0],[22.9516,60.2714,0.0],[22.9505,60.2766,19.3212],[22.9557,60.2776,0.0],[22.963,60.2828,12.0016],[22.9682,60.2839,0.0],[22.9755,60.2953,14.7266],[22.9807,60.2964,0.0],[22.9849,60.3005,0.0],[22.9776,60.3068,10.4679],[22.9786,60.312,42.8961],[22.975,60.3146,13.1534],[22.9625,60.3125,0.8395],[22.9583,60.3146,0.0],[22.95,60.3146,0.0],[22.9354,60.3104,2.273],[22.925,60.3104,11.5818],[22.913,60.3057,0.0],[22.9026,60.2932,0.0],[22.9057,60.2911,0.9682],[22.9047,60.288,18.5006],[22.9063,60.2854,38.251],[22.9016,60.2797,0.0],[22.8896,60.275,0.0],[22.8813,60.2792,0.0],[22.8724,60.2734,0.0],[22.8672,60.2724,0.0],[22.8672,60.2693,3.8036],[22.8724,60.2672,0.0],[22.8703,60.263,5.1739],[22.8651,60.262,0.0],[22.8703,60.2589,0.3333],[22.8646,60.25,9.293],[22.8661,60.2464,4.1091],[22.8609,60.2443,2.6088],[22.8656,60.2433,20.0287],[22.8703,60.2476,20.4495],[22.8881,60.2472,41.3037],[22.8885,60.2517,48.9562],[22.8975,60.2515,28.5076],[22.8983,60.2604,30.6945],[22.9074,60.2602,29.344],[22.9078,60.2647,52.7212],[22.9168,60.2638,57.6234]]],
[[[22.8776,60.2839,9.5493],[22.8813,60.2813,0.0],[22.8891,60.2849,0.0],[22.8792,60.2854,26.287],[22.8776,60.2839,9.5493]]],
[[[22.8665,60.5173,75.5081],[22.8661,60.5129,73.743],[22.8479,60.5133,82.441],[22.8471,60.5043,61.0556],[22.8562,60.5041,70.3686],[22.8558,60.4996,66.1356],[22.8534,60.4727,58.1504],[22.8443,60.4729,66.8852],[22.8439,60.4684,65.2553],[22.853,60.4682,53.4234],[22.8522,60.4592,65.9745],[22.8613,60.459,59.1506],[22.8609,60.4545,80.8481],[22.87,60.4543,80.1715],[22.8696,60.4499,87.3958],[22.8787,60.4497,85.0493],[22.8779,60.4407,89.1585],[22.8688,60.4409,90.0787],[22.868,60.4319,56.4191],[22.8589,60.4321,73.0696],[22.8586,60.4276,54.1267],[22.8677,60.4274,68.2734],[22.8669,60.4184,35.2746],[22.8487,60.4188,30.2847],[22.8479,60.4099,30.1264],[22.8388,60.4101,34.7966],[22.8365,60.3831,64.8097],[22.8274,60.3833,67.9515],[22.8266,60.3744,64.6172],[22.8175,60.3746,61.3398],[22.8171,60.3701,46.923],[22.8262,60.3699,42.6663],[22.8258,60.3654,56.8265],[22.8349,60.3652,48.9711],[22.8345,60.3607,33.3722],[22.8436,60.3605,21.6236],[22.8412,60.3336,49.6394],[22.8503,60.3334,61.7328],[22.8499,60.3289,46.8314],[22.859,60.3287,37.0256],[22.8582,60.3197,19.455],[22.8673,60.3195,27.4529],[22.8669,60.3151,17.6787],[22.8759,60.3149,37.5065],[22.8751,60.3059,0.4623],[22.8812,60.3086,5.9854],[22.887,60.3057,2.3891],[22.8859,60.3026,0.0],[22.8875,60.3021,0.0],[22.8932,60.3026,0.0],[22.8964,60.3078,0.0],[22.9042,60.3083,0.0],[22.9104,60.3125,0.5846],[22.9146,60.3104,0.0],[22.9188,60.3104,0.0],[22.9214,60.3141,0.0],[22.9292,60.3167,13.2384],[22.9396,60.3167,0.0],[22.9625,60.3229,0.3968],[22.9646,60.3208,20.7594],[22.963,60.3172,0.0],[22.9688,60.3167,4.5665],[22.9776,60.3224,3.1751],[22.987,60.3234,0.0],[22.9911,60.3286,0.0],[22.9854,60.3292,5.0027],[22.9839,60.3307,0.0],[22.9917,60.3333,0.6501],[23.0063,60.3271,5.3153],[23.0141,60.3266,0.0],[23.0089,60.3245,11.9453],[23.0078,60.3214,0.4699],[22.9964,60.3182,0.3441],[22.9979,60.3167,0.0],[23.0036,60.3161,0.0],[23.0057,60.3141,7.783],[23.0026,60.3089,0.0],[23.0057,60.3068,31.6217],[22.9943,60.3036,0.0],[22.9943,60.3005,15.983],[22.9964,60.2984,0.2826],[23.0021,60.2979,0.0],[23.0125,60.3021,5.5573],[23.0182,60.3016,2.3365],[23.0036,60.288,0.5639],[22.9938,60.2896,0.0],[22.9896,60.2875,0.0],[22.9797,60.287,0.0],[22.9776,60.2849,0.0],[22.9792,60.2813,0.0],[22.9766,60.2714,28.12],[22.9667,60.2708,0.0],[22.9609,60.2724,7.6612],[22.9464,60.2599,0.0],[22.9495,60.2578,0.0],[22.9458,60.2521,5.3209],[22.9474,60.2485,0.257],[22.9422,60.2474,0.0],[22.9411,60.2443,32.0396],[22.9359,60.2432,0.0],[22.9328,60.2401,4.1509],[22.925,60.2396,0.0],[22.9224,60.2359,1.4112],[22.9172,60.2349,0.0],[22.9182,60.2318,19.5458],[22.9089,60.2286,13.2534],[22.9016,60.2193,5.752],[22.8964,60.2182,0.0],[22.8922,60.212,0.0],[22.8953,60.2089,32.3405],[22.8839,60.2057,0.0],[22.8828,60.2026,33.3682],[22.8714,60.1995,0.0],[22.8724,60.1943,0.0],[22.8682,60.1901,19.7827],[22.8625,60.1875,8.2228],[22.8599,60.1891,0.4417],[22.8597,60.1882,7.6179],[22.865,60.1847,6.2361],[22.8688,60.1875,4.0943],[22.8771,60.1875,6.6456],[22.8891,60.1828,0.0],[22.888,60.1797,0.0],[22.8891,60.1776,0.0],[22.8797,60.1766,0.0],[22.8786,60.1734,3.708],[22.8734,60.1724,18.4697],[22.8714,60.1703,7.3223],[22.8724,60.1651,21.8452],[22.8714,60.163,9.2557],[22.8766,60.1599,2.0317],[22.8755,60.1568,0.0],[22.9036,60.1495,0.0],[22.9026,60.1422,0.0],[22.9042,60.1417,0.0],[22.9271,60.1396,18.4794],[22.9417,60.1333,0.0],[22.95,60.1333,0.0],[22.9542,60.1354,0.0701],[22.9583,60.1333,0.0],[22.9661,60.1328,-0.1563],[22.9724,60.1286,0.0],[22.9693,60.1245,15.4683],[22.9693,60.1214,0.0],[22.9714,60.1193,0.0],[22.9766,60.1182,0.0],[22.9771,60.1167,-0.1157],[22.9714,60.1099,0.0],[22.9729,60.1083,0.0],[22.9917,60.1104,0.0],[22.9964,60.1141,13.8193],[23.0057,60.1151,0.0],[23.0068,60.1182,11.6958],[23.012,60.1193,0.0],[23.0161,60.1255,0.0],[23.0068,60.1286,0.0],[23.012,60.1297,0.0],[23.0146,60.1333,13.2474],[23.0203,60.1307,0.0],[23.0193,60.1276,4.7468],[23.0214,60.1255,0.5002],[23.0292,60.1229,3.6173],[23.0333,60.125,9.3179],[23.0411,60.1255,0.0],[23.0458,60.1292,14.366],[23.0599,60.1286,0.0],[23.0583,60.1271,14.3657],[23.0521,60.1271,0.0],[23.0443,60.1245,1.7399],[23.0432,60.1214,0.0],[23.0318,60.1182,0.0],[23.0286,60.113,0.0],[23.0234,60.112,0.0],[23.0307,60.1057,0.0],[23.0286,60.1026,0.0],[23.0245,60.1006,11.6199],[23.0287,60.1015,7.1116],[23.0285,60.1002,20.1049],[23.0375,60.1,36.587],[23.0371,60.0955,47.4501],[23.0461,60.0953,51.0575],[23.0457,60.0908,68.8745],[23.0817,60.09,61.1774],[23.0821,60.0945,57.6575],[23.1091,60.0938,50.8082],[23.1095,60.0983,56.7994],[23.1456,60.0975,19.3452],[23.146,60.102,32.7339],[23.155,60.1017,15.0],[23.1554,60.1062,15.0],[23.1644,60.106,15.0],[23.1648,60.1105,43.8635],[23.1738,60.1103,35.6809],[23.1743,60.1148,30.9366],[23.1833,60.1145,41.3338],[23.1837,60.119,50.118],[23.1927,60.1188,39.7672],[23.1932,60.1233,61.3621],[23.2022,60.1231,63.7187],[23.2026,60.1276,79.3733],[23.2116,60.1274,75.3326],[23.212,60.1318,24.2706],[23.2211,60.1316,53.0278],[23.2215,60.1361,30.3933],[23.2395,60.1357,50.4411],[23.24,60.1402,49.178],[23.249,60.1399,48.5411],[23.2494,60.1444,29.7874],[23.2584,60.1442,54.2966],[23.2589,60.1487,17.0462],[23.2679,60.1485,22.983],[23.2683,60.1529,15.4069],[23.2773,60.1527,21.826],[23.2796,60.1751,22.7361],[23.2886,60.1749,55.2732],[23.2895,60.1839,29.9564],[23.2985,60.1837,52.7751],[23.299,60.1882,29.5573],[23.3261,60.1875,33.8516],[23.3251,60.1785,49.1281],[23.3161,60.1787,28.9168],[23.3152,60.1698,33.4569],[23.3242,60.1695,34.7234],[23.3238,60.1651,42.6352],[23.3418,60.1646,58.2251],[23.3413,60.1601,42.2529],[23.3504,60.1599,50.2881],[23.3499,60.1554,70.3245],[23.3589,60.1552,48.1304],[23.3585,60.1507,52.8753],[23.3675,60.1505,57.6876],[23.3684,60.1594,43.3536],[23.3774,60.1592,55.3998],[23.3783,60.1682,77.0079],[23.4415,60.1665,46.7521],[23.4419,60.171,37.9902],[23.469,60.1703,64.2852],[23.4695,60.1748,33.5],[23.4875,60.1744,78.8911],[23.488,60.1788,72.6649],[23.497,60.1786,71.6523],[23.4975,60.1831,50.3051],[23.5065,60.1828,73.5692],[23.507,60.1873,75.6333],[23.516,60.1871,83.8037],[23.5165,60.1916,73.6392],[23.5255,60.1913,84.9793],[23.526,60.1958,72.9741],[23.535,60.1956,71.6295],[23.5355,60.2001,62.6141],[23.5535,60.1996,62.3775],[23.554,60.2041,40.5],[23.563,60.2038,54.057],[23.5626,60.1993,40.5],[23.5987,60.1984,40.5],[23.5982,60.1939,40.5],[23.6252,60.1931,40.5],[23.6257,60.1976,50.6446],[23.6438,60.1971,69.6389],[23.6443,60.2016,85.9723],[23.6533,60.2014,86.633],[23.6538,60.2059,78.5455],[23.6448,60.2061,56.2518],[23.6473,60.2285,83.9108],[23.6382,60.2288,72.0249],[23.6397,60.2422,68.5359],[23.6217,60.2427,73.0956],[23.6222,60.2472,78.7616],[23.6131,60.2475,68.1239],[23.6136,60.2519,79.7208],[23.5955,60.2524,38.8133],[23.596,60.2569,46.3171],[23.587,60.2571,29.1243],[23.5875,60.2616,30.6701],[23.5965,60.2614,31.2805],[23.597,60.2659,30.8322],[23.6151,60.2654,96.4366],[23.6146,60.2609,57.3574],[23.6327,60.2604,51.5],[23.6332,60.2649,88.8344],[23.6241,60.2651,84.0394],[23.6251,60.2741,74.9757],[23.6256,60.2786,79.4678],[23.6347,60.2784,71.8904],[23.6357,60.2873,80.9204],[23.6447,60.2871,59.2855],[23.6452,60.2915,57.0],[23.6543,60.2913,64.3059],[23.6548,60.2958,80.8317],[23.6638,60.2955,57.0],[23.6643,60.3,58.6662],[23.6824,60.2995,92.9202],[23.6819,60.295,83.3996],[23.7,60.2945,100.6863],[23.7006,60.299,73.7825],[23.7096,60.2988,78.1274],[23.7101,60.3033,57.0],[23.7192,60.303,57.0],[23.7197,60.3075,88.81],[23.7287,60.3072,57.0],[23.7344,60.3566,57.0],[23.7253,60.3568,57.0],[23.7268,60.3703,66.5],[23.754,60.3695,103.5096],[23.7546,60.374,70.7203],[23.7636,60.3737,119.3551],[23.7642,60.3782,96.1881],[23.7732,60.3779,91.0592],[23.7738,60.3824,84.4475],[23.7828,60.3822,86.7052],[23.7834,60.3867,66.7021],[23.7924,60.3864,67.5394],[23.7935,60.3954,88.2888],[23.7844,60.3956,103.1111],[23.7875,60.4225,73.3894],[23.7966,60.4223,91.4056],[23.7971,60.4268,95.5953],[23.7976,60.4312,75.9077],[23.7886,60.4315,87.4995],[23.7907,60.4494,87.946],[23.6997,60.452,120.7413],[23.7002,60.4565,128.3653],[23.7093,60.4562,144.1269],[23.7114,60.4741,129.7415],[23.7205,60.4739,124.2567],[23.7215,60.4829,129.738],[23.7306,60.4826,118.5315],[23.7311,60.4871,120.2006],[23.7402,60.4868,127.8873],[23.7407,60.4913,121.3167],[23.7772,60.4903,83.634],[23.7777,60.4948,85.7246],[23.8323,60.4932,76.5721],[23.8329,60.4977,96.3359],[23.8602,60.4969,127.0521],[23.8607,60.5014,124.0284],[23.8698,60.5012,122.0517],[23.872,60.5191,119.1437],[23.8628,60.5193,123.7733],[23.8644,60.5328,105.9894],[23.8553,60.5331,93.0512],[23.8569,60.5465,114.5118],[23.8478,60.5468,105.1322],[23.8489,60.5557,89.0],[23.8671,60.5552,89.0],[23.8677,60.5597,110.0634],[23.8859,60.5592,125.0],[23.8881,60.5771,126.7072],[23.8972,60.5768,129.5868],[23.8977,60.5813,121.5822],[23.9069,60.5811,130.8553],[23.9079,60.59,131.7806],[23.9171,60.5898,121.4058],[23.9192,60.6077,122.7701],[23.901,60.6082,117.5],[23.9015,60.6127,120.6191],[23.8832,60.6132,141.0606],[23.8838,60.6177,128.2134],[23.8746,60.618,155.6047],[23.8763,60.6314,111.0],[23.8854,60.6312,126.2184],[23.8865,60.6401,114.3807],[23.8956,60.6399,125.6668],[23.8967,60.6488,107.5],[23.8693,60.6496,117.7119],[23.8698,60.6541,118.9582],[23.8424,60.6549,121.135],[23.7691,60.657,141.2923],[23.7686,60.6525,143.7724],[23.7412,60.6532,129.6049],[23.7417,60.6577,143.9756],[23.7234,60.6582,127.4845],[23.7239,60.6627,149.9885],[23.7056,60.6632,129.9512],[23.7051,60.6587,146.1662],[23.6868,60.6592,96.392],[23.6873,60.6637,90.2174],[23.6781,60.664,84.158],[23.6807,60.6864,114.469],[23.653199999999998,60.6871,107.2137],[23.6537,60.6916,131.1581],[23.5713,60.6938,100.0095],[23.5718,60.6983,121.8805],[23.5534,60.6988,131.8761],[23.5539,60.7033,97.1788],[23.5356,60.7038,134.0483],[23.5371,60.7172,126.5023],[23.5279,60.7175,113.7909],[23.5284,60.722,130.3574],[23.51,60.7224,126.5993],[23.5105,60.7269,108.1745],[23.5014,60.7271,129.3995],[23.5033,60.7451,99.9045],[23.4666,60.746,128.907],[23.4671,60.7505,98.4198],[23.4579,60.7508,103.626],[23.4574,60.7463,109.1922],[23.4391,60.7467,106.6123],[23.4386,60.7422,99.0214],[23.4202,60.7427,91.6534],[23.4198,60.7382,92.5964],[23.4014,60.7387,99.209],[23.4009,60.7342,107.3576],[23.3826,60.7347,101.4986],[23.3821,60.7302,110.996],[23.3729,60.7304,115.9094],[23.3724,60.7259,118.9626],[23.3541,60.7264,104.0168],[23.3536,60.7219,98.6406],[23.3445,60.7221,102.2054],[23.344,60.7177,100.0869],[23.3165,60.7183,108.1874],[23.3169,60.7228,97.9453],[23.2894,60.7235,95.214],[23.289,60.719,109.3335],[23.2798,60.7192,94.4678],[23.2793,60.7147,95.0889],[23.2702,60.715,104.3367],[23.2706,60.7195,96.6661],[23.2615,60.7197,102.738],[23.2624,60.7286,92.7789],[23.2532,60.7289,109.6467],[23.2536,60.7333,91.2868],[23.2445,60.7336,90.6295],[23.2449,60.738,90.3019],[23.2266,60.7385,99.9103],[23.227,60.743,94.7039],[23.2178,60.7432,92.5919],[23.2183,60.7477,92.7611],[23.2091,60.7479,95.1946],[23.2095,60.7524,118.7335],[23.2004,60.7526,101.0801],[23.2008,60.7571,95.385],[23.1916,60.7573,104.202],[23.1921,60.7618,95.0297],[23.1737,60.7622,113.6159],[23.1728,60.7533,113.7547],[23.182,60.753,105.2146],[23.1811,60.7441,109.0219],[23.1903,60.743899999999996,116.1126],[23.189,60.7304,95.3429],[23.1981,60.7302,93.9495],[23.1968,60.7167,99.6932],[23.206,60.7165,92.8553],[23.2046,60.703,94.1826],[23.2138,60.7028,92.8672],[23.2125,60.6894,97.0547],[23.2216,60.6891,89.6904],[23.2207,60.6802,81.671],[23.239,60.6797,87.3681],[23.2368,60.6573,90.7313],[23.2276,60.6575,92.9671],[23.2258,60.6396,88.9314],[23.235,60.6394,87.3034],[23.2345,60.6349,104.8658],[23.2528,60.6344,92.3447],[23.2524,60.63,96.6714],[23.2615,60.6297,92.5047],[23.2606,60.6208,88.2862],[23.2515,60.621,88.521],[23.251,60.6165,88.0672],[23.2419,60.6167,88.3188],[23.241,60.6078,96.611],[23.2318,60.608,98.0752],[23.2309,60.599,89.271],[23.2218,60.5992,89.2071],[23.2209,60.5903,97.4072],[23.2118,60.5905,95.0639],[23.2109,60.5815,97.6493],[23.2017,60.5817,99.0139],[23.2008,60.5727,95.9904],[23.1826,60.5732,109.6888],[23.183,60.5777,98.1267],[23.1648,60.5781,99.8855],[23.1652,60.5826,108.3741],[23.1561,60.5828,109.1287],[23.1556,60.5783,104.2579],[23.1191,60.5792,100.7349],[23.1187,60.5747,78.1729],[23.1004,60.5751,100.1918],[23.1,60.5706,86.7989],[23.0908,60.5708,102.5428],[23.0904,60.5663,85.796],[23.0813,60.5666,92.5129],[23.0808,60.5621,101.3663],[23.0717,60.5623,88.1278],[23.0713,60.5578,102.8877],[23.0439,60.5584,94.0747],[23.0435,60.5539,89.0619],[23.0252,60.5543,88.4684],[23.0248,60.5498,89.939],[22.9974,60.5505,83.7114],[22.997,60.546,90.155],[22.9788,60.5464,74.9638],[22.9784,60.5419,78.1084],[22.951,60.5425,75.4305],[22.9506,60.538,80.5183],[22.9323,60.5384,74.2875],[22.9319,60.5339,70.877],[22.9228,60.5341,74.6359],[22.9224,60.5296,71.0149],[22.9041,60.53,76.5985],[22.9037,60.5255,80.0351],[22.8946,60.5257,77.0152],[22.8942,60.5213,78.2759],[22.876,60.5216,64.1764],[22.8756,60.5172,72.197],[22.8665,60.5173,75.5081]],
[[23.6906,60.4522,110.8305],[23.6997,60.452,120.7413],[23.6992,60.4475,102.3025],[23.6901,60.4477,111.2128],[23.6906,60.4522,110.8305]]],
[[[22.9703,60.0432,0.0],[22.9609,60.0443,15.9547],[22.9562,60.05,0.0],[22.9479,60.05,14.1734],[22.9391,60.0443,16.6627],[22.9255,60.0411,0.0],[22.9234,60.0391,0.0],[22.9245,60.0359,32.2572],[22.9234,60.0339,18.0277],[22.9266,60.0318,30.1165],[22.9229,60.0271,28.0646],[22.9234,60.0255,21.9964],[22.9286,60.0234,21.5062],[22.9203,60.0172,15.1996],[22.9146,60.0167,26.3417],[22.9104,60.0187,21.9206],[22.9068,60.0151,13.7376],[22.9099,60.0141,18.6379],[22.9089,60.0109,8.764],[22.9109,60.0089,0.0],[22.9167,60.0104,0.0],[22.9245,60.0078,18.9248],[22.9255,60.0047,0.0],[22.9286,60.0047,0.0],[22.9359,60.0161,11.759],[22.9411,60.0172,0.0],[22.9458,60.0208,11.8213],[22.95,60.0187,0.0],[22.9542,60.0187,0.0],[22.9589,60.0245,7.0396],[22.9641,60.0255,0.0],[22.963,60.0307,15.1303],[22.9667,60.0333,0.0],[22.9724,60.0339,22.9151],[22.9745,60.0359,8.656],[22.9734,60.0391,0.0],[22.9745,60.0411,0.0],[22.9703,60.0432,0.0]]],
[[[22.9922,60.1036,25.3993],[22.9922,60.1005,0.6343],[22.9953,60.1005,0.4143],[23.0057,60.1047,10.3169],[23.0099,60.1099,8.9534],[23.0042,60.1104,1.8044],[22.9964,60.1078,17.4108],[22.9922,60.1036,25.3993]]],
[[[22.913,60.2411,0.1358],[22.9109,60.238,0.0],[22.9167,60.2375,14.2189],[22.9214,60.2411,9.6357],[22.9266,60.2422,0.0],[22.9297,60.2453,0.0],[22.9354,60.2458,0.9786],[22.937,60.2474,0.0],[22.9271,60.2479,14.8797],[22.913,60.2411,0.1358]]],
[[[22.9922,60.312,7.9214],[22.9901,60.3089,25.0811],[22.9932,60.3089,1.4212],[22.9953,60.3109,3.7325],[22.9922,60.312,7.9214]]],
[[[23.1741,60.7667,109.8605],[23.165,60.7669,101.5521],[23.1645,60.7624,116.4576],[23.1737,60.7622,113.6159],[23.1741,60.7667,109.8605]]]]}
,"properties": {"GID_3": "FIN.5.3.3_1","GID_0": "FIN","country": "Finland","GID_1": "FIN.5_1","province": "WesternFinland","NL_NAME_1": "NA","GID_2": "FIN.5.3_1","county": "FinlandProper","NL_NAME_2": "NA","city": "Salo","VARNAME_3": "NA","NL_NAME_3": "NA","TYPE_3": "Seutukunta|Ekonomiskregion","ENGTYPE_3": "Sub-Region","CC_3": "NA","HASC_3": "FI.LS.SA","name": "Salo.city","area_km2": 2757.412,"hist_schema_id": "Elevation0-9000","hist_area_km2": {"0": 105.621,"25": 357.643,"50": 572.047,"75": 774.15,"100": 699.842,"125": 228.761,"150": 19.254,"175": 0.094}}}