{"type": "Feature","bbox": [22.9736,62.8539,24.3628,63.4963],"geometry": {"type": "MultiPolygon","coordinates": [[[[24.3621,63.1147,170.5426],[24.3628,63.1192,177.7611],[24.3529,63.1195,170.606],[24.3536,63.124,171.6789],[24.3436,63.1243,172.6564],[24.3443,63.1288,173.8608],[24.3245,63.1294,183.658],[24.3252,63.1339,176.571],[24.3152,63.1342,181.281],[24.3159,63.1386,173.6218],[24.2862,63.1395,172.1034],[24.2855,63.1351,173.3401],[24.2657,63.1356,175.0387],[24.265,63.1311,172.6449],[24.2452,63.1317,173.7302],[24.2458,63.1362,173.0678],[24.2359,63.1365,170.5041],[24.2366,63.141,169.2296],[24.2267,63.1413,170.356],[24.2273,63.1458,176.2608],[24.2174,63.1461,170.4196],[24.218,63.1505,168.7227],[24.2081,63.1508,166.2382],[24.2087,63.1553,172.231],[24.1988,63.1556,163.4129],[24.1982,63.1511,162.4362],[24.1783,63.1517,155.143],[24.179,63.1562,159.2142],[24.1889,63.1559,160.6065],[24.1902,63.1648,166.4886],[24.2001,63.1646,159.8072],[24.2008,63.169,158.2766],[24.2206,63.1685,162.5107],[24.2213,63.173,165.5814],[24.2312,63.1727,166.5554],[24.2318,63.1771,181.0353],[24.2219,63.1774,166.8231],[24.2226,63.1819,165.654],[24.2126,63.1822,167.1852],[24.2133,63.1867,161.5051],[24.2034,63.187,158.0208],[24.2046,63.1959,159.8568],[24.1947,63.1962,160.1477],[24.1954,63.2007,159.1804],[24.1854,63.201,162.0247],[24.1861,63.2055,161.9566],[24.1761,63.2058,174.808],[24.1768,63.2102,166.6671],[24.1668,63.2105,149.7358],[24.1675,63.215,152.2801],[24.1575,63.2153,152.002],[24.1582,63.2198,155.176],[24.1482,63.2201,155.9361],[24.1489,63.2246,152.4219],[24.1389,63.2248,148.3717],[24.1395,63.2293,148.8962],[24.1296,63.2296,144.1578],[24.1302,63.2341,137.5647],[24.1203,63.2344,144.5768],[24.1209,63.2388,140.4191],[24.111,63.2391,136.2561],[24.1116,63.2436,132.4554],[24.0917,63.2442,135.5952],[24.0923,63.2487,144.3489],[24.0724,63.2492,132.3903],[24.073,63.2537,127.7948],[24.0631,63.254,126.4168],[24.0637,63.2585,129.5861],[24.0438,63.259,130.7286],[24.0444,63.2635,143.4797],[24.0245,63.2641,122.0],[24.0251,63.2685,136.6446],[23.9952,63.2694,122.0],[23.9958,63.2738,122.0],[23.8563,63.2776,98.4196],[23.8569,63.2821,99.1134],[23.8469,63.2824,95.793],[23.8475,63.2868,99.9949],[23.8376,63.2871,93.4685],[23.8382,63.2916,93.4524],[23.8182,63.2921,99.9733],[23.8188,63.2966,94.7137],[23.8088,63.2969,95.9312],[23.8094,63.3013,94.1831],[23.7994,63.3016,92.5612],[23.8,63.3061,89.1265],[23.7801,63.3066,96.9296],[23.7806,63.3111,100.7576],[23.7707,63.3114,106.915],[23.7713,63.3158,94.5728],[23.7613,63.3161,103.2034],[23.7624,63.3251,97.2357],[23.7524,63.3253,105.7782],[23.7536,63.3343,92.8177],[23.7436,63.3345,93.296],[23.7442,63.339,91.0405],[23.7342,63.3393,95.7843],[23.7354,63.3483,96.7722],[23.7254,63.3485,85.8931],[23.7265,63.3575,84.8652],[23.7165,63.3577,83.2585],[23.7177,63.3667,85.9058],[23.7077,63.367,79.6728],[23.7088,63.3759,88.2394],[23.6988,63.3762,91.076],[23.6994,63.3807,86.0752],[23.6894,63.3809,84.4891],[23.69,63.3854,93.6744],[23.67,63.3859,79.7109],[23.6705,63.3904,78.5133],[23.6505,63.3909,70.9584],[23.6511,63.3954,72.6626],[23.6411,63.3956,71.9851],[23.6416,63.4001,77.3855],[23.6216,63.4006,76.3573],[23.6222,63.4051,79.5779],[23.6122,63.4054,73.7532],[23.6133,63.4143,81.9875],[23.6033,63.4146,73.3717],[23.6038,63.4191,67.8246],[23.5938,63.4193,69.1431],[23.5944,63.4238,68.5914],[23.5844,63.424,70.4538],[23.5849,63.4285,73.9109],[23.5749,63.4288,76.4235],[23.5754,63.4333,68.1836],[23.5654,63.4335,70.9217],[23.5676,63.4515,65.0251],[23.5576,63.4517,71.4981],[23.5587,63.4607,69.0751],[23.5487,63.4609,68.1083],[23.5492,63.4654,77.3621],[23.5392,63.4656,70.7091],[23.5398,63.4701,63.0],[23.5297,63.4704,79.7074],[23.5292,63.4659,75.7206],[23.4991,63.4666,65.0911],[23.4996,63.4711,74.1664],[23.4695,63.4718,65.2188],[23.47,63.4763,62.4806],[23.4399,63.477,75.4425],[23.4404,63.4815,62.0437],[23.4204,63.482,61.2417],[23.4209,63.4865,62.2712],[23.4109,63.4867,68.4446],[23.4114,63.4912,60.7643],[23.4013,63.4914,61.3273],[23.4019,63.4959,73.1813],[23.3818,63.4963,64.9527],[23.3813,63.4919,63.2401],[23.3612,63.4923,65.7258],[23.3606,63.4878,60.8448],[23.3405,63.4883,73.2741],[23.34,63.4838,65.3631],[23.3199,63.4843,57.194],[23.3194,63.4798,65.7029],[23.3094,63.48,62.3928],[23.3089,63.4755,64.814],[23.2888,63.476,67.0827],[23.2883,63.4715,66.8047],[23.2682,63.4719,63.6492],[23.2672,63.463,68.6601],[23.2571,63.4632,62.4523],[23.2556,63.4497,63.0567],[23.2456,63.4499,62.0164],[23.2441,63.4365,60.7511],[23.234,63.4367,78.0452],[23.232,63.4188,58.9438],[23.222,63.419,61.9122],[23.2205,63.4055,63.2855],[23.2105,63.4057,63.7471],[23.2095,63.3968,65.5183],[23.1995,63.397,62.1259],[23.1985,63.388,65.9996],[23.1885,63.3882,73.5983],[23.188,63.3837,64.5459],[23.178,63.3839,68.4135],[23.1775,63.3795,69.8135],[23.1675,63.3797,66.3968],[23.1665,63.3707,67.0382],[23.1565,63.3709,65.4362],[23.156,63.3665,70.8543],[23.146,63.3666,72.4781],[23.1455,63.3622,70.1824],[23.1355,63.3624,75.145],[23.1345,63.3534,65.1419],[23.1245,63.3536,63.386],[23.124,63.3491,65.6301],[23.114,63.3493,62.4058],[23.1145,63.3538,69.7754],[23.1045,63.354,69.9464],[23.105,63.3585,64.0096],[23.095,63.3587,55.7675],[23.0955,63.3632,60.228],[23.0855,63.3634,54.2078],[23.0859,63.3679,57.5661],[23.0759,63.3681,65.818],[23.0755,63.3637,60.1152],[23.0455,63.3643,47.4525],[23.045,63.3598,61.4909],[23.035,63.36,45.2026],[23.0359,63.369,46.3974],[23.0259,63.3692,54.2526],[23.0269,63.3782,66.8515],[22.9968,63.3788,52.5062],[22.9959,63.3698,53.9137],[22.9759,63.3702,67.057],[22.9736,63.3478,59.1307],[22.9836,63.3476,63.3112],[22.9808,63.3206,61.8884],[22.9908,63.3204,51.4879],[22.9876,63.289,52.8086],[22.9975,63.2888,57.1391],[22.9952,63.2664,59.6222],[22.9853,63.2666,55.4302],[22.9843,63.2576,61.8489],[22.9943,63.2574,58.8426],[22.9934,63.2484,64.5182],[23.0033,63.2482,66.3396],[23.0024,63.2392,68.4983],[23.0124,63.239,74.4775],[23.0119,63.2345,71.028],[23.0219,63.2343,73.5036],[23.0214,63.2299,74.6317],[23.0413,63.2294,68.0852],[23.0408,63.2249,82.596],[23.0508,63.2247,74.9395],[23.0503,63.2203,79.238],[23.0702,63.2198,68.12],[23.0698,63.2153,78.7748],[23.0797,63.2151,78.9191],[23.0793,63.2107,71.6848],[23.0991,63.2102,69.2015],[23.0987,63.2057,70.896],[23.1186,63.2053,75.0831],[23.1181,63.2008,72.3504],[23.128,63.2006,78.0589],[23.1276,63.1961,73.4151],[23.1474,63.1957,69.7128],[23.147,63.1912,80.0415],[23.1569,63.191,75.6769],[23.1564,63.1865,78.0834],[23.1763,63.1861,76.7232],[23.1753,63.1771,77.0992],[23.1853,63.1769,66.9652],[23.1843,63.1679,75.339],[23.2041,63.1675,80.2362],[23.2051,63.1764,78.6146],[23.1952,63.1767,75.4231],[23.1957,63.1811,72.2693],[23.1962,63.1856,81.2035],[23.2061,63.1854,72.753],[23.2066,63.1899,86.4605],[23.2166,63.1897,77.1921],[23.2171,63.1942,83.5213],[23.237,63.1937,80.1901],[23.2374,63.1982,83.3145],[23.2573,63.1978,87.6166],[23.2578,63.2023,86.4761],[23.2777,63.2018,81.5583],[23.278199999999998,63.2063,84.8123],[23.328,63.2052,91.846],[23.3275,63.2007,80.683],[23.3374,63.2005,85.1271],[23.3369,63.196,92.1362],[23.3568,63.1955,103.1319],[23.3563,63.191,96.8154],[23.3662,63.1908,100.943],[23.3657,63.1863,101.2308],[23.3756,63.1861,96.516],[23.3751,63.1816,105.9651],[23.395,63.1811,104.8389],[23.3945,63.1766,104.5804],[23.4044,63.1764,95.8158],[23.4033,63.1674,94.0892],[23.4133,63.1672,96.2979],[23.4128,63.1627,95.3418],[23.4227,63.1625,101.7817],[23.4216,63.1535,106.5569],[23.4316,63.1533,108.8797],[23.431,63.1488,103.1836],[23.441,63.1485,106.3356],[23.4399,63.1396,107.9137],[23.4498,63.1393,107.7887],[23.4477,63.1214,107.8576],[23.4576,63.1212,114.7441],[23.4555,63.1032,104.6269],[23.4654,63.103,108.1537],[23.4633,63.085,93.2387],[23.4732,63.0848,104.3443],[23.4711,63.0668,92.7798],[23.4612,63.0671,93.0918],[23.4601,63.0581,87.8046],[23.47,63.0579,96.3066],[23.4695,63.0534,101.4915],[23.4794,63.0532,99.0275],[23.4788,63.0487,99.6396],[23.4887,63.0484,103.0664],[23.4882,63.0439,99.4965],[23.4981,63.0437,107.9213],[23.4975,63.0392,94.3288],[23.5074,63.039,98.7632],[23.5064,63.03,91.659],[23.5163,63.0298,93.5557],[23.512,62.9939,104.3267],[23.5021,62.9941,106.0682],[23.4989,62.9672,94.0],[23.489,62.9674,99.1198],[23.4885,62.963,98.2746],[23.4688,62.9634,102.813],[23.4672,62.95,97.0971],[23.477,62.9497,98.001],[23.4765,62.9453,99.9512],[23.4863,62.945,98.0708],[23.4858,62.9405,98.3596],[23.4957,62.9403,98.2979],[23.4951,62.9358,107.0754],[23.505,62.9356,100.071],[23.5039,62.9266,105.5268],[23.5138,62.9263,94.3482],[23.5133,62.9219,101.6538],[23.5231,62.9216,103.0013],[23.5226,62.9171,96.9978],[23.5521,62.9164,107.1649],[23.5516,62.9119,97.3013],[23.5713,62.9114,114.5028],[23.5707,62.907,111.7953],[23.5806,62.9067,120.9109],[23.58,62.9022,120.5617],[23.5899,62.902,126.9061],[23.5893,62.8975,128.2095],[23.5992,62.8972,130.7462],[23.5986,62.8928,131.8746],[23.6084,62.8925,134.1543],[23.6079,62.888,125.6202],[23.6276,62.8875,133.5746],[23.627,62.883,136.0468],[23.6369,62.8828,130.6035],[23.6363,62.8783,139.1298],[23.6461,62.8781,146.2834],[23.645,62.8691,138.0617],[23.6549,62.8688,145.9984],[23.6537,62.8599,166.4489],[23.6636,62.8596,160.9694],[23.663,62.8551,154.6593],[23.6827,62.8546,169.8031],[23.6833,62.8591,159.3146],[23.6931,62.8589,152.7328],[23.6925,62.8544,151.3009],[23.7122,62.8539,144.1965],[23.7127,62.8584,155.0888],[23.7225,62.8581,161.107],[23.7231,62.8626,155.3051],[23.7329,62.8623,149.531],[23.7335,62.8668,160.9349],[23.7237,62.8671,150.1904],[23.7242,62.8716,152.6777],[23.7341,62.8713,162.1327],[23.7346,62.8758,155.7005],[23.7445,62.8755,166.9187],[23.7451,62.88,164.0677],[23.7647,62.8795,163.1577],[23.7653,62.884,160.1759],[23.7751,62.8837,152.8884],[23.7757,62.8882,151.243],[23.7855,62.888,150.581],[23.7861,62.8924,144.9664],[23.7959,62.8922,155.983],[23.7965,62.8967,151.679],[23.8064,62.8964,153.5379],[23.8069,62.9009,153.1241],[23.8266,62.9004,147.8767],[23.8272,62.9049,150.4078],[23.837,62.9046,150.8222],[23.8376,62.9091,158.6411],[23.8475,62.9088,152.901],[23.8492,62.9223,149.4711],[23.8394,62.9225,152.0293],[23.84,62.927,162.0087],[23.8498,62.9268,159.631],[23.8504,62.9312,159.6967],[23.8603,62.931,162.0438],[23.8608,62.9355,158.6752],[23.8707,62.9352,154.7138],[23.8713,62.9397,150.7622],[23.891,62.9392,161.7592],[23.8916,62.9436,164.1148],[23.9113,62.9431,160.4792],[23.9107,62.9386,159.361],[23.9206,62.9384,159.4871],[23.92,62.9339,156.6566],[23.9298,62.9336,149.5074],[23.9292,62.9291,152.7177],[23.9391,62.9288,152.4527],[23.9385,62.9244,144.2067],[23.9483,62.9241,149.6713],[23.9495,62.9331,150.8443],[24.0185,62.9311,151.0623],[24.0203,62.9446,154.3942],[24.0301,62.9443,148.1486],[24.0338,62.9712,131.67],[24.0437,62.971,129.3428],[24.0443,62.9754,119.406],[24.064,62.9749,128.4807],[24.0634,62.9704,113.2929],[24.0831,62.9698,116.8609],[24.0825,62.9654,112.836],[24.0924,62.9651,113.8244],[24.0943,62.9785,132.3554],[24.1041,62.9783,136.5301],[24.1048,62.9827,136.4245],[24.1442,62.9816,163.4443],[24.1448,62.9861,166.7772],[24.1744,62.9852,169.9837],[24.1764,62.9987,175.9096],[24.1665,62.999,185.2125],[24.1684,63.0124,179.4356],[24.1882,63.0118,178.2037],[24.1869,63.0029,185.4958],[24.2165,63.002,196.2825],[24.2171,63.0065,194.5543],[24.227,63.0062,199.208],[24.2257,62.9972,211.7892],[24.2356,62.997,216.8238],[24.2343,62.988,215.7389],[24.3034,62.986,190.9965],[24.304,62.9904,189.2584],[24.2941,62.9907,185.5289],[24.2961,63.0042,188.3637],[24.2968,63.0087,194.0604],[24.3066,63.0084,182.4533],[24.3093,63.0263,189.3582],[24.2994,63.0266,193.956],[24.3007,63.0355,204.2284],[24.2908,63.0358,203.1571],[24.2902,63.0314,198.7166],[24.2803,63.0317,201.5189],[24.2816,63.0406,200.844],[24.2717,63.0409,200.7969],[24.2743,63.0588,190.1393],[24.2644,63.0591,182.2749],[24.2651,63.0636,182.5496],[24.2948,63.0627,190.1848],[24.2954,63.0672,183.7377],[24.3251,63.0663,184.5901],[24.3271,63.0798,184.1836],[24.337,63.0795,183.3676],[24.3396,63.0974,186.9549],[24.3495,63.0971,180.8022],[24.3515,63.1106,170.6648],[24.3615,63.1103,176.4554],[24.3621,63.1147,170.5426]],
[[24.1684,63.152,148.4571],[24.1783,63.1517,155.143],[24.1777,63.1472,155.1848],[24.1678,63.1475,151.2308],[24.1684,63.152,148.4571]]]]}
,"properties": {"GID_3": "FIN.5.8.2_1","GID_0": "FIN","country": "Finland","GID_1": "FIN.5_1","province": "WesternFinland","NL_NAME_1": "NA","GID_2": "FIN.5.8_1","county": "SouthernOstrobothnia","NL_NAME_2": "NA","city": "Järviseutu","VARNAME_3": "NA","NL_NAME_3": "NA","TYPE_3": "Seutukunta|Ekonomiskregion","ENGTYPE_3": "Sub-Region","CC_3": "NA","HASC_3": "FI.LS.JS","name": "Järviseutu.city","area_km2": 2328.137,"hist_schema_id": "Elevation0-9000","hist_area_km2": {"50": 123.743,"75": 898.339,"100": 455.862,"125": 431.13,"150": 270.391,"175": 123.204,"200": 25.322,"225": 0.144}}}