{"type":"Feature","properties":{"GID_3":"FIN.4.1.1_1","GID_0":"FIN","country":"Finland","GID_1":"FIN.4_1","province":"SouthernFinland","NL_NAME_1":"NA","GID_2":"FIN.4.1_1","county":"EasternUusimaa","NL_NAME_2":"NA","city":"Loviisa","VARNAME_3":"NA","NL_NAME_3":"NA","TYPE_3":"Seutukunta|Ekonomiskregion","ENGTYPE_3":"Sub-Region","CC_3":"NA","HASC_3":"FI.ES.LV","name":"Loviisa.city"},
"geometry":{"type": "MultiPolygon","coordinates": [[[[25.9453,60.238,13.1953],[25.9437,60.2396,0.0],[25.9422,60.2391,2.7759],[25.9437,60.2375,5.0874],[25.9453,60.238,13.1953]]],
[[[26.0167,60.2417,16.0534],[26.0151,60.2411,14.5351],[26.0161,60.2391,7.9894],[26.0203,60.238,7.7498],[26.0182,60.2411,0.0],[26.0167,60.2417,16.0534]]],
[[[25.9604,60.2458,16.8619],[25.9641,60.2474,12.0587],[25.9604,60.25,16.4549],[25.9479,60.2479,5.3664],[25.9438,60.25,4.101],[25.9297,60.2443,0.8957],[25.9375,60.2417,1.407],[25.9458,60.2417,0.0],[25.9604,60.2458,16.8619]]],
[[[25.9443,60.2536,0.0],[25.95,60.25,0.0],[25.9521,60.2521,14.6223],[25.95,60.2542,1.8488],[25.9443,60.2536,0.0]]],
[[[25.9578,60.2547,4.4561],[25.9562,60.2562,13.2948],[25.9547,60.2557,10.9938],[25.9562,60.2542,15.8162],[25.9578,60.2547,4.4561]]],
[[[25.9661,60.2651,8.4681],[25.9646,60.2667,22.2144],[25.963,60.2661,0.0],[25.9646,60.2646,3.6774],[25.9661,60.2651,8.4681]]],
[[[25.9542,60.2687,0.0],[25.9505,60.2651,0.0315],[25.9578,60.2651,-0.2706],[25.9557,60.2682,0.0],[25.9542,60.2687,0.0]]],
[[[26.0328,60.2964,5.3988],[26.0313,60.2979,0.0],[26.0297,60.2974,0.0],[26.0313,60.2958,0.0],[26.0328,60.2964,5.3988]]],
[[[26.2042,60.2604,4.367],[26.2,60.2604,13.0471],[26.1984,60.2589,15.6788],[26.2057,60.2589,0.0],[26.2042,60.2604,4.367]]],
[[[26.1063,60.275,10.7984],[26.1047,60.2734,3.719],[26.1068,60.2714,1.8115],[26.1099,60.2714,11.88],[26.1099,60.2724,13.1562],[26.1063,60.275,10.7984]]],
[[[26.0917,60.2792,13.3747],[26.0875,60.2792,15.8238],[26.0859,60.2776,0.0],[26.0932,60.2776,16.795],[26.0917,60.2792,13.3747]]],
[[[26.1432,60.2922,0.0],[26.1349,60.2974,5.3896],[26.125,60.3104,22.6887],[26.1083,60.3104,12.2178],[26.0984,60.3078,9.2103],[26.1016,60.3026,8.4779],[26.0964,60.3016,0.0],[26.0938,60.2979,16.0949],[26.0943,60.2964,10.3763],[26.0995,60.2953,3.3628],[26.0984,60.2922,14.7571],[26.1016,60.288,0.9286],[26.0984,60.2859,2.4049],[26.1036,60.2849,14.2426],[26.1068,60.2818,0.0],[26.1161,60.2786,0.0],[26.1151,60.2755,17.8303],[26.1167,60.275,15.1631],[26.1229,60.2792,0.0],[26.1328,60.2776,15.6685],[26.1349,60.2818,0.0],[26.1339,60.2849,0.0],[26.1349,60.287,0.0],[26.1271,60.2896,0.0],[26.1229,60.2875,0.0],[26.1188,60.2875,0.0],[26.1172,60.288,0.0],[26.1172,60.2911,0.0],[26.1432,60.2922,0.0]]],
[[[26.1938,60.3479,11.4279],[26.1833,60.3479,6.7688],[26.1771,60.3521,0.0],[26.1672,60.3474,0.0],[26.1682,60.3443,15.1994],[26.1672,60.3422,0.0],[26.1807,60.3391,9.1472],[26.1828,60.337,7.1327],[26.1818,60.3339,5.0808],[26.187,60.3328,9.4955],[26.1911,60.3266,8.0676],[26.1901,60.3234,4.9322],[26.1979,60.3187,10.2818],[26.2313,60.3187,0.0],[26.2354,60.3208,0.0],[26.2474,60.3214,7.6835],[26.238,60.3297,6.5381],[26.2391,60.3328,0.0],[26.225,60.3333,0.0],[26.2188,60.3354,7.117],[26.2172,60.3359,10.7072],[26.2182,60.3391,0.0],[26.1938,60.3479,11.4279]]],
[[[26.0755,60.3703,0.0],[26.0776,60.3651,0.2921],[26.0849,60.3651,0.0],[26.0849,60.3682,15.5042],[26.0807,60.3724,0.0],[26.0776,60.3724,0.0],[26.0755,60.3703,0.0]]],
[[[26.1167,60.3729,18.4299],[26.113,60.3693,2.9817],[26.1188,60.3688,1.458],[26.1224,60.3714,3.853],[26.1208,60.3729,8.0306],[26.1167,60.3729,18.4299]]],
[[[26.0547,60.3797,0.0],[26.0604,60.375,0.0],[26.0641,60.3776,0.0],[26.0604,60.3812,0.0],[26.0563,60.3812,3.461],[26.0547,60.3797,0.0]]],
[[[26.4474,60.2734,0.0],[26.4458,60.275,0.0],[26.4443,60.2745,11.7794],[26.4458,60.2729,0.0],[26.4474,60.2734,0.0]]],
[[[26.6021,60.2792,9.0094],[26.5984,60.2786,0.0],[26.5984,60.2755,0.0],[26.6057,60.2755,10.8136],[26.6057,60.2766,12.2932],[26.6021,60.2792,9.0094]]],
[[[26.4911,60.3068,7.3868],[26.4911,60.3078,0.7478],[26.488,60.3078,0.0],[26.4896,60.3063,0.0],[26.4911,60.3068,7.3868]]],
[[[26.5089,60.3391,0.0],[26.5089,60.3359,0.0],[26.5109,60.3339,0.0],[26.5182,60.3339,0.537],[26.5161,60.3391,4.3883],[26.5089,60.3391,0.0]]],
[[[26.262,60.3026,0.0],[26.262,60.3036,12.0056],[26.2589,60.3036,23.0856],[26.2589,60.3026,16.6727],[26.262,60.3026,0.0]]],
[[[26.2479,60.3063,18.0081],[26.2438,60.3063,19.0805],[26.2422,60.3047,0.0],[26.2495,60.3047,18.9601],[26.2479,60.3063,18.0081]]],
[[[26.2771,60.3146,11.8364],[26.2755,60.313,0.0],[26.2792,60.3104,0.0],[26.2891,60.3109,2.5706],[26.2833,60.3167,0.0],[26.2771,60.3146,11.8364]]],
[[[26.2703,60.3193,0.0],[26.2687,60.3208,0.0],[26.2672,60.3203,4.3328],[26.2687,60.3187,0.0],[26.2703,60.3193,0.0]]],
[[[26.3057,60.337,0.0],[26.3042,60.3375,16.818],[26.3026,60.3359,12.1341],[26.3042,60.3354,0.8838],[26.3057,60.337,0.0]]],
[[[26.3036,60.3401,15.5064],[26.3021,60.3417,18.1539],[26.2958,60.3417,18.7558],[26.2917,60.3438,0.0],[26.288,60.3411,11.7015],[26.2896,60.3396,7.2985],[26.2958,60.3396,15.6602],[26.3,60.3375,0.0],[26.3036,60.3401,15.5064]]],
[[[26.2792,60.3458,23.3158],[26.2755,60.3443,0.0],[26.287,60.3443,15.1569],[26.2854,60.3458,11.8146],[26.2792,60.3458,23.3158]]],
[[[26.2167,60.3667,8.101],[26.2125,60.3667,1.9106],[26.2109,60.3651,5.1498],[26.2224,60.3651,11.3592],[26.2208,60.3667,6.2274],[26.2167,60.3667,8.101]]],
[[[26.4099,60.3464,10.4644],[26.4083,60.3479,14.2023],[26.4068,60.3474,15.1118],[26.4068,60.3464,12.064],[26.4099,60.3464,10.4644]]],
[[[26.4214,60.3484,0.0],[26.4224,60.3464,0.0],[26.4214,60.3443,0.0],[26.4229,60.3438,0.0],[26.4349,60.3464,6.3347],[26.437,60.3484,0.0],[26.4359,60.3516,23.7296],[26.4391,60.3547,0.0],[26.4359,60.3568,9.1376],[26.437,60.3599,0.0],[26.4313,60.3604,13.7527],[26.4245,60.3547,0.0],[26.4172,60.3536,1.8981],[26.4214,60.3484,0.0]]],
[[[26.3563,60.3625,0.0],[26.3599,60.3641,14.9795],[26.3547,60.3651,0.0],[26.3432,60.3745,4.8533],[26.3401,60.3745,0.0],[26.338,60.3724,0.0],[26.3484,60.363,6.0276],[26.3563,60.3625,0.0]]],
[[[26.3599,60.3932,0.0],[26.3563,60.3937,3.1913],[26.3547,60.3922,16.3457],[26.3583,60.3917,0.0],[26.3599,60.3932,0.0]]],
[[[26.2646,60.3771,0.0],[26.263,60.3766,11.4651],[26.263,60.3755,8.7828],[26.2661,60.3755,0.0],[26.2646,60.3771,0.0]]],
[[[26.2516,60.4214,0.0],[26.2505,60.4245,0.0],[26.2521,60.425,9.2953],[26.2521,60.4271,0.0],[26.2417,60.4271,18.1275],[26.238,60.4297,13.4333],[26.2391,60.4328,0.0],[26.238,60.4349,0.0],[26.2432,60.438,0.0],[26.2401,60.4432,0.0],[26.2432,60.4474,0.0],[26.2359,60.4526,0.0],[26.238,60.4557,0.0],[26.2411,60.4557,0.0],[26.2464,60.4505,0.0],[26.2516,60.4495,0.0],[26.2568,60.4422,0.0],[26.262,60.4411,0.0],[26.2609,60.438,0.0],[26.2682,60.437,10.7084],[26.2703,60.4349,4.9459],[26.2693,60.4318,0.0],[26.275,60.4313,0.0],[26.2792,60.4333,0.0],[26.2833,60.4333,7.3399],[26.2911,60.4307,0.0],[26.2896,60.4292,0.0],[26.2839,60.4286,0.0],[26.2849,60.4255,5.9034],[26.2818,60.4214,13.9639],[26.2839,60.4193,0.0],[26.2974,60.4161,0.0],[26.2922,60.4078,7.668],[26.2932,60.4047,15.9941],[26.2922,60.4026,0.0],[26.2995,60.3974,7.7666],[26.2984,60.3943,0.0],[26.3005,60.3922,0.0],[26.3078,60.387,5.5157],[26.3068,60.3839,0.0],[26.3141,60.3786,17.921],[26.313,60.3755,8.1794],[26.3151,60.3734,0.0],[26.3349,60.3734,3.0189],[26.3339,60.3766,12.3841],[26.338,60.3828,0.0],[26.3432,60.3839,10.0382],[26.3453,60.3859,0.0],[26.3401,60.388,5.0348],[26.3411,60.3911,8.9178],[26.338,60.3922,6.8928],[26.3391,60.3953,0.0],[26.3339,60.3974,0.0],[26.3479,60.4021,9.8887],[26.3708,60.3979,0.0],[26.3724,60.3984,15.98],[26.3714,60.4016,6.8679],[26.3724,60.4036,0.0],[26.3693,60.4047,4.7834],[26.3672,60.4078,0.0],[26.3813,60.4125,0.0],[26.3854,60.4125,0.0],[26.3911,60.4078,0.0],[26.3901,60.4026,0.0],[26.4036,60.4016,5.1012],[26.4089,60.3964,0.0],[26.412,60.3953,6.962],[26.4109,60.3922,15.9285],[26.4167,60.3937,0.0],[26.4245,60.3911,0.0],[26.4234,60.388,0.0],[26.425,60.3854,0.2263],[26.4234,60.3818,0.0],[26.4245,60.3797,0.0],[26.4188,60.375,15.0472],[26.4047,60.3797,5.2442],[26.4,60.3833,0.0],[26.3901,60.3839,16.1376],[26.3911,60.387,0.0],[26.3839,60.387,7.3565],[26.3854,60.3833,8.4736],[26.3839,60.3797,10.3025],[26.387,60.3766,8.5113],[26.3859,60.3734,8.0993],[26.3911,60.3703,0.0],[26.3859,60.363,40.1795],[26.3922,60.3589,19.6273],[26.4,60.3583,2.7905],[26.4042,60.3563,0.0],[26.4109,60.362,0.0],[26.4245,60.363,12.8456],[26.4297,60.3703,0.0],[26.4396,60.3708,11.4936],[26.4411,60.3703,14.3938],[26.4401,60.3672,0.0],[26.4432,60.3661,7.8001],[26.4422,60.363,5.9856],[26.4479,60.3583,0.0],[26.4604,60.3583,9.6858],[26.4646,60.3604,9.962],[26.4917,60.3604,0.0],[26.4958,60.3625,3.2438],[26.5057,60.3557,4.913],[26.5047,60.3526,0.0],[26.5078,60.3484,5.0724],[26.5047,60.3464,0.0],[26.5125,60.3438,2.0779],[26.5375,60.3438,10.2965],[26.5391,60.3443,5.1093],[26.538,60.3474,1.4026],[26.5411,60.3536,8.4609],[26.5313,60.3542,3.1302],[26.5271,60.3521,21.7259],[26.5214,60.3568,0.2769],[26.5229,60.3583,18.7731],[26.5349,60.3589,14.9804],[26.5339,60.3641,9.7868],[26.5349,60.3661,0.7427],[26.5328,60.3682,0.0],[26.525,60.3708,0.0],[26.5208,60.3688,11.0123],[26.5021,60.3688,5.6083],[26.4943,60.3714,20.9362],[26.4922,60.3734,17.8869],[26.4932,60.3766,10.2428],[26.4896,60.3792,0.0],[26.4792,60.375,9.9053],[26.475,60.375,10.5628],[26.4703,60.3786,7.8282],[26.463,60.3797,4.28],[26.4516,60.387,0.0],[26.4443,60.388,3.0985],[26.4464,60.3911,0.0],[26.4516,60.3932,3.1436],[26.438,60.3943,0.0],[26.4391,60.3974,4.238],[26.4359,60.3984,4.5049],[26.437,60.4016,0.0],[26.4349,60.4036,3.0011],[26.4271,60.4063,0.0],[26.4229,60.4063,2.4927],[26.4188,60.4042,7.9352],[26.413,60.4068,0.0],[26.4141,60.4141,0.0],[26.4068,60.4193,0.0],[26.4109,60.4245,0.0],[26.4208,60.425,4.503],[26.4224,60.4245,0.0],[26.4214,60.4151,0.0],[26.4333,60.4146,0.0],[26.4375,60.4125,0.4378],[26.4432,60.4172,0.0],[26.4443,60.4203,0.0],[26.4516,60.4193,4.7374],[26.4599,60.4276,0.0],[26.4583,60.4313,11.8752],[26.4599,60.4339,9.1069],[26.4589,60.437,0.0],[26.462,60.4401,0.0],[26.462,60.4432,0.0],[26.4599,60.4453,0.0],[26.4547,60.4464,0.0],[26.4557,60.4495,0.0],[26.4536,60.4536,0.0],[26.4474,60.4599,0.0],[26.4443,60.4609,0.0],[26.4495,60.463,0.0],[26.4578,60.4714,0.0],[26.4568,60.4807,0.0],[26.4589,60.4849,0.0],[26.4632,60.4838,0.0],[26.4608,60.4884,0.9517],[26.4535,60.4916,6.4494],[26.4579,60.4914,11.5562],[26.4588,60.4959,9.0],[26.4679,60.4955,9.5],[26.4697,60.5044,9.5],[26.4788,60.504,16.8509],[26.4797,60.5084,17.3535],[26.4888,60.508,20.2928],[26.4905,60.5169,23.4993],[26.4996,60.5165,14.7606],[26.5005,60.521,18.0887],[26.5096,60.5205,17.928],[26.5114,60.5294,11.5],[26.5023,60.5299,24.0875],[26.5032,60.5344,25.0071],[26.4941,60.5348,26.3571],[26.495,60.5393,15.0],[26.486,60.5397,15.0],[26.4868,60.5442,19.4442],[26.505,60.5433,24.8244],[26.5059,60.5477,15.0],[26.515,60.5473,22.7704],[26.5159,60.5518,15.0],[26.5341,60.5509,18.2963],[26.535,60.5554,36.359],[26.5441,60.5549,15.195],[26.5486,60.5773,15.0],[26.5577,60.5768,15.0],[26.5596,60.5857,15.0],[26.5687,60.5853,15.0],[26.5705,60.5942,19.8568],[26.5796,60.5938,18.354],[26.5814,60.6027,21.018],[26.5905,60.6023,18.5549],[26.5915,60.6067,19.0497],[26.6006,60.6063,18.213],[26.6015,60.6108,29.4994],[26.6197,60.6099,16.3783],[26.6206,60.6143,17.8985],[26.6662,60.6121,20.2295],[26.6652,60.6076,15.5],[26.6743,60.6072,17.554],[26.6734,60.6027,18.3346],[26.6825,60.6022,17.828],[26.6807,60.5933,18.5474],[26.6989,60.5924,20.9449],[26.698,60.5879,16.0],[26.7162,60.587,27.374],[26.7152,60.5826,16.0],[26.7334,60.5816,26.521],[26.7325,60.5772,26.8564],[26.7507,60.5763,26.6346],[26.7526,60.5852,31.1081],[26.7435,60.5856,20.2578],[26.7444,60.5901,31.6959],[26.7353,60.5906,26.016],[26.7372,60.5995,30.411],[26.7281,60.6,29.2981],[26.729,60.6044,29.6772],[26.7199,60.6049,28.3922],[26.7217,60.6138,28.4123],[26.7126,60.6143,27.4907],[26.7145,60.6232,28.9714],[26.7054,60.6237,34.6284],[26.7063,60.6281,38.8004],[26.6972,60.6286,43.2375],[26.6991,60.6375,40.5563],[26.6899,60.638,34.4739],[26.6918,60.6469,25.3683],[26.6736,60.6478,35.7666],[26.6745,60.6523,45.9129],[26.6563,60.6532,30.1135],[26.6471,60.6536,41.1149],[26.6462,60.6492,32.6309],[26.628,60.6501,34.1355],[26.6271,60.6456,44.3519],[26.6088,60.6465,28.0233],[26.607,60.6376,20.5925],[26.5979,60.638,22.86],[26.5951,60.6246,18.9243],[26.586,60.6251,16.9099],[26.5842,60.6161,19.7701],[26.5751,60.6166,16.505],[26.5732,60.6076,28.3137],[26.5641,60.6081,31.1838],[26.5623,60.5991,15.0],[26.5532,60.5996,15.0667],[26.5514,60.5907,15.0],[26.5423,60.5911,15.0],[26.5432,60.5956,26.0406],[26.4885,60.5982,15.2613],[26.4894,60.6027,15.6742],[26.4803,60.6031,15.3773],[26.4839,60.621,26.7002],[26.4748,60.6214,23.3705],[26.4757,60.6259,24.3338],[26.4666,60.6264,18.4856],[26.4684,60.6353,19.2508],[26.4593,60.6357,18.5512],[26.4602,60.6402,19.563],[26.451,60.6406,19.3319],[26.4519,60.6451,21.874],[26.4337,60.646,25.9257],[26.4346,60.6504,43.8397],[26.3981,60.6522,47.547],[26.399,60.6567,42.4261],[26.3534,60.6588,37.8715],[26.356,60.6722,36.2659],[26.3377,60.6731,41.4795],[26.3395,60.682,29.5112],[26.3304,60.6825,30.1378],[26.333,60.6959,31.3086],[26.3239,60.6963,40.053],[26.3256,60.7052,27.6786],[26.3348,60.7048,26.5232],[26.3365,60.7137,57.8023],[26.3274,60.7142,32.8348],[26.3283,60.7186,49.1517],[26.3191,60.7191,35.02],[26.32,60.7235,56.7675],[26.3109,60.724,41.6001],[26.3118,60.7284,60.6473],[26.3026,60.7289,29.9778],[26.3061,60.7467,34.2414],[26.297,60.7472,31.3754],[26.2979,60.7516,31.4307],[26.2887,60.7521,38.4832],[26.2896,60.7565,37.0671],[26.2804,60.757,49.6631],[26.2813,60.7614,46.4368],[26.2538,60.7627,39.567],[26.2512,60.7493,50.2398],[26.2237,60.7506,43.1279],[26.2246,60.755,45.8218],[26.2155,60.7555,62.1062],[26.2129,60.7421,40.6757],[26.222,60.7416,46.4959],[26.2203,60.7327,44.3797],[26.2294,60.7323,41.0427],[26.2286,60.7278,57.2984],[26.2194,60.7282,52.9914],[26.2168,60.7148,61.3666],[26.2077,60.7152,39.2731],[26.2068,60.7108,36.4443],[26.1977,60.7112,45.5517],[26.1968,60.7067,59.0107],[26.1785,60.7076,42.5728],[26.1777,60.7031,65.5982],[26.1685,60.7035,54.9692],[26.1677,60.699,58.4599],[26.1585,60.6995,43.6585],[26.1577,60.695,54.9487],[26.1485,60.6954,39.9512],[26.1477,60.6909,50.9586],[26.1385,60.6913,30.2914],[26.1377,60.6869,59.8013],[26.1011,60.6885,50.5815],[26.102,60.693,46.1801],[26.0837,60.6938,53.9018],[26.0845,60.6983,53.0155],[26.0754,60.6987,62.6858],[26.0762,60.7032,60.8449],[26.0579,60.704,64.8838],[26.0588,60.7085,45.2645],[26.0405,60.7093,59.9451],[26.0413,60.7138,54.8192],[26.0048,60.7154,39.7615],[26.0039,60.7109,39.7997],[25.9765,60.7122,39.9648],[25.9757,60.7077,40.0385],[25.9482,60.7089,70.9936],[25.9474,60.7044,82.6297],[25.9383,60.7048,44.6598],[25.9349,60.687,62.8664],[25.9441,60.6866,37.8358],[25.9416,60.6731,39.4552],[25.9325,60.6735,80.6837],[25.93,60.6601,71.7111],[25.9209,60.6605,51.9718],[25.9184,60.6471,56.8199],[25.9093,60.6475,81.9816],[25.9076,60.6386,52.3452],[25.9259,60.6378,57.8803],[25.9267,60.6422,41.3245],[25.9449,60.6414,37.0999],[25.9458,60.6459,51.4433],[25.964,60.6451,35.4132],[25.9649,60.6496,59.9235],[26.0014,60.6479,32.5596],[25.9997,60.639,45.6552],[26.0088,60.6386,27.7072],[26.0072,60.6297,31.3928],[26.0163,60.6292,25.526],[26.0146,60.6203,21.6286],[26.0055,60.6207,24.3384],[26.0047,60.6162,19.0609],[25.9591,60.6183,37.3336],[25.9582,60.6138,23.2238],[25.9491,60.6142,24.093],[25.9483,60.6097,24.509],[25.9574,60.6093,35.5388],[25.9566,60.6049,32.3667],[25.965699999999998,60.6045,51.3591],[25.964,60.5955,35.224],[25.9732,60.5951,49.8905],[25.9723,60.5906,37.1327],[25.9632,60.591,38.7983],[25.9615,60.5821,54.3831],[25.9524,60.5825,48.901],[25.9516,60.578,46.2974],[25.9425,60.5784,54.7773],[25.9417,60.5739,41.6199],[25.9326,60.5744,26.9579],[25.9318,60.5699,23.2426],[25.8498,60.5735,53.234],[25.8482,60.5645,48.9426],[25.8391,60.5649,59.3582],[25.8374,60.556,77.68],[25.8284,60.556399999999996,63.306399999999996],[25.8211,60.5161,71.7599],[25.812,60.5165,30.8731],[25.8056,60.4808,30.8978],[25.8147,60.4804,27.4485],[25.8138,60.4759,24.4709],[25.8229,60.4755,54.7465],[25.8221,60.471,30.6165],[25.8312,60.4706,33.2884],[25.8304,60.4662,53.4062],[25.8395,60.4658,44.7029],[25.8387,60.4613,53.0197],[25.8478,60.4609,37.6519],[25.8469,60.4564,50.7151],[25.856,60.456,26.6494],[25.8552,60.4515,28.5336],[25.8643,60.4511,20.9638],[25.8635,60.4467,28.6017],[25.8725,60.4463,22.6521],[25.8717,60.4418,25.1707],[25.8989,60.4406,21.4501],[25.8981,60.4361,22.1904],[25.9163,60.4353,37.6779],[25.9155,60.4309,23.9636],[25.9245,60.4305,35.7873],[25.9237,60.426,24.3564],[25.9328,60.4256,24.4401],[25.932,60.4211,8.0944],[25.941,60.4207,24.8554],[25.9394,60.4118,22.1029],[25.9485,60.4114,12.8682],[25.946,60.3979,21.9095],[25.9551,60.3975,9.6054],[25.9518,60.3797,37.4029],[25.9427,60.3801,13.826],[25.9394,60.3622,5.0272],[25.9367,60.3623,0.0],[25.9443,60.3568,0.0],[25.9521,60.3563,-0.0921],[25.9583,60.3521,0.0],[25.9708,60.3521,0.1617],[25.975,60.35,0.0],[25.9849,60.3505,0.0],[25.9818,60.3536,25.6876],[25.9859,60.3578,0.0],[25.9932,60.3578,9.8587],[25.9901,60.3526,0.0],[25.9932,60.3505,3.4328],[25.988,60.3495,11.6537],[25.9859,60.3464,13.5112],[25.9979,60.3458,-0.3974],[26.0099,60.3411,0.0],[26.0224,60.3307,1.9254],[26.0214,60.3276,0.0],[26.0245,60.3224,20.7614],[26.0234,60.3193,0.0],[26.0286,60.3172,3.6192],[26.0234,60.3161,4.0061],[26.0266,60.313,17.9792],[26.0167,60.3125,12.4348],[26.0089,60.3172,6.2535],[26.0099,60.3203,12.5442],[26.0078,60.3245,0.0],[25.9979,60.3229,-0.0283],[25.9943,60.3255,0.7437],[26.0,60.3333,0.0],[25.9974,60.337,0.5087],[25.9859,60.3401,2.2766],[25.9792,60.3438,1.6543],[25.9688,60.3438,-0.0963],[25.9609,60.3464,6.5583],[25.95,60.3542,0.0],[25.9438,60.3542,0.0],[25.9396,60.3563,0.0],[25.9339,60.3557,0.0],[25.9297,60.3516,1.2264],[25.9307,60.3464,11.0175],[25.9255,60.3401,0.0],[25.9391,60.337,17.2708],[25.938,60.3339,0.0],[25.9474,60.3266,9.8184],[25.9495,60.3245,0.5083],[25.9484,60.3214,0.0],[25.9536,60.3182,2.9797],[25.9526,60.3109,0.0],[25.9557,60.3099,6.1268],[25.9547,60.3068,0.0],[25.9578,60.3036,0.0],[25.9562,60.3021,0.8015],[25.9484,60.3047,-0.3765],[25.9417,60.3104,0.0],[25.9401,60.3099,3.7677],[25.9411,60.3068,0.0],[25.9391,60.3047,0.0],[25.9339,60.3036,0.0312],[25.9318,60.3016,0.0],[25.9333,60.3,0.0],[25.9391,60.2995,7.1259],[25.9359,60.2943,0.0],[25.9411,60.2911,10.5899],[25.938,60.287,0.0],[25.9391,60.2839,-0.0625],[25.9339,60.2828,9.88],[25.9333,60.2813,8.1438],[25.937,60.2766,5.4733],[25.9359,60.2734,0.0],[25.9396,60.2687,3.4997],[25.9542,60.2729,0.0],[25.9667,60.2729,0.0],[25.9682,60.2724,5.5636],[25.9672,60.2693,8.7454],[25.9693,60.2672,0.0],[25.9854,60.2667,20.239],[25.9896,60.2646,0.0],[25.9995,60.2693,2.6055],[25.9979,60.2729,8.3271],[25.9995,60.2766,14.3939],[25.9974,60.2786,12.2897],[25.9922,60.2797,0.0],[25.9943,60.2828,-0.0736],[25.9984,60.2849,0.0],[26.0057,60.2828,13.4898],[26.0047,60.2797,0.0],[26.0083,60.2771,0.0],[26.0125,60.2792,10.3677],[26.0229,60.2792,0.0],[26.037,60.2839,15.9749],[26.038,60.287,0.0],[26.0458,60.2896,9.2466],[26.0682,60.2891,14.7113],[26.0724,60.287,0.0],[26.0693,60.2828,11.0038],[26.0714,60.2797,0.0],[26.0807,60.2776,1.3564],[26.0828,60.2807,8.1521],[26.0776,60.2828,0.0],[26.0818,60.287,0.0],[26.0875,60.2875,7.7765],[26.0891,60.2891,15.7144],[26.087,60.2911,19.498],[26.0729,60.2958,0.0],[26.0646,60.2958,22.3014],[26.0604,60.2979,0.0],[26.0563,60.2979,0.0],[26.0464,60.2953,5.3287],[26.0411,60.2901,7.2764],[26.0333,60.2896,0.0],[26.0292,60.2875,27.3431],[26.025,60.2896,0.0],[26.0146,60.2896,0.0],[26.0083,60.2938,0.0],[26.0042,60.2917,15.4229],[26.0,60.2917,10.83],[25.9979,60.2938,0.0],[25.9984,60.2953,0.0],[26.0036,60.2964,6.6992],[26.0089,60.3016,0.0],[26.0167,60.3021,0.0],[26.0208,60.3042,0.0],[26.0333,60.3021,0.0],[26.0375,60.3042,15.4254],[26.0417,60.3042,5.6223],[26.0458,60.3021,0.0],[26.0495,60.3047,8.4946],[26.0526,60.3099,1.1217],[26.0604,60.3125,-0.0417],[26.0661,60.312,0.0],[26.0651,60.3089,0.0],[26.0729,60.3063,0.0],[26.0828,60.3068,5.2796],[26.0859,60.3099,20.934],[26.0974,60.313,0.0],[26.112,60.3255,10.8773],[26.1099,60.3286,0.0],[26.1068,60.3297,0.0],[26.1099,60.3339,13.197],[26.1068,60.3401,14.1399],[26.1089,60.3432,0.0],[26.112,60.3432,6.3131],[26.1167,60.3396,2.2674],[26.1209,60.3396,5.9271],[26.125,60.3417,0.0],[26.1307,60.3401,5.335],[26.1297,60.3432,9.953],[26.1307,60.3453,0.0],[26.1234,60.3443,0.0],[26.1245,60.3474,0.0],[26.1193,60.3505,3.0556],[26.1245,60.3568,10.1065],[26.1229,60.3583,29.645],[26.1188,60.3563,17.9043],[26.1089,60.3578,10.2666],[26.1047,60.3536,0.0],[26.1057,60.3505,0.0],[26.0979,60.3458,15.934],[26.0896,60.3458,0.0],[26.0854,60.3479,0.0],[26.0812,60.3458,8.5413],[26.0734,60.3464,0.1897],[26.0693,60.3505,0.0],[26.0745,60.3526,0.0],[26.0724,60.3557,0.0],[26.0693,60.3568,14.9863],[26.0703,60.3599,0.0],[26.0609,60.3609,0.0],[26.0526,60.3672,16.7209],[26.0536,60.3703,0.0],[26.0526,60.3714,0.0],[26.0411,60.3807,0.0],[26.0292,60.3854,14.2757],[26.0214,60.3859,0.0],[26.0172,60.3901,0.0],[26.0182,60.3932,0.0],[26.0089,60.3964,0.0],[26.0104,60.3979,-0.3335],[26.0224,60.3984,0.6495],[26.0255,60.4016,0.0],[26.0307,60.4026,0.0],[26.0359,60.4099,0.0],[26.0411,60.4109,0.0],[26.0432,60.413,0.0],[26.0401,60.4151,0.0],[26.0411,60.4182,0.0],[26.0333,60.4208,0.0],[26.0214,60.4214,11.9774],[26.0224,60.4266,0.0],[26.0193,60.4297,0.0],[26.0208,60.4333,3.8371],[26.0193,60.437,0.0],[26.025,60.4375,0.0],[26.0328,60.4349,3.7118],[26.0339,60.4318,0.0],[26.0401,60.4255,0.0],[26.0516,60.4245,0.0],[26.0536,60.4224,0.0],[26.0526,60.4193,0.0],[26.0563,60.4167,0.0],[26.0623,60.4167,17.7255],[26.0609,60.413,0.0],[26.0625,60.4125,4.1523],[26.0667,60.4125,0.0],[26.0682,60.4141,3.0655],[26.0625,60.4168,2.5479],[26.0641,60.4203,0.0],[26.0589,60.4214,0.0],[26.0599,60.4245,0.0],[26.0568,60.4266,0.0],[26.0682,60.4297,0.0],[26.0714,60.4328,0.0],[26.0745,60.4328,1.976],[26.0766,60.4307,2.6026],[26.0755,60.4276,0.0],[26.0849,60.4245,0.0],[26.087,60.4224,0.0],[26.0859,60.4193,0.0],[26.088,60.4151,0.0],[26.1057,60.4099,11.0627],[26.1188,60.4042,0.0],[26.1266,60.4036,0.0],[26.1396,60.3937,0.0],[26.1437,60.3958,0.0],[26.1479,60.3958,0.0],[26.1526,60.3922,0.0],[26.1599,60.3911,0.0],[26.1547,60.3839,6.3702],[26.1583,60.3813,0.0],[26.1641,60.3807,28.2171],[26.1661,60.3786,0.0],[26.1646,60.3771,10.0297],[26.1589,60.3786,15.2581],[26.1651,60.3714,0.0],[26.1875,60.3646,0.0],[26.2,60.3646,12.8992],[26.2078,60.3672,0.0],[26.2099,60.3703,0.0],[26.2047,60.3734,15.4614],[26.2057,60.3766,4.7033],[26.2047,60.3786,0.0],[26.2109,60.387,0.0],[26.2161,60.388,6.1634],[26.2203,60.3932,0.0],[26.2062,60.3958,4.9917],[26.2047,60.3943,0.0],[26.2078,60.3922,0.0],[26.2021,60.3917,0.0],[26.1964,60.3943,0.0],[26.1911,60.3995,0.0],[26.1734,60.4026,3.7394],[26.1766,60.4078,0.0],[26.1693,60.4141,0.0],[26.175,60.4146,0.0],[26.1833,60.4104,0.0],[26.1896,60.4104,0.0],[26.1974,60.4078,0.0],[26.2005,60.4047,0.0],[26.2104,60.4021,0.0],[26.2146,60.4042,6.8339],[26.2229,60.4042,0.0],[26.2245,60.4026,0.0],[26.2214,60.3984,12.3956],[26.2234,60.3964,7.4757999999999996],[26.2375,60.3958,0.0],[26.2438,60.3917,3.4601],[26.2516,60.3943,6.2157],[26.2484,60.3974,0.0],[26.2563,60.3979,5.8491],[26.262,60.3932,9.6436],[26.2609,60.3901,3.7116],[26.263,60.388,13.5483],[26.2703,60.3859,0.0],[26.2703,60.3891,8.8295],[26.2651,60.3943,6.7384],[26.2661,60.3974,8.6345],[26.2526,60.4047,0.0],[26.2526,60.4078,0.0],[26.2557,60.4109,4.9521],[26.2547,60.4141,0.0],[26.2557,60.4161,0.0],[26.2505,60.4193,2.3905],[26.2516,60.4214,0.0]]],
[[[26.2557,60.4276,0.0],[26.2557,60.4286,0.0],[26.2521,60.4292,2.851],[26.2521,60.4271,0.0],[26.2557,60.4276,0.0]]],
[[[25.9255,60.3172,6.8291],[25.9292,60.3146,10.2801],[25.937,60.3172,0.0],[25.9391,60.3203,0.0],[25.9333,60.3229,1.8165],[25.9255,60.3203,0.0],[25.9255,60.3172,6.8291]]],
[[[26.0474,60.3891,0.0],[26.0443,60.3891,0.0],[26.0443,60.388,5.4162],[26.0474,60.388,0.0],[26.0474,60.3891,0.0]]],
[[[26.1068,60.3922,0.0],[26.0979,60.3958,0.0],[26.0938,60.3958,0.0],[26.0859,60.388,13.1511],[26.0891,60.387,30.5301],[26.088,60.3839,0.0],[26.0896,60.3833,0.0],[26.1021,60.3833,0.0],[26.1083,60.3875,8.5937],[26.1099,60.3859,20.1359],[26.1068,60.3818,0.0],[26.1089,60.3797,0.0],[26.1161,60.3797,18.8717],[26.1151,60.387,17.8094],[26.1161,60.3891,0.0],[26.1104,60.3896,22.9409],[26.1068,60.3922,0.0]]]]}}