{"type": "Feature","bbox": [27.1223,63.706,30.5564,65.522],"geometry": {"type": "MultiPolygon","coordinates": [[[[29.9691,63.7529,179.258],[29.9825,63.752,211.5514],[29.981,63.7545,178.617],[30.001,63.7597,192.984],[30.0008,63.7617,201.4681],[30.029,63.767,241.63],[30.0357,63.7666,249.6979],[30.0365,63.7689,261.1368],[30.0583,63.7741,230.8958],[30.069,63.7734,234.8597],[30.0702,63.7768,234.0727],[30.0994,63.7845,216.9351],[30.1126,63.7864,244.1711],[30.1322,63.7918,221.4821],[30.1372,63.7914,237.9397],[30.1378,63.7931,233.6878],[30.1758,63.8024,236.3362],[30.1822,63.8019,225.0597],[30.183,63.8041,229.1843],[30.2049,63.8095,241.0662],[30.2156,63.8087,235.9013],[30.2169,63.8125,229.0928],[30.2332,63.8166,244.4065],[30.2389,63.8162,244.758],[30.2464,63.8248,262.5934],[30.2522,63.8244,260.2229],[30.2557,63.834,284.1094],[30.2635,63.8418,265.5234],[30.2687,63.8414,263.0008],[30.2719,63.8502,252.779],[30.2806,63.8588,240.0533],[30.2853,63.8584,262.6553],[30.2881,63.8663,229.5779],[30.311,63.8889,252.9164],[30.3113,63.891,248.0482],[30.3211,63.9019,230.6115],[30.3589,63.926,262.5511],[30.3618,63.9258,253.0877],[30.3628,63.9287,255.9371],[30.3714,63.9343,272.3542],[30.3752,63.934,271.7615],[30.3765,63.9377,261.2448],[30.3953,63.9508,259.511],[30.402,63.9503,272.4109],[30.4048,63.9579,247.7717],[30.4144,63.9631,247.6668],[30.417,63.9629,236.9924],[30.4215,63.9691,240.0043],[30.4373,63.9796,254.2359],[30.4438,63.9792,260.2151],[30.4462,63.9856,258.4353],[30.4532,63.9902,241.4075],[30.4665,63.9958,212.3128],[30.4707,63.9955,212.7108],[30.4716,63.9979,218.3914],[30.476,63.9997,236.3344],[30.4942,64.0165,297.512],[30.4993,64.0162,296.0054],[30.5022,64.0241,278.5726],[30.5262,64.0491,233.6559],[30.5328,64.0706,235.1334],[30.5462,64.0993,245.4018],[30.5514,64.099,249.8027],[30.5564,64.1122,254.4674],[30.5511,64.1126,261.0682],[30.5503,64.1259,261.6617],[30.5349,64.1379,256.5197],[30.5361,64.141,256.6815],[30.5303,64.1414,255.3246],[30.5086,64.1583,256.5685],[30.5031,64.1643,254.3811],[30.5038,64.166,255.2981],[30.5014,64.1662,254.6701],[30.4958,64.1724,261.6984],[30.497,64.1756,264.8601],[30.4925,64.1759,275.8723],[30.4884,64.1805,284.763],[30.4902,64.1852,272.7025],[30.4836,64.1857,288.8885],[30.481,64.1886,295.1845],[30.4817,64.1903,278.8732],[30.4792,64.1905,275.1737],[30.4736,64.1966,255.705],[30.4743,64.1985,259.301],[30.5132,64.2194,233.6639],[30.5064,64.228,229.8026],[30.5087,64.2339,274.0056],[30.5012,64.2345,258.7035],[30.4922,64.2458,244.1233],[30.4933,64.2487,244.0721],[30.4897,64.2489,248.745],[30.485,64.2549,246.187],[30.3973,64.2719,233.6977],[30.3979,64.2735,236.9024],[30.3695,64.2772,237.3002],[30.3686,64.279,222.7382],[30.3706,64.2845,212.9874],[30.3654,64.2849,218.6487],[30.3624,64.2904,250.8741],[30.3637,64.2941,254.9777],[30.3545,64.2975,235.3331],[30.3552,64.2992,228.2991],[30.3474,64.2998,217.9646],[30.3358,64.3035,203.0712],[30.3364,64.3051,214.1067],[30.3292,64.3056,201.3626],[30.317,64.3095,210.4961],[30.3176,64.3109,208.4301],[30.3003,64.3148,209.0524],[30.2828,64.3252,209.1376],[30.2631,64.3337,195.5056],[30.2645,64.3373,208.4788],[30.2429,64.3388,217.6414],[30.2244,64.3425,206.4505],[30.2251,64.3446,201.9204],[30.2144,64.3444,207.6288],[30.1851,64.3499,204.1177],[30.1858,64.3518,203.7963],[30.1589,64.3536,201.6357],[30.12,64.3592,199.3522],[30.1072,64.3667,212.2655],[30.1087,64.3707,224.6087],[30.0995,64.3713,215.3154],[30.0951,64.3739,203.3165],[30.0901,64.3773,210.5281],[30.0914,64.3809,201.5009],[30.084,64.3814,202.2507],[30.0816,64.383,203.2489],[30.0828,64.3861,217.4341],[30.0766,64.3865,229.034],[30.0732,64.3887,230.7651],[30.0741,64.3912,202.5885],[30.0696,64.3915,203.1736],[30.053,64.4043,207.944],[30.0677,64.4598,231.0413],[30.0617,64.4602,225.6003],[30.0587,64.464,218.856],[30.0607,64.4694,221.3659],[30.0542,64.4698,234.6342],[30.0428,64.478,224.9229],[30.0434,64.4796,222.9773],[30.0397,64.4799,232.9104],[30.035,64.4827,231.614],[30.0414,64.4957,238.8176],[30.0389,64.4962,236.8005],[30.0396,64.498,236.1806],[30.0306,64.4986,252.0648],[30.0144,64.5159,244.2259],[30.0168,64.5223,227.5858],[30.0122,64.5226,231.3437],[30.0108,64.5348,228.8837],[30.0146,64.5452,243.3948],[30.0097,64.5455,238.7382],[30.0084,64.5571,230.8807],[30.0216,64.593,237.7019],[30.0253,64.5945,254.3484],[30.0326,64.594,256.8215],[30.0354,64.5983,238.5752],[30.0446,64.5977,239.9207],[30.0464,64.6026,244.5405],[30.0748,64.6146,245.0343],[30.0863,64.6177,261.3456],[30.0942,64.6171,250.0713],[30.0952,64.62,248.4386],[30.1237,64.6276,248.5337],[30.1415,64.6441,242.6184],[30.143,64.6528,241.6044],[30.1314,64.6603,237.8409],[30.1331,64.6646,246.5436],[30.1239,64.6652,244.1482],[30.0888,64.6883,240.987],[30.0895,64.6902,243.1083],[30.0858,64.6905,239.5052],[30.0803,64.6943,241.5657],[30.0807,64.6953,243.2024],[30.0719,64.7003,229.9273],[30.0737,64.7049,232.6151],[30.0646,64.7055,231.1664],[30.0635,64.7063,229.8759],[30.0649,64.71,228.033],[30.0571,64.7108,236.0645],[30.0554,64.713,239.7036],[30.0562,64.7152,244.0879],[30.0535,64.7153,241.0297],[30.0481,64.722,228.9973],[30.0491,64.7247,238.417],[30.0457,64.7249,228.74],[30.0433,64.7279,228.41],[30.0498,64.7429,250.8462],[30.0557,64.7425,252.3724],[30.0576,64.7477,247.4101],[30.0636,64.751,233.9681],[30.0694,64.7506,232.5611],[30.0711,64.7553,253.785],[30.0935,64.768,242.5199],[30.0883,64.7728,248.2285],[30.0897,64.7766,228.0234],[30.0808,64.7772,224.8451],[30.0611,64.7856,232.5369],[30.0618,64.7875,239.1867],[30.0556,64.7879,239.5362],[30.0457,64.7922,238.2566],[29.9358,64.7946,239.6517],[29.8831,64.7902,239.5206],[29.871,64.7909,227.4348],[29.8703,64.7891,227.0798],[29.8528,64.7876,221.4268],[29.8381,64.7885,222.641],[29.8373,64.7863,220.6211],[29.8223,64.785,228.0342],[29.7509,64.7896,259.9116],[29.7345,64.797,242.7568],[29.7355,64.7997,228.0713],[29.7272,64.8002,226.579],[29.7069,64.8093,223.2331],[29.7074,64.8106,232.1983],[29.7035,64.8108,222.5998],[29.6841,64.8195,221.2847],[29.6971,64.8352,214.5719],[29.6865,64.8417,215.2946],[29.6872,64.8437,208.0641],[29.6829,64.8439,216.1426],[29.6778,64.8471,210.1569],[29.6784,64.8488,236.7676],[29.6747,64.849,228.4964],[29.6649,64.855,217.7417],[29.6525,64.8661,214.8729],[29.6534,64.8685,218.7899],[29.6495,64.8688,220.3415],[29.6421,64.8755,233.5662],[29.6327,64.8902,244.8919],[29.6308,64.8948,252.1619],[29.6332,64.9016,265.0303],[29.6278,64.9019,253.026],[29.6193,64.9226,236.0016],[29.6218,64.9296,257.6313],[29.6164,64.9299,254.4816],[29.608,64.951,247.907],[29.6104,64.9575,250.4654],[29.6059,64.9578,256.2354],[29.5963,64.9899,243.2129],[29.6117,65.0029,263.9021],[29.6158,65.0026,263.0616],[29.6184,65.0099,261.2495],[29.6265,65.0183,275.1758],[29.6245,65.0269,278.8236],[29.627,65.0337,260.954],[29.6229,65.034,260.9839],[29.6221,65.0374,281.328],[29.6226,65.0514,265.7673],[29.6257,65.0599,257.5721],[29.6428,65.0645,273.3238],[29.6488,65.0641,272.1861],[29.6496,65.0663,259.9773],[29.7113,65.0829,265.6082],[29.72,65.0824,265.9272],[29.7212,65.0856,270.8535],[29.7332,65.0888,277.6261],[29.7338,65.0906,269.3599],[29.7767,65.0899,244.1281],[29.7776,65.0924,239.3056],[29.8408,65.0883,254.6945],[29.8421,65.0917,255.8421],[29.853,65.0921,237.5012],[29.8544,65.096,229.8587],[29.8668,65.1002,232.4217],[29.8835,65.1012,231.6359],[29.8893,65.1026,235.5677],[29.8901,65.1049,229.9574],[29.8811,65.1097,234.939],[29.8823,65.1129,242.1074],[29.8739,65.1135,233.2719],[29.8269,65.1383,264.5531],[29.8295,65.1454,244.5759],[29.8385,65.1521,235.455],[29.8427,65.1518,244.5834],[29.8444,65.1565,234.6824],[29.8498,65.1605,243.131],[29.8566,65.16,250.0562],[29.8594,65.1676,244.4839],[29.8667,65.173,269.0051],[29.8721,65.1727,266.8932],[29.8743,65.1787,262.4336],[29.8956,65.1946,249.0258],[29.8845,65.2061,251.4381],[29.8853,65.2082,243.7487],[29.8823,65.2084,243.8975],[29.8776,65.2133,251.3597],[29.7834,65.2248,235.9947],[29.7406,65.2284,262.4021],[29.7109,65.2299,237.0258],[29.6577,65.2277,235.3805],[29.6355,65.2365,231.894],[29.6176,65.2465,246.9351],[29.6181,65.2478,250.8469],[29.6095,65.2511,229.7183],[29.6186,65.2734,223.8302],[29.6278,65.2745,232.3732],[29.6287,65.2771,233.1178],[29.6329,65.2787,232.8944],[29.64,65.2782,227.8069],[29.6413,65.2818,233.2898],[29.675,65.2942,239.6798],[29.6783,65.294,254.0254],[29.679,65.2957,235.1277],[29.7233,65.3139,229.8732],[29.729,65.3136,233.908],[29.7303,65.317,230.2303],[29.7686,65.3341,214.8316],[29.7617,65.3431,224.9057],[29.7634,65.3478,221.9939],[29.7579,65.3481,224.2012],[29.7504,65.3642,224.2312],[29.7492,65.3683,229.1067],[29.752,65.3757,228.7844],[29.747,65.3761,228.4348],[29.7445,65.3849,232.6705],[29.7479,65.3942,268.04],[29.7428,65.3945,255.9214],[29.7419,65.4075,238.1049],[29.7472,65.4215,246.8429],[29.7416,65.4218,232.2384],[29.7424,65.4381,242.5365],[29.748,65.4532,243.7667],[29.7434,65.4535,245.4649],[29.742,65.4661,247.6466],[29.7487,65.4714,252.1896],[29.7546,65.471,253.1035],[29.7646,65.4977,243.2463],[29.7432,65.499,226.4163],[29.7415,65.4946,221.9236],[29.6666,65.4992,221.4478],[29.6649,65.4948,236.0072],[29.6114,65.4981,223.6897],[29.6131,65.5025,217.8911],[29.5488,65.5065,217.405],[29.5472,65.5021,216.9596],[29.5365,65.5027,217.3536],[29.5333,65.4938,230.1619],[29.5225,65.4945,222.9242],[29.5209,65.49,223.0459],[29.5102,65.4907,221.2281],[29.5086,65.4862,221.6484],[29.4979,65.4869,225.4303],[29.4995,65.4913,234.3837],[29.4567,65.4939,221.1091],[29.4583,65.4984,228.0433],[29.4155,65.501,228.5009],[29.4171,65.5054,237.0672],[29.3849,65.5074,227.0434],[29.3865,65.5118,230.9953],[29.3436,65.5144,248.7868],[29.3452,65.5188,248.2699],[29.2916,65.522,276.3051],[29.2901,65.5176,242.1787],[29.2365,65.5208,246.3289],[29.2349,65.5163,255.1578],[29.2134,65.5176,268.9962],[29.2119,65.5131,284.5717],[29.2226,65.5125,274.3905],[29.2132,65.4858,263.2993],[29.2025,65.4865,267.4612],[29.2009,65.482,273.7179],[29.1902,65.4826,259.2776],[29.1871,65.4737,256.623],[29.1764,65.4744,256.7863],[29.1748,65.4699,255.5289],[29.1641,65.4706,244.1489],[29.161,65.4616,238.5416],[29.1503,65.4623,240.5516],[29.1488,65.4578,261.5231],[29.1381,65.4585,251.8764],[29.1365,65.454,265.9415],[29.1258,65.4546,259.1486],[29.1227,65.4457,262.6748],[29.1013,65.447,273.7531],[29.0998,65.4426,260.2082],[29.0784,65.4438,252.6429],[29.0769,65.4394,259.5443],[29.0555,65.4406,235.5],[29.054,65.4361,235.5],[29.0112,65.4386,253.9247],[29.0127,65.4431,257.0085],[28.9485,65.4468,261.7964],[28.947,65.4423,265.7193],[28.9256,65.4436,256.7706],[28.9241,65.4391,251.5],[28.9134,65.4397,264.6608],[28.9119,65.4353,253.2913],[28.8905,65.4365,276.134],[28.889,65.4321,266.3099],[28.8676,65.4333,277.7253],[28.8661,65.4288,270.2983],[28.8554,65.4294,278.9541],[28.8539,65.425,269.1871],[28.8325,65.4262,257.2626],[28.831,65.4217,268.824],[28.8203,65.4223,258.7304],[28.8188,65.4179,259.3592],[28.7975,65.4191,252.1905],[28.796,65.4146,254.9117],[28.7746,65.4158,251.4448],[28.7731,65.4114,252.68],[28.7624,65.412,254.8783],[28.7609,65.4075,258.6799],[28.7396,65.4087,261.9955],[28.7381,65.4043,253.6712],[28.7274,65.4049,253.4772],[28.7259,65.4004,258.602],[28.7046,65.4016,285.5442],[28.7031,65.3972,287.3749],[28.6817,65.3984,245.8765],[28.6802,65.3939,244.0451],[28.6696,65.3945,242.0538],[28.6681,65.3901,249.6656],[28.6467,65.3913,242.0151],[28.6453,65.3868,242.2572],[28.6559,65.3862,241.9416],[28.6516,65.3729,242.0613],[28.6622,65.3723,241.7818],[28.6608,65.3678,241.7647],[28.6501,65.3684,241.9141],[28.6472,65.3595,242.0418],[28.6365,65.3601,242.1704],[28.6321,65.3467,250.5699],[28.6215,65.3473,267.2343],[28.6142,65.3251,244.0637],[28.5822,65.3268,251.2809],[28.5808,65.3224,235.8825],[28.5701,65.323,239.1031],[28.5687,65.3185,238.4642],[28.6113,65.3161,249.0124],[28.6041,65.2939,283.939],[28.6147,65.2933,289.6457],[28.6118,65.2844,289.1184],[28.5905,65.2856,274.3791],[28.5891,65.2811,277.658],[28.5465,65.2835,275.2102],[28.5451,65.279,282.9546],[28.5131,65.2808,255.5545],[28.5117,65.2763,269.77],[28.4798,65.2781,250.1038],[28.4784,65.2736,256.3123],[28.4464,65.2754,259.1473],[28.445,65.2709,264.3246],[28.4131,65.2726,285.7949],[28.4117,65.2682,281.954],[28.3691,65.2705,236.4101],[28.3677,65.266,231.5439],[28.3358,65.2678,248.3384],[28.3344,65.2633,265.9923],[28.3025,65.265,223.6012],[28.3011,65.2606,225.1407],[28.2692,65.2623,228.4237],[28.2678,65.2578,220.7608],[28.2465,65.2589,209.4969],[28.2451,65.2545,250.102],[28.2132,65.2562,243.6064],[28.2118,65.2517,239.6197],[28.1799,65.2534,198.9855],[28.1786,65.2489,190.7844],[28.1466,65.2506,183.6429],[28.1453,65.2462,205.0963],[28.1134,65.2479,188.1301],[28.112,65.2434,207.7359],[28.090699999999998,65.2445,173.5819],[28.0894,65.2401,188.5517],[28.0575,65.2417,165.9564],[28.0561,65.2373,175.7036],[28.0348,65.2384,168.6722],[28.0335,65.2339,165.9604],[28.0229,65.2345,165.217],[28.0215,65.23,174.0314],[28.0109,65.2306,170.2774],[28.0082,65.2216,155.0789],[27.9976,65.2222,155.9131],[27.9962,65.2177,150.0766],[27.9856,65.2183,156.2488],[27.9843,65.2138,162.3555],[27.9736,65.2143,157.7048],[27.9723,65.2099,160.447],[27.9617,65.2104,161.7673],[27.9603,65.206,140.9153],[27.9497,65.2065,142.89],[27.9324,65.1486,297.1773],[27.9218,65.1491,233.8513],[27.9086,65.1045,259.373],[27.898,65.105,226.3013],[27.894,65.0917,308.0779],[27.8623,65.0933,221.5529],[27.8636,65.0977,239.8426],[27.8001,65.101,183.027],[27.8014,65.1055,197.6737],[27.7485,65.1081,190.2599],[27.7498,65.1126,194.8722],[27.6968,65.1152,243.0532],[27.6981,65.1197,243.8108],[27.6663,65.1213,334.2216],[27.665,65.1168,329.9543],[27.6544,65.1173,294.811],[27.653199999999998,65.1129,279.5698],[27.632,65.1139,252.694],[27.6307,65.1095,239.8022],[27.6201,65.11,222.2771],[27.6188,65.1055,211.6496],[27.6082,65.106,206.353],[27.607,65.1016,196.1767],[27.5964,65.1021,196.6621],[27.5951,65.0976,192.5413],[27.5845,65.0982,197.7187],[27.5833,65.0937,185.7101],[27.5621,65.0947,187.6236],[27.5608,65.0903,180.9899],[27.5185,65.0924,178.4993],[27.5173,65.0879,170.1355],[27.4749,65.0899,166.2561],[27.4737,65.0855,165.9122],[27.336,65.0921,171.7938],[27.3348,65.0876,179.9686],[27.3242,65.0881,181.6041],[27.3205,65.0747,143.3748],[27.31,65.0752,151.6733],[27.3063,65.0618,137.8601],[27.2957,65.0623,133.5932],[27.2921,65.0489,135.6712],[27.2815,65.0495,136.2942],[27.2779,65.0361,140.4159],[27.2673,65.0366,137.5465],[27.2637,65.0232,141.4252],[27.2742,65.0227,140.7377],[27.273,65.0182,142.3751],[27.2836,65.0177,139.9629],[27.2824,65.0132,141.0372],[27.2929,65.0127,137.2581],[27.2917,65.0083,141.0388],[27.3023,65.0078,135.4427],[27.3011,65.0033,139.4379],[27.3116,65.0028,139.4623],[27.3104,64.9983,137.6534],[27.321,64.9978,139.7443],[27.3197,64.9934,138.0313],[27.3303,64.9929,136.7049],[27.3291,64.9884,137.8064],[27.3396,64.9879,138.676],[27.3384,64.9834,139.3913],[27.349,64.9829,137.7483],[27.3477,64.9784,141.0314],[27.3583,64.978,138.4188],[27.3571,64.9735,140.7519],[27.3676,64.973,140.5271],[27.3664,64.9685,141.1373],[27.3769,64.968,142.7676],[27.3757,64.9635,143.1878],[27.3862,64.963,143.3595],[27.3838,64.9541,178.298],[27.3943,64.9536,169.3999],[27.3919,64.9447,146.3528],[27.3813,64.9452,141.8622],[27.3801,64.9407,143.0759],[27.3906,64.9402,144.8534],[27.3894,64.9358,146.8663],[27.3999,64.9352,150.1278],[27.3987,64.9308,139.6301],[27.4092,64.9303,139.3319],[27.4056,64.9169,143.8371],[27.395,64.9174,141.9383],[27.3901,64.8995,161.7888],[27.3796,64.9,164.1102],[27.3748,64.8822,163.8664],[27.3853,64.8817,166.9395],[27.3828,64.8727,164.3604],[27.3933,64.8722,168.8815],[27.3909,64.8633,168.5913],[27.4014,64.8628,168.9975],[27.3965,64.8449,161.6301],[27.3755,64.846,165.5503],[27.3743,64.8415,160.5592],[27.3638,64.842,160.6736],[27.3626,64.8375,161.5022],[27.3731,64.837,160.0046],[27.3718,64.8326,160.8679],[27.3823,64.8321,160.4604],[27.3811,64.8276,175.9559],[27.3706,64.8281,168.1224],[27.367,64.8147,179.5631],[27.3565,64.8152,179.8558],[27.3553,64.8108,184.7119],[27.3343,64.8118,178.3153],[27.3355,64.8162,171.1944],[27.2726,64.8192,152.2046],[27.2738,64.8237,153.0743],[27.2004,64.8272,146.1576],[27.2016,64.8316,154.8002],[27.1491,64.8341,138.3653],[27.148,64.8296,140.2253],[27.1375,64.8301,147.5771],[27.1351,64.8212,155.8313],[27.1246,64.8217,157.5517],[27.1223,64.8128,153.852],[27.1328,64.8123,152.1747],[27.1316,64.8078,157.2326],[27.1421,64.8073,151.1142],[27.1409,64.8028,160.5136],[27.1514,64.8024,153.4845],[27.1502,64.7979,156.5129],[27.1607,64.7974,156.1638],[27.1595,64.7929,158.8614],[27.17,64.7924,156.3108],[27.1688,64.788,158.0547],[27.1793,64.7875,164.8072],[27.1781,64.783,159.2259],[27.199,64.782,154.0],[27.1978,64.7776,160.2064],[27.2083,64.7771,154.0],[27.2059,64.7681,157.0193],[27.2164,64.7676,160.9339],[27.2152,64.7632,161.289],[27.2257,64.7627,154.0],[27.2245,64.7582,161.2363],[27.235,64.7577,163.6904],[27.2326,64.7488,153.5],[27.243,64.7483,159.5952],[27.2418,64.7438,154.5432],[27.2523,64.7433,165.0554],[27.2511,64.7389,162.9614],[27.2616,64.7384,152.0],[27.2592,64.7294,162.6761],[27.2696,64.7289,152.0],[27.2684,64.7245,159.3239],[27.2789,64.724,152.0],[27.2753,64.7106,149.5],[27.2544,64.7116,149.5],[27.2556,64.716,154.7089],[27.2347,64.717,149.5],[27.2312,64.7036,159.879],[27.2416,64.7031,170.7058],[27.2404,64.6987,155.3562],[27.2508,64.6982,158.798],[27.2485,64.6892,154.4473],[27.2589,64.6888,152.7394],[27.2553,64.6754,153.2144],[27.2658,64.6749,155.2867],[27.2622,64.6615,160.0441],[27.2726,64.661,162.4187],[27.2631,64.6252,142.6737],[27.2839,64.6242,147.4838],[27.2827,64.6198,142.3068],[27.314,64.6183,142.5968],[27.3128,64.6138,152.0424],[27.344,64.6123,155.0201],[27.3428,64.6078,147.2471],[27.374,64.6063,152.9751],[27.3728,64.6019,151.5219],[27.3624,64.6024,150.2796],[27.3612,64.5979,148.9425],[27.3508,64.5984,146.9847],[27.3496,64.5939,145.2076],[27.3704,64.5929,154.0119],[27.3692,64.5885,162.6576],[27.3796,64.588,156.9818],[27.3784,64.5835,156.7873],[27.3887,64.583,158.8036],[27.3875,64.5785,156.0971],[27.3771,64.579,156.8383],[27.3759,64.5746,158.6196],[27.4175,64.5725,187.6171],[27.4139,64.5592,174.5139],[27.4243,64.5586,171.5317],[27.423,64.5542,168.7386],[27.4334,64.5537,169.3923],[27.4322,64.5492,168.073],[27.4426,64.5487,168.4814],[27.4414,64.5442,169.7133],[27.4518,64.5437,178.2192],[27.4506,64.5393,167.8403],[27.4713,64.5383,166.5448],[27.4725,64.5427,170.4911],[27.4933,64.5417,169.839],[27.4884,64.5238,168.1615],[27.4988,64.5233,167.4567],[27.4975,64.5189,165.5214],[27.5079,64.5183,169.4069],[27.5067,64.5139,162.8347],[27.517,64.5134,178.3636],[27.5158,64.5089,165.1865],[27.5262,64.5084,165.5695],[27.525,64.5039,162.0302],[27.5457,64.5029,162.4531],[27.5481,64.5118,165.5309],[27.5585,64.5113,177.2249],[27.5597,64.5157,170.6667],[27.5805,64.5147,171.928],[27.5817,64.5192,165.5],[27.592,64.5187,172.7694],[27.5908,64.5142,175.6433],[27.6012,64.5137,187.8656],[27.5999,64.5092,194.3904],[27.631,64.5076,194.2729],[27.6323,64.5121,193.372],[27.6426,64.5116,206.7078],[27.6439,64.516,208.5056],[27.6542,64.5155,209.4662],[27.6555,64.52,208.3527],[27.6658,64.5195,200.6476],[27.6671,64.5239,198.9589],[27.6775,64.5234,194.0359],[27.6787,64.5279,203.3404],[27.6891,64.5273,197.1618],[27.6903,64.5318,193.9385],[27.711,64.5307,192.3855],[27.7123,64.5352,195.8882],[27.7331,64.5341,199.6897],[27.7434,64.5336,184.5883],[27.7422,64.5291,182.4619],[27.7525,64.5286,175.742],[27.7538,64.5331,159.981],[27.7642,64.5325,162.99],[27.7654,64.537,164.752],[27.7758,64.5365,165.2364],[27.7771,64.5409,194.8474],[27.7978,64.5399,191.8602],[27.7991,64.5443,214.4629],[27.8094,64.5438,207.1234],[27.8107,64.5482,204.4221],[27.8211,64.5477,203.4901],[27.8224,64.5522,217.9674],[27.8327,64.5516,208.7847],[27.834,64.5561,225.7558],[27.8444,64.5555,210.2567],[27.8469,64.5645,217.6378],[27.8573,64.5639,217.1808],[27.8599,64.5729,248.0931],[27.8703,64.5723,250.4512],[27.8728,64.5812,227.9717],[27.8832,64.5807,211.6398],[27.8871,64.5941,209.136],[27.8975,64.5935,188.7452],[27.9,64.6024,198.0592],[27.9104,64.6019,188.0034],[27.9117,64.6064,197.1974],[27.9325,64.6053,187.8431],[27.9338,64.6097,212.9866],[27.9546,64.6086,198.4491],[27.9559,64.6131,201.9344],[27.9767,64.612,159.5562],[27.978,64.6165,158.6661],[27.9884,64.6159,165.6041],[27.9897,64.6204,159.6915],[28.0105,64.6193,212.1356],[28.0118,64.6237,241.8855],[28.0326,64.6226,303.8638],[28.0339,64.6271,325.9179],[28.0547,64.626,258.8733],[28.056,64.6305,277.331],[28.0768,64.6293,298.7007],[28.0781,64.6338,295.4101],[28.0885,64.6332,282.8429],[28.0898,64.6377,272.6211],[28.1002,64.6372,256.3538],[28.1016,64.6416,249.1219],[28.0912,64.6422,282.5104],[28.0925,64.6466,274.8913],[28.1029,64.6461,247.0265],[28.1055,64.655,253.7819],[28.1263,64.6539,246.3395],[28.125,64.6494,242.269],[28.1354,64.6489,242.5499],[28.1341,64.6444,239.9685],[28.1445,64.6438,238.8504],[28.1418,64.6349,226.4935],[28.1626,64.6338,326.3268],[28.164,64.6383,332.1883],[28.2575,64.6332,305.6325],[28.2562,64.6287,297.1705],[28.2666,64.6282,281.7929],[28.2652,64.6237,264.1641],[28.2756,64.6232,243.483],[28.2743,64.6187,242.5408],[28.2847,64.6181,207.7848],[28.2833,64.6137,208.3378],[28.2937,64.6131,235.6927],[28.2923,64.6087,209.3964],[28.3027,64.6081,261.8468],[28.3014,64.6036,252.9312],[28.3118,64.6031,274.3757],[28.309,64.5941,221.748],[28.3194,64.5936,201.5509],[28.3181,64.5891,179.7705],[28.3284,64.5885,166.7012],[28.3298,64.593,192.4542],[28.4128,64.5884,152.0356],[28.4142,64.5929,134.0],[28.4246,64.5923,171.1149],[28.4259,64.5967,155.0],[28.4467,64.5956,174.8628],[28.4453,64.5911,205.9182],[28.4661,64.59,225.4874],[28.4647,64.5855,199.2874],[28.4958,64.5838,203.1521],[28.4944,64.5793,187.737],[28.5152,64.5782,198.3621],[28.5138,64.5737,189.9671],[28.5241,64.5731,190.3471],[28.52,64.5598,179.2598],[28.5407,64.5586,202.2354],[28.5421,64.563,201.9295],[28.5525,64.5624,229.9414],[28.5539,64.5669,206.9028],[28.5746,64.5657,208.2794],[28.5732,64.5613,215.1886],[28.5939,64.5601,225.859],[28.5925,64.5556,225.2349],[28.6236,64.5539,245.1095],[28.6194,64.5405,216.6201],[28.6504,64.5387,218.4883],[28.6518,64.5432,214.7805],[28.6725,64.542,238.9979],[28.6711,64.5376,235.1345],[28.6918,64.5364,248.6389],[28.6904,64.5319,234.0873],[28.7215,64.5301,250.7782],[28.7201,64.5257,236.5344],[28.7407,64.5245,226.2898],[28.7393,64.52,229.231],[28.7703,64.5182,232.328],[28.7689,64.5138,232.5358],[28.7896,64.5126,255.4765],[28.7882,64.5081,251.7781],[28.8192,64.5063,242.2252],[28.8178,64.5019,248.0882],[28.8384,64.5007,237.9115],[28.837,64.4962,235.7182],[28.8577,64.495,234.807],[28.8562,64.4905,234.028],[28.8356,64.4918,237.2338],[28.8341,64.4873,233.9115],[28.8238,64.4879,236.5406],[28.8195,64.4746,232.1056],[28.8298,64.474,231.6934],[28.8255,64.4606,227.879],[28.8358,64.46,237.7998],[28.8315,64.4466,247.4255],[28.8419,64.4461,272.2635],[28.8376,64.4327,235.6526],[28.8479,64.4321,239.2071],[28.8436,64.4187,234.4063],[28.8539,64.4181,236.5844],[28.8496,64.4048,218.6536],[28.8599,64.4042,212.4333],[28.8584,64.3997,214.9751],[28.8482,64.4003,214.0378],[28.8367,64.3647,233.9356],[28.8264,64.3653,234.1609],[28.8179,64.3386,247.5098],[28.8076,64.3392,222.6217],[28.8048,64.3303,189.8767],[28.7945,64.3309,182.7869],[28.7916,64.322,200.0186],[28.7814,64.3227,198.7483],[28.78,64.3182,217.5749],[28.7697,64.3188,208.5568],[28.7669,64.3099,231.3109],[28.7566,64.3105,202.6547],[28.7552,64.3061,222.2331],[28.7655,64.3054,217.0202],[28.764,64.301,223.0391],[28.7743,64.3004,218.9606],[28.7715,64.2915,217.8469],[28.7817,64.2909,213.7658],[28.7803,64.2864,211.6353],[28.7906,64.2858,216.4727],[28.7878,64.2769,205.6808],[28.798,64.2763,211.918],[28.7966,64.2719,210.975],[28.8068,64.2713,209.982],[28.8054,64.2668,214.0695],[28.8157,64.2662,220.2352],[28.8128,64.2573,205.5729],[28.8231,64.2567,208.455],[28.8217,64.2523,200.4933],[28.8319,64.2517,198.8095],[28.8291,64.2428,196.2114],[28.8393,64.2422,200.0292],[28.8379,64.2377,202.598],[28.8481,64.2371,203.045],[28.8467,64.2327,194.9421],[28.8569,64.2321,202.3821],[28.8512,64.2143,214.4193],[28.8615,64.2137,202.7377],[28.8572,64.2003,222.2311],[28.8674,64.1997,222.5219],[28.8632,64.1863,194.2393],[28.8734,64.1857,219.0747],[28.8691,64.1724,200.2645],[28.8793,64.1718,196.0104],[28.8779,64.1673,194.9648],[28.8677,64.168,198.2347],[28.8634,64.1546,179.5551],[28.8737,64.154,175.4596],[28.8722,64.1495,173.2777],[28.8824,64.1489,187.4271],[28.8796,64.14,212.4945],[28.8898,64.1394,203.1326],[28.8869,64.1305,214.913],[28.8972,64.1299,193.7934],[28.8929,64.1166,169.0651],[28.9031,64.116,164.4027],[28.896,64.0937,153.3918],[28.9163,64.0925,162.05],[28.9149,64.0881,157.1048],[28.9251,64.0874,146.5],[28.9237,64.083,165.2468],[28.944,64.0818,172.1356],[28.9426,64.0773,183.0816],[28.9528,64.0767,179.7852],[28.9514,64.0723,169.6937],[28.9615,64.0716,177.3583],[28.9601,64.0672,174.2964],[28.9804,64.066,180.2642],[28.979,64.0615,183.2751],[28.9892,64.0609,186.3445],[28.9877,64.0565,194.0652],[28.9979,64.0558,192.8082],[28.995,64.0469,210.8164],[28.9849,64.0476,194.7661],[28.982,64.0387,217.3965],[28.9922,64.038,214.2573],[28.9907,64.0336,236.9709],[29.0009,64.033,246.8264],[28.9995,64.0285,251.4115],[29.0096,64.0279,231.6053],[29.0082,64.0235,223.2196],[29.0183,64.0229,222.4191],[29.0169,64.0184,214.3234],[29.0271,64.0178,215.4917],[29.0256,64.0133,201.7157],[29.0358,64.0127,204.753],[29.0343,64.0083,198.7729],[29.0445,64.0077,205.4693],[29.0431,64.0032,194.1395],[29.0634,64.002,193.7702],[29.0619,63.9975,192.1987],[29.0822,63.9963,199.4671],[29.0808,63.9918,198.0995],[29.1112,63.99,197.0694],[29.1097,63.9855,195.6871],[29.1402,63.9837,221.7062],[29.1387,63.9792,217.6342],[29.1691,63.9773,225.0985],[29.1677,63.9729,221.667],[29.1981,63.971,223.657],[29.1966,63.9665,228.7563],[29.2169,63.9653,221.8408],[29.211,63.9475,231.7562],[29.2009,63.9481,234.3908],[29.1733,63.8637,190.2195],[29.1632,63.8643,189.3289],[29.1574,63.8465,185.4738],[29.1775,63.8453,194.8589],[29.179,63.8497,199.671],[29.2294,63.8465,185.7969],[29.2309,63.851,178.514],[29.2713,63.8485,239.8105],[29.2727,63.8529,189.9393],[29.3131,63.8504,191.3699],[29.3146,63.8548,195.2852],[29.3448,63.8529,189.8106],[29.3463,63.8573,188.871],[29.3766,63.8554,197.5482],[29.378,63.8599,207.1421],[29.4083,63.8579,247.7043],[29.4098,63.8624,231.8878],[29.4401,63.8605,250.5102],[29.4416,63.8649,246.8439],[29.4718,63.863,251.035],[29.4733,63.8674,242.0206],[29.5036,63.8655,210.0],[29.5051,63.8699,235.2866],[29.5354,63.8679,235.1346],[29.5369,63.8724,245.4445],[29.5672,63.8704,267.0462],[29.5687,63.8749,255.9764],[29.609,63.8722,231.5311],[29.6105,63.8767,220.1314],[29.6408,63.8747,271.0821],[29.6423,63.8792,269.6932],[29.6827,63.8765,244.0124],[29.6812,63.8721,258.606],[29.6913,63.8714,244.1955],[29.6867,63.8581,261.3399],[29.6967,63.8574,262.4823],[29.6906,63.8397,215.0418],[29.7007,63.839,224.586],[29.6961,63.8257,216.2567],[29.7062,63.825,214.4088],[29.7016,63.8117,210.5109],[29.7116,63.811,197.3813],[29.7055,63.7933,230.62],[29.7156,63.7926,219.9302],[29.711,63.7793,233.3082],[29.7211,63.7786,235.9059],[29.7149,63.7609,231.7957],[29.725,63.7602,215.9427],[29.7204,63.7469,234.8214],[29.7304,63.7462,219.7535],[29.7289,63.7418,224.3105],[29.7389,63.7411,209.7],[29.7359,63.7322,222.6702],[29.7459,63.7316,214.6439],[29.7444,63.7271,203.9176],[29.7544,63.7265,196.2912],[29.7529,63.722,203.124],[29.7629,63.7214,196.4324],[29.7599,63.7125,215.3593],[29.7699,63.7118,199.7817],[29.7684,63.7074,211.6996],[29.7884,63.706,183.3844],[29.7899,63.7105,192.7852],[29.8,63.7098,174.5542],[29.8031,63.7187,168.088],[29.8131,63.718,179.4907],[29.8146,63.7225,193.5197],[29.8247,63.7218,187.072],[29.8262,63.7262,207.1015],[29.8362,63.7255,199.3238],[29.8393,63.7344,178.5372],[29.8494,63.7337,186.1446],[29.8509,63.7382,187.6955],[29.861,63.7375,182.8985],[29.864,63.7464,208.7911],[29.8741,63.7457,186.5246],[29.8756,63.7501,160.6749],[29.9058,63.7481,158.7265],[29.9073,63.7526,167.4483],[29.9475,63.7499,181.2135],[29.949,63.7543,186.7906],[29.9691,63.7529,179.258]]]]}
,"properties": {"GID_3": "FIN.3.1.2_1","GID_0": "FIN","country": "Finland","GID_1": "FIN.3_1","province": "Oulu","NL_NAME_1": "NA","GID_2": "FIN.3.1_1","county": "Kainuu","NL_NAME_2": "NA","city": "Kehys-Kainuu","VARNAME_3": "Ylä-Kainuun","NL_NAME_3": "NA","TYPE_3": "Seutukunta|Ekonomiskregion","ENGTYPE_3": "Sub-Region","CC_3": "NA","HASC_3": "FI.OU.YK","name": "Kehys-Kainuu.city","area_km2": 15367.65,"hist_schema_id": "Elevation0-9000","hist_area_km2": {"125": 28.09,"150": 718.46,"175": 2274.0,"200": 4045.47,"225": 4388.42,"250": 2681.73,"275": 926.18,"300": 197.47,"325": 55.06,"350": 38.45,"375": 14.2}}}