{"type":"Feature","properties":{"ISO3166-1-Alpha-3":"FIN","country":"Finland","fill":"#F0F","id":"3176","name":"Lapland"},
"geometry":{"type": "MultiPolygon","coordinates": [[[[24.82187,65.55325,0.0],[24.81284,65.55687,0.0],[24.81227,65.55239,2.4413],[24.82114,65.55203,0.5367],[24.82187,65.55325,0.0]]],
[[[25.05681,65.59606,0.0],[25.05567,65.59976,0.7137],[25.05437,65.60151,1.1162],[25.05869,65.60338,0.0],[25.05185,65.61164,9.1256],[25.03541,65.61058,7.8597],[25.03118,65.60904,6.0046],[25.04013,65.60106,0.0],[25.0503,65.5976,0.0],[25.05291,65.59589,0.0],[25.05681,65.59606,0.0]]],
[[[24.96518,65.5989,0.0],[24.96461,65.60293,0.0],[24.95777,65.60716,0.6054],[24.96209,65.60993,0.0],[24.95468,65.61355,0.0],[24.95069,65.61929,6.3874],[24.94247,65.62051,9.1637],[24.93653,65.614,0.0],[24.93865,65.60663,0.0],[24.94386,65.602,0.0],[24.95533,65.59626,0.0],[24.96518,65.5989,0.0]]],
[[[24.69532,65.62735,0.7531],[24.68857,65.62897,0.0],[24.68881,65.62332,0.1943],[24.70159,65.62055,0.0],[24.69532,65.62735,0.7531]]],
[[[24.89031,65.62442,0.0],[24.89413,65.62808,7.9095],[24.893,65.63532,0.0],[24.88111,65.63076,0.0],[24.87469,65.62759,0.0],[24.87534,65.62271,9.7465],[24.88282,65.62055,3.5545],[24.89031,65.62442,0.0]]],
[[[24.85222,65.63422,1.6036],[24.86598,65.63487,0.0],[24.86785,65.63797,0.0],[24.85735,65.63988,0.0],[24.84791,65.64094,0.0],[24.84702,65.63422,0.0],[24.85222,65.63422,1.6036]]],
[[[24.49334,65.6791,0.0],[24.49684,65.68199,2.8721],[24.4935,65.68492,5.7495],[24.48585,65.68472,1.5732],[24.48325,65.6813,0.0],[24.48772,65.67825,0.591],[24.49334,65.6791,0.0]]],
[[[24.28045,65.69656,0.0],[24.28932,65.68285,0.0],[24.29428,65.68329,0.7694],[24.29721,65.6874,0.0],[24.29485,65.69025,0.0],[24.28956,65.68968,0.0],[24.28045,65.69656,0.0]]],
[[[24.62843,65.69672,1.8177],[24.62452,65.69937,11.0247],[24.622,65.70079,0.0],[24.61435,65.70218,0.0],[24.60336,65.70368,3.5478],[24.59409,65.70287,2.0055],[24.58969,65.6979,0.1671],[24.58652,65.6931,0.0],[24.58286,65.69013,0.0],[24.58139,65.68932,0.2463],[24.57065,65.68407,0.0],[24.55315,65.67678,0.0],[24.53842,65.67597,2.3356],[24.52858,65.67597,0.2919],[24.52491,65.67499,0.8639],[24.52036,65.67544,0.0],[24.51783,65.673,9.8726],[24.5197,65.66828,3.3099],[24.52442,65.66576,5.448],[24.53061,65.6634,4.6296],[24.53712,65.66185,3.0317],[24.54168,65.66303,0.3941],[24.54396,65.66283,0.3776],[24.55087,65.65949,5.8106],[24.56365,65.65721,0.0],[24.57496,65.6579,3.0201],[24.58188,65.6579,1.0585],[24.58448,65.65978,9.2216],[24.58424,65.66405,0.0],[24.58497,65.66653,0.0],[24.58969,65.6682,0.0],[24.59555,65.66844,12.6792],[24.60011,65.66913,5.0217],[24.60247,65.67206,5.0011],[24.59995,65.67719,0.0],[24.5936,65.68439,0.0],[24.59531,65.69123,9.3364],[24.60475,65.69444,0.0],[24.61345,65.69306,9.1373],[24.62045,65.68875,5.859],[24.62623,65.68504,8.65],[24.63225,65.68443,11.3882],[24.63388,65.68972,5.3684],[24.62843,65.69672,1.8177]]],
[[[24.52003,65.70091,5.1455],[24.52849,65.70543,0.0],[24.53517,65.7119,0.0],[24.53281,65.72122,10.232],[24.5241,65.72081,12.5258],[24.52011,65.71422,4.7545],[24.51718,65.71039,8.0824],[24.51181,65.70433,0.0],[24.51262,65.70091,5.1065],[24.52003,65.70091,5.1455]]],
[[[24.22153,65.76704,5.6034],[24.21469,65.77261,1.1929],[24.20517,65.77464,6.3371],[24.19532,65.77082,4.9825],[24.19915,65.7652,0.0],[24.2103,65.76272,0.0],[24.21656,65.76394,0.0],[24.21844,65.75971,0.0],[24.22584,65.75768,0.0],[24.22641,65.75894,0.0],[24.22617,65.76024,0.0],[24.23048,65.76378,0.0],[24.23227,65.76915,0.0],[24.22641,65.76822,5.3563],[24.22364,65.76638,4.7336],[24.22153,65.76704,5.6034]]],
[[[24.49912,65.74982,3.3391],[24.50864,65.75434,4.2608],[24.51262,65.75898,0.0],[24.51946,65.76667,0.3288],[24.52939,65.77155,4.6512],[24.53281,65.77692,23.2838],[24.52703,65.78209,0.0],[24.51979,65.7814,0.0],[24.51783,65.78006,3.2882],[24.51531,65.77814,1.7768],[24.50725,65.77517,12.3459],[24.48951,65.76781,0.0],[24.47364,65.75861,8.3208],[24.47592,65.75218,8.0008],[24.48732,65.74759,0.0],[24.49912,65.74982,3.3391]]],
[[[27.89729,70.07069,163.2834],[27.86691,70.07531,100.7701],[27.79218,70.05893,162.1384],[27.66506,70.06828,123.2163],[27.61256,70.06206,173.8902],[27.57091,70.04089,190.3612],[27.56331,70.02358,225.2537],[27.44523,70.00322,284.5146],[27.38094,69.97426,334.4118],[27.36498,69.97175,351.5931],[27.34911,69.97129,295.9975],[27.33454,69.96862,227.8473],[27.32317,69.95968,82.7974],[27.33051,69.95746,80.6321],[27.34508,69.95074,178.6954],[27.35242,69.9487,210.1057],[27.3118,69.92948,218.2354],[27.10034,69.90176,269.335],[27.08122,69.90294,238.9956],[27.00753,69.92245,65.4134],[26.98107,69.92328,113.6565],[26.9511,69.92015,199.1222],[26.8957,69.93434,89.5883],[26.86459,69.93808,71.9448],[26.77188,69.92839,292.0973],[26.70698,69.93506,211.5106],[26.53386,69.92524,398.4675],[26.50069,69.91832,375.3216],[26.48105,69.8994,373.3016],[26.44591,69.88176,266.5073],[26.43588,69.87424,232.1626],[26.44787,69.85605,280.3772],[26.41873,69.83564,451.9297],[26.31682,69.79491,376.2245],[26.26825,69.75828,352.6114],[26.22298,69.73192,312.0594],[26.21099,69.72288,365.9853],[26.19828,69.71544,400.6757],[26.18143,69.71125,422.8836],[26.03198,69.69668,363.9286],[26.00511,69.68934,277.5934],[25.98134,69.67487,374.134],[25.96883,69.66319,378.0432],[25.9617,69.65255,238.2187],[25.96439,69.64268,154.477],[25.98113,69.63348,223.3255],[26.00511,69.61084,292.2896],[26.00397,69.58717,349.6727],[25.9862,69.56542,346.0276],[25.96025,69.54868,304.2228],[25.90021,69.53204,252.7959],[25.88667,69.52087,143.733],[25.89059,69.51483,215.9926],[25.90145,69.50914,285.2757],[25.90641,69.50186,327.1851],[25.89215,69.4909,290.3682],[25.88574,69.47912,162.0877],[25.88667,69.45519,433.594],[25.87747,69.44703,370.6548],[25.86579,69.44098,328.2768],[25.8414,69.41778,217.4798],[25.87261,69.37907,216.5003],[25.87737,69.37081,180.8649],[25.78662,69.31277,321.6759],[25.77453,69.29882,356.5003],[25.73722,69.21821,321.6531],[25.73412,69.19133,262.3404],[25.74993,69.16519,269.2013],[25.75531,69.15955,231.9332],[25.76833,69.14214,245.5511],[25.77122,69.13511,211.7736],[25.76998,69.12741,219.322],[25.76636,69.12271,213.4572],[25.76244,69.11919,224.6456],[25.76047,69.11516,245.7958],[25.75903,69.08204,245.8158],[25.75717,69.07511,257.5476],[25.74941,69.06555,194.013],[25.75024,69.05925,178.0819],[25.76512,69.04338,193.2705],[25.76574,69.0392,202.8074],[25.76461,69.03517,193.6408],[25.76585,69.03067,185.4981],[25.77381,69.0254,179.3334],[25.79293,69.01817,244.3727],[25.80109,69.01315,280.0784],[25.80471,69.00612,249.1396],[25.79582,68.99331,256.1646],[25.75386,68.97837,250.2326],[25.7427,68.96587,220.9695],[25.73743,68.95254,256.3623],[25.72637,68.94246,252.3262],[25.69484,68.92561,207.5822],[25.67841,68.91254,213.9646],[25.66622,68.8974,206.0216],[25.65164,68.8835,264.1518],[25.62777,68.87414,269.1612],[25.60245,68.87213,224.6548],[25.48106,68.88773,264.0865],[25.43393,68.88386,293.0503],[25.38721,68.87456,259.8565],[25.20128,68.81265,246.7551],[25.16273,68.78459,300.478],[25.14961,68.76464,324.6423],[25.14485,68.74263,353.5607],[25.1431,68.69596,374.04],[25.13875,68.68831,375.7669],[25.13276,68.68268,356.4816],[25.13214,68.67658,349.7916],[25.14423,68.66801,387.0309],[25.13245,68.64765,383.1347],[25.11757,68.63767,313.5667],[25.09783,68.63374,324.5904],[25.07096,68.63142,334.5264],[25.00688,68.61457,350.8312],[24.98124,68.61509,354.7822],[24.95179,68.60506,400.6667],[24.93815,68.58827,431.6652],[24.92709,68.57039,431.3265],[24.90518,68.55695,443.1649],[24.87924,68.55483,428.2264],[24.86094,68.56341,422.1583],[24.82963,68.59411,449.0461],[24.75418,68.63788,443.7141],[24.66343,68.66609,449.3046],[24.48133,68.68919,517.6449],[24.3325,68.70862,495.1771],[24.18687,68.74454,513.6814],[24.16372,68.75482,543.249],[24.13117,68.77616,525.1306],[23.92901,68.81621,506.9133],[23.85263,68.81668,518.4848],[23.78721,68.79978,523.5694],[23.76799,68.75596,423.7434],[23.73481,68.71545,441.8144],[23.64158,68.69498,477.0105],[23.48159,68.68563,497.9118],[23.19758,68.61803,459.206],[23.17536,68.62165,410.4568],[23.09795,68.67012,507.4385],[23.07149,68.68087,481.2779],[23.0193,68.68671,466.8903],[22.85166,68.67571,477.28],[22.59648,68.72464,497.7764],[22.57013,68.72681,560.1013],[22.54294,68.72604,597.6472],[22.42874,68.71007,456.8522],[22.40921,68.71291,492.3963],[22.3967,68.73183,524.8312],[22.37138,68.82262,492.0861],[22.35681,68.83275,501.732],[22.27722,68.85745,448.983],[22.20023,68.90846,475.2693],[22.18865,68.91864,486.5231],[22.17439,68.9437,446.7816],[22.16075,68.9561,481.4143],[22.02308,69.01202,492.2662],[21.9461,69.0657,605.7024],[21.66289,69.26322,759.9926],[21.63881,69.27138,784.3909],[21.31356,69.29143,1152.3181],[21.09838,69.2395,1043.2699],[21.07967,69.23014,1035.2932],[21.06303,69.21495,968.7104],[21.03358,69.1812,993.9093],[21.15636,69.08762,963.6567],[21.099,69.0438,830.7601],[21.07151,69.03667,708.9196],[21.03255,69.04101,718.8569],[20.7444,69.10436,510.4423],[20.7166,69.09878,526.0771],[20.62316,69.03636,589.3804],[20.67546,69.01817,676.5742],[20.79535,69.01124,474.897],[20.86398,68.98628,472.6002],[20.91121,68.9807,472.8568],[20.93457,68.96695,483.1388],[20.93426,68.94902,489.1182],[20.91782,68.93295,538.861],[20.88764,68.92706,586.6942],[20.88454,68.9067,459.7476],[20.90573,68.89461,458.5706],[21.07213,68.86944,468.2252],[21.15285,68.84174,451.4077],[21.21662,68.81725,441.0],[21.27573,68.77642,440.5412],[21.28834,68.77002,439.0],[21.29372,68.76821,441.0214],[21.30095,68.75921,442.4976],[21.3054,68.7558,447.4697],[21.3147,68.75405,451.5687],[21.38591,68.75384,544.2112],[21.40637,68.74888,414.13],[21.41526,68.73875,431.3155],[21.42126,68.72749,415.4894],[21.45154,68.69648,466.5633],[21.46363,68.68687,408.4797],[21.49567,68.6755,405.657],[21.57246,68.66739,398.6693],[21.66155,68.63354,418.9007],[21.71684,68.61922,391.5434],[21.7371,68.58791,385.9587],[21.91921,68.56822,369.0571],[21.96396,68.54693,369.8036],[21.96985,68.54083,370.011],[21.99848,68.52584,367.492],[22.01212,68.51644,367.3081],[22.02422,68.51044,372.254],[22.02876,68.50936,380.4655],[22.0361,68.50652,390.8883],[22.03745,68.50006,413.9391],[22.03672,68.49293,398.3718],[22.03838,68.48828,377.9014],[22.07217,68.47701,362.7779],[22.30306,68.47613,332.2551],[22.37107,68.46838,330.3209],[22.37458,68.46616,327.0359],[22.37396,68.45634,324.216],[22.37799,68.45412,321.5535],[22.45685,68.45179,320.9768],[22.52134,68.4382,320.3715],[22.56516,68.43629,327.0683],[22.60764,68.42492,322.8824],[22.62583,68.42508,322.2379],[22.6434,68.4273,314.1263],[22.66221,68.4274,323.0799],[22.69022,68.41676,319.221],[22.71906,68.39877,307.6867],[22.74862,68.38549,306.7605],[22.80825,68.3949,305.5893],[22.83337,68.38477,305.7987],[22.87512,68.35107,295.4474],[22.90375,68.33661,297.8731],[23.05216,68.29821,277.4128],[23.06694,68.29025,271.0561],[23.07356,68.28193,276.7711],[23.07645,68.27382,270.185],[23.08162,68.26529,265.973],[23.09485,68.25552,277.166],[23.14001,68.23418,268.0139],[23.15521,68.21744,267.1053],[23.14942,68.19403,276.2645],[23.15851,68.18669,281.2413],[23.15975,68.17873,311.0304],[23.15448,68.15377,271.9748],[23.14983,68.14483,253.6076],[23.14942,68.13941,254.7643],[23.15169,68.13026,260.1719],[23.15459,68.12835,263.3996],[23.15882,68.12757,258.4977],[23.16564,68.12204,263.7098],[23.18725,68.12225,263.5887],[23.2721,68.14499,271.3005],[23.30651,68.14561,245.8388],[23.31985,68.13827,244.73929999999999],[23.33091,68.12778,247.0047],[23.37121,68.06846,244.0942],[23.37483,68.05998,243.6796],[23.383,68.05125,243.9974],[23.45731,68.02432,243.1683],[23.4847,68.0159,231.4195],[23.57368,67.97332,230.9551],[23.64314,67.96319,231.505],[23.66215,67.95043,236.7346],[23.66122,67.93286,242.3887],[23.63611,67.91348,221.0485],[23.60334,67.90299,220.7855],[23.53255,67.89317,216.2305],[23.49885,67.88216,220.7213],[23.48128,67.86464,210.3144],[23.47674,67.84134,197.7953],[23.47973,67.817,204.908],[23.4847,67.79622,197.3471],[23.48459,67.73716,197.5054],[23.48842,67.72481,198.3958],[23.49947,67.70899,224.6956],[23.51074,67.66926,215.9892],[23.5188,67.65282,199.6267],[23.54257,67.62667,187.9229],[23.55032,67.61091,193.1042],[23.55353,67.58704,184.8619],[23.53544,67.57701,176.1148],[23.49947,67.56632,188.3136],[23.47343,67.555,183.8246],[23.4847,67.54296,180.3402],[23.46599,67.52244,183.7302],[23.44346,67.50472,180.9337],[23.43126,67.48552,183.224],[23.44366,67.46103,163.5939],[23.47715,67.44382,211.9894],[23.51425,67.44482,162.0395],[23.55384,67.45201,162.3371],[23.59456,67.45361,153.9967],[23.66267,67.43622,169.5881],[23.73078,67.43141,171.5146],[23.75259,67.42731,165.1892],[23.76519,67.42007,162.3884],[23.76323,67.39754,159.4229],[23.75135,67.36953,159.614],[23.75145,67.34623,155.9297],[23.78566,67.33752,153.1956],[23.76323,67.30649,151.0025],[23.73543,67.28969,145.2886],[23.62226,67.26902,150.5747],[23.60272,67.26026,148.0669],[23.59456,67.24442,153.1581],[23.59146,67.22502,147.3837],[23.59673,67.21797,144.2685],[23.61492,67.21399,142.3455],[23.60707,67.20122,142.4126],[23.59756,67.19027,146.1398],[23.5865,67.18089,146.3249],[23.57399,67.17303,151.0903],[23.58133,67.15314,132.5393],[23.5989,67.1403,131.7214],[23.6205,67.12926,146.9535],[23.64779,67.10857,118.1965],[23.65802,67.10402,121.8945],[23.6666,67.09792,137.9554],[23.67021,67.08707,122.0864],[23.67063,67.07423,113.1824],[23.67259,67.0657,107.0022],[23.67672,67.05849,121.2069],[23.68386,67.04953,125.7967],[23.72034,67.01687,117.3414],[23.7438,67.00103,113.3005],[23.76168,66.99428,107.8669],[23.79207,66.98894,113.3779],[23.81666,66.9755,96.5],[23.87361,66.92465,103.6564],[23.91237,66.90341,102.0983],[23.93335,66.88876,100.783],[23.96084,66.86189,98.6365],[24.00125,66.81243,115.5578],[24.00404,66.8052,109.3945],[23.99919,66.79629,98.3278],[23.98441,66.79298,85.6544],[23.96105,66.79355,80.1598],[23.93924,66.79112,75.5],[23.92477,66.77298,82.7339],[23.89242,66.75091,78.495],[23.8917,66.74358,68.5],[23.90296,66.70689,77.9716],[23.90317,66.68632,112.6514],[23.89904,66.66637,72.1617],[23.8916,66.64787,74.1029],[23.88188,66.6318,76.6947],[23.88912,66.61407,65.0269],[23.89325,66.59604,68.9229],[23.89149,66.57888,67.6511],[23.88188,66.56354,103.0194],[23.86121,66.5546,56.5],[23.80767,66.53925,58.4291],[23.80612,66.52814,70.9715],[23.78587,66.51842,68.6522],[23.75507,66.51186,50.0],[23.73109,66.50313,60.9562],[23.73109,66.48716,68.0428],[23.70608,66.48297,57.4135],[23.67683,66.47401,53.1002],[23.65244,66.45884,45.5],[23.64231,66.43626,45.5],[23.64665,66.42406,45.0],[23.66587,66.40556,45.0],[23.67021,66.3953,45.0],[23.67166,66.38179,45.0],[23.67703,66.36362,47.8474],[23.67641,66.35001,45.0],[23.673,66.33952,49.7093],[23.66443,66.32639,44.5],[23.66277,66.31652,44.5],[23.66598,66.30546,54.6707],[23.68065,66.28298,47.3827],[23.68944,66.25699,44.5],[23.72416,66.20663,45.2339],[23.75,66.18966,48.8777],[23.78556,66.17669,86.9695],[23.88932,66.1611,46.8608],[23.91144,66.14862,35.4341],[23.9656,66.0816,28.1737],[23.97459,66.07282,24.1859],[23.98513,66.06636,21.0],[24.00942,66.05561,30.6319],[24.01965,66.04894,38.6641],[24.02978,66.03499,42.0579],[24.05531,65.98517,20.5],[24.05696,65.97011,31.6394],[24.05479,65.94791,22.1778],[24.07598,65.92802,24.4059],[24.10233,65.90859,10.2861],[24.12445,65.8689,4.0357],[24.16341,65.84079,7.4333],[24.1631,65.8227,18.1269],[24.1631,65.81586,8.5382],[24.17302,65.80419,5.2343],[24.18824,65.79023,6.1822],[24.20623,65.77875,7.2681],[24.22462,65.77489,0.6548],[24.24431,65.78156,0.0],[24.25123,65.79413,0.1115],[24.2483,65.80903,2.3348],[24.23829,65.8227,3.4132],[24.27784,65.80939,8.1054],[24.31666,65.80223,2.2818],[24.32789,65.79792,6.2589],[24.35711,65.7792,0.0],[24.4048,65.76923,0.0],[24.4157,65.7718,0.0],[24.42286,65.7766,8.2032],[24.42612,65.78168,6.3197],[24.42799,65.7862,4.91],[24.43051,65.78913,14.1295],[24.45297,65.79694,13.1893],[24.47348,65.79719,4.5354],[24.4944,65.79515,5.4154],[24.51881,65.79605,9.105],[24.54363,65.80899,25.1033],[24.58717,65.85432,18.2724],[24.61158,65.86433,12.4973],[24.61451,65.86616,12.3956],[24.61549,65.87079,12.5377],[24.615,65.88133,12.5584],[24.61793,65.88923,12.4947],[24.62534,65.8913,27.1035],[24.63445,65.89094,12.7663],[24.64226,65.89159,12.4845],[24.69459,65.904,36.4593],[24.71062,65.9121,11.5],[24.70753,65.89924,16.0911],[24.6976,65.89448,26.2044],[24.67026,65.89159,22.0274],[24.65366,65.88557,24.1949],[24.64576,65.87946,25.6448],[24.63201,65.86058,24.5126],[24.57537,65.80817,12.4588],[24.56039,65.78913,16.4958],[24.55047,65.7635,10.8778],[24.55486,65.7451,3.8962],[24.56772,65.73066,8.244],[24.58399,65.71686,0.0],[24.59653,65.70917,0.0],[24.65968,65.69505,1.9098],[24.66774,65.69086,5.2984],[24.67018,65.68342,6.1347],[24.67107,65.64496,6.3402],[24.67579,65.63544,0.0],[24.68702,65.63154,0.0],[24.7068,65.63329,1.3144],[24.71909,65.63788,1.5953],[24.74529,65.65135,0.0],[24.78028,65.65974,2.0684],[24.81951,65.66218,0.0],[24.85914,65.65913,0.0],[24.89552,65.65135,0.0],[24.9061,65.64594,10.5098],[24.92408,65.63044,0.0],[24.93719,65.62409,0.0],[24.9572,65.62279,1.222],[25.00489,65.62702,0.6616],[25.02247,65.621,0.0],[25.03582,65.61416,7.2379],[25.06072,65.61725,7.0814],[25.07423,65.61416,4.736],[25.08546,65.60517,10.2777],[25.09181,65.59496,13.1368],[25.09319,65.59192,8.364],[25.12346,65.60638,21.3112],[25.1925,65.64778,37.5779],[25.38825,65.73614,78.4653],[25.50597,65.75327,90.8082],[25.76228,65.74637,109.2253],[25.87576,65.7594,114.384],[26.12836,65.81394,126.6386],[26.16298,65.80929,122.1057],[26.15833,65.76875,122.3913],[26.15843,65.7418,141.8254],[26.16422,65.72581,133.5272],[26.18799,65.71893,135.9538],[26.8418,65.70521,149.7379],[27.10215,65.75084,173.899],[27.16943,65.78405,160.865],[27.40032,65.94161,205.8001],[27.43071,65.95174,202.4633],[27.53551,65.92613,208.1645],[27.55432,65.92492,206.719],[27.57303,65.93055,211.0182],[27.56775,65.93401,214.2389],[27.5999,65.95112,216.4915],[27.63772,65.95365,219.8121],[27.68299,65.92461,242.1113],[27.72041,65.87859,243.8701],[27.74283,65.8581,313.2188],[27.76971,65.84267,333.9879],[27.76547,65.83159,341.2677],[27.76495,65.82932,342.6702],[28.19397,65.80539,260.0694],[28.23893,65.80802,258.4403],[28.33122,65.82497,300.0135],[28.423,65.82885,239.7135],[28.47002,65.83862,261.0223],[28.50537,65.85913,253.697],[28.51457,65.87464,302.6091],[28.49669,65.90151,239.3594],[28.41525,65.9491,240.7806],[28.39416,65.95747,255.0288],[28.37628,65.96962,250.7036],[28.38228,65.97308,247.611],[28.39613,65.97535,251.9223],[28.39592,65.97923,268.6274],[28.39396,65.98282,246.3771],[28.3892,65.9968,244.6664],[28.38755,66.00047,257.6817],[28.38941,66.00326,243.5917],[28.41029,66.00341,257.6232],[28.41432,66.00303,255.8348],[28.41814,66.00062,259.0875],[28.41762,65.99918,254.26],[28.4139,65.99148,260.6279],[28.41359,65.99011,257.9073],[28.43695,65.98714,263.1148],[28.4601,65.98801,253.0665],[28.54754,65.99912,302.1045],[28.67539,65.99225,333.8431],[28.722,65.99825,376.5401],[28.7405,66.00471,334.1727],[28.75642,66.02057,287.4518],[28.75652,66.04279,277.6273],[28.74143,66.04491,283.5395],[28.72613,66.04543,259.9517],[28.69513,66.05251,251.1319],[28.63353,66.0739,239.5],[28.63591,66.07555,239.5],[28.64448,66.08325,239.5],[28.6389,66.08852,239.5],[28.63188,66.09287,248.5294],[28.62154,66.10196,291.2879],[28.60852,66.11808,239.5],[28.61958,66.12459,239.5],[28.66795,66.12664,239.5],[28.69802,66.13196,239.5],[28.71104,66.137,239.5],[28.71931,66.15103,239.5],[28.72045,66.15813,239.5],[28.73347,66.1678,239.5],[28.76262,66.18121,239.5],[28.76541,66.18904,239.5],[28.74257,66.19968,239.5],[28.73719,66.20154,239.5],[28.73657,66.2065,239.5],[28.74102,66.21053,239.5],[28.76138,66.23319,245.1436],[28.76406,66.2389,257.7744],[28.76189,66.23994,256.6046],[28.75662,66.24128,248.7532],[28.74804,66.24252,262.3556],[28.74556,66.24451,254.7287],[28.74897,66.25195,264.4844],[28.73564,66.25782,271.4487],[28.72086,66.2589,270.476],[28.69699,66.2572,286.7061],[28.65988,66.25061,315.489],[28.64624,66.25022,319.7835],[28.64686,66.25177,346.2752],[28.65007,66.25857,321.1551],[28.65058,66.26022,305.1831],[28.61089,66.27012,323.4602],[28.57369,66.28608,321.9254],[28.54816,66.31063,283.1185],[28.54361,66.34468,315.0624],[28.55395,66.36784,275.0915],[28.5709,66.38608,290.3458],[28.59095,66.39972,278.9554],[28.61079,66.40913,309.3396],[28.62392,66.41091,312.5611],[28.65751,66.41083,341.9464],[28.66939,66.41507,334.6977],[28.67611,66.42752,313.9824],[28.68045,66.45258,322.1229],[28.685,66.46749,329.8051],[28.68934,66.473,337.0659],[28.7345,66.48437,294.9346],[29.1691,66.4192,225.119],[29.22026,66.41755,204.969],[29.30625,66.42985,252.6149],[29.54582,66.43197,272.7068],[29.54619,66.43197,275.0572],[29.5342,66.47403,326.1282],[29.52448,66.49121,310.335],[29.40945,66.56847,298.017],[29.40134,66.57622,310.8544],[29.39643,66.58663,292.1682],[29.39539,66.59645,276.4819],[29.3924,66.60529,301.4533],[29.36397,66.62459,283.7537],[29.3625,66.62655,281.3965],[29.32222,66.68007,315.3039],[29.08916,66.83755,298.2662],[29.05154,66.9078,292.6121],[29.09991,66.99113,185.557],[29.09991,66.99121,185.557],[29.10011,66.99124,185.557],[29.10011,66.99126,192.6468],[29.4294,67.23277,294.7889],[29.48087,67.25677,310.6665],[29.49069,67.26298,305.0475],[29.49699,67.27026,305.8969],[29.50846,67.28809,276.8575],[29.51983,67.29817,276.92],[29.91624,67.50813,328.0707],[29.93345,67.52637,298.8069],[29.95991,67.57159,275.354],[29.96466,67.58471,289.7545],[29.97345,67.64931,339.2034],[29.97768,67.66223,361.9272],[29.98786,67.67246,322.2952],[30.00941,67.68584,407.7917],[29.71382,67.7925,208.1311],[29.65119,67.82356,390.5512],[29.48087,67.96045,220.9444],[29.44263,67.9911,216.5545],[29.44263,67.99115,216.5545],[29.36015,68.05673,212.6196],[29.33085,68.07269,338.8234],[29.29866,68.08179,309.0177],[29.01294,68.12724,309.7112],[28.72722,68.17269,369.3476],[28.69032,68.18318,417.9362],[28.66376,68.204,435.0656],[28.48093,68.46259,155.0363],[28.46098,68.49107,183.9765],[28.44744,68.51489,279.4736],[28.44791,68.52972,365.8751],[28.45995,68.54243,284.9379],[28.71637,68.72795,309.2182],[28.74727,68.76015,189.759],[28.80148,68.83549,232.2135],[28.72825,68.86505,204.9234],[28.64567,68.87166,235.7942],[28.44424,68.86582,176.7658],[28.42677,68.87058,138.0876],[28.41313,68.88009,129.6915],[28.41023,68.89853,117.5],[28.45623,68.90014,164.0853],[28.71327,68.96804,111.0],[28.83346,68.98447,92.39],[28.95408,69.02726,91.0],[28.83961,69.08028,126.8833],[28.82757,69.09077,145.472],[28.82695,69.10684,143.4416],[28.84411,69.18126,214.4713],[28.85217,69.20353,186.7319],[28.86478,69.2166,174.8035],[29.22925,69.37685,221.9478],[29.34454,69.46439,172.2611],[29.20316,69.58599,96.7166],[29.14714,69.66391,97.3441],[29.13122,69.6742,85.0341],[28.80608,69.72996,138.4245],[28.48093,69.78572,303.1343],[28.44269,69.79145,280.7665],[28.40455,69.80225,283.9741],[28.37975,69.82235,268.6931],[28.38119,69.8562,281.4388],[28.18927,69.88605,250.6169],[28.16736,69.89434,184.8179],[27.98101,70.0096,19.8912],[27.92716,70.05327,163.5799],[27.89729,70.07069,163.2834]]]]}}