{"type": "Feature","bbox": [20.5512,65.55,30.0359,70.0915],"geometry": {"type": "MultiPolygon","coordinates": [[[[24.1958,65.6083,1.8603],[24.1922,65.6047,1.3501],[24.2,65.6042,0.3771],[24.2036,65.6068,0.0],[24.2021,65.6083,0.0],[24.1958,65.6083,1.8603]]],
[[[24.1828,65.6182,0.7434],[24.1792,65.6188,4.3937],[24.1776,65.6172,5.0885],[24.1813,65.6167,1.5859],[24.1828,65.6182,0.7434]]],
[[[24.2021,65.6208,4.9083],[24.1984,65.6172,0.2651],[24.2078,65.6172,0.1453],[24.2057,65.6203,0.7203],[24.2021,65.6208,4.9083]]],
[[[24.2193,65.6787,0.9137],[24.225,65.675,0.3115],[24.2286,65.6776,3.8129],[24.2271,65.6792,3.6602],[24.2193,65.6787,0.9137]]],
[[[24.5266,65.6505,1.6849],[24.5266,65.6516,0.783],[24.5234,65.6516,4.1969],[24.5234,65.6505,4.097],[24.5266,65.6505,1.6849]]],
[[[24.5,65.6813,0.0],[24.5016,65.6828,0.0],[24.4943,65.6839,2.2304],[24.4953,65.687,5.0213],[24.4938,65.6875,2.2609],[24.4901,65.687,0.4984],[24.4854,65.6833,5.2623],[24.4813,65.6854,0.0],[24.4776,65.6849,0.0],[24.4854,65.6792,0.4079],[24.5,65.6813,0.0]]],
[[[24.5339,65.7224,0.9117],[24.5349,65.7245,0.0],[24.5234,65.7266,11.242],[24.5172,65.7203,0.6742],[24.5182,65.7151,0.0958],[24.5109,65.7078,0.0],[24.512,65.7047,0.0],[24.5078,65.7005,0.0],[24.5026,65.6995,0.0],[24.5036,65.6964,0.0],[24.4964,65.6922,0.0],[24.5021,65.6896,0.0],[24.5141,65.6901,0.5303],[24.5286,65.7047,0.0],[24.5276,65.7099,7.201],[24.5297,65.712,7.6935],[24.5349,65.713,0.4673],[24.5339,65.7161,5.4117],[24.537,65.7203,5.9934],[24.5339,65.7224,0.9117]]],
[[[24.4974,65.7161,0.2156],[24.4938,65.7167,0.4311],[24.4922,65.7151,0.7117],[24.4958,65.7146,0.6136],[24.4974,65.7161,0.2156]]],
[[[24.3036,65.6818,0.0],[24.3036,65.6828,0.0],[24.3005,65.6828,0.0],[24.3005,65.6818,0.694],[24.3036,65.6818,0.0]]],
[[[24.2958,65.6875,0.9376],[24.2839,65.6922,6.8473],[24.2792,65.6958,0.0],[24.2755,65.6953,4.4022],[24.2714,65.6911,0.0],[24.2729,65.6896,0.0],[24.2786,65.6891,3.2379],[24.2875,65.6833,2.0854],[24.2995,65.6839,0.0],[24.2958,65.6875,0.9376]]],
[[[24.2057,65.6911,7.3531],[24.2021,65.6917,4.3686],[24.2005,65.6901,0.0],[24.2042,65.6896,5.498],[24.2057,65.6911,7.3531]]],
[[[24.2703,65.7109,3.6168],[24.2703,65.712,4.8164],[24.2672,65.712,6.4207],[24.2672,65.7109,3.2837],[24.2703,65.7109,3.6168]]],
[[[24.4953,65.7349,0.0],[24.4917,65.7354,2.5143],[24.4901,65.7338,4.0155],[24.4938,65.7333,1.4197],[24.4953,65.7349,0.0]]],
[[[24.4203,65.7359,1.4325],[24.4203,65.737,3.1853],[24.4172,65.737,0.8213],[24.4172,65.7359,0.0],[24.4203,65.7359,1.4325]]],
[[[24.4562,65.7458,0.0],[24.4521,65.7458,3.9325],[24.4505,65.7443,0.0],[24.4578,65.7443,0.0],[24.4562,65.7458,0.0]]],
[[[24.4458,65.7583,3.4853],[24.4474,65.7599,0.0],[24.4401,65.7609,0.6497],[24.4411,65.7641,3.4699],[24.4396,65.7646,4.4831],[24.4333,65.7646,0.0],[24.4255,65.762,0.0],[24.4234,65.7589,0.6571],[24.4286,65.7547,5.8624],[24.4255,65.7516,0.0],[24.4266,65.7484,0.4112],[24.4214,65.7422,0.7014],[24.4375,65.7438,0.0],[24.4453,65.7464,0.0],[24.4474,65.7484,0.0],[24.4464,65.7516,0.0],[24.4474,65.7557,0.0],[24.4375,65.7562,0.7128],[24.4359,65.7578,0.8494],[24.4458,65.7583,3.4853]]],
[[[24.8099,65.5516,0.3293],[24.8125,65.55,0.0],[24.8161,65.5505,0.2676],[24.8104,65.5542,2.819],[24.8026,65.5537,0.12],[24.8042,65.5521,0.0946],[24.8099,65.5516,0.3293]]],
[[[24.9609,65.6141,0.0],[24.9583,65.6125,0.3785],[24.9526,65.613,6.1095],[24.9557,65.6182,0.0],[24.9526,65.6203,0.0],[24.9646,65.6229,0.4619],[24.9661,65.6245,1.5218],[24.9604,65.6271,0.0],[24.9562,65.625,0.0],[24.9438,65.625,0.0],[24.938,65.6203,2.3812],[24.9391,65.6172,7.103],[24.9318,65.6088,0.0],[24.9391,65.6078,6.3176],[24.9432,65.6057,6.2054],[24.9422,65.6026,0.0],[24.9495,65.6016,8.6744],[24.9526,65.5984,0.0],[24.9562,65.5979,0.0],[24.9661,65.6026,0.0],[24.9589,65.6099,0.3067],[24.9708,65.6104,6.578],[24.9724,65.6088,8.9176],[24.9693,65.6047,0.0],[24.9776,65.5984,0.0],[24.9849,65.5974,3.2981],[24.9839,65.5943,0.0],[24.9974,65.5943,0.0],[24.988,65.5984,0.5368],[24.9932,65.6005,0.8368],[24.9891,65.6057,0.0],[24.9818,65.6068,0.0],[24.9729,65.6125,0.0],[24.9609,65.6141,0.0]]],
[[[24.975,65.6208,2.3368],[24.9734,65.6193,3.3774],[24.9755,65.6172,4.2002],[24.9807,65.6172,0.0],[24.9807,65.6182,0.0],[24.975,65.6208,2.3368]]],
[[[24.9896,65.6208,0.0],[24.988,65.6193,0.0],[24.9901,65.6172,0.0],[24.9953,65.6172,0.0],[24.9953,65.6182,3.0408],[24.9896,65.6208,0.0]]],
[[[24.8682,65.6224,3.4327],[24.8646,65.6229,0.5532],[24.863,65.6214,0.0],[24.8667,65.6208,1.9472],[24.8682,65.6224,3.4327]]],
[[[24.7,65.6208,0.0],[24.7016,65.6224,0.596],[24.6943,65.6234,3.4966],[24.6953,65.6266,0.0],[24.6901,65.6266,4.8413],[24.6901,65.6234,2.988],[24.6922,65.6214,2.2203],[24.7,65.6208,0.0]]],
[[[24.8786,65.6224,9.9962],[24.8818,65.6193,0.0],[24.8854,65.6188,0.0],[24.8891,65.6214,2.3147],[24.8922,65.6266,0.0],[24.8979,65.6271,3.0403],[24.8995,65.6286,4.8878],[24.8943,65.6318,0.0],[24.8953,65.6349,0.0],[24.8875,65.6354,6.7509],[24.8859,65.6349,0.9089],[24.887,65.6318,8.3858],[24.8849,65.6276,13.5722],[24.8776,65.6266,7.7378],[24.8755,65.6245,9.4218],[24.8786,65.6224,9.9962]]],
[[[24.5964,65.6276,1.9525],[24.6,65.6271,2.9992],[24.6016,65.6286,0.0],[24.5964,65.6318,4.6689],[24.5974,65.6349,0.0],[24.5922,65.6349,4.6723],[24.5901,65.6328,0.8639],[24.5901,65.6297,2.7899],[24.5964,65.6276,1.9525]]],
[[[24.8438,65.6396,0.0],[24.8333,65.6396,0.0],[24.8292,65.6417,2.376],[24.8214,65.6412,0.0],[24.8229,65.6396,8.8085],[24.8286,65.6391,10.2994],[24.8276,65.6359,0.0],[24.8292,65.6354,0.0],[24.8438,65.6354,2.3594],[24.8479,65.6333,0.0],[24.8521,65.6333,0.0],[24.862,65.6359,8.8078],[24.8521,65.6396,9.0267],[24.8438,65.6396,0.0]]],
[[[24.8432,65.6432,1.8189],[24.8396,65.6438,8.7387],[24.838,65.6422,4.0845],[24.8417,65.6417,2.386],[24.8432,65.6432,1.8189]]],
[[[24.7557,65.6578,0.0],[24.7521,65.6583,0.0],[24.7505,65.6568,0.0],[24.7542,65.6563,6.8121],[24.7557,65.6578,0.0]]],
[[[24.6,65.6771,0.0],[24.5901,65.6797,8.1802],[24.5911,65.6828,0.0],[24.5859,65.687,2.8679],[24.5995,65.6901,0.21],[24.6078,65.6984,0.0],[24.6057,65.7016,0.0],[24.6026,65.7026,3.5849],[24.6036,65.7057,0.0],[24.6021,65.7063,1.5071],[24.5922,65.7037,0.1419],[24.588,65.6995,0.0],[24.5911,65.6974,2.3938],[24.588,65.6932,0.0701],[24.5891,65.6901,7.9167],[24.5839,65.6891,0.2199],[24.5766,65.6818,6.5251],[24.5667,65.6813,0.0],[24.5563,65.6771,0.0],[24.5479,65.6771,0.0],[24.5438,65.675,0.6998],[24.5271,65.6771,0.0],[24.5229,65.675,2.5222],[24.5151,65.6745,3.2402],[24.513,65.6713,0.0],[24.5182,65.6682,2.9919],[24.5172,65.6651,0.0],[24.5193,65.663,0.0],[24.5396,65.6563,0.0],[24.5667,65.6583,6.5152],[24.5708,65.6563,0.1613],[24.5771,65.6563,0.0],[24.5849,65.6589,0.9291],[24.5828,65.662,11.8206],[24.5797,65.663,8.5425],[24.5839,65.6682,9.4516],[24.6036,65.6672,0.0],[24.6057,65.6703,0.0],[24.6005,65.6734,8.2727],[24.6016,65.6766,0.0],[24.6,65.6771,0.0]]],
[[[25.0245,65.5807,0.0],[25.0172,65.5818,4.147],[25.0083,65.5875,0.0],[25.0005,65.587,0.0],[25.0047,65.5839,0.0],[25.012,65.5828,5.6878],[25.0167,65.5792,3.0408],[25.0229,65.5792,0.0],[25.0245,65.5807,0.0]]],
[[[25.0125,65.5938,0.0],[25.0083,65.5938,3.4389],[25.0068,65.5922,1.97],[25.0161,65.5922,0.0],[25.0125,65.5938,0.0]]],
[[[27.4388,65.9604,205.5632],[27.4607,65.9594,218.2788],[27.4594,65.955,210.9661],[27.4703,65.9545,219.5761],[27.469,65.95,216.2194],[27.4799,65.9495,224.1739],[27.4786,65.945,206.822],[27.5005,65.944,233.0975],[27.4992,65.9395,212.0623],[27.5102,65.939,217.9622],[27.5089,65.9345,205.5967],[27.5198,65.934,209.1566],[27.5185,65.9296,202.4453],[27.5403,65.9285,204.5715],[27.539,65.9241,205.5886],[27.5609,65.923,208.7523],[27.5622,65.9275,210.5256],[27.5731,65.927,226.614],[27.5738,65.9291,215.6626],[27.5744,65.9314,211.9977],[27.5635,65.9319,210.8334],[27.5648,65.9364,211.2701],[27.5757,65.9359,222.8453],[27.5784,65.9448,213.4672],[27.5893,65.9443,222.1688],[27.5919,65.9532,212.7075],[27.6138,65.9522,213.7644],[27.6151,65.9566,216.3929],[27.637,65.9556,211.504],[27.6383,65.96,213.2038],[27.6602,65.959,215.1451],[27.6575,65.9501,230.7081],[27.6685,65.9495,229.3792],[27.6658,65.9406,240.6832],[27.6767,65.9401,244.613],[27.6727,65.9267,231.8517],[27.6837,65.9262,237.9819],[27.681,65.9172,278.2],[27.6919,65.9167,262.2739],[27.6879,65.9033,314.3535],[27.6988,65.9028,319.1129],[27.6975,65.8983,329.4488],[27.7084,65.8978,308.5754],[27.7057,65.8889,271.44],[27.7167,65.8883,257.1675],[27.7153,65.8839,251.0255],[27.7262,65.8834,257.7879],[27.7235,65.8744,260.1462],[27.7344,65.8739,284.7688],[27.7318,65.865,322.1474],[27.7427,65.8644,332.0033],[27.7413,65.86,313.2581],[27.7522,65.8594,341.9236],[27.7495,65.8505,283.1982],[27.7604,65.85,336.8394],[27.7591,65.8455,325.3537],[27.77,65.845,341.2729],[27.7646,65.8271,337.9713],[27.8951,65.8207,283.0827],[27.8965,65.8251,275.7104],[28.1574,65.8119,247.6058],[28.156,65.8074,264.1495],[28.2103,65.8046,263.7361],[28.2089,65.8001,299.4381],[28.2306,65.799,274.0196],[28.232,65.8035,262.7668],[28.2429,65.8029,318.6323],[28.2443,65.8074,251.1226],[28.266,65.8062,259.5792],[28.2675,65.8107,243.6215],[28.2892,65.8095,243.4494],[28.2906,65.814,253.1046],[28.3015,65.8134,282.4894],[28.3029,65.8179,259.6518],[28.3246,65.8167,284.6612],[28.3261,65.8212,313.4495],[28.3478,65.8201,277.1369],[28.3492,65.8245,296.312],[28.3601,65.8239,295.4563],[28.3615,65.8284,274.5303],[28.3833,65.8272,269.9167],[28.3847,65.8317,256.8448],[28.4065,65.8305,256.0658],[28.4079,65.835,256.5352],[28.4188,65.8344,241.7876],[28.4202,65.8389,242.3263],[28.442,65.8377,231.5],[28.4434,65.8422,231.5],[28.4652,65.841,245.9289],[28.4666,65.8455,236.5644],[28.4993,65.8437,243.5966],[28.5007,65.8482,247.5636],[28.5116,65.8476,253.2521],[28.5175,65.8654,276.116],[28.5189,65.8699,285.9669],[28.5081,65.8704,293.96],[28.5154,65.8927,243.5751],[28.5045,65.8933,238.1451],[28.506,65.8978,239.0567],[28.4951,65.8983,237.0582],[28.4966,65.9028,240.7835],[28.4857,65.9034,240.9366],[28.4872,65.9078,250.6003],[28.4763,65.9084,247.3353],[28.4777,65.9129,258.5437],[28.4668,65.9135,251.0029],[28.4683,65.9179,244.1391],[28.4574,65.9185,243.9264],[28.4588,65.923,249.3265],[28.4479,65.9235,243.4283],[28.4509,65.9324,241.2647],[28.44,65.933,237.7051],[28.4429,65.9419,252.5197],[28.432,65.9425,237.9428],[28.4334,65.947,243.7451],[28.4225,65.9476,239.093],[28.424,65.952,251.1695],[28.4021,65.9532,244.8629],[28.4036,65.9576,267.3138],[28.3818,65.9588,259.8805],[28.3832,65.9632,289.7404],[28.3723,65.9638,255.9243],[28.3752,65.9727,250.4328],[28.397,65.9716,256.7542],[28.3985,65.976,262.5246],[28.3876,65.9766,252.5465],[28.3949,65.9989,243.7291],[28.3839,65.9995,244.325],[28.3854,66.0039,243.6015],[28.4182,66.0022,243.5642],[28.4138,65.9888,257.7298],[28.4576,65.9865,253.0506],[28.459,65.991,244.5829],[28.4809,65.9898,258.0412],[28.4853,66.0032,260.7916],[28.5072,66.002,267.9913],[28.5087,66.0064,250.7325],[28.5962,66.0017,258.8694],[28.5947,65.9973,263.5455],[28.6056,65.9967,281.3818],[28.6026,65.9878,307.3255],[28.6573,65.9848,321.2678],[28.6618,65.9982,334.8608],[28.6727,65.9976,338.5674],[28.6742,66.002,357.2188],[28.7179,65.9996,366.6644],[28.7195,66.0041,322.3167],[28.7523,66.0023,335.2986],[28.7568,66.0156,323.3538],[28.7459,66.0162,333.4958],[28.7565,66.0474,279.7189],[28.7456,66.048,288.9391],[28.7441,66.0436,274.9696],[28.7112,66.0454,250.0635],[28.7142,66.0543,250.816],[28.7033,66.0549,247.0766],[28.7048,66.0593,249.4694],[28.6829,66.0605,239.5],[28.6844,66.065,239.5],[28.6406,66.0674,239.5],[28.6421,66.0718,239.5],[28.6311,66.0724,239.5],[28.6326,66.0769,239.5],[28.6436,66.0763,239.5],[28.6466,66.0852,239.5],[28.6356,66.0858,249.0733],[28.6371,66.0902,244.0615],[28.6262,66.0908,239.5],[28.6292,66.0997,282.3842],[28.6182,66.1003,290.1769],[28.6227,66.1137,239.5],[28.6117,66.1143,239.5],[28.6147,66.1232,239.5],[28.6038,66.1238,239.5],[28.6053,66.1282,239.5],[28.6712,66.1247,239.5],[28.6727,66.1291,239.5],[28.6947,66.1279,239.5],[28.6962,66.1324,239.5],[28.7072,66.1318,239.5],[28.7087,66.1362,239.5],[28.7197,66.1356,239.5],[28.7227,66.1446,239.5],[28.7117,66.1451,239.5],[28.7178,66.163,239.5],[28.7288,66.1624,239.5],[28.7304,66.1668,239.5],[28.7414,66.1662,239.5],[28.7444,66.1751,239.5],[28.7554,66.1745,239.5],[28.757,66.179,239.5],[28.768,66.1784,239.5],[28.7711,66.1873,239.5],[28.7601,66.1879,239.5],[28.7616,66.1923,239.5],[28.7506,66.1929,239.5],[28.7521,66.1974,239.5],[28.7411,66.198,239.5],[28.7426,66.2025,239.5],[28.7316,66.203,239.5],[28.7331,66.2075,239.5],[28.7442,66.2069,239.5],[28.7518,66.2292,264.7401],[28.7629,66.2286,257.8032],[28.7659,66.2375,248.9509],[28.7549,66.2381,254.8301],[28.7565,66.2425,253.1807],[28.7454,66.2431,260.3177],[28.75,66.2565,275.74],[28.7169,66.2583,272.7417],[28.7184,66.2627,278.3398],[28.7074,66.2634,282.5701],[28.7059,66.2589,269.7438],[28.6838,66.2601,291.5282],[28.6822,66.2556,296.5078],[28.6712,66.2562,298.1262],[28.6682,66.2473,295.4757],[28.6461,66.2485,302.564],[28.6506,66.2619,308.09],[28.6396,66.2625,320.039],[28.6411,66.2669,287.2245],[28.619,66.2681,309.2067],[28.6175,66.2637,303.1403],[28.5954,66.2648,304.2487],[28.5969,66.2693,296.0308],[28.5859,66.2699,293.7548],[28.5889,66.2788,301.6748],[28.5778,66.2794,303.4421],[28.5809,66.2883,314.6721],[28.5698,66.2889,335.7997],[28.5728,66.2978,292.0898],[28.5618,66.2984,290.4712],[28.5648,66.3073,292.0259],[28.5537,66.3079,286.6264],[28.5567,66.3168,303.2028],[28.5457,66.3174,303.1036],[28.5487,66.3263,311.968],[28.5376,66.3269,311.8567],[28.5557,66.3804,279.7295],[28.5779,66.3792,287.0647],[28.5855,66.4015,278.2934],[28.5966,66.4009,278.7039],[28.5981,66.4053,301.9045],[28.6092,66.4047,305.0522],[28.6123,66.4137,311.8015],[28.6679,66.4107,360.3471],[28.694,66.4864,413.4755],[28.7163,66.4852,326.1458],[28.7148,66.4808,326.3985],[28.7705,66.4778,287.9012],[28.7689,66.4733,300.5916],[28.8357,66.4696,264.6997],[28.8341,66.4652,265.8653],[28.8898,66.4621,254.0962],[28.8882,66.4577,256.795],[28.9438,66.4546,252.0727],[28.9422,66.4502,260.7344],[28.9978,66.4471,250.936],[28.9962,66.4426,244.234],[29.0518,66.4395,243.0669],[29.0502,66.4351,237.7687],[29.1058,66.4319,225.1746],[29.1041,66.4275,227.3132],[29.1597,66.4243,219.8007],[29.1581,66.4199,224.3468],[29.2136,66.4167,208.9325],[29.2119,66.4123,218.1967],[29.2563,66.4097,226.1855],[29.2645,66.432,231.9011],[29.2978,66.4301,241.8729],[29.2995,66.4345,247.3952],[29.3772,66.43,287.8393],[29.3789,66.4344,273.6994],[29.4455,66.4306,273.5362],[29.4472,66.435,271.6267],[29.5249,66.4304,271.8515],[29.5266,66.4349,277.7773],[29.571,66.4323,284.5237],[29.573,66.4376,289.729],[29.565,66.4463,301.4625],[29.5666,66.4507,309.1427],[29.5606,66.451,310.4795],[29.5569,66.455,314.2201],[29.5589,66.4602,309.7965],[29.5517,66.4607,305.652],[29.5408,66.4724,324.3343],[29.5418,66.4749,332.8427],[29.5384,66.4751,325.7072],[29.5328,66.4811,317.0504],[29.534,66.4844,314.0749],[29.5295,66.4847,312.1658],[29.5247,66.4898,307.5417],[29.5263,66.494,307.968],[29.5206,66.4943,309.7211],[29.5167,66.4986,302.386],[29.5186,66.5035,292.5485],[29.5117,66.5039,290.6951],[29.5006,66.516,297.5158],[29.5014,66.5182,302.1999],[29.4984,66.5184,301.7912],[29.4844,66.5335,305.3397],[29.4858,66.5373,297.181],[29.4807,66.5376,301.4483],[29.4673,66.5485,307.6287],[29.4686,66.5519,307.8188],[29.4621,66.5523,314.7938],[29.4583,66.5549,319.0787],[29.4592,66.557,320.2787],[29.4545,66.5573,322.5323],[29.4491,66.5607,323.4278],[29.4497,66.5621,321.9998],[29.4465,66.5623,321.9849],[29.4392,66.567,326.5186],[29.4311,66.5733,327.7996],[29.4324,66.5768,315.2161],[29.4263,66.5771,319.5582],[29.4223,66.5803,310.5126],[29.4229,66.5819,313.5059],[29.4201,66.582,311.4709],[29.4135,66.5872,292.6162],[29.4151,66.5914,289.4922],[29.407,66.5919,288.9387],[29.4043,66.593,286.5416],[29.4056,66.5965,279.6928],[29.3942,66.5972,276.0959],[29.3772,66.6062,280.1068],[29.3754,66.612,279.0366],[29.3647,66.6231,277.6194],[29.361,66.6296,282.2404],[29.3631,66.6353,299.8274],[29.3546,66.6358,291.5063],[29.3525,66.6375,293.8297],[29.3536,66.6404,292.5288],[29.3478,66.6407,291.7096],[29.3277,66.6533,298.1183],[29.3349,66.6515,305.9305],[29.3362,66.655,316.1013],[29.3076,66.6703,304.7047],[29.3093,66.6748,313.4565],[29.2999,66.6753,301.9504],[29.2984,66.6763,304.0604],[29.2997,66.6798,321.9935],[29.2926,66.6803,337.4099],[29.2893,66.6825,331.2693],[29.2902,66.6849,312.874],[29.2852,66.6852,314.64],[29.2613,66.7006,300.5548],[29.2349,66.721,307.8436],[29.2361,66.7244,309.8947],[29.2293,66.7248,310.524],[29.2257,66.7272,316.0504],[29.2266,66.7295,312.3226],[29.2221,66.7297,317.9633],[29.2166,66.7335,307.7643],[29.217,66.7345,308.6302],[29.2148,66.7347,311.0506],[29.1708,66.7647,303.6822],[29.1723,66.7689,307.4334],[29.1626,66.7703,299.8669],[29.1627,66.7739,305.63],[29.1574,66.7742,302.6743],[29.1436,66.7846,292.0467],[29.1451,66.7886,292.1354],[29.1378,66.789,291.1666],[29.1346,66.7913,290.5569],[29.1355,66.7936,291.1152],[29.1312,66.7939,290.5967],[29.1256,66.7981,290.778],[29.1275,66.8032,291.1632],[29.1182,66.8037,290.744],[29.098,66.8167,300.7315],[29.0986,66.8184,302.8272],[29.0951,66.8186,305.7214],[29.0863,66.8243,318.0079],[29.0827,66.8384,299.4711],[29.0745,66.8468,316.5867],[29.0762,66.8514,334.2684],[29.0697,66.8518,308.5122],[29.0495,66.8727,312.1704],[29.0522,66.88,340.8997],[29.0449,66.8804,325.9958],[29.0358,66.8984,272.2942],[29.0394,66.908,234.0214],[29.0325,66.9084,227.0241],[29.0297,66.9166,221.5295],[29.031,66.9441,233.4433],[29.0392,66.9608,229.9612],[29.044,66.9668,217.8044],[29.0494,66.9665,206.6318],[29.0536,66.978,187.3118],[29.0761,66.9939,187.6227],[29.1043,67.0106,193.2942],[29.1374,67.036,278.0281],[29.1416,67.0386,260.4027],[29.1457,67.0384,243.4655],[29.1471,67.0421,231.7594],[29.1549,67.047,239.3117],[29.1605,67.0467,232.1388],[29.1623,67.0516,243.2831],[29.1683,67.0553,246.3674],[29.1752,67.0549,242.4326],[29.1775,67.0611,267.3181],[29.2484,67.1054,198.8926],[29.2524,67.1052,198.7288],[29.2537,67.1087,198.1159],[29.2618,67.1137,216.3293],[29.2672,67.1134,224.1301],[29.269,67.1183,249.357],[29.2751,67.1221,263.7603],[29.282,67.1217,297.4871],[29.2843,67.1278,316.2182],[29.2951,67.1346,384.2689],[29.2985,67.1344,385.6602],[29.2997,67.1374,349.2242],[29.3552,67.1721,293.0931],[29.3596,67.1719,291.1535],[29.3612,67.1758,312.7509],[29.3685,67.1804,329.5832],[29.3745,67.1801,325.3738],[29.3766,67.1855,373.1136],[29.4019,67.2013,268.9117],[29.406,67.2011,277.133],[29.4075,67.2048,273.1867],[29.4486,67.2304,318.4823],[29.4525,67.2302,320.4512],[29.454,67.2338,297.131],[29.4619,67.2388,324.6105],[29.4675,67.2385,322.3114],[29.4695,67.2435,335.106],[29.4752,67.2471,356.0551],[29.4824,67.2467,358.8055],[29.485,67.2532,317.8463],[29.5086,67.268,305.0417],[29.5141,67.2676,299.4225],[29.5161,67.2727,289.5743],[29.5402,67.2877,286.679],[29.5389,67.297,279.6932],[29.5399,67.3031,276.9464],[29.5777,67.3095,288.2437],[29.5903,67.3151,288.9404],[29.5981,67.331,291.6041],[29.624,67.3296,294.5057],[29.6352,67.3335,291.6467],[29.6459,67.3328,293.6287],[29.6502,67.3436,294.5291],[29.642,67.3491,305.9072],[29.6426,67.354,295.1913],[29.6662,67.3681,314.5855],[29.6717,67.3677,322.628],[29.6736,67.3725,312.151],[29.6939,67.3847,323.1952],[29.7019,67.3842,323.3711],[29.7047,67.3912,334.6617],[29.712,67.3955,347.64],[29.7302,67.4053,363.9605],[29.734,67.4051,380.8415],[29.7352,67.408,369.2619],[29.7455,67.4135,366.3208],[29.7492,67.4133,369.7467],[29.7503,67.4161,363.5028],[29.7608,67.4217,344.2943],[29.7643,67.4215,351.4413],[29.7654,67.4242,337.4],[29.7761,67.4299,333.9301],[29.7795,67.4297,346.5137],[29.7806,67.4323,332.2082],[29.7877,67.4362,332.8569],[29.7947,67.438,357.0889],[29.7955,67.4398,395.7279],[29.8175,67.4502,292.9352],[29.8233,67.4499,299.4812],[29.8249,67.4538,288.9015],[29.8346,67.4583,292.859],[29.8385,67.4581,292.6521],[29.8396,67.4607,297.8128],[29.8944,67.4867,318.1865],[29.8976,67.4865,320.9862],[29.8985,67.4886,336.2119],[29.903,67.4907,358.9038],[29.911,67.4903,345.5147],[29.9133,67.4956,381.3679],[29.9372,67.5069,340.1525],[29.9416,67.5067,342.0302],[29.9428,67.5096,348.8631],[29.9592,67.5173,256.6034],[29.9901,67.594,289.8425],[30.0129,67.631,329.8708],[30.0181,67.632,326.532],[30.0359,67.6741,279.9408],[30.0318,67.6744,288.7184],[30.0273,67.6824,399.896],[30.0061,67.6884,394.1292],[30.0066,67.6895,399.9839],[30.001,67.6898,386.1496],[29.974,67.6975,289.4246],[29.9753,67.7005,306.3015],[29.9558,67.7026,282.4001],[29.9214,67.7146,219.473],[29.9225,67.7172,221.2564],[29.9121,67.7179,211.8428],[29.8901,67.7255,219.6902],[29.8912,67.7282,222.2764],[29.8808,67.7288,211.8324],[29.8379,67.7438,249.4419],[29.8383,67.7449,251.4188],[29.8337,67.7452,250.424],[29.8065,67.7547,286.2176],[29.8069,67.7559,289.3884],[29.8025,67.7561,286.4975],[29.775,67.7657,305.917],[29.7755,67.7668,317.0139],[29.7646,67.7693,321.2664],[29.7656,67.7719,318.6001],[29.7555,67.7725,273.8633],[29.7121,67.7876,238.9811],[29.7126,67.7886,240.1168],[29.6945,67.7937,221.9632],[29.6734,67.8101,408.5711],[29.6748,67.8135,388.4787],[29.6686,67.8139,403.352],[29.6552,67.8243,406.4644],[29.6568,67.8282,392.462],[29.6496,67.8286,392.4108],[29.637,67.8384,358.4752],[29.6388,67.8429,333.0325],[29.6306,67.8433,351.4064],[29.6187,67.8526,368.4269],[29.6208,67.8575,344.4237],[29.6116,67.8581,342.0359],[29.6,67.8655,297.2639],[29.6009,67.8678,308.278],[29.5943,67.8681,291.7325],[29.5898,67.8702,274.7491],[29.591,67.8729,270.8654],[29.5831,67.8733,249.2957],[29.5737,67.8777,213.6029],[29.5701,67.8808,187.9036],[29.571,67.8831,205.5033],[29.5671,67.8833,181.5054],[29.5523,67.8961,219.1937],[29.5529,67.8978,216.5987],[29.5502,67.8979,220.6228],[29.5434,67.9038,254.3524],[29.5448,67.9073,241.0797],[29.5389,67.9077,250.7048],[29.5164,67.9264,228.0181],[29.5185,67.9316,252.5433],[29.5096,67.9321,255.7972],[29.4983,67.9414,272.1526],[29.5003,67.9462,242.7368],[29.492,67.9467,240.7607],[29.4797,67.955,201.7985],[29.4803,67.9564,194.8871],[29.477,67.9566,198.6248],[29.4633,67.9647,217.9643],[29.4522,67.9765,201.0776],[29.4539,67.9806,203.2448],[29.447,67.981,197.1756],[29.4343,67.9921,221.884],[29.4356,67.9953,224.2066],[29.4302,67.9956,231.6696],[29.418,68.0062,259.915],[29.42,68.0147,243.1192],[29.4081,68.0169,260.0417],[29.4091,68.0195,270.5732],[29.4016,68.0199,310.9044],[29.3892,68.0301,341.4798],[29.3908,68.0341,337.0241],[29.3837,68.0345,343.2936],[29.3709,68.045,325.1801],[29.3725,68.0488,288.4406],[29.3659,68.0492,284.3192],[29.3436,68.0674,258.3375],[29.3458,68.073,291.2869],[29.3361,68.0735,344.2458],[29.2216,68.0963,221.2785],[29.2222,68.0979,223.9067],[29.2094,68.0986,264.4561],[29.1877,68.1027,250.4468],[29.1883,68.1042,252.1361],[29.1746,68.105,212.4638],[29.1195,68.1146,206.5715],[29.1205,68.117,230.9677],[29.1,68.118,234.6759],[29.0854,68.1206,244.6185],[29.0865,68.1233,262.2428],[29.0626,68.1246,264.0898],[29.0058,68.1345,311.6377],[29.0066,68.1366,327.3191],[28.9887,68.1375,298.1155],[28.8235,68.1665,154.7544],[28.8243,68.1688,155.1733],[28.8045,68.1698,195.6978],[28.7892,68.1724,254.4074],[28.7902,68.175,269.8586],[28.768,68.1762,348.8344],[28.6598,68.1951,582.564],[28.6548,68.2035,524.1983],[28.6569,68.209,390.4205],[28.6514,68.2093,424.3972],[28.6324,68.2412,310.2108],[28.6344,68.2465,251.4751],[28.6291,68.2468,273.0037],[28.6174,68.2665,226.4855],[28.6204,68.2745,230.8883],[28.6124,68.2749,277.4365],[28.6099,68.2791,309.1776],[28.6117,68.284,322.1913],[28.6069,68.2842,361.6898],[28.6024,68.2917,330.4731],[28.6048,68.298,314.0644],[28.5985,68.2983,358.6371],[28.5648,68.355,352.9821],[28.568,68.3634,344.4056],[28.5596,68.3638,322.3828],[28.5573,68.3676,301.8989],[28.5593,68.3729,313.5863],[28.554,68.3731,319.4417],[28.5498,68.3803,234.5483],[28.5522,68.3868,291.9114],[28.5457,68.3872,316.5224],[28.512,68.4439,219.2187],[28.5152,68.4523,248.6341],[28.5068,68.4527,230.6812],[28.4969,68.4693,144.3533],[28.4993,68.4757,130.2386],[28.4929,68.4761,125.1401],[28.4893,68.4821,134.7844],[28.4922,68.4897,142.4243],[28.4846,68.4901,144.9444],[28.4666,68.5203,270.9177],[28.4691,68.5272,283.5346],[28.4623,68.5275,319.887],[28.4504,68.5477,294.0983],[28.5073,68.5844,201.9991],[28.5152,68.584,188.4334],[28.5178,68.5911,184.3401],[28.5454,68.6098,143.9983],[28.5496,68.6096,161.8198],[28.5512,68.6138,154.797],[28.5576,68.6183,147.4861],[28.5651,68.6179,141.8641],[28.568,68.6255,138.2858],[28.6096,68.6566,283.643],[28.617,68.6563,288.9932],[28.6202,68.6647,217.4156],[28.6488,68.6865,285.676],[28.6533,68.6863,296.1688],[28.6553,68.6914,256.3223],[28.6825,68.7121,219.8978],[28.6881,68.7118,212.5095],[28.6906,68.7182,225.3663],[28.7161,68.7377,332.7454],[28.7229,68.7374,309.7715],[28.7315,68.7597,196.1208],[28.7481,68.7861,194.4645],[28.7542,68.7858,201.8068],[28.7649,68.8131,197.515],[28.7811,68.8391,192.8616],[28.7875,68.8387,203.6799],[28.7987,68.8672,194.8855],[28.8035,68.8749,176.1824],[28.7655,68.8786,208.4144],[28.7664,68.8807,196.2907],[28.7187,68.8831,190.1206],[28.6759,68.8871,171.4662],[28.5816,68.8897,230.4015],[28.5808,68.8878,204.9327],[28.5591,68.8863,199.8165],[28.5429,68.887,159.8961],[28.5421,68.8851,159.9579],[28.5208,68.8836,165.9955],[28.4916,68.885,190.5443],[28.4591,68.8978,176.904],[28.46,68.9001,164.6825],[28.453,68.9004,163.7789],[28.4483,68.9025,130.1761],[28.4493,68.9052,129.5546],[28.4414,68.9055,117.5],[28.4347,68.9084,130.8773],[28.5311,68.9376,169.7611],[28.537,68.9373,144.8092],[28.5379,68.9396,148.2594],[28.5829,68.9533,174.6028],[28.5933,68.9528,169.6348],[28.5949,68.9569,164.1229],[28.8029,69.0198,169.0528],[28.8087,69.0196,176.1055],[28.8096,69.0219,172.971],[28.9061,69.0511,113.8414],[28.9097,69.0509,112.0159],[28.9103,69.0524,133.4183],[28.9248,69.0567,166.2591],[28.9257,69.0592,156.69],[28.9133,69.0598,162.1378],[28.9151,69.0643,146.6254],[28.8903,69.0655,140.0966],[28.8921,69.07,135.621],[28.8673,69.0712,155.7412],[28.8691,69.0757,153.937],[28.8566,69.0763,167.4227],[28.8584,69.0807,137.2889],[28.846,69.0814,126.6198],[28.8478,69.0858,119.5533],[28.8354,69.0864,126.3235],[28.8372,69.0909,127.8572],[28.8247,69.0915,146.6364],[28.8283,69.1004,150.3684],[28.8159,69.101,146.6269],[28.8176,69.1055,153.4847],[28.8052,69.1061,163.6586],[28.8374,69.1864,192.6662],[28.8249,69.187,199.1973],[28.8429,69.2316,218.1207],[28.8554,69.231,202.8143],[28.859,69.2399,202.3239],[28.8715,69.2393,192.8627],[28.8733,69.2437,192.4472],[28.8858,69.2431,186.0933],[28.8894,69.252,189.4898],[28.902,69.2514,191.5937],[28.9056,69.2603,188.4901],[28.9181,69.2597,189.431],[28.9217,69.2686,191.1905],[28.9343,69.268,191.5498],[28.9361,69.2725,192.4212],[28.9486,69.2719,174.6302],[28.9523,69.2808,192.3084],[28.9648,69.2802,174.2293],[28.9685,69.2891,180.7087],[28.981,69.2884,174.6638],[28.9828,69.2929,177.2514],[28.9954,69.2923,188.3085],[28.9991,69.3012,191.1909],[29.0116,69.3006,185.5],[29.0153,69.3095,198.8139],[29.0278,69.3089,204.6882],[29.0315,69.3178,224.7544],[29.0441,69.3171,235.345],[29.0459,69.3216,314.1549],[29.0585,69.321,313.7807],[29.0622,69.3299,308.7889],[29.0747,69.3292,281.9482],[29.0785,69.3382,228.5276],[29.091,69.3375,233.6244],[29.0929,69.342,224.2568],[29.1055,69.3414,216.6325],[29.1092,69.3503,213.5591],[29.1218,69.3496,209.4987],[29.1255,69.3586,228.4832],[29.1381,69.3579,233.5316],[29.1418,69.3668,232.0425],[29.1544,69.3662,217.746],[29.1563,69.3707,231.3292],[29.1688,69.37,213.5158],[29.1726,69.3789,224.9304],[29.1852,69.3783,215.8866],[29.189,69.3872,223.2208],[29.2015,69.3866,217.3045],[29.2034,69.391,223.7414],[29.216,69.3904,231.0375],[29.2217,69.4038,207.7635],[29.2343,69.4031,212.2644],[29.24,69.4165,192.57],[29.2526,69.4158,185.3853],[29.2583,69.4292,220.5463],[29.2709,69.4286,218.123],[29.2766,69.4419,212.2567],[29.2893,69.4413,223.2232],[29.295,69.4546,197.7884],[29.3076,69.454,209.3225],[29.3134,69.4674,244.7587],[29.326,69.4667,238.3904],[29.3356,69.489,228.0],[29.323,69.4896,234.5244],[29.3249,69.4941,228.8407],[29.3123,69.4947,211.5724],[29.3161,69.5037,186.0596],[29.3035,69.5043,182.5],[29.3073,69.5132,173.9655],[29.2946,69.5139,174.0849],[29.2985,69.5228,163.3689],[29.2858,69.5234,182.5089],[29.2897,69.5323,157.6838],[29.277,69.533,142.5618],[29.2808,69.5419,135.2591],[29.2682,69.5425,130.8833],[29.2701,69.547,133.8645],[29.2574,69.5476,132.786],[29.2612,69.5565,148.3069],[29.2485,69.5572,155.2892],[29.2524,69.5661,103.3002],[29.2397,69.5667,101.9022],[29.2435,69.5756,96.0511],[29.2308,69.5763,118.9541],[29.2347,69.5852,94.8418],[29.222,69.5859,94.4466],[29.2258,69.5948,71.3867],[29.2131,69.5954,91.7382],[29.2169,69.6043,76.2015],[29.2042,69.605,117.8486],[29.2061,69.6094,118.7351],[29.1934,69.6101,107.6757],[29.1972,69.619,137.9581],[29.1845,69.6196,157.4032],[29.1883,69.6285,137.5683],[29.1756,69.6292,196.991],[29.1794,69.6381,178.0378],[29.1666,69.6387,194.0954],[29.1705,69.6476,139.8999],[29.1577,69.6483,128.0236],[29.1634,69.6616,139.8308],[29.1507,69.6623,108.9222],[29.1545,69.6712,89.2497],[29.1418,69.6718,90.9311],[29.1475,69.6852,81.4991],[29.1347,69.6858,88.9879],[29.1385,69.6947,114.0808],[29.113,69.696,127.3772],[29.1149,69.7005,92.1056],[29.0766,69.7024,91.1199],[29.0784,69.7068,90.9966],[29.0401,69.7087,68.2533],[29.042,69.7132,71.0865],[28.9909,69.7157,99.7284],[28.9928,69.7202,128.2551],[28.9544,69.722,84.8049],[28.9563,69.7265,84.8606],[28.9051,69.729,129.5091],[28.9069,69.7334,133.4241],[28.8814,69.7347,128.5],[28.8832,69.7391,128.5],[28.8448,69.741,183.0922],[28.8466,69.7454,173.7705],[28.8082,69.7473,203.8195],[28.8101,69.7517,199.5085],[28.7716,69.7536,189.7757],[28.7735,69.758,190.1966],[28.735,69.7599,203.8952],[28.7368,69.7643,204.5],[28.6984,69.7662,257.0717],[28.7002,69.7706,260.6772],[28.6617,69.7724,264.6797],[28.6635,69.7769,287.1084],[28.625,69.7787,288.8331],[28.6268,69.7832,295.8577],[28.5883,69.785,328.4046],[28.5901,69.7894,309.947],[28.5516,69.7912,303.7196],[28.5534,69.7957,310.9461],[28.5149,69.7975,336.4628],[28.5167,69.8019,353.8297],[28.4781,69.8037,282.6861],[28.4799,69.8082,288.3011],[28.4413,69.8099,274.9207],[28.4431,69.8144,270.4438],[28.4045,69.8162,318.8421],[28.4063,69.8206,317.0814],[28.3934,69.8212,278.4786],[28.3952,69.8257,276.7744],[28.3823,69.8263,268.4406],[28.3841,69.8307,268.7221],[28.3712,69.8313,268.5979],[28.373,69.8358,268.7554],[28.3601,69.8364,268.8002],[28.3619,69.8408,270.3907],[28.349,69.8414,289.3904],[28.3507,69.8459,298.2025],[28.325,69.847,353.8283],[28.3285,69.856,341.6905],[28.3414,69.8554,331.8115],[28.3519,69.8822,277.546],[28.3261,69.8834,245.7955],[28.3279,69.8878,256.4587],[28.3021,69.889,244.6381],[28.3038,69.8934,252.9561],[28.2651,69.8952,231.015],[28.2668,69.8996,226.2333],[28.241,69.9008,254.5176],[28.2427,69.9053,225.1886],[28.2169,69.9064,224.1895],[28.2186,69.9109,224.4505],[28.1928,69.912,223.6669],[28.1945,69.9165,252.0013],[28.1687,69.9176,211.3721],[28.1704,69.9221,229.3318],[28.1575,69.9227,265.6915],[28.1592,69.9271,229.3382],[28.1463,69.9277,188.7807],[28.148,69.9322,191.433],[28.135,69.9327,178.4895],[28.1368,69.9372,178.3069],[28.1238,69.9378,154.7874],[28.1255,69.9422,151.1632],[28.1126,69.9428,148.4877],[28.1143,69.9473,145.4728],[28.1014,69.9478,128.5329],[28.1031,69.9523,152.7378],[28.0901,69.9529,181.0673],[28.0936,69.9618,145.557],[28.0806,69.9624,145.5769],[28.0823,69.9669,171.5177],[28.0693,69.9674,192.4385],[28.0711,69.9719,210.859],[28.0581,69.9724,208.5137],[28.0598,69.9769,226.905],[28.0468,69.9775,152.8764],[28.0485,69.9819,142.6173],[28.0356,69.9825,101.5405],[28.0373,69.987,119.2211],[28.0243,69.9875,87.0235],[28.0277,69.9965,101.9936],[28.0147,69.997,36.5111],[28.0164,70.0015,12.5954],[28.0035,70.0021,12.5613],[28.0052,70.0065,12.7047],[27.9922,70.0071,12.7922],[27.9939,70.0116,12.7989],[27.9809,70.0121,29.0081],[27.9894,70.0345,129.2805],[27.9764,70.035,116.7266],[27.9848,70.0574,205.0341],[27.9718,70.0579,246.6237],[27.9769,70.0714,139.2012],[27.9639,70.0719,159.7732],[27.969,70.0853,31.2814],[27.956,70.0859,81.2309],[27.9576,70.0903,25.218],[27.9316,70.0915,19.9747],[27.9299,70.087,36.1989],[27.9038,70.0881,31.6122],[27.9021,70.0836,20.936],[27.863,70.0853,13.5],[27.8613,70.0808,27.0291],[27.8353,70.0819,20.0468],[27.8336,70.0774,20.9541],[27.7945,70.079,58.0121],[27.7928,70.0746,16.0],[27.7798,70.0751,45.904],[27.7781,70.0706,17.0],[27.7651,70.0712,28.2056],[27.7634,70.0667,17.5],[27.7504,70.0673,48.7299],[27.7488,70.0628,18.5],[27.7357,70.0633,19.0],[27.7374,70.0678,48.6892],[27.7113,70.0689,20.5],[27.713,70.0733,51.843],[27.6999,70.0739,53.4822],[27.7016,70.0784,102.1353],[27.6755,70.0794,51.3709],[27.6739,70.075,68.8815],[27.6217,70.0771,60.7741],[27.6201,70.0726,55.2116],[27.607,70.0731,36.0],[27.6054,70.0687,71.5739],[27.5794,70.0697,38.5],[27.5761,70.0608,62.5913],[27.5631,70.0613,40.0],[27.5615,70.0568,59.7055],[27.5485,70.0574,40.5],[27.5356,70.0216,77.9121],[27.4836,70.0237,54.8035],[27.482,70.0192,59.2303],[27.43,70.0213,48.9853],[27.4284,70.0168,66.302],[27.4154,70.0173,45.0],[27.4138,70.0128,71.4871],[27.4008,70.0133,47.1615],[27.3977,70.0044,78.5279],[27.3847,70.0049,59.6793],[27.3815,69.996,108.6649],[27.3685,69.9965,46.5],[27.367,69.992,92.3609],[27.354,69.9925,56.5195],[27.3524,69.988,85.8991],[27.3005,69.9901,58.2055],[27.2989,69.9856,50.6328],[27.2859,69.9861,60.5184],[27.2813,69.9727,51.1399],[27.2943,69.9722,64.4206],[27.2912,69.9632,89.9442],[27.3041,69.9627,56.9128],[27.3011,69.9538,61.183],[27.2881,69.9543,54.709],[27.2865,69.9498,117.0586],[27.2476,69.9513,58.4559],[27.2461,69.9468,55.8051],[27.2202,69.9478,60.1035],[27.2186,69.9434,55.9752],[27.2057,69.9439,63.746],[27.2041,69.9394,94.8524],[27.1785,69.9404,73.491],[27.1767,69.9359,62.0975],[27.1637,69.9364,63.9298],[27.1622,69.9319,101.6656],[27.1233,69.9334,82.9537],[27.1188,69.92,105.0156],[27.1059,69.9205,62.5679],[27.1044,69.916,127.4521],[27.0525,69.918,79.1541],[27.0496,69.909,65.8813],[27.0237,69.91,93.2853],[27.0252,69.9145,64.2143],[27.0122,69.915,80.9697],[27.0152,69.9239,157.6682],[27.0022,69.9244,77.3851],[27.0037,69.9289,136.9886],[26.9907,69.9294,104.7297],[26.9922,69.9339,102.624],[26.9792,69.9343,85.9421],[26.9807,69.9388,106.123],[26.9288,69.9408,94.9778],[26.9274,69.9363,80.0006],[26.9144,69.9368,72.7101],[26.9129,69.9323,123.5318],[26.874,69.9337,73.0118],[26.8755,69.9382,126.5618],[26.8625,69.9387,74.1077],[26.864,69.9432,91.3256],[26.851,69.9437,106.9208],[26.8568,69.9616,82.74],[26.8308,69.9625,86.9188],[26.8294,69.958,81.6811],[26.7774,69.96,102.2095],[26.776,69.9555,88.9651],[26.763,69.9559,79.9063],[26.7616,69.9515,95.1291],[26.7486,69.9519,83.3445],[26.7472,69.9474,108.368],[26.7342,69.9479,80.9672],[26.7328,69.9434,117.4039],[26.7068,69.9444,125.6406],[26.7082,69.9489,107.6213],[26.6953,69.9493,91.5315],[26.6981,69.9583,121.9135],[26.6851,69.9587,90.9458],[26.6865,69.9632,102.8645],[26.6606,69.9642,123.3092],[26.6591,69.9597,105.1388],[26.6202,69.9611,119.4993],[26.6188,69.9566,105.7985],[26.5928,69.9575,150.1023],[26.5914,69.953,122.176],[26.5654,69.9539,183.1272],[26.564,69.9495,119.4194],[26.5511,69.9499,112.7473],[26.5497,69.9454,120.8608],[26.4977,69.9473,163.1499],[26.4964,69.9428,129.9878],[26.4834,69.9432,100.7416],[26.482,69.9387,115.1234],[26.469,69.9392,107.3886],[26.4677,69.9347,133.5417],[26.4547,69.9352,107.8357],[26.4519,69.9262,115.1154],[26.4649,69.9257,232.2778],[26.4635,69.9213,191.2582],[26.4506,69.9217,111.899],[26.4479,69.9127,161.7776],[26.4349,69.9132,130.3492],[26.4322,69.9042,199.1616],[26.4192,69.9047,103.0863],[26.4179,69.9002,156.6242],[26.4049,69.9006,106.2911],[26.4035,69.8962,109.8862],[26.4165,69.8957,166.0962],[26.4084,69.8688,107.946],[26.3954,69.8693,110.0869],[26.3914,69.8558,141.0557],[26.3785,69.8562,108.2114],[26.3758,69.8473,159.6893],[26.3628,69.8477,107.8406],[26.3615,69.8432,122.7626],[26.3486,69.8437,112.7765],[26.3473,69.8392,112.679],[26.3343,69.8396,105.8911],[26.333,69.8352,114.0157],[26.3201,69.8356,121.4217],[26.3187,69.8311,142.4294],[26.3058,69.8316,125.0726],[26.3045,69.8271,141.3744],[26.2916,69.8275,107.962],[26.2903,69.823,159.663],[26.2773,69.8235,107.0443],[26.276,69.819,180.013],[26.2502,69.8199,115.537],[26.2423,69.7929,118.5702],[26.2294,69.7934,107.165],[26.2268,69.7844,111.784],[26.2139,69.7848,136.0514],[26.2126,69.7804,108.0109],[26.1997,69.7808,171.4581],[26.1984,69.7763,108.7575],[26.1855,69.7767,157.4318],[26.1804,69.7588,108.9687],[26.1675,69.7592,114.1563],[26.1662,69.7547,127.6222],[26.1533,69.7552,109.8729],[26.1494,69.7417,148.0069],[26.1366,69.7421,116.7177],[26.1353,69.7377,110.5717],[26.1224,69.7381,111.1868],[26.1199,69.7291,152.3182],[26.0813,69.7304,111.9187],[26.08,69.7259,113.9905],[26.0672,69.7263,110.9411],[26.0659,69.7218,111.0063],[26.0273,69.7231,113.0138],[26.026,69.7186,132.044],[26.0132,69.719,111.4002],[26.0145,69.7235,111.4751],[26.0016,69.724,155.0075],[25.9991,69.715,139.1752],[25.9862,69.7154,112.4467],[25.9837,69.7064,168.5457],[25.9709,69.7068,111.638],[25.9696,69.7023,128.5379],[25.9568,69.7028,113.7986],[25.9531,69.6893,139.8748],[25.9402,69.6897,113.8599],[25.9377,69.6807,116.669],[25.9249,69.6812,112.2739],[25.9237,69.6767,113.0052],[25.9108,69.6771,112.9074],[25.9096,69.6726,116.4947],[25.8968,69.673,170.024],[25.8931,69.6596,115.3912],[25.9187,69.6587,145.5722],[25.9175,69.6542,117.246],[25.9431,69.6534,125.0457],[25.9419,69.6489,117.4857],[25.9547,69.6485,123.1001],[25.9522,69.6395,141.6803],[25.965,69.6391,126.2471],[25.9588,69.6167,168.8087],[25.9716,69.6163,115.6732],[25.9704,69.6118,164.3277],[25.9832,69.6114,123.84],[25.9819,69.6069,127.3213],[25.9691,69.6073,131.4489],[25.9666,69.5983,116.2197],[25.9538,69.5988,143.9533],[25.9477,69.5763,120.0382],[25.9349,69.5767,120.014],[25.9324,69.5678,218.8146],[25.9197,69.5682,117.9692],[25.9184,69.5637,258.8811],[25.9057,69.5641,118.3777],[25.9044,69.5596,137.6784],[25.8917,69.56,118.3671],[25.8905,69.5555,119.3979],[25.8777,69.556,118.6718],[25.8765,69.5515,131.6617],[25.8382,69.5527,119.7363],[25.837,69.5482,119.5826],[25.8498,69.5478,161.4707],[25.8473,69.5388,119.4825],[25.8601,69.5384,144.6173],[25.8589,69.5339,119.7787],[25.8716,69.5335,128.7081],[25.8704,69.529,119.456],[25.8831,69.5286,151.6447],[25.8807,69.5197,123.9292],[25.868,69.5201,141.8141],[25.8631,69.5021,133.9947],[25.8504,69.5025,120.8223],[25.8492,69.498,119.2986],[25.8468,69.4891,119.4586],[25.8595,69.4887,156.5131],[25.8583,69.4842,120.0139],[25.871,69.4838,157.549],[25.8686,69.4748,140.8877],[25.8558,69.4752,125.5162],[25.8546,69.4707,128.6813],[25.8419,69.4711,121.1114],[25.8371,69.4532,193.0961],[25.8244,69.4536,121.2744],[25.8196,69.4356,143.4357],[25.8069,69.436,121.4139],[25.8057,69.4315,121.4888],[25.8184,69.4311,137.844],[25.8172,69.4267,136.8672],[25.8045,69.4271,124.6975],[25.8033,69.4226,124.7878],[25.7906,69.423,159.447],[25.7894,69.4185,148.8858],[25.8275,69.4173,155.3392],[25.8263,69.4128,124.1782],[25.8136,69.4132,125.7345],[25.8112,69.4042,127.0192],[25.8239,69.4038,123.5799],[25.8251,69.4083,130.7012],[25.8378,69.4079,152.1546],[25.8354,69.3989,128.2983],[25.848,69.3985,133.2546],[25.8468,69.3941,125.7365],[25.8342,69.3944,141.4966],[25.8306,69.381,131.4083],[25.8179,69.3814,197.1929],[25.8131,69.3634,162.9382],[25.8258,69.363,257.6172],[25.8246,69.3586,193.622],[25.7993,69.3594,154.6743],[25.7981,69.3549,162.3938],[25.7854,69.3553,141.853],[25.7819,69.3418,165.6904],[25.7566,69.3426,161.9376],[25.7554,69.3381,161.7787],[25.7681,69.3377,171.4514],[25.7645,69.3243,202.0281],[25.7519,69.3247,149.6613],[25.7507,69.3202,150.5421],[25.7381,69.3206,227.5153],[25.7346,69.3071,231.7484],[25.7472,69.3067,146.9546],[25.7448,69.2978,164.374],[25.7322,69.2982,153.4204],[25.731,69.2937,175.0793],[25.7436,69.2933,151.5169],[25.7425,69.2888,160.4183],[25.7551,69.2884,180.0845],[25.7539,69.2839,247.8148],[25.7413,69.2843,150.2233],[25.7389,69.2753,148.7311],[25.7263,69.2757,151.9475],[25.724,69.2668,173.8373],[25.7366,69.2663,195.5118],[25.7354,69.2619,160.0409],[25.7228,69.2623,168.9158],[25.7217,69.2578,146.4454],[25.7091,69.2582,208.4874],[25.7009,69.2268,175.2148],[25.7135,69.2264,151.2738],[25.7077,69.2039,179.5436],[25.6951,69.2043,153.7408],[25.6928,69.1954,158.4866],[25.7053,69.195,197.4037],[25.703,69.186,180.1361],[25.7156,69.1856,173.7536],[25.7121,69.1721,189.5591],[25.7246,69.1717,175.4949],[25.7223,69.1628,160.7684],[25.7348,69.1624,184.1672],[25.7314,69.1489,179.1407],[25.7439,69.1485,189.9325],[25.7369,69.1216,181.2594],[25.7244,69.122,184.2329],[25.7232,69.1175,178.2347],[25.7209,69.1085,164.7894],[25.7334,69.1081,196.343],[25.7253,69.0767,173.5493],[25.7378,69.0763,193.1016],[25.7355,69.0674,172.0246],[25.7479,69.067,192.8281],[25.7456,69.058,196.8877],[25.7581,69.0576,195.3513],[25.7546,69.0441,190.3125],[25.7421,69.0445,189.6293],[25.741,69.04,212.3135],[25.7534,69.0396,180.8872],[25.7511,69.0307,177.232],[25.776,69.0299,192.4039],[25.7691,69.003,197.6033],[25.7566,69.0034,178.0923],[25.7554,68.9989,203.3115],[25.743,68.9993,188.4403],[25.7419,68.9948,197.2626],[25.7294,68.9952,194.1308],[25.7271,68.9862,199.8044],[25.7147,68.9866,196.3374],[25.7066,68.9552,205.1954],[25.6942,68.9556,201.231],[25.6896,68.9377,223.7609],[25.6772,68.9381,197.0167],[25.6738,68.9246,226.4614],[25.6614,68.925,197.1217],[25.6568,68.9071,195.1259],[25.6444,68.9074,207.1132],[25.6433,68.903,192.8075],[25.6309,68.9034,207.0822],[25.6275,68.8899,201.8505],[25.6028,68.8907,207.9731],[25.6005,68.8817,216.0861],[25.5758,68.8825,205.7517],[25.5769,68.887,209.7184],[25.5273,68.8885,209.1135],[25.5284,68.893,210.4679],[25.516,68.8934,210.9041],[25.5171,68.8979,223.0579],[25.4924,68.8986,216.9883],[25.4935,68.9031,209.1664],[25.4687,68.9039,222.0478],[25.4676,68.8994,242.3469],[25.4552,68.8998,215.4478],[25.4541,68.8953,242.5143],[25.4293,68.896,222.7803],[25.4282,68.8916,222.902],[25.4034,68.8923,225.7076],[25.4013,68.8833,232.7767],[25.3765,68.8841,228.3589],[25.3743,68.8751,248.1897],[25.3496,68.8759,239.0193],[25.3485,68.8714,231.8264],[25.3361,68.8717,240.5788],[25.335,68.8672,239.5995],[25.3227,68.8676,238.472],[25.3216,68.8631,268.9551],[25.2969,68.8639,255.2318],[25.2947,68.8549,292.5948],[25.2824,68.8553,227.3552],[25.2813,68.8508,313.6838],[25.2689,68.8511,228.9596],[25.2679,68.8466,255.0948],[25.2555,68.847,235.0084],[25.2545,68.8425,252.4757],[25.2421,68.8429,255.4863],[25.2379,68.8249,334.258],[25.2255,68.8253,244.1536],[25.2245,68.8208,251.8159],[25.2121,68.8212,258.0717],[25.2101,68.8122,263.1926],[25.1977,68.8126,265.806],[25.1967,68.8081,254.8285],[25.1843,68.8084,249.0218],[25.1833,68.8039,298.7489],[25.1709,68.8043,250.2436],[25.1699,68.7998,266.1611],[25.1576,68.8002,254.3406],[25.1555,68.7912,299.9478],[25.1432,68.7916,274.974],[25.135,68.7556,333.2705],[25.1227,68.756,294.0394],[25.1196,68.7425,324.4456],[25.1319,68.7422,331.697],[25.1238,68.7063,337.4195],[25.1115,68.7066,313.34],[25.1084,68.6932,322.0414],[25.1207,68.6928,344.2384],[25.1197,68.6883,331.5378],[25.1074,68.6887,323.1337],[25.1044,68.6752,332.5966],[25.1167,68.6748,326.6842],[25.1116,68.6524,313.9357],[25.1239,68.652,321.0364],[25.1208,68.6386,318.4968],[25.0963,68.6393,327.3062],[25.0933,68.6258,327.0736],[25.081,68.6262,333.8787],[25.08,68.6217,331.0345],[25.0555,68.6224,338.3806],[25.0565,68.6269,346.735],[25.0443,68.6272,353.8814],[25.0433,68.6227,357.7253],[25.0188,68.6234,351.354],[25.0168,68.6144,351.5623],[25.0045,68.6148,351.593],[25.0036,68.6103,353.3194],[24.9913,68.6107,354.3118],[24.9923,68.6152,353.4203],[24.9555,68.6162,361.9328],[24.9546,68.6117,368.6106],[24.9301,68.6124,377.2797],[24.9291,68.6079,383.282],[24.9169,68.6083,394.6543],[24.9052,68.5544,451.6836],[24.893,68.5547,443.7781],[24.894,68.5592,428.0472],[24.8573,68.5602,420.9944],[24.8592,68.5692,416.6869],[24.847,68.5695,443.6339],[24.8489,68.5785,411.9639],[24.8367,68.5788,406.3149],[24.8386,68.5878,412.2347],[24.8264,68.5882,422.2892],[24.8283,68.5972,448.8876],[24.816,68.5975,432.9262],[24.8179,68.6065,462.4196],[24.8057,68.6068,462.2125],[24.8085,68.6203,463.7836],[24.7963,68.6206,442.7121],[24.7982,68.6296,416.6801],[24.7859,68.6299,422.0557],[24.7878,68.6389,448.2789],[24.7633,68.6396,444.5705],[24.7642,68.6441,465.282],[24.7397,68.6447,454.3336],[24.7407,68.6492,466.4551],[24.7284,68.6495,466.7822],[24.7293,68.654,478.6878],[24.7048,68.6547,444.3962],[24.7057,68.6592,441.8086],[24.6812,68.6598,443.7035],[24.6821,68.6643,432.7781],[24.6698,68.6646,460.7995],[24.6707,68.6691,466.2991],[24.6462,68.6698,459.9382],[24.6471,68.6743,463.0152],[24.6225,68.6749,471.9975],[24.6234,68.6794,515.0132],[24.6112,68.6797,543.8445],[24.6121,68.6842,534.4789],[24.5629,68.6855,478.0077],[24.5638,68.69,470.6328],[24.5146,68.6912,497.9182],[24.5155,68.6957,490.5174],[24.4663,68.697,485.7306],[24.4672,68.7015,486.1322],[24.418,68.7027,510.7532],[24.4189,68.7072,542.0208],[24.3574,68.7087,500.7141],[24.3582,68.7132,517.8718],[24.309,68.7144,492.3941],[24.3099,68.7189,488.3199],[24.2729,68.7198,518.7593],[24.2738,68.7243,520.9939],[24.2491,68.7249,525.2648],[24.25,68.7294,520.2943],[24.2377,68.7297,520.5958],[24.2385,68.7342,523.8423],[24.2262,68.7345,520.4798],[24.227,68.739,520.9219],[24.2147,68.7393,513.673],[24.2155,68.7438,494.4451],[24.2032,68.7441,491.3459],[24.2041,68.7486,501.3169],[24.1671,68.7494,543.1388],[24.1679,68.7539,547.2471],[24.1556,68.7542,547.1865],[24.1622,68.7902,554.0282],[24.1498,68.7905,532.1158],[24.149,68.786,570.0256],[24.112,68.7868,493.39],[24.1111,68.7823,507.0219],[24.0864,68.7829,498.9732],[24.0856,68.7784,499.7907],[24.0733,68.7787,526.2216],[24.0741,68.7832,496.6354],[24.0617,68.7835,469.3679],[24.0626,68.788,464.7774],[24.0502,68.7882,461.5536],[24.0518,68.7972,462.7772],[24.0395,68.7975,454.7008],[24.0403,68.802,458.8328],[24.0279,68.8023,464.2035],[24.0287,68.8068,463.3223],[24.0163,68.8071,466.9698],[24.0171,68.8116,487.4424],[24.0048,68.8118,484.7618],[24.0064,68.8208,483.4392],[23.994,68.8211,485.6358],[23.9948,68.8256,497.4798],[23.97,68.8262,509.7459],[23.9708,68.8307,502.8751],[23.8966,68.8323,538.2209],[23.8974,68.8368,536.3382],[23.8602,68.8376,559.5446],[23.8594,68.8331,554.4095],[23.8471,68.8334,528.0889],[23.8463,68.8289,526.3563],[23.8215,68.8294,532.5735],[23.8208,68.8249,559.9033],[23.796,68.8254,561.0143],[23.7953,68.821,540.53],[23.7829,68.8212,567.6332],[23.7821,68.8167,570.1454],[23.7697,68.817,556.2866],[23.7652,68.79,462.8871],[23.7529,68.7903,485.6796],[23.7491,68.7678,470.3192],[23.7368,68.768,439.0074],[23.7331,68.7456,431.2194],[23.7208,68.7458,434.888],[23.7193,68.7368,438.0837],[23.7069,68.7371,436.055],[23.7047,68.7236,469.616],[23.6924,68.7239,464.6814],[23.6909,68.7149,494.7085],[23.6786,68.7151,501.937],[23.6772,68.7061,605.9448],[23.6525,68.7066,466.1241],[23.6518,68.7021,490.7934],[23.5903,68.7034,390.4972],[23.5895,68.6989,391.0492],[23.5403,68.6999,430.2877],[23.5396,68.6954,437.1291],[23.478,68.6966,478.6731],[23.4774,68.6921,481.502],[23.4404,68.6928,543.2947],[23.4398,68.6883,517.9201],[23.4151,68.6888,493.1313],[23.4145,68.6843,464.0351],[23.4022,68.6846,471.6602],[23.4015,68.6801,473.6044],[23.3769,68.6805,416.068],[23.3762,68.676,417.1746],[23.3639,68.6763,393.3571],[23.3633,68.6718,396.2098],[23.351,68.672,390.5837],[23.3503,68.6675,391.3599],[23.3257,68.668,390.951],[23.325,68.6635,385.6566],[23.3127,68.6637,389.598],[23.3121,68.6592,389.6261],[23.2875,68.6597,398.624],[23.2869,68.6552,411.8616],[23.2746,68.6554,407.152],[23.2739,68.6509,416.5294],[23.2616,68.6511,421.9031],[23.261,68.6466,436.9844],[23.2364,68.6471,462.0379],[23.2358,68.6426,479.8885],[23.2235,68.6428,461.1844],[23.2229,68.6383,470.0226],[23.1983,68.6387,423.0685],[23.1977,68.6343,420.1138],[23.1854,68.6345,416.2874],[23.1848,68.63,413.2708],[23.1602,68.6304,447.106],[23.1608,68.6349,446.5338],[23.1485,68.6351,439.3016],[23.1492,68.6396,448.0087],[23.1369,68.6399,440.5709],[23.1381,68.6488,474.6983],[23.1258,68.6491,453.6664],[23.1265,68.6536,463.3104],[23.1142,68.6538,471.74],[23.1148,68.6583,484.5179],[23.1025,68.6585,519.9611],[23.1031,68.663,519.1693],[23.0908,68.6632,519.725],[23.092,68.6722,491.3994],[23.0797,68.6724,471.8192],[23.0804,68.6769,469.6552],[23.0681,68.6771,482.7978],[23.0687,68.6816,481.8907],[23.0564,68.6818,484.4069],[23.057,68.6863,472.7489],[23.0446,68.6866,450.7781],[23.0453,68.6911,442.8337],[23.0206,68.6915,462.7276],[23.02,68.687,466.8903],[22.8354,68.69,524.9069],[22.8348,68.6855,534.9393],[22.7979,68.6861,545.234],[22.7985,68.6906,560.2258],[22.7738,68.691,497.8626],[22.7744,68.6955,506.6158],[22.7497,68.6959,525.4175],[22.7503,68.7004,519.4904],[22.7257,68.7008,519.8923],[22.7262,68.7053,515.5199],[22.7139,68.7055,503.064],[22.7144,68.71,497.2245],[22.6898,68.7103,517.1368],[22.6903,68.7148,519.8711],[22.6656,68.7152,511.9305],[22.6662,68.7197,506.4221],[22.6415,68.7201,544.5171],[22.642,68.7246,547.4612],[22.6174,68.7249,507.3158],[22.6179,68.7295,513.232],[22.5932,68.7298,535.5309],[22.5937,68.7343,514.1178],[22.5691,68.7347,551.9204],[22.5696,68.7392,531.3859],[22.5449,68.7395,629.3572],[22.5454,68.744,634.6755],[22.5207,68.7444,559.2258],[22.5202,68.7399,556.7226],[22.4955,68.7402,507.2234],[22.495,68.7357,495.4232],[22.4704,68.7361,467.0662],[22.4699,68.7316,465.5658],[22.4575,68.7317,463.2666],[22.457,68.7272,464.2765],[22.4324,68.7276,480.6995],[22.4319,68.7231,470.3172],[22.4072,68.7234,547.4531],[22.4067,68.7189,523.6049],[22.3697,68.7194,511.2432],[22.3726,68.7464,450.0045],[22.3602,68.7466,450.5992],[22.3635,68.7781,480.4965],[22.3512,68.7783,491.0353],[22.3544,68.8098,559.8828],[22.3421,68.8099,546.4083],[22.3439,68.8279,557.6458],[22.3315,68.8281,553.7775],[22.3325,68.8371,500.4983],[22.3201,68.8373,502.0503],[22.321,68.8463,463.8087],[22.3086,68.8464,452.3438],[22.3091,68.8509,442.0574],[22.2967,68.8511,437.9867],[22.2976,68.8601,439.1994],[22.2852,68.8603,438.0934],[22.2856,68.8648,441.4763],[22.2732,68.8649,440.1487],[22.2741,68.8739,447.4963],[22.2617,68.8741,458.0697],[22.2622,68.8786,454.0361],[22.2498,68.8787,459.1451],[22.2507,68.8877,446.8274],[22.2382,68.8879,449.5329],[22.2387,68.8924,449.538],[22.2263,68.8926,449.957],[22.2271,68.9016,451.8564],[22.2147,68.9017,452.78],[22.2156,68.9107,484.6047],[22.2032,68.9109,482.6602],[22.2036,68.9154,483.1896],[22.1912,68.9155,479.9678],[22.1929,68.9335,490.5839],[22.1805,68.9337,465.0471],[22.1827,68.9562,477.6848],[22.1702,68.9563,491.8851],[22.1711,68.9654,523.9467],[22.1586,68.9655,518.6743],[22.1591,68.97,512.2907],[22.1466,68.9702,503.6207],[22.1474,68.9792,493.1022],[22.135,68.9793,487.829],[22.1354,68.9838,484.1666],[22.1229,68.984,478.7684],[22.1238,68.993,513.2852],[22.1113,68.9931,502.5835],[22.1117,68.9976,515.8221],[22.0992,68.9978,504.6718],[22.1001,69.0068,518.7198],[22.0876,69.0069,505.5298],[22.0884,69.0159,522.0393],[22.0759,69.0161,516.8133],[22.0764,69.0206,524.7288],[22.0639,69.0207,509.9938],[22.0647,69.0297,518.3388],[22.0522,69.0299,523.2491],[22.0526,69.0344,527.1509],[22.0401,69.0345,522.5075],[22.0409,69.0435,536.0354],[22.0284,69.0437,538.1774],[22.0288,69.0482,552.1613],[22.0163,69.0483,566.996],[22.0171,69.0573,581.9859],[22.0046,69.0575,581.892],[22.005,69.062,580.7628],[21.9925,69.0621,529.3469],[21.9933,69.0711,544.0618],[21.9808,69.0712,509.186],[21.9812,69.0757,520.722],[21.9686,69.0759,540.2414],[21.9694,69.0849,533.1612],[21.9569,69.085,537.8456],[21.9573,69.0895,547.7474],[21.9447,69.0897,542.4377],[21.9455,69.0987,573.2578],[21.933,69.0988,568.4291],[21.9334,69.1033,572.2859],[21.9208,69.1034,562.1171],[21.9212,69.1079,577.0891],[21.9087,69.1081,568.6722],[21.9095,69.1171,600.5909],[21.8969,69.1172,595.9044],[21.8973,69.1217,609.4367],[21.8847,69.1218,612.6068],[21.8851,69.1264,627.1935],[21.8725,69.1265,641.8426],[21.8733,69.1355,659.5772],[21.8607,69.1356,720.6618],[21.8611,69.1401,719.6119],[21.8486,69.1403,831.623],[21.8489,69.1448,816.9593],[21.8364,69.1449,791.7307],[21.8371,69.1539,688.5536],[21.8245,69.154,688.3115],[21.8249,69.1585,699.5981],[21.8123,69.1587,689.0745],[21.8131,69.1677,700.8851],[21.8005,69.1678,696.0851],[21.8008,69.1723,700.1516],[21.7883,69.1724,703.4584],[21.789,69.1814,677.2772],[21.7764,69.1815,672.3198],[21.7768,69.186,681.0673],[21.7642,69.1862,708.4999],[21.7649,69.1952,736.7465],[21.7523,69.1953,742.7271],[21.7526,69.1998,761.0975],[21.74,69.1999,789.1418],[21.7407,69.2089,815.7387],[21.7281,69.2091,850.2076],[21.7285,69.2136,846.5384],[21.7159,69.2137,863.6526],[21.7166,69.2227,815.8248],[21.704,69.2228,774.8307],[21.7047,69.2318,745.5139],[21.692,69.2319,780.0779],[21.6927,69.2409,792.3289],[21.6801,69.2411,821.9437],[21.6804,69.2456,799.8463],[21.6678,69.2457,793.3778],[21.6685,69.2547,758.182],[21.6559,69.2548,782.7991],[21.6565,69.2638,759.8638],[21.6439,69.2639,766.5785],[21.6442,69.2684,758.2692],[21.6316,69.2685,785.3088],[21.6323,69.2775,825.2894],[21.5943,69.2779,823.9485],[21.5946,69.2824,852.7195],[21.544,69.2828,731.8106],[21.5444,69.2873,733.8489],[21.4937,69.2878,768.2079],[21.494,69.2923,774.6151],[21.4434,69.2927,830.6019],[21.4437,69.2972,826.0292],[21.3931,69.2976,945.6202],[21.3934,69.3021,909.471],[21.3427,69.3025,1166.5476],[21.343,69.307,1105.0581],[21.305,69.3073,1134.0852],[21.3053,69.3118,1147.0853],[21.2672,69.312,1306.4398],[21.267,69.3075,1303.5355],[21.2543,69.3076,1257.6381],[21.2541,69.3031,1118.6597],[21.2414,69.3032,1199.9213],[21.2411,69.2987,1039.7278],[21.2285,69.2988,1152.0135],[21.2282,69.2943,1091.3959],[21.2156,69.2943,1223.9855],[21.2153,69.2898,1263.3851],[21.19,69.29,1150.7333],[21.1898,69.2855,1125.254],[21.1771,69.2856,1095.8744],[21.1769,69.2811,1036.8333],[21.1642,69.2812,961.7778],[21.164,69.2767,934.2391],[21.1513,69.2767,918.5667],[21.1511,69.2722,880.6643],[21.1258,69.2724,891.3058],[21.1256,69.2679,941.1849],[21.1129,69.268,990.8972],[21.1127,69.2635,916.9417],[21.1001,69.2635,1023.1037],[21.0998,69.259,1067.7389],[21.0872,69.2591,1042.4114],[21.087,69.2546,1002.8107],[21.0743,69.2547,1024.9246],[21.0741,69.2502,1023.2961],[21.0615,69.2502,1033.1327],[21.061,69.2412,1024.8405],[21.0484,69.2413,1091.1934],[21.0482,69.2368,1115.8497],[21.0356,69.2369,1111.0873],[21.0353,69.2324,1149.5054],[21.0227,69.2324,1137.5645],[21.0225,69.2279,1116.4152],[21.0099,69.228,1097.6331],[21.0097,69.2235,1057.7665],[20.9971,69.2236,1045.8984],[20.9953,69.183,894.2192],[21.0078,69.183,953.2591],[21.0072,69.1694,1033.6797],[21.0198,69.1694,1019.3829],[21.0194,69.1604,1004.7874],[21.032,69.1603,1051.4921],[21.0314,69.1468,1081.1412],[21.0439,69.1467,1085.5966],[21.0435,69.1377,1106.8059],[21.0561,69.1376,1089.8979],[21.0552,69.1196,1022.7647],[21.0678,69.1195,991.2331],[21.0676,69.115,969.5274],[21.0801,69.1149,893.3623],[21.0799,69.1104,856.2541],[21.0925,69.1104,861.8699],[21.0922,69.1059,940.1539],[21.1048,69.1058,1034.6858],[21.1039,69.0878,818.0342],[21.0914,69.0878,792.4288],[21.0905,69.0698,696.2479],[21.0779,69.0699,731.4641],[21.0771,69.0519,706.0441],[21.0645,69.0519,679.5],[21.0639,69.0384,785.0769],[21.0389,69.0386,759.7165],[21.0391,69.0431,726.1335],[21.014,69.0432,676.8523],[21.0142,69.0477,663.5],[21.0017,69.0478,678.0771],[21.0019,69.0523,678.4123],[20.9769,69.0524,690.2997],[20.9771,69.057,696.2574],[20.9646,69.057,672.3357],[20.9648,69.0615,640.7517],[20.9397,69.0617,722.0352],[20.9399,69.0662,663.6799],[20.9274,69.0662,760.8344],[20.9275,69.0707,652.4761],[20.9025,69.0709,883.1971],[20.9027,69.0754,736.0942],[20.8901,69.0754,879.3511],[20.8903,69.0799,722.719],[20.8652,69.0801,809.8382],[20.8654,69.0846,717.8851],[20.8529,69.0846,815.5316],[20.853,69.0891,665.2923],[20.828,69.0892,894.881],[20.8281,69.0937,732.3169],[20.8156,69.0938,712.4633],[20.8157,69.0983,571.9984],[20.7906,69.0984,571.1913],[20.7908,69.1029,524.7098],[20.7783,69.103,550.8206],[20.7784,69.1075,518.8807],[20.7533,69.1076,524.7737],[20.7535,69.1121,520.4591],[20.7409,69.1121,540.984],[20.741,69.1167,549.9059],[20.7285,69.1167,560.2475],[20.7286,69.1212,584.3632],[20.7161,69.1213,624.0863],[20.7159,69.1168,577.1877],[20.7034,69.1168,633.7953],[20.7032,69.1123,625.9036],[20.6907,69.1124,569.9324],[20.6905,69.1078,597.0783],[20.678,69.1079,749.0586],[20.6778,69.1034,745.4625],[20.6653,69.1034,945.4185],[20.6652,69.0989,893.8363],[20.6526,69.099,834.8038],[20.6525,69.0945,776.0],[20.6399,69.0945,827.9564],[20.6398,69.09,874.7354],[20.6273,69.09,878.1827],[20.6271,69.0855,890.5649],[20.6146,69.0856,868.2986],[20.6145,69.0811,810.5477],[20.6019,69.0811,763.793],[20.6018,69.0766,737.399],[20.5893,69.0767,782.0168],[20.5891,69.0722,664.4579],[20.5766,69.0722,597.391],[20.5765,69.0677,531.3292],[20.564,69.0677,512.3624],[20.5638,69.0632,509.1411],[20.5513,69.0633,511.858],[20.5512,69.0588,490.0711],[20.5637,69.0587,498.6212],[20.5636,69.0542,493.8666],[20.5887,69.0541,488.6481],[20.5886,69.0496,489.2299],[20.6011,69.0496,477.8069],[20.601,69.0451,486.1434],[20.6135,69.045,478.2228],[20.6133,69.0405,529.1228],[20.6384,69.0405,494.7546],[20.6382,69.0359,585.6893],[20.7384,69.0356,473.0],[20.7382,69.0311,473.0],[20.7757,69.0309,473.0],[20.7756,69.0264,473.0],[20.8006,69.0263,473.0],[20.8004,69.0218,473.0],[20.8129,69.0217,473.0],[20.8126,69.0127,473.0],[20.8251,69.0127,473.0],[20.8249,69.0081,473.0],[20.8374,69.0081,473.0],[20.8371,68.9991,473.0],[20.8496,68.999,548.3323],[20.8493,68.99,478.4709],[20.8617,68.99,472.6457],[20.8616,68.9855,472.4336],[20.8865,68.9853,472.6045],[20.8864,68.9808,472.5514],[20.8988,68.9808,472.7975],[20.8987,68.9763,472.6152],[20.9111,68.9762,472.8021],[20.9108,68.9672,472.8265],[20.9233,68.9671,472.5158],[20.9223,68.9446,510.9288],[20.9099,68.9447,474.578],[20.9095,68.9357,472.9466],[20.8721,68.9358,495.2351],[20.8714,68.9178,459.3502],[20.8839,68.9178,460.8638],[20.8837,68.9133,460.2425],[20.8961,68.9132,463.4543],[20.8958,68.9042,460.3655],[20.9082,68.9041,478.7866],[20.9077,68.8906,458.0963],[20.9201,68.8905,459.2021],[20.9199,68.886,461.588],[20.9323,68.886,459.4669],[20.9327,68.895,460.0312],[20.9576,68.8949,458.5],[20.9574,68.8903,461.4103],[20.9823,68.8902,458.0],[20.9821,68.8857,459.7529],[20.9945,68.8856,459.521],[20.9943,68.8811,460.1455],[21.0191,68.881,460.8082],[21.0193,68.8855,458.0],[21.0442,68.8854,460.1127],[21.0438,68.8763,460.0693],[21.0562,68.8763,461.4758],[21.0558,68.8673,481.7611],[21.0806,68.8671,455.6365],[21.0804,68.8626,457.0832],[21.0928,68.8625,450.995],[21.0926,68.858,450.0095],[21.105,68.858,457.3532],[21.1048,68.8534,462.9623],[21.1296,68.8533,447.0],[21.1295,68.8488,447.0],[21.1418,68.8487,447.0],[21.1416,68.8442,447.491],[21.154,68.8441,449.3384],[21.1538,68.8396,447.7533],[21.1662,68.8395,455.1982],[21.1657,68.8305,454.0375],[21.1781,68.8305,445.0],[21.1779,68.826,445.0],[21.1903,68.8259,446.9962],[21.19,68.8214,446.6688],[21.2024,68.8213,445.5023],[21.2022,68.8168,454.9754],[21.2146,68.8167,441.0],[21.2143,68.8122,446.6745],[21.2267,68.8121,443.6609],[21.2265,68.8076,462.0183],[21.2512,68.8074,444.871],[21.251,68.8029,442.1076],[21.2634,68.8028,447.8838],[21.2629,68.7938,442.4168],[21.2752,68.7937,459.655],[21.2747,68.7847,447.5837],[21.2871,68.7846,456.8697],[21.2863,68.7711,439.0],[21.2987,68.771,467.129],[21.2984,68.7665,446.6331],[21.3108,68.7664,473.5141],[21.3105,68.7619,444.1324],[21.3229,68.7619,452.638],[21.3226,68.7573,443.8081],[21.3597,68.7571,493.9232],[21.36,68.7616,436.7517],[21.3723,68.7615,441.1366],[21.3721,68.757,537.7341],[21.3968,68.7568,414.3223],[21.3965,68.7523,423.06],[21.4089,68.7522,416.8462],[21.4074,68.7297,406.381],[21.4198,68.7296,416.3043],[21.4178,68.698,408.8442],[21.4301,68.6979,407.596],[21.4293,68.6844,433.0135],[21.4539,68.6842,411.8131],[21.4536,68.6797,423.4313],[21.466,68.6796,413.0705],[21.465699999999998,68.6751,433.8957],[21.4903,68.6749,414.7945],[21.49,68.6704,438.7689],[21.5885,68.6696,398.3773],[21.5881,68.6651,398.741],[21.6005,68.6649,398.5782],[21.6001,68.6605,399.0011],[21.6247,68.6602,400.5604],[21.6244,68.6557,397.4809],[21.6367,68.6556,400.4445],[21.6364,68.6511,405.0434],[21.6487,68.651,397.6391],[21.6484,68.6465,398.4809],[21.673,68.6463,401.6912],[21.6723,68.6373,396.7693],[21.6846,68.6371,398.7253],[21.6843,68.6326,399.8524],[21.6965,68.6325,396.7141],[21.6959,68.6235,403.3164],[21.7082,68.6234,397.1372],[21.7078,68.6189,393.5863],[21.7201,68.6188,399.547],[21.7198,68.6143,402.1761],[21.7075,68.6144,388.9847],[21.7055,68.5874,399.8045],[21.73,68.5871,389.3864],[21.7296,68.5826,391.2857],[21.7787,68.5821,389.5736],[21.7783,68.5776,399.6075],[21.8029,68.5774,395.9414],[21.8032,68.5819,393.8772],[21.84,68.5815,381.8152],[21.8403,68.586,379.783],[21.8526,68.5859,378.8572],[21.8522,68.5814,381.8035],[21.8768,68.5811,374.2893],[21.8764,68.5766,379.8076],[21.9009,68.5764,371.0801],[21.9005,68.5719,371.395],[21.9128,68.5717,369.4123],[21.9124,68.5672,369.2744],[21.9247,68.5671,369.752],[21.9243,68.5626,370.3479],[21.9365,68.5625,368.2169],[21.9362,68.558,369.8914],[21.9484,68.5578,369.6151],[21.948,68.5533,369.4916],[21.9603,68.5532,368.1211],[21.9599,68.5487,369.7353],[21.9721,68.5485,369.1689],[21.9717,68.544,368.8466],[21.984,68.5439,370.0946],[21.9836,68.5394,367.8161],[21.9958,68.5393,368.4802],[21.9946,68.5258,368.057],[22.0069,68.5256,368.0468],[22.0057,68.5121,367.4895],[22.0179,68.512,367.6564],[22.0167,68.4985,367.417],[22.0289,68.4983,387.5701],[22.0281,68.4893,363.1912],[22.0403,68.4892,384.3172],[22.0399,68.4847,366.8608],[22.0521,68.4845,368.0771],[22.0517,68.48,362.5939],[22.0639,68.4799,358.0544],[22.0635,68.4754,365.2834],[22.1367,68.4745,350.257],[22.1363,68.47,345.6238],[22.1485,68.4699,342.7111],[22.1481,68.4654,341.0883],[22.1847,68.4649,337.8072],[22.1851,68.4694,336.6745],[22.1973,68.4693,335.2028],[22.1977,68.4738,333.2338],[22.2221,68.4735,330.2051],[22.2217,68.469,335.3572],[22.2583,68.4685,332.4907],[22.2587,68.473,332.1644],[22.3075,68.4724,330.4413],[22.308,68.4769,331.5787],[22.3446,68.4764,331.178],[22.3441,68.4719,327.4011],[22.3685,68.4715,329.5463],[22.3653,68.44,331.2643],[22.3775,68.4399,329.5983],[22.3779,68.4444,328.9377],[22.3901,68.4442,330.1963],[22.3906,68.4487,326.3147],[22.4028,68.4485,328.9542],[22.403199999999998,68.453,324.1342],[22.4154,68.4529,325.1062],[22.4159,68.4574,323.7476],[22.4403,68.457,324.0007],[22.4398,68.4526,322.3167],[22.452,68.4524,320.3064],[22.4515,68.4479,323.1734],[22.4637,68.4477,322.9924],[22.4632,68.4432,320.6759],[22.4754,68.443,322.242],[22.4749,68.4385,320.9262],[22.4871,68.4384,324.6479],[22.4866,68.4339,320.4066],[22.5231,68.4333,323.3985],[22.5226,68.4288,324.1596],[22.547,68.4285,326.9265],[22.5465,68.424,328.1529],[22.583,68.4234,318.7429],[22.582,68.4144,334.9579],[22.6063,68.4141,324.3826],[22.6068,68.4186,328.337],[22.6312,68.4182,319.7238],[22.6317,68.4227,318.5089],[22.6439,68.4225,317.7607],[22.6444,68.427,313.8912],[22.6565,68.4269,324.0535],[22.655,68.4134,315.9643],[22.6671,68.4132,315.3194],[22.6666,68.4087,316.2414],[22.6788,68.4085,315.4975],[22.6782,68.404,312.5547],[22.7026,68.4036,319.0347],[22.7015,68.3946,319.3884],[22.7137,68.3944,308.6498],[22.7132,68.3899,308.3656],[22.7375,68.3895,307.9024],[22.7369,68.385,304.8486],[22.7491,68.3849,304.6376],[22.7485,68.3804,307.2643],[22.7971,68.3797,305.1461],[22.7977,68.3841,306.437],[22.8098,68.3839,306.813],[22.8341,68.3835,306.3387],[22.8336,68.379,304.3797],[22.8578,68.3786,310.5423],[22.855,68.3561,300.6705],[22.8672,68.3559,296.8528],[22.8666,68.3514,298.2434],[22.8788,68.3512,294.7039],[22.8782,68.3467,296.5604],[22.8903,68.3465,296.949],[22.8898,68.342,302.9565],[22.914,68.3416,296.7227],[22.9134,68.3371,296.8355],[22.9256,68.3369,297.8805],[22.9244,68.3279,302.7512],[22.9487,68.3275,300.4561],[22.9481,68.323,299.8302],[22.9844,68.3224,286.3923],[22.9838,68.3179,288.9991],[22.996,68.3177,284.3719],[22.9954,68.3132,291.0889],[23.0075,68.313,283.078],[23.0069,68.3085,294.8911],[23.0311,68.3081,275.0832],[23.0305,68.3036,283.7403],[23.0426,68.3034,279.4114],[23.042,68.2989,281.6684],[23.0783,68.2982,279.3661],[23.0771,68.2892,284.6843],[23.0892,68.289,274.9861],[23.0856,68.262,279.0515],[23.0977,68.2618,278.8218],[23.0971,68.2573,271.249],[23.1092,68.2571,273.573],[23.108,68.2481,273.232],[23.1201,68.2479,271.2831],[23.1195,68.2434,274.6679],[23.1557,68.2427,269.7287],[23.1551,68.2382,261.0717],[23.1671,68.238,281.8026],[23.161,68.193,263.1336],[23.1731,68.1928,265.7754],[23.1712,68.1793,339.0253],[23.1592,68.1796,306.5651],[23.1549,68.1481,272.0647],[23.1669,68.1479,280.9743],[23.1645,68.1299,257.1983],[23.1765,68.1297,260.385],[23.1759,68.1252,265.2032],[23.1999,68.1247,264.7621],[23.2005,68.1292,268.8181],[23.2125,68.129,261.8019],[23.2132,68.1335,259.0396],[23.2252,68.1333,259.6462],[23.2258,68.1378,256.2193],[23.2498,68.1373,288.1475],[23.2504,68.1418,297.7916],[23.2625,68.1416,288.771],[23.2631,68.1461,297.7023],[23.3112,68.1452,250.8932],[23.3105,68.1407,256.3312],[23.3226,68.1404,249.28],[23.3213,68.1314,244.7364],[23.3333,68.1312,246.6077],[23.3314,68.1177,244.5522],[23.3434,68.1175,256.3726],[23.3421,68.1085,250.7285],[23.3541,68.1083,254.9359],[23.3521,68.0948,244.1587],[23.3641,68.0945,249.23],[23.3622,68.081,243.9605],[23.3742,68.0808,247.6318],[23.3722,68.0673,244.1653],[23.3842,68.0671,250.6964],[23.3823,68.0536,247.1427],[23.3942,68.0534,264.7913],[23.3936,68.0489,261.4864],[23.4055,68.0486,266.243],[23.4042,68.0397,251.629],[23.4162,68.0394,250.7138],[23.4155,68.0349,250.1123],[23.4275,68.0347,249.6663],[23.4268,68.0302,249.4739],[23.4508,68.0297,251.0401],[23.4501,68.0252,245.7183],[23.474,68.0247,244.3569],[23.4733,68.0202,231.4098],[23.4853,68.02,231.3328],[23.484,68.011,237.7402],[23.5437,68.0098,233.0795],[23.543,68.0053,231.2364],[23.555,68.0051,233.0939],[23.5516,67.9826,231.1831],[23.5635,67.9823,232.6509],[23.5628,67.9778,230.6692],[23.5747,67.9776,231.1239],[23.5734,67.9686,233.3165],[23.5853,67.9684,232.9785],[23.5846,67.9639,235.7234],[23.6323,67.9629,234.1225],[23.6316,67.9584,231.5948],[23.6555,67.9578,230.8078],[23.6548,67.9534,234.1034],[23.6667,67.9531,238.5836],[23.6646,67.9396,228.6826],[23.6765,67.9394,236.1537],[23.6737,67.9214,255.0342],[23.6618,67.9216,245.2547],[23.6597,67.9082,234.5668],[23.6478,67.9084,231.4718],[23.6471,67.9039,230.8499],[23.6352,67.9042,232.3804],[23.6345,67.8997,233.0842],[23.6226,67.8999,242.6492],[23.6219,67.8954,250.731],[23.61,67.8957,228.3516],[23.6087,67.8867,228.6158],[23.5968,67.8869,215.5214],[23.5961,67.8825,207.6474],[23.5842,67.8827,205.8035],[23.5849,67.8872,207.5687],[23.5611,67.8877,206.5093],[23.5604,67.8832,210.6887],[23.5485,67.8835,238.7912],[23.5479,67.879,270.19],[23.536,67.8792,228.3035],[23.5347,67.8702,235.3573],[23.5228,67.8705,216.6593],[23.5214,67.8615,209.9183],[23.5096,67.8617,206.5006],[23.5056,67.8347,268.006],[23.4937,67.835,220.1277],[23.4877,67.7945,199.8563],[23.4996,67.7943,215.8148],[23.4982,67.7853,204.8699],[23.5101,67.785,216.7809],[23.5081,67.7716,213.6609],[23.4963,67.7718,201.2572],[23.4943,67.7583,194.9464],[23.5061,67.7581,211.6671],[23.5028,67.7356,224.0911],[23.491,67.7359,202.3833],[23.4896,67.7269,197.367],[23.489,67.7224,197.6107],[23.5008,67.7221,220.8005],[23.4955,67.6862,182.7215],[23.5073,67.6859,247.2463],[23.5027,67.6545,183.0748],[23.5144,67.6542,206.307],[23.5131,67.6452,198.7947],[23.5249,67.645,196.8831],[23.5242,67.6405,187.0307],[23.536,67.6403,194.9148],[23.5346,67.6313,187.4081],[23.5464,67.631,199.7528],[23.5451,67.622,192.7836],[23.5568,67.6218,177.3658],[23.5488,67.5679,190.7642],[23.5371,67.5681,197.0171],[23.5358,67.5591,208.2983],[23.524,67.5594,190.107],[23.5234,67.5549,199.136],[23.4765,67.5558,184.4894],[23.4745,67.5424,184.6173],[23.4862,67.5421,180.6216],[23.483,67.5197,189.0579],[23.4713,67.5199,184.0668],[23.4706,67.5154,189.1608],[23.4589,67.5156,181.9341],[23.4576,67.5067,186.9931],[23.4459,67.5069,183.2915],[23.4446,67.4979,187.8491],[23.4329,67.4981,186.9217],[23.4323,67.4936,177.7383],[23.4206,67.4939,177.5822],[23.4193,67.4849,184.9875],[23.4076,67.4851,177.8558],[23.4057,67.4716,161.8654],[23.4174,67.4714,175.8465],[23.4161,67.4624,161.5247],[23.4278,67.4622,163.762],[23.4265,67.4532,168.1069],[23.4499,67.4527,172.6005],[23.4492,67.4482,190.541],[23.4726,67.4477,208.5097],[23.4719,67.4433,230.4518],[23.5069,67.4425,165.2976],[23.5063,67.438,167.1613],[23.518,67.4378,163.6702],[23.5186,67.4423,162.8793],[23.5303,67.442,165.5297],[23.5309,67.4465,164.6651],[23.5426,67.4463,177.132],[23.5433,67.4508,170.9598],[23.5783,67.45,165.5197],[23.5776,67.4455,161.6258],[23.6243,67.4445,160.2653],[23.6236,67.4401,161.3979],[23.6586,67.4393,165.8702],[23.6579,67.4348,171.0395],[23.7395,67.433,167.2851],[23.7388,67.4285,167.2637],[23.7622,67.428,149.0102],[23.7615,67.4235,156.0716],[23.7731,67.4232,164.2772],[23.7696,67.4008,166.1553],[23.7579,67.401,162.317],[23.7559,67.3876,158.0755],[23.7442,67.3878,149.5831],[23.7428,67.3788,159.052],[23.7312,67.3791,147.7906],[23.7305,67.3746,146.7838],[23.7421,67.3744,155.9706],[23.7407,67.3654,146.9631],[23.7524,67.3651,157.7702],[23.7489,67.3426,153.1022],[23.7605,67.3424,150.4975],[23.7598,67.3379,151.7792],[23.783,67.3374,153.5246],[23.7795,67.3149,150.002],[23.7679,67.3152,148.1044],[23.7665,67.3062,151.9474],[23.7549,67.3064,149.4945],[23.7515,67.284,149.6953],[23.7399,67.2842,150.3207],[23.7378,67.2708,148.7802],[23.6799,67.272,150.8166],[23.6792,67.2676,161.0673],[23.656,67.2681,180.8269],[23.6554,67.2636,187.3701],[23.6206,67.2643,154.8308],[23.6199,67.2598,154.0286],[23.5968,67.2603,148.5727],[23.5961,67.2558,148.3319],[23.5845,67.2561,146.582],[23.5839,67.2516,147.1953],[23.5723,67.2519,142.4922],[23.5717,67.2474,147.8056],[23.5832,67.2471,152.6655],[23.5826,67.2426,150.9077],[23.571,67.2429,150.066],[23.5664,67.2114,148.4655],[23.5895,67.2109,134.0733],[23.5882,67.2019,132.1988],[23.5997,67.2017,144.6134],[23.5964,67.1792,149.6976],[23.5849,67.1795,146.366],[23.5835,67.1705,148.4283],[23.572,67.1707,150.5501],[23.5694,67.1528,148.2883],[23.5809,67.1525,131.4472],[23.5796,67.1435,152.6368],[23.5911,67.1433,122.7483],[23.5905,67.1388,143.9106],[23.602,67.1385,134.5291],[23.6013,67.134,138.8424],[23.6128,67.1338,145.6362],[23.6115,67.1248,145.5503],[23.623,67.1246,123.332],[23.6224,67.1201,118.3649],[23.6339,67.1198,142.0277],[23.6332,67.1153,123.2592],[23.6447,67.1151,144.4632],[23.6434,67.1061,138.5034],[23.6549,67.1058,118.7035],[23.6535,67.0968,130.8457],[23.665,67.0966,122.1501],[23.6644,67.0921,111.6396],[23.6759,67.0919,140.5892],[23.6732,67.0739,133.099],[23.6847,67.0736,138.6409],[23.682,67.0557,112.0619],[23.6934,67.0554,104.4218],[23.6921,67.0464,114.0195],[23.7036,67.0462,103.1463],[23.7029,67.0417,107.1124],[23.7144,67.0414,102.7945],[23.7137,67.0369,102.1911],[23.7252,67.0367,116.7351],[23.7238,67.0277,108.7568],[23.7353,67.0274,111.0164],[23.7339,67.0184,109.1063],[23.7454,67.0182,117.2488],[23.7447,67.0137,105.8843],[23.7561,67.0134,114.0963],[23.7548,67.0044,110.309],[23.7662,67.0042,99.3803],[23.7649,66.9952,107.445],[23.7763,66.9949,113.2298],[23.7756,66.9905,104.9325],[23.7985,66.9899,98.0],[23.7978,66.9854,97.5],[23.8093,66.9852,110.3897],[23.8079,66.9762,114.2894],[23.8193,66.9759,96.5],[23.8186,66.9714,96.0],[23.8301,66.9712,110.6863],[23.8287,66.9622,95.0],[23.8401,66.9619,107.7102],[23.8387,66.9529,108.2749],[23.8501,66.9527,93.5],[23.8494,66.9482,98.1457],[23.8609,66.9479,93.0],[23.8602,66.9434,93.0],[23.8716,66.9432,103.2885],[23.8695,66.9297,92.0],[23.8809,66.9294,97.6967],[23.8774,66.907,102.4],[23.8888,66.9067,90.0],[23.8881,66.9022,102.2792],[23.8995,66.9019,89.5],[23.8981,66.893,102.5777],[23.9095,66.8927,99.1527],[23.9088,66.8882,102.559],[23.9202,66.8879,87.5],[23.9195,66.8834,104.21],[23.9309,66.8832,93.4949],[23.9294,66.8742,103.7291],[23.9522,66.8736,95.9256],[23.9501,66.8602,104.3292],[23.9615,66.8599,97.82],[23.96,66.8509,100.8848],[23.9714,66.8506,82.5],[23.97,66.8417,81.5],[23.9814,66.8414,99.752],[23.9799,66.8324,92.0474],[23.9913,66.8321,93.9263],[23.9898,66.8231,88.0716],[24.0012,66.8229,92.535],[23.9998,66.8139,93.654],[24.0111,66.8136,130.8948],[24.0082,66.7957,98.5459],[23.9969,66.7959,96.0964],[23.9933,66.7735,84.4281],[23.9819,66.7738,81.2807],[23.9812,66.7693,78.2897],[23.9698,66.7695,82.7962],[23.9706,66.774,84.0336],[23.9592,66.7743,84.1254],[23.9599,66.7788,83.5406],[23.9486,66.7791,85.1805],[23.9493,66.7836,80.8298],[23.9266,66.7841,85.1035],[23.9223,66.7572,86.6507],[23.8997,66.7577,81.2577],[23.8982,66.7487,82.5292],[23.8869,66.749,69.5],[23.8862,66.7445,68.5],[23.8975,66.7442,81.5267],[23.8947,66.7263,65.5],[23.9061,66.726,72.4693],[23.9047,66.717,77.2597],[23.916,66.7168,76.759],[23.9125,66.6943,164.9764],[23.9011,66.6946,100.6841],[23.8955,66.6586,72.1769],[23.8842,66.6589,73.3356],[23.8794,66.6275,74.7748],[23.8906,66.6272,77.9526],[23.8795,66.5554,87.3512],[23.8684,66.5556,63.0734],[23.8669,66.5467,65.5536],[23.8556,66.5469,63.8768],[23.855,66.5424,63.6133],[23.8437,66.5427,65.0152],[23.843,66.5382,87.7359],[23.8318,66.5385,71.6188],[23.8311,66.534,96.0458],[23.8086,66.5345,65.5595],[23.8045,66.5076,185.6436],[23.7933,66.5078,170.409],[23.7926,66.5033,194.9468],[23.7814,66.5036,191.6651],[23.7807,66.4991,171.7943],[23.7695,66.4994,144.1422],[23.7688,66.4949,130.1928],[23.7576,66.4951,78.6026],[23.7569,66.4907,81.5414],[23.7457,66.4909,73.0957],[23.745,66.4864,79.4671],[23.7338,66.4867,72.1804],[23.7325,66.4777,64.4143],[23.7213,66.478,47.5],[23.7193,66.4645,80.6304],[23.7081,66.4647,48.5921],[23.7074,66.4603,54.1865],[23.685,66.4608,46.0],[23.6843,66.4563,54.7335],[23.6731,66.4565,53.2007],[23.6725,66.452,52.2223],[23.6613,66.4523,50.3874],[23.6548,66.4074,45.0],[23.666,66.4071,46.3045],[23.6647,66.3982,47.9082],[23.6758,66.3979,45.0],[23.6745,66.3889,45.0],[23.6857,66.3887,45.0],[23.6811,66.3572,45.0],[23.67,66.3575,47.4963],[23.6596,66.2856,44.5],[23.6707,66.2854,44.5],[23.6675,66.2629,44.5],[23.6786,66.2627,55.4008],[23.6767,66.2492,55.5991],[23.6878,66.2489,44.5],[23.6865,66.24,44.0],[23.6976,66.2397,44.0],[23.6957,66.2262,43.5],[23.7068,66.226,46.5368],[23.7048,66.2125,52.1923],[23.7159,66.2123,43.0],[23.7153,66.2078,43.0],[23.7264,66.2075,46.1112],[23.7257,66.203,45.5972],[23.7368,66.2028,43.0],[23.7348,66.1893,42.5],[23.7459,66.189,49.4652],[23.7453,66.1846,83.7357],[23.7785,66.1838,42.5],[23.7779,66.1793,82.1606],[23.8001,66.1788,42.0],[23.7994,66.1743,77.48],[23.8105,66.174,60.7581],[23.8098,66.1695,96.3041],[23.8209,66.1693,75.7194],[23.8202,66.1648,85.2902],[23.8424,66.1642,54.2872],[23.8417,66.1598,64.5325],[23.8749,66.159,57.0622],[23.8742,66.1545,52.6286],[23.9296,66.1531,33.2147],[23.9289,66.1486,27.0727],[23.94,66.1484,47.5398],[23.9372,66.1304,29.8631],[23.9262,66.1307,24.0],[23.9255,66.1262,32.9873],[23.9365,66.1259,24.0],[23.9345,66.1125,24.9728],[23.9455,66.1122,32.1479],[23.94,66.0763,21.0],[23.9509,66.076,21.0],[23.9497,66.067,23.1216],[23.9607,66.0667,21.0],[23.96,66.0623,22.522],[23.9711,66.062,22.0358],[23.969,66.0485,23.8923],[23.98,66.0482,21.7026],[23.9786,66.0393,21.0],[23.9896,66.039,21.0],[23.9889,66.0345,21.0],[24.0,66.0342,21.0],[23.9986,66.0253,21.0],[24.0096,66.025,21.0],[24.0082,66.016,25.2049],[24.0192,66.0157,21.0],[24.0185,66.0112,24.2423],[24.0295,66.0109,21.0],[24.0288,66.0065,23.1184],[24.0398,66.0062,21.0],[24.0391,66.0017,21.0],[24.0501,66.0014,21.0],[24.0424,65.952,24.1547],[24.0534,65.9518,12.5014],[24.052,65.9428,42.1684],[24.063,65.9425,22.7634],[24.0622,65.938,28.6285],[24.0732,65.9378,13.227],[24.0725,65.9333,32.8451],[24.0835,65.933,6.7689],[24.0821,65.924,15.1429],[24.104,65.9234,12.6739],[24.1033,65.919,12.0309],[24.1143,65.9187,4.5466],[24.1136,65.9142,3.0848],[24.1245,65.9139,8.8359],[24.1238,65.9094,6.5963],[24.1129,65.9097,2.5618],[24.1107,65.8962,2.4064],[24.1217,65.896,2.0141],[24.121,65.8915,2.1119],[24.1319,65.8912,2.1602],[24.1298,65.8777,1.4974],[24.1407,65.8774,1.6155],[24.1386,65.864,3.7118],[24.1495,65.8637,1.3836],[24.1481,65.8547,8.5426],[24.159,65.8544,0.9689],[24.154,65.823,0.5694],[24.1557,65.8224,6.7471],[24.1547,65.8193,0.195],[24.1599,65.8161,1.0624],[24.1547,65.8089,0.0],[24.1578,65.8078,9.8374],[24.1599,65.8047,1.9787],[24.1578,65.8026,0.0],[24.1464,65.7995,0.0],[24.1391,65.7922,10.1944],[24.1318,65.7911,0.145],[24.1297,65.7891,4.1582],[24.1396,65.7854,2.2533],[24.1557,65.7849,0.0],[24.15,65.7792,12.0355],[24.1458,65.7813,0.0],[24.1422,65.7807,0.0],[24.1453,65.7786,0.0],[24.1443,65.7755,0.0],[24.1495,65.7724,7.5421],[24.1464,65.7672,0.0],[24.1495,65.7662,7.7594],[24.1484,65.763,0.0],[24.1536,65.7599,6.6025],[24.1526,65.7568,1.2213],[24.1547,65.7547,0.0],[24.1599,65.7547,2.5947],[24.163,65.7578,3.0977],[24.1771,65.7625,8.5496],[24.187,65.763,1.5],[24.189,65.7662,7.077],[24.1833,65.7667,18.9374],[24.1818,65.7682,37.7645],[24.1938,65.775,0.0],[24.1974,65.7745,0.3574],[24.2005,65.7714,2.6419],[24.2104,65.7688,0.0],[24.2182,65.7703,0.0],[24.2224,65.7682,3.876],[24.2214,65.7651,0.0],[24.2229,65.7646,0.0],[24.2297,65.7703,0.7217],[24.2349,65.7714,2.3703],[24.2339,65.7745,2.862],[24.237,65.7786,3.0075],[24.2307,65.7828,0.0],[24.2234,65.7839,0.0],[24.2255,65.787,0.0],[24.2307,65.788,1.2771],[24.2328,65.7901,0.0],[24.2318,65.7932,4.6521],[24.2354,65.7958,0.0],[24.25,65.7937,0.0],[24.2599,65.7963,0.0],[24.2568,65.7984,0.0],[24.2578,65.8016,0.0],[24.2505,65.8026,14.366],[24.2536,65.8078,0.0],[24.2516,65.8099,0.0],[24.2443,65.8109,0.0],[24.2458,65.8125,0.0],[24.262,65.812,7.9903],[24.2609,65.8089,0.0],[24.2641,65.8078,0.1851],[24.2667,65.8042,0.0],[24.2651,65.8016,2.0195],[24.2661,65.7984,8.4909],[24.2651,65.7963,0.0],[24.2807,65.7932,1.8614],[24.2755,65.7911,0.0],[24.2771,65.7896,0.0],[24.2911,65.7922,0.0],[24.288,65.7943,0.0],[24.2896,65.7958,3.2077],[24.2932,65.7953,3.255],[24.2953,65.7932,0.0],[24.2943,65.7901,0.0],[24.2958,65.7896,0.0],[24.3021,65.7917,0.0],[24.3104,65.7917,0.0],[24.312,65.7932,4.9402],[24.3089,65.7953,0.7489],[24.3146,65.8,0.5252],[24.3234,65.7943,0.0],[24.3333,65.7917,4.3392],[24.3437,65.7917,5.0443],[24.3542,65.7854,0.0],[24.3583,65.7854,6.4247],[24.3625,65.7833,1.8072],[24.3708,65.7833,0.0],[24.375,65.7813,3.9963],[24.3833,65.7813,0.0],[24.3932,65.7786,0.0],[24.4,65.775,0.0],[24.4042,65.775,0.9721],[24.4083,65.7729,0.0],[24.4167,65.7729,3.5353],[24.4208,65.7708,2.6051],[24.4271,65.7708,0.0],[24.4313,65.7729,3.6958],[24.4604,65.7729,0.0],[24.4646,65.775,10.7391],[24.4917,65.7792,0.0],[24.5083,65.7854,0.0],[24.5167,65.7854,0.0],[24.5229,65.7896,3.75],[24.5354,65.7896,1.9948],[24.5401,65.7932,8.5177],[24.5474,65.7943,11.0973],[24.5516,65.7984,12.0055],[24.5484,65.8005,21.5791],[24.5495,65.8037,19.2089],[24.5484,65.8057,19.2566],[24.5516,65.8099,12.0953],[24.5484,65.812,17.6883],[24.5536,65.813,12.2036],[24.5589,65.8182,14.7976],[24.5661,65.8193,12.4368],[24.5766,65.8297,11.7756],[24.5714,65.8339,13.4493],[24.5724,65.837,12.2438],[24.5693,65.838,12.3721],[24.5703,65.8411,12.0319],[24.5693,65.8453,14.9868],[24.5766,65.8464,13.2206],[24.5818,65.8516,15.3111],[24.5953,65.8547,12.4535],[24.5984,65.8578,26.8371],[24.6036,65.8588,11.9918],[24.6057,65.8609,12.2676],[24.6026,65.863,21.3378],[24.6036,65.8703,12.4557],[24.6005,65.8724,23.0204],[24.6078,65.8797,12.179],[24.6068,65.8828,14.1232],[24.613,65.8891,16.1163],[24.6208,65.8896,12.3977],[24.625,65.8917,27.1035],[24.6333,65.8917,12.3122],[24.6458,65.8958,21.8323],[24.6667,65.8958,12.3101],[24.6682,65.8943,16.8624],[24.6458,65.8917,12.403],[24.6354,65.8875,17.4905],[24.6271,65.8875,12.4531],[24.6193,65.8807,12.3796],[24.6224,65.8786,13.1056],[24.6214,65.8755,12.1493],[24.6224,65.8734,13.9522],[24.6172,65.8682,12.1941],[24.6203,65.8662,25.5375],[24.6193,65.863,12.263],[24.6203,65.8609,13.2726],[24.6161,65.8568,12.3852],[24.6047,65.8536,17.7299],[24.5901,65.8391,12.201599999999999],[24.5953,65.8339,19.6287],[24.5932,65.8318,12.934],[24.5859,65.8307,12.2198],[24.5839,65.8287,12.088],[24.587,65.8266,23.1857],[24.5859,65.8234,12.3024],[24.5911,65.8193,14.4674],[24.5839,65.812,11.9864],[24.587,65.8089,11.244],[24.5828,65.8047,12.4048],[24.5729,65.8042,12.0108],[24.5682,65.8005,11.3255],[24.563,65.7995,12.0785],[24.5536,65.7901,6.0308],[24.5443,65.7911,0.0],[24.5401,65.787,4.6663],[24.5411,65.7839,0.7291],[24.5375,65.7813,0.8662],[24.5333,65.7833,0.7046],[24.5271,65.7833,-0.011],[24.5229,65.7813,0.0],[24.5146,65.7813,0.0],[24.5078,65.7755,0.0],[24.5026,65.7745,4.5094],[24.4995,65.7714,4.3005],[24.4917,65.7688,0.0],[24.4813,65.7729,0.0],[24.475,65.7688,0.0],[24.4568,65.7682,0.0],[24.4526,65.763,0.0],[24.4583,65.7625,0.0],[24.4599,65.7609,4.2125],[24.4547,65.7557,2.8095],[24.4557,65.7526,4.712],[24.4547,65.7505,0.0],[24.462,65.7495,1.4566],[24.4688,65.7458,0.0],[24.4729,65.7479,0.3649],[24.4854,65.7479,0.0],[24.4917,65.7438,1.3793],[24.5104,65.7438,6.5931],[24.5146,65.7417,0.0],[24.5224,65.7422,2.1002],[24.5214,65.7453,1.5],[24.5229,65.7458,1.5],[24.5354,65.7417,0.0],[24.5542,65.7417,2.9511],[24.5557,65.7401,2.4468],[24.5505,65.7338,2.042],[24.5536,65.7328,5.7364],[24.5526,65.7297,3.4041],[24.5547,65.7276,0.0],[24.5688,65.7271,2.6519],[24.5729,65.7292,0.0],[24.5818,65.7234,0.0],[24.5891,65.7224,3.0205],[24.588,65.7193,0.0],[24.5974,65.7161,5.1421],[24.5964,65.713,0.0],[24.6042,65.7125,3.4329],[24.6104,65.7146,3.2037],[24.6146,65.7125,0.0],[24.6229,65.7125,2.7043],[24.6297,65.7089,0.3486],[24.637,65.7078,3.5666],[24.6391,65.7057,1.1244],[24.638,65.7026,3.0468],[24.6411,65.7016,8.7965],[24.6401,65.6984,2.6362],[24.6458,65.7,2.5],[24.6563,65.7,4.164],[24.662,65.6974,5.0177],[24.6589,65.6922,0.0],[24.6641,65.688,0.0],[24.6583,65.6833,3.1859],[24.6505,65.6839,6.0327],[24.6516,65.687,0.0],[24.65,65.6875,0.0],[24.6401,65.688,0.0],[24.6417,65.6896,0.0],[24.6542,65.6896,1.1891],[24.6557,65.6911,0.0],[24.6354,65.6917,4.4913],[24.6297,65.6943,2.9269],[24.6307,65.6974,0.0],[24.6234,65.6984,14.9401],[24.6188,65.7021,0.0],[24.6151,65.7016,0.0],[24.613,65.6995,0.0],[24.6089,65.6922,0.8082],[24.6109,65.6901,0.0],[24.6182,65.6891,2.0775],[24.6203,65.687,4.3603],[24.6193,65.6839,0.0],[24.6208,65.6833,0.0],[24.6432,65.6828,0.5542],[24.6453,65.6807,0.0],[24.6443,65.6776,0.0],[24.6745,65.6578,0.0],[24.6708,65.6542,0.0],[24.6568,65.6536,0.0],[24.6589,65.6505,0.0],[24.662,65.6495,0.0],[24.6609,65.6464,0.0],[24.662,65.6443,0.7375],[24.6589,65.6401,0.9607],[24.6646,65.6375,0.0],[24.6792,65.6375,0.0],[24.7021,65.6292,0.0],[24.7083,65.6333,1.3144],[24.7167,65.6333,2.9436],[24.7245,65.6401,0.0],[24.7214,65.6422,0.0],[24.7234,65.6453,0.0],[24.7349,65.6464,0.0],[24.7339,65.6495,0.2408],[24.7391,65.6547,0.9139],[24.7359,65.6578,7.6102],[24.7411,65.6589,0.0],[24.7464,65.6641,0.0],[24.7563,65.6667,0.0],[24.7604,65.6646,0.0],[24.7703,65.6641,0.0],[24.7714,65.6609,1.4064],[24.7766,65.6599,0.0],[24.7901,65.6505,1.0473],[24.7938,65.65,3.2926],[24.8026,65.6578,0.0],[24.8104,65.6583,0.0],[24.8141,65.6609,0.6059],[24.8125,65.6625,0.687],[24.8068,65.663,1.1579],[24.8104,65.6667,0.0],[24.8224,65.6641,0.9396],[24.8271,65.6604,0.0],[24.8375,65.6604,0.0],[24.8438,65.6646,2.3068],[24.8563,65.6646,4.537],[24.8604,65.6625,0.0],[24.8651,65.6661,0.0],[24.8729,65.6667,0.0],[24.8771,65.6646,3.7237],[24.8854,65.6646,1.9701],[24.887,65.6641,0.1174],[24.8859,65.6609,0.0],[24.9016,65.6578,0.2439],[24.9005,65.6547,0.0],[24.9036,65.6526,7.9442],[24.8984,65.6474,0.0],[24.9005,65.6443,0.0],[24.9063,65.6417,0.0],[24.912,65.6412,7.5988],[24.9151,65.638,1.1876],[24.9224,65.637,5.2563],[24.9271,65.6333,0.0],[24.9375,65.6333,6.1132],[24.9417,65.6312,0.0],[24.9479,65.6312,0.0],[24.9521,65.6333,7.9409],[24.9562,65.6312,0.0],[24.9667,65.6312,0.0],[24.9708,65.6333,4.8399],[24.9771,65.6333,1.0312],[24.9813,65.6312,0.0],[24.9896,65.6312,0.0],[24.9964,65.6276,0.0],[25.0063,65.625,0.0],[25.0146,65.625,0.0767],[25.0187,65.6229,0.0],[25.0271,65.6229,0.0],[25.0313,65.6208,0.0],[25.0474,65.6203,0.0],[25.0396,65.6167,0.0],[25.0333,65.6188,0.0],[25.0271,65.6167,2.5193],[25.0255,65.6172,0.0],[25.0266,65.6203,2.3807],[25.025,65.6208,5.1158],[25.0208,65.6188,0.0],[25.0146,65.6188,0.0],[25.0104,65.6208,0.261],[25.0089,65.6203,0.0],[25.0099,65.6172,0.5093],[25.0047,65.6151,3.341],[25.0083,65.6125,0.0],[25.0391,65.6057,0.0],[25.0479,65.6,0.0],[25.0536,65.6005,0.0],[25.0583,65.6042,0.0],[25.0682,65.6057,0.1327],[25.0849,65.5943,0.0],[25.0812,65.5917,0.0],[25.075,65.5917,2.4423],[25.0688,65.5938,0.0],[25.0651,65.5901,0.0],[25.075,65.5875,0.0],[25.0812,65.5896,0.0],[25.0828,65.5891,0.0],[25.0818,65.5859,0.0],[25.0851,65.5854,5.1557],[25.0857,65.5884,6.493],[25.0964,65.588,9.2825],[25.0981,65.597,10.694],[25.109,65.5966,11.7771],[25.1098,65.6011,11.9981],[25.1206,65.6008,14.2322],[25.1215,65.6053,18.8402],[25.1324,65.6049,15.0748],[25.1341,65.6139,19.316],[25.145,65.6135,21.4527],[25.1476,65.627,30.3171],[25.1584,65.6266,21.7213],[25.1602,65.6356,27.1251],[25.171,65.6352,25.7875],[25.1728,65.6442,32.7441],[25.1836,65.6438,30.845],[25.1845,65.6483,34.9398],[25.1954,65.6479,34.6969],[25.1963,65.6524,36.0586],[25.2071,65.6521,36.7207],[25.2089,65.661,35.0124],[25.2198,65.6607,44.4828],[25.2206,65.6652,39.2156],[25.2315,65.6648,41.0657],[25.2324,65.6693,38.9072],[25.2433,65.6689,49.2913],[25.2441,65.6734,53.5636],[25.2659,65.6727,53.5454],[25.2668,65.6771,56.5677],[25.2776,65.6768,58.4301],[25.2785,65.6813,60.802],[25.3002,65.6805,66.1422],[25.3012,65.685,65.5228],[25.312,65.6846,71.7181],[25.3138,65.6936,66.7666],[25.3247,65.6933,66.2231],[25.3265,65.7022,77.3228],[25.3374,65.7018,71.1246],[25.3392,65.7108,75.2534],[25.3501,65.7104,69.2426],[25.3529,65.7239,78.8287],[25.3637,65.7235,76.3002],[25.3647,65.728,81.3881],[25.3755,65.7276,77.5127],[25.3765,65.7321,75.1973],[25.3873,65.7317,73.9318],[25.3883,65.7362,78.4653],[25.41,65.7355,79.1932],[25.411,65.7399,79.9715],[25.4218,65.7396,80.9956],[25.4228,65.744,80.6529],[25.5533,65.7395,89.9033],[25.5543,65.744,90.8708],[25.7066,65.7386,100.1836],[25.7076,65.743,102.7669],[25.7946,65.7399,103.9447],[25.7956,65.7443,111.1501],[25.8174,65.7436,104.8055],[25.8184,65.748,113.3297],[25.8292,65.7476,113.6484],[25.8302,65.7521,116.2756],[25.852,65.7513,110.1399],[25.853,65.7558,111.0105],[25.8639,65.7554,112.8084],[25.8649,65.7598,116.3784],[25.8867,65.759,112.5445],[25.8877,65.7635,117.2442],[25.8986,65.7631,116.2029],[25.8996,65.7676,114.3171],[25.9213,65.7668,113.358],[25.9224,65.7712,113.8779],[25.9333,65.7708,120.0097],[25.9343,65.7753,119.7719],[25.956,65.7745,127.465],[25.9571,65.779,120.9041],[25.9789,65.7782,115.6608],[25.9799,65.7826,115.0479],[25.9908,65.7822,115.1479],[25.9918,65.7867,118.3198],[26.0136,65.7859,127.1436],[26.0146,65.7903,126.4921],[26.0255,65.7899,133.9127],[26.0266,65.7944,135.7291],[26.0483,65.7936,131.3701],[26.0494,65.798,131.4482],[26.0603,65.7976,122.0669],[26.0613,65.8021,121.4218],[26.0831,65.8013,124.2783],[26.0842,65.8057,129.7141],[26.0951,65.8053,128.1013],[26.0961,65.8098,130.5712],[26.1179,65.809,132.6033],[26.119,65.8134,129.514],[26.1299,65.813,124.4569],[26.1309,65.8175,125.4745],[26.1527,65.8166,125.9697],[26.1538,65.8211,129.1713],[26.1647,65.8207,123.6341],[26.1562,65.7849,131.2651],[26.1671,65.7845,127.8317],[26.1554,65.7352,145.6447],[26.1663,65.7348,134.6498],[26.1642,65.7259,133.5272],[26.262,65.722,134.1368],[26.2609,65.7175,133.3241],[26.4346,65.7105,135.0764],[26.4357,65.715,135.8949],[26.5877,65.7088,140.012],[26.5888,65.7132,131.3721],[26.8166,65.7035,149.5967],[26.8154,65.6991,168.524],[26.8263,65.6986,187.4609],[26.8275,65.7031,154.8621],[26.8492,65.7021,177.7885],[26.8503,65.7066,160.302],[26.872,65.7057,165.781],[26.8732,65.7101,170.905],[26.884,65.7096,159.2381],[26.8852,65.7141,158.2084],[26.9069,65.7132,146.0609],[26.9081,65.7176,148.6091],[26.9298,65.7167,143.3572],[26.931,65.7211,142.8443],[26.9527,65.7202,143.5888],[26.9539,65.7247,143.4245],[26.9756,65.7237,150.947],[26.9768,65.7282,145.6929],[26.9876,65.7277,146.9069],[26.9888,65.7321,145.0229],[27.0105,65.7312,144.627],[27.0118,65.7357,143.1152],[27.0335,65.7347,144.4758],[27.0347,65.7392,144.1458],[27.0455,65.7387,146.2509],[27.0443,65.7342,150.347],[27.066,65.7332,147.576],[27.0648,65.7288,149.1943],[27.0757,65.7283,149.4716],[27.0769,65.7327,149.8202],[27.0877,65.7323,166.3203],[27.0889,65.7367,166.6594],[27.0998,65.7362,182.5174],[27.1022,65.7452,164.3359],[27.1131,65.7447,161.3893],[27.1168,65.7581,184.3565],[27.1276,65.7576,173.5336],[27.1301,65.7665,178.6124],[27.1409,65.766,188.8067],[27.1434,65.775,179.3239],[27.1543,65.7745,172.8385],[27.1567,65.7834,160.4883],[27.1676,65.7829,161.8217],[27.1701,65.7919,164.8543],[27.181,65.7914,166.6894],[27.1834,65.8003,171.3767],[27.1943,65.7998,169.3277],[27.1968,65.8088,173.7948],[27.2077,65.8083,168.4029],[27.2102,65.8172,169.5383],[27.2211,65.8167,164.2196],[27.2235,65.8256,162.9516],[27.2344,65.8251,162.7515],[27.2369,65.8341,163.2948],[27.2478,65.8336,170.1917],[27.2503,65.8425,164.0896],[27.2612,65.842,169.8894],[27.2637,65.8509,168.9825],[27.2746,65.8504,170.5331],[27.2771,65.8594,170.3067],[27.288,65.8589,180.8367],[27.2906,65.8678,172.1474],[27.3015,65.8673,179.2824],[27.304,65.8762,178.6079],[27.3149,65.8757,178.6545],[27.3174,65.8847,182.6292],[27.3283,65.8841,181.8962],[27.3309,65.8931,186.4898],[27.3418,65.8926,195.4239],[27.3443,65.9015,204.687],[27.3553,65.901,209.6598],[27.3578,65.9099,208.8851],[27.3687,65.9094,210.3302],[27.3713,65.9184,219.0939],[27.3822,65.9178,212.8156],[27.3848,65.9268,219.6942],[27.3957,65.9263,205.5178],[27.3982,65.9352,209.7285],[27.4092,65.9347,202.9585],[27.4118,65.9436,201.6539],[27.4227,65.9431,199.77],[27.4253,65.952,202.2297],[27.4362,65.9515,206.9523],[27.4388,65.9604,205.5632]]],
[[[24.4,65.7562,6.3837],[24.3964,65.7526,0.5913],[24.4,65.7521,0.0],[24.4036,65.7547,4.4591],[24.4,65.7562,6.3837]]],
[[[24.3391,65.7672,0.0],[24.338,65.7651,3.7159],[24.3401,65.763,9.1959],[24.3438,65.7625,4.0374],[24.3453,65.7641,3.2755],[24.3422,65.7662,6.7014],[24.3479,65.7667,0.4661],[24.3495,65.7682,0.0],[24.3464,65.7693,0.0],[24.3474,65.7724,0.1997],[24.3396,65.7729,5.8513],[24.338,65.7714,0.925],[24.3411,65.7693,2.3762],[24.3391,65.7672,0.0]]],
[[[24.3833,65.775,0.6674],[24.3818,65.7734,1.2079],[24.3854,65.7708,0.0],[24.3917,65.7708,0.0],[24.3953,65.7734,1.0965],[24.3937,65.775,0.0],[24.3833,65.775,0.6674]]],
[[[24.3484,65.7786,0.2445],[24.3526,65.7755,2.0626],[24.3557,65.7755,1.3264],[24.3536,65.7786,1.9699],[24.3484,65.7786,0.2445]]],
[[[24.2375,65.75,4.067],[24.2359,65.7484,0.0],[24.2396,65.7458,0.0],[24.2536,65.7464,0.0],[24.2479,65.75,4.7737],[24.2375,65.75,4.067]]],
[[[24.2542,65.7688,1.5743],[24.2505,65.7651,5.3056],[24.2542,65.7646,0.0],[24.2578,65.7672,0.0],[24.2542,65.7688,1.5743]]],
[[[24.2729,65.7833,1.4501],[24.2693,65.7797,0.0],[24.2833,65.7792,1.8622],[24.287,65.7818,0.0],[24.2813,65.7854,0.0],[24.2771,65.7833,5.6648],[24.2729,65.7833,1.4501]]],
[[[24.2661,65.7932,0.0],[24.2625,65.7937,0.205],[24.2609,65.7922,0.0],[24.2646,65.7917,0.0],[24.2661,65.7932,0.0]]],
[[[24.5776,65.7141,6.3507],[24.5797,65.7109,4.975],[24.5849,65.7109,0.0],[24.5807,65.7141,5.9784],[24.5776,65.7141,6.3507]]]]}
,"properties": {"GID_1": "FIN.2_1","GID_0": "FIN","country": "Finland","province": "Lapland","VARNAME_1": "Lapinlääni|Lappi|Laponia|Lapôni","NL_NAME_1": "NA","TYPE_1": "Lääni","ENGTYPE_1": "Province","CC_1": "NA","HASC_1": "FI.LP","ISO_1": "NA","name": "Lapland.province","area_km2": 98328.16,"hist_schema_id": "Elevation0-9000","hist_area_km2": {"0": 281.71,"25": 1005.6,"50": 1295.13,"75": 1872.67,"100": 2784.37,"125": 5728.47,"150": 7273.23,"175": 9631.52,"200": 11243.33,"225": 9853.68,"250": 11613.72,"275": 9395.5,"300": 7396.06,"325": 5284.46,"350": 3583.48,"375": 2487.13,"400": 1663.37,"425": 1264.26,"450": 972.71,"475": 634.2,"500": 431.67,"525": 338.92,"550": 311.48,"575": 286.08,"600": 239.04,"625": 176.96,"650": 149.24,"675": 152.14,"700": 128.05,"725": 116.59,"750": 113.36,"775": 100.53,"800": 87.48,"825": 84.35,"850": 65.19,"875": 54.39,"900": 38.47,"925": 33.51,"950": 30.07,"975": 25.29,"1000": 24.22,"1025": 18.92,"1050": 12.99,"1075": 9.54,"1100": 9.61,"1125": 8.79,"1150": 5.61,"1175": 4.18,"1200": 2.39,"1225": 1.29,"1250": 1.02,"1275": 1.09}}}