{"type":"Feature","properties":{"GID_2":"FIN.4.3_1","GID_0":"FIN","country":"Finland","GID_1":"FIN.4_1","province":"SouthernFinland","NL_NAME_1":"NA","county":"PäijänneTavastia","VARNAME_2":"Päijät-Häme|PäijänneTavastland","NL_NAME_2":"NA","TYPE_2":"Maakunta|landskap","ENGTYPE_2":"Region","CC_2":"NA","HASC_2":"NA","name":"Päijänne_Tavastia.county"},
"geometry":{"type": "MultiPolygon","coordinates": [[[[26.2146,60.751,43.4945],[26.2155,60.7555,62.1062],[26.2063,60.7559,68.3879],[26.2115,60.7827,69.7933],[26.2023,60.7831,60.0689],[26.2058,60.801,66.3737],[26.1966,60.8014,69.859],[26.1975,60.8059,96.4631],[26.1883,60.8063,93.017],[26.1892,60.8108,84.9515],[26.18,60.8112,94.5311],[26.1809,60.8157,91.5691],[26.1717,60.8161,77.9022],[26.1726,60.8206,63.1212],[26.1542,60.8214,58.2812],[26.1551,60.8259,58.464],[26.1276,60.8271,51.3371],[26.1284,60.8316,88.8149],[26.1193,60.832,60.7462],[26.1101,60.8324,58.8142],[26.1092,60.828,62.3514],[26.0909,60.8288,70.8638],[26.0917,60.8333,85.9453],[26.0825,60.8337,82.4265],[26.0868,60.856,73.9982],[26.096,60.8556,95.633],[26.0977,60.8646,61.268],[26.1069,60.8641,104.5889],[26.1077,60.8686,60.4849],[26.1261,60.8678,60.3085],[26.127,60.8722,60.4234],[26.1178,60.8727,59.8856],[26.1212,60.8905,60.7931],[26.1304,60.8901,64.2876],[26.1321,60.8991,78.7103],[26.1413,60.8987,99.4057],[26.1431,60.9076,86.5181],[26.1155,60.9089,66.0821],[26.1137,60.8999,62.321],[26.1045,60.9003,71.151],[26.1028,60.8914,64.8406],[26.066,60.893,67.1453],[26.0669,60.8975,99.7856],[26.0301,60.8992,107.1998],[26.0309,60.9036,87.7349],[26.0125,60.9044,90.5228],[26.0134,60.9089,88.0443],[26.0042,60.9093,105.0042],[26.005,60.9138,90.7795],[25.9958,60.9142,111.3345],[25.9967,60.9187,109.9711],[25.9783,60.9195,123.4085],[25.9791,60.924,115.1206],[25.9699,60.9244,120.5353],[25.9707,60.9288,131.2095],[25.9523,60.9296,112.9824],[25.949,60.9118,100.6659],[25.9398,60.9122,109.5775],[25.9373,60.8988,91.1623],[25.9281,60.8992,89.7392],[25.9256,60.8857,112.9072],[25.898,60.8869,85.4163],[25.8988,60.8914,84.7401],[25.8436,60.8938,85.2744],[25.7976,60.8958,82.7037],[25.7968,60.8913,93.202],[25.7784,60.8921,91.751],[25.7841,60.9234,91.6544],[25.7749,60.9238,116.9143],[25.7741,60.9193,108.3677],[25.7556,60.9201,90.1441],[25.7548,60.9156,96.6739],[25.7456,60.916,105.1326],[25.7464,60.9205,97.1975],[25.7372,60.9209,120.8844],[25.7388,60.9298,109.5177],[25.7204,60.9306,94.1011],[25.7196,60.9261,86.2339],[25.7104,60.9265,97.2836],[25.7096,60.9221,85.5716],[25.7004,60.9225,102.2389],[25.6996,60.918,77.92],[25.6904,60.9184,75.9602],[25.6896,60.9139,73.3306],[25.6804,60.9143,74.3615],[25.6796,60.9098,72.1156],[25.6704,60.9102,84.4578],[25.6696,60.9057,70.9829],[25.6604,60.9061,72.4252],[25.6572,60.8882,76.2726],[25.648,60.8886,72.3462],[25.6464,60.8796,66.9336],[25.6372,60.88,68.3589],[25.6364,60.8755,67.5409],[25.6272,60.8759,69.1032],[25.6264,60.8715,68.9122],[25.5988,60.8726,89.5785],[25.5996,60.8771,87.5842],[25.5812,60.8778,97.8377],[25.582,60.8823,92.9647],[25.5636,60.8831,97.9371],[25.5621,60.8741,114.8433],[25.5529,60.8745,96.8655],[25.5521,60.87,115.5946],[25.5337,60.8708,134.2426],[25.5352,60.8797,121.3456],[25.526,60.8801,131.7062],[25.5276,60.889,108.3949],[25.5092,60.8898,84.6673],[25.5076,60.8809,92.0368],[25.4984,60.8812,72.7193],[25.4977,60.8768,86.6625],[25.4885,60.8771,76.8146],[25.4877,60.8727,86.4016],[25.4601,60.8738,118.7834],[25.4586,60.8648,130.966],[25.4494,60.8652,110.1013],[25.4486,60.8607,107.1774],[25.4394,60.8611,96.1722],[25.4402,60.8656,102.7599],[25.4218,60.8663,94.3514],[25.421,60.8618,103.7948],[25.4118,60.8622,92.6057],[25.4111,60.8577,101.9105],[25.4019,60.8581,112.2128],[25.3996,60.8447,104.4947],[25.4088,60.8443,142.6177],[25.408,60.8398,104.7617],[25.4172,60.8395,94.0234],[25.4165,60.835,102.7271],[25.4257,60.8346,90.4025],[25.4249,60.8301,87.5421],[25.4341,60.8298,92.829],[25.4333,60.8253,94.4835],[25.4425,60.8249,97.936],[25.441,60.816,90.232],[25.4502,60.8156,79.8488],[25.4479,60.8022,80.9346],[25.4387,60.8025,97.2612],[25.4372,60.7936,84.9665],[25.4555,60.7929,87.6929],[25.4563,60.7973,84.731],[25.4655,60.797,105.3559],[25.4647,60.7925,82.3987],[25.4831,60.7917,100.3625],[25.4815,60.7828,110.6152],[25.4907,60.7824,96.335],[25.4892,60.7735,104.9302],[25.4983,60.7731,84.0],[25.4968,60.7641,103.3645],[25.506,60.7638,91.0819],[25.5044,60.7548,94.9872],[25.5136,60.7544,76.5894],[25.512,60.7455,77.8502],[25.5212,60.7451,88.1312],[25.5181,60.7272,78.461],[25.5273,60.7268,79.5611],[25.5227,60.7,67.2039],[25.541,60.6992,72.7566],[25.5402,60.6948,62.4851],[25.5585,60.694,59.0437],[25.5577,60.6895,58.0549],[25.5669,60.6892,62.3512],[25.5661,60.6847,65.798],[25.5844,60.6839,57.2354],[25.5836,60.6795,54.5182],[25.5927,60.6791,53.4364],[25.5919,60.6746,51.6994],[25.6194,60.6735,51.2701],[25.6201,60.6779,52.1158],[25.6293,60.6776,44.5544],[25.6309,60.6865,44.7556],[25.64,60.6861,44.0136],[25.6408,60.6906,44.8824],[25.6774,60.6891,61.1229],[25.6782,60.6935,52.1305],[25.6873,60.6931,50.6865],[25.6889,60.7021,63.3016],[25.698,60.7017,71.9693],[25.6996,60.7107,85.0549],[25.7088,60.7103,88.2826],[25.7096,60.7147,93.9297],[25.7187,60.7144,89.1519],[25.7195,60.7188,84.4856],[25.7287,60.7184,69.9277],[25.7279,60.714,83.2819],[25.737,60.7136,65.706],[25.7362,60.7091,66.9401],[25.7819,60.7071,52.4029],[25.7827,60.7116,51.0105],[25.8102,60.7104,55.5834],[25.811,60.7149,57.8857],[25.8385,60.7137,61.8905],[25.8401,60.7227,68.241],[25.8492,60.7223,61.1499],[25.85,60.7267,57.8107],[25.8592,60.7263,62.9694],[25.86,60.7308,76.6437],[25.8692,60.7304,77.4216],[25.87,60.7349,85.9155],[25.9066,60.7333,79.5377],[25.9074,60.7378,92.1642],[25.9166,60.7374,92.0445],[25.9158,60.7329,55.6079],[25.9249,60.7325,67.6522],[25.9224,60.7191,61.5956],[25.9316,60.7187,52.3898],[25.9299,60.7097,61.5675],[25.9391,60.7093,44.0955],[25.9383,60.7048,44.6598],[25.9474,60.7044,82.6297],[25.9482,60.7089,70.9936],[25.9757,60.7077,40.0385],[25.9765,60.7122,39.9648],[26.0039,60.7109,39.7997],[26.0048,60.7154,39.7615],[26.0413,60.7138,54.8192],[26.0405,60.7093,59.9451],[26.0588,60.7085,45.2645],[26.0579,60.704,64.8838],[26.0762,60.7032,60.8449],[26.0754,60.6987,62.6858],[26.0845,60.6983,53.0155],[26.0837,60.6938,53.9018],[26.102,60.693,46.1801],[26.1011,60.6885,50.5815],[26.1377,60.6869,59.8013],[26.1385,60.6913,30.2914],[26.1477,60.6909,50.9586],[26.1485,60.6954,39.9512],[26.1577,60.695,54.9487],[26.1585,60.6995,43.6585],[26.1677,60.699,58.4599],[26.1685,60.7035,54.9692],[26.1777,60.7031,65.5982],[26.1785,60.7076,42.5728],[26.1968,60.7067,59.0107],[26.1977,60.7112,45.5517],[26.2068,60.7108,36.4443],[26.2077,60.7152,39.2731],[26.2168,60.7148,61.3666],[26.2194,60.7282,52.9914],[26.2286,60.7278,57.2984],[26.2294,60.7323,41.0427],[26.2203,60.7327,44.3797],[26.222,60.7416,46.4959],[26.2129,60.7421,40.6757],[26.2146,60.751,43.4945]]]]}}