{"type":"Feature","properties":{"GID_3":"FIN.4.2.2_1","GID_0":"FIN","country":"Finland","GID_1":"FIN.4_1","province":"SouthernFinland","NL_NAME_1":"NA","GID_2":"FIN.4.2_1","county":"Kymenlaakso","NL_NAME_2":"NA","city":"Kouvola","VARNAME_3":"NA","NL_NAME_3":"NA","TYPE_3":"Seutukunta|Ekonomiskregion","ENGTYPE_3":"Sub-Region","CC_3":"NA","HASC_3":"FI.ES.KV","name":"Kouvola.city"},
"geometry":{"type": "MultiPolygon","coordinates": [[[[26.7516,60.5807,25.0338],[26.7507,60.5763,26.6346],[26.7689,60.5753,30.8243],[26.7708,60.5843,22.9502],[26.7799,60.5838,16.0],[26.7874,60.6195,29.6454],[26.7692,60.6205,18.9928],[26.7701,60.6249,27.5844],[26.7519,60.6258,17.0],[26.7538,60.6348,34.2138],[26.7629,60.6343,34.6314],[26.7638,60.6388,36.8856],[26.7547,60.6392,35.2877],[26.7575,60.6526,23.0249],[26.7484,60.6531,30.0261],[26.7493,60.6576,24.2618],[26.7402,60.658,20.0],[26.7412,60.6625,20.8906],[26.7503,60.662,20.0],[26.7522,60.671,25.8096],[26.7613,60.6705,34.3165],[26.7622,60.675,20.0],[26.7805,60.674,20.5],[26.7795,60.6696,24.757],[26.7886,60.6691,28.9644],[26.7877,60.6646,32.6988],[26.7968,60.6642,43.5849],[26.7959,60.6597,25.1691],[26.8141,60.6588,35.9123],[26.8132,60.6544,20.5],[26.8223,60.6539,38.365],[26.8214,60.6494,25.8188],[26.8305,60.6489,25.7911],[26.8286,60.64,22.9198],[26.8924,60.6367,33.706],[26.8933,60.6412,27.7156],[26.9116,60.6403,38.4483],[26.9125,60.6447,32.0336],[26.9216,60.6443,39.136],[26.9226,60.6487,39.9187],[26.9317,60.6483,40.6092],[26.9327,60.6528,37.9111],[26.9509,60.6518,33.9711],[26.9519,60.6563,33.0361],[26.961,60.6558,31.5222],[26.962,60.6603,30.8118],[26.9802,60.6593,30.8014],[26.9812,60.6638,37.4457],[26.9903,60.6633,37.0696],[26.9913,60.6678,54.0542],[27.0095,60.6668,53.3244],[27.0105,60.6713,57.7872],[27.0196,60.6708,26.9385],[27.0206,60.6753,27.5946],[27.0388,60.6743,46.5019],[27.0398,60.6788,24.7875],[27.0489,60.6783,33.4831],[27.047,60.6694,20.7278],[27.0561,60.6689,23.1361],[27.0571,60.6734,18.0436],[27.0844,60.6719,71.5677],[27.0854,60.6764,74.2438],[27.0945,60.6759,64.2704],[27.0965,60.6848,63.5069],[27.1056,60.6843,65.2127],[27.1096,60.7022,50.8686],[27.1187,60.7017,74.6194],[27.1247,60.7285,46.4908],[27.1155,60.729,59.8697],[27.1265,60.7781,79.2388],[27.1356,60.7776,87.7303],[27.1346,60.7731,78.0429],[27.1621,60.7717,82.4087],[27.1611,60.7672,86.4094],[27.1885,60.7657,60.6984],[27.1875,60.7613,68.4838],[27.2241,60.7593,68.7641],[27.2261,60.7682,73.6402],[27.2352,60.7677,82.8432],[27.2373,60.7767,84.7155],[27.2647,60.7752,81.593],[27.2657,60.7797,76.1455],[27.2749,60.7792,87.3945],[27.2769,60.7881,77.5297],[27.2677,60.7886,85.8539],[27.2698,60.7975,87.8644],[27.2606,60.798,69.0],[27.2616,60.8025,75.3607],[27.2708,60.802,84.4829],[27.2718,60.806399999999996,90.3101],[27.281,60.8059,92.2199],[27.283,60.8149,71.9925],[27.2922,60.8144,70.6863],[27.2942,60.8233,78.2881],[27.3217,60.8218,115.9116],[27.3207,60.8173,76.6813],[27.3481,60.8158,65.4619],[27.3502,60.8248,66.6909],[27.3594,60.8243,81.8856],[27.3614,60.8332,87.3548],[27.3706,60.8327,99.0221],[27.3716,60.8372,86.977],[27.3808,60.8366,98.7417],[27.3818,60.8411,83.8491],[27.4185,60.8391,70.8078],[27.4205,60.848,82.0241],[27.4114,60.8485,79.3806],[27.4124,60.853,84.5158],[27.403199999999998,60.8535,92.1586],[27.4043,60.858,79.682],[27.3951,60.8585,88.4386],[27.3961,60.8629,92.5922],[27.387,60.8634,92.5022],[27.389,60.8723,118.3795],[27.3799,60.8728,110.325],[27.3809,60.8773,95.4298],[27.3717,60.8778,109.9022],[27.3728,60.8823,89.6952],[27.3452,60.8838,100.7456],[27.3463,60.8882,97.5932],[27.3095,60.8902,69.0063],[27.3106,60.8947,100.2773],[27.2371,60.8986,77.8474],[27.2381,60.9031,85.4236],[27.2106,60.9046,116.4493],[27.2116,60.909,116.0813],[27.2024,60.9095,96.1918],[27.2034,60.914,74.8869],[27.1942,60.9145,82.7477],[27.1952,60.9189,86.2527],[27.186,60.9194,78.0062],[27.1871,60.9239,79.7607],[27.1779,60.9244,78.2058],[27.1789,60.9288,79.6988],[27.1697,60.9293,76.0],[27.1707,60.9338,85.8676],[27.1615,60.9343,83.2798],[27.1625,60.9387,108.5691],[27.1533,60.9392,83.7486],[27.1543,60.9437,93.4389],[27.1451,60.9442,87.7712],[27.1461,60.9486,86.7555],[27.1369,60.9491,88.5163],[27.1379,60.9536,84.8486],[27.1287,60.9541,73.0],[27.1317,60.9674,86.7944],[27.1409,60.967,80.6205],[27.1399,60.9625,67.7291],[27.1583,60.9615,83.1985],[27.1573,60.9571,80.9373],[27.1757,60.9561,81.7327],[27.1747,60.9516,63.0],[27.1931,60.9506,82.0089],[27.1941,60.9551,71.181],[27.2125,60.9541,83.7281],[27.2135,60.9586,91.5112],[27.2319,60.9576,79.973],[27.233,60.9621,64.5],[27.2422,60.9616,82.4206],[27.2432,60.966,80.0814],[27.2524,60.9656,73.0],[27.2534,60.97,102.802],[27.2258,60.9715,82.0007],[27.2268,60.976,91.343],[27.2176,60.9765,85.6417],[27.2207,60.9898,72.8274],[27.2114,60.9903,74.7575],[27.2124,60.9948,77.3052],[27.2032,60.9953,114.2809],[27.2053,61.0042,86.081],[27.1868,61.0052,106.251],[27.1858,61.0007,117.6338],[27.1582,61.0022,113.237],[27.1592,61.0066,83.0],[27.15,61.0071,83.0],[27.151,61.0116,100.1318],[27.1418,61.0121,83.0],[27.1428,61.0165,89.3444],[27.152,61.0161,95.6687],[27.154,61.025,120.0527],[27.1632,61.0245,107.3378],[27.1642,61.029,121.6967],[27.155,61.0294,112.3885],[27.158,61.0428,126.3496],[27.1488,61.0433,122.4843],[27.1549,61.0701,92.0926],[27.1641,61.0696,96.7488],[27.1661,61.0785,120.5005],[27.1754,61.078,117.7672],[27.1764,61.0825,114.4776],[27.1856,61.082,111.9662],[27.1866,61.0865,110.4025],[27.2051,61.0855,108.88],[27.2061,61.09,122.1359],[27.2338,61.0885,97.5],[27.2349,61.093,110.2903],[27.2256,61.0934,118.3219],[27.2267,61.0979,107.2663],[27.2174,61.0984,125.7572],[27.2184,61.1029,114.7097],[27.2092,61.1034,97.0],[27.2102,61.1078,116.1751],[27.201,61.1083,97.0],[27.1999,61.1039,97.0],[27.1815,61.1048,102.6224],[27.1855,61.1227,110.0646],[27.1948,61.1222,106.7762],[27.1968,61.1311,107.1742],[27.2061,61.1306,117.4035],[27.2071,61.1351,123.5212],[27.2163,61.1346,127.5339],[27.2194,61.148,126.8418],[27.2102,61.1485,122.7089],[27.2132,61.1619,119.3736],[27.1299,61.1663,98.5522],[27.1289,61.1618,90.0],[27.1011,61.1632,137.2492],[27.1001,61.1588,121.1741],[27.0908,61.1593,111.9787],[27.0898,61.1548,124.4434],[27.0713,61.1558,112.7142],[27.0703,61.1513,106.5276],[27.0425,61.1527,115.5111],[27.024,61.1537,85.9857],[27.025,61.1581,122.8984],[26.9972,61.1596,103.8084],[26.9982,61.164,91.4751],[26.9704,61.1655,100.0],[26.9714,61.1699,112.6074],[26.9436,61.1713,101.166],[26.9446,61.1758,132.954],[26.926,61.1768,97.5],[26.927,61.1812,119.5948],[26.9177,61.1817,113.9017],[26.9217,61.1996,136.2769],[26.9227,61.204,138.5862],[26.9319,61.2036,135.5238],[26.9339,61.2125,144.9542],[26.9246,61.213,111.0],[26.9276,61.2263,129.928],[26.9183,61.2268,134.316],[26.9193,61.2313,145.3967],[26.91,61.2318,112.0],[26.911,61.2362,131.2498],[26.9017,61.2367,112.0],[26.9027,61.2411,129.199],[26.8934,61.2416,112.0],[26.8953,61.2505,127.8092],[26.886,61.251,121.6103],[26.889,61.2644,113.5],[26.8797,61.2649,113.5],[26.8836,61.2827,113.0],[26.8464,61.2846,109.0],[26.8454,61.2801,123.8758],[26.8268,61.2811,126.2654],[26.8259,61.2766,124.0495],[26.8073,61.2775,94.9933],[26.8063,61.2731,104.3574],[26.797,61.2735,114.1267],[26.796,61.2691,98.7836],[26.7774,61.27,77.5],[26.7736,61.2521,97.1234],[26.7643,61.2526,104.9203],[26.7614,61.2392,74.5],[26.7521,61.2397,76.9422],[26.7492,61.2262,74.5],[26.7307,61.2272,74.5],[26.7297,61.2227,74.5],[26.7204,61.2232,74.5],[26.7195,61.2187,80.8474],[26.7009,61.2196,74.5],[26.6999,61.2151,74.5],[26.6907,61.2156,74.5],[26.6897,61.2111,74.5],[26.6712,61.212,74.5],[26.6702,61.2076,74.5],[26.6516,61.2085,74.5],[26.6526,61.2129,74.5],[26.6433,61.2134,74.5],[26.6442,61.2179,74.5],[26.635,61.2183,74.5],[26.6369,61.2272,74.5],[26.6461,61.2268,74.5],[26.6471,61.2313,74.5],[26.6564,61.2308,74.5],[26.6583,61.2397,74.5],[26.6676,61.2393,74.5],[26.6704,61.2527,74.5],[26.6611,61.2531,87.0336],[26.6621,61.2576,74.5],[26.6528,61.2581,74.5],[26.6547,61.267,106.9211],[26.6454,61.2674,87.6702],[26.6482,61.2808,75.5],[26.6389,61.2813,75.5],[26.6408,61.2902,101.7262],[26.6222,61.2911,82.0],[26.6212,61.2867,91.5716],[26.6119,61.2871,116.9608],[26.611,61.2826,111.3826],[26.6017,61.2831,137.6335],[26.6007,61.2786,121.8188],[26.5914,61.2791,124.7157],[26.5905,61.2746,134.0401],[26.5719,61.2755,88.6524],[26.571,61.271,99.6599],[26.5524,61.2719,82.5],[26.5533,61.2764,82.5],[26.5254,61.2777,96.249],[26.5245,61.2733,99.6862],[26.5058,61.2742,109.0755],[26.5049,61.2697,105.5607],[26.4863,61.2706,130.7547],[26.4854,61.2661,101.0],[26.4575,61.2674,102.1063],[26.4566,61.263,109.6163],[26.4473,61.2634,103.686],[26.4464,61.2589,103.5815],[26.4371,61.2594,100.8429],[26.4352,61.2504,101.5152],[26.4259,61.2509,98.5872],[26.425,61.2464,100.0028],[26.4343,61.246,100.0515],[26.4316,61.2326,101.0787],[26.4223,61.233,101.3028],[26.4205,61.224,108.0892],[26.4112,61.2245,118.0039],[26.4093,61.2155,109.1239],[26.4001,61.216,99.3846],[26.3964,61.1981,124.0784],[26.3871,61.1986,128.194],[26.3844,61.1851,117.7453],[26.3751,61.1856,127.7859],[26.3742,61.1811,109.3301],[26.365,61.1815,103.8758],[26.3641,61.1771,75.0],[26.3548,61.1775,75.0],[26.3539,61.173,75.0],[26.3446,61.1735,75.0],[26.3437,61.169,75.0],[26.3159,61.1703,75.0],[26.315,61.1658,92.2845],[26.2872,61.1671,98.3211],[26.2863,61.1626,90.3859],[26.277,61.1631,98.7458],[26.2743,61.1497,108.8621],[26.2651,61.1501,104.1389],[26.2633,61.1411,126.0489],[26.254,61.1416,142.8877],[26.2531,61.1371,121.7021],[26.2439,61.1375,114.9788],[26.2421,61.1286,117.3128],[26.2236,61.1294,116.3669],[26.2245,61.1339,102.8484],[26.1503,61.1373,76.5],[26.1521,61.1462,76.5],[26.1428,61.1466,76.5],[26.1446,61.1556,76.5],[26.1353,61.156,76.5],[26.1344,61.1515,76.5],[26.1251,61.1519,76.5],[26.1243,61.1475,76.5],[26.115,61.1479,76.5],[26.1141,61.1434,76.5],[26.1049,61.1438,86.2755],[26.104,61.1394,76.5],[26.0947,61.1398,84.0767],[26.0939,61.1353,98.1079],[26.0846,61.1357,112.2822],[26.0838,61.1312,113.8774],[26.0745,61.1316,125.1543],[26.0736,61.1272,129.9085],[26.0644,61.1276,136.4326],[26.0635,61.1231,147.6155],[26.0542,61.1235,150.9058],[26.0482,61.0922,147.9201],[26.0667,61.0914,120.029],[26.0659,61.0869,114.2791],[26.0844,61.0861,137.6915],[26.0835,61.0816,113.0948],[26.102,61.0808,138.9796],[26.1012,61.0763,134.2253],[26.1104,61.0759,115.98779999999999],[26.1052,61.0491,89.9842],[26.1145,61.0487,91.4591],[26.1136,61.0442,102.2511],[26.1229,61.0438,101.1814],[26.1211,61.0349,82.1846],[26.1304,61.0344,81.2214],[26.1295,61.03,73.5],[26.1387,61.0296,73.5],[26.1379,61.0251,73.5],[26.1286,61.0255,73.5],[26.1209,60.9853,73.5],[26.1117,60.9857,73.5],[26.1108,60.9812,73.5],[26.1016,60.9816,73.5],[26.1007,60.9771,73.5],[26.0915,60.9776,73.5],[26.0906,60.9731,73.5],[26.0722,60.9739,84.7857],[26.0739,60.9829,84.1607],[26.0462,60.9841,75.6814],[26.0428,60.9662,110.3339],[26.052,60.9658,107.4009],[26.0495,60.9524,101.9688],[26.0587,60.952,118.1026],[26.0562,60.9386,88.4217],[26.0654,60.9382,86.2786],[26.0645,60.9337,81.9738],[26.1658,60.9291,93.84],[26.1632,60.9157,108.4605],[26.154,60.9161,98.482],[26.1523,60.9072,86.6476],[26.1431,60.9076,86.5181],[26.1413,60.8987,99.4057],[26.1321,60.8991,78.7103],[26.1304,60.8901,64.2876],[26.1212,60.8905,60.7931],[26.1178,60.8727,59.8856],[26.127,60.8722,60.4234],[26.1261,60.8678,60.3085],[26.1077,60.8686,60.4849],[26.1069,60.8641,104.5889],[26.0977,60.8646,61.268],[26.096,60.8556,95.633],[26.0868,60.856,73.9982],[26.0825,60.8337,82.4265],[26.0917,60.8333,85.9453],[26.0909,60.8288,70.8638],[26.1092,60.828,62.3514],[26.1101,60.8324,58.8142],[26.1193,60.832,60.7462],[26.1284,60.8316,88.8149],[26.1276,60.8271,51.3371],[26.1551,60.8259,58.464],[26.1542,60.8214,58.2812],[26.1726,60.8206,63.1212],[26.1717,60.8161,77.9022],[26.1809,60.8157,91.5691],[26.18,60.8112,94.5311],[26.1892,60.8108,84.9515],[26.1883,60.8063,93.017],[26.1975,60.8059,96.4631],[26.1966,60.8014,69.859],[26.2058,60.801,66.3737],[26.2023,60.7831,60.0689],[26.2115,60.7827,69.7933],[26.2063,60.7559,68.3879],[26.2246,60.755,45.8218],[26.2237,60.7506,43.1279],[26.2512,60.7493,50.2398],[26.2538,60.7627,39.567],[26.2813,60.7614,46.4368],[26.2804,60.757,49.6631],[26.2896,60.7565,37.0671],[26.2887,60.7521,38.4832],[26.2979,60.7516,31.4307],[26.297,60.7472,31.3754],[26.3061,60.7467,34.2414],[26.3026,60.7289,29.9778],[26.3118,60.7284,60.6473],[26.3109,60.724,41.6001],[26.32,60.7235,56.7675],[26.3191,60.7191,35.02],[26.3283,60.7186,49.1517],[26.3274,60.7142,32.8348],[26.3365,60.7137,57.8023],[26.3348,60.7048,26.5232],[26.3256,60.7052,27.6786],[26.3239,60.6963,40.053],[26.333,60.6959,31.3086],[26.3304,60.6825,30.1378],[26.3395,60.682,29.5112],[26.3377,60.6731,41.4795],[26.356,60.6722,36.2659],[26.3534,60.6588,37.8715],[26.399,60.6567,42.4261],[26.3981,60.6522,47.547],[26.4346,60.6504,43.8397],[26.4337,60.646,25.9257],[26.4519,60.6451,21.874],[26.451,60.6406,19.3319],[26.4602,60.6402,19.563],[26.4593,60.6357,18.5512],[26.4684,60.6353,19.2508],[26.4666,60.6264,18.4856],[26.4757,60.6259,24.3338],[26.4748,60.6214,23.3705],[26.4839,60.621,26.7002],[26.4803,60.6031,15.3773],[26.4894,60.6027,15.6742],[26.4885,60.5982,15.2613],[26.5432,60.5956,26.0406],[26.5423,60.5911,15.0],[26.5514,60.5907,15.0],[26.5532,60.5996,15.0667],[26.5623,60.5991,15.0],[26.5641,60.6081,31.1838],[26.5732,60.6076,28.3137],[26.5751,60.6166,16.505],[26.5842,60.6161,19.7701],[26.586,60.6251,16.9099],[26.5951,60.6246,18.9243],[26.5979,60.638,22.86],[26.607,60.6376,20.5925],[26.6088,60.6465,28.0233],[26.6271,60.6456,44.3519],[26.628,60.6501,34.1355],[26.6462,60.6492,32.6309],[26.6471,60.6536,41.1149],[26.6745,60.6523,45.9129],[26.6736,60.6478,35.7666],[26.6918,60.6469,25.3683],[26.6899,60.638,34.4739],[26.6991,60.6375,40.5563],[26.6972,60.6286,43.2375],[26.7063,60.6281,38.8004],[26.7054,60.6237,34.6284],[26.7145,60.6232,28.9714],[26.7126,60.6143,27.4907],[26.7217,60.6138,28.4123],[26.7199,60.6049,28.3922],[26.729,60.6044,29.6772],[26.7281,60.6,29.2981],[26.7372,60.5995,30.411],[26.7353,60.5906,26.016],[26.7444,60.5901,31.6959],[26.7435,60.5856,20.2578],[26.7526,60.5852,31.1081],[26.7516,60.5807,25.0338]]]]}}