{"type": "Feature","id": "3185","bbox": [23.13826,60.55289,25.28758,61.3223],"geometry": {"type": "Polygon","coordinates": [[[24.99044,61.27902,93.0],[24.97029,61.28194,96.7147],[24.94952,61.28724,93.0],[24.93567,61.28799,122.5585],[24.9213,61.29171,106.5344],[24.91748,61.31109,105.7686],[24.9183,61.3223,99.2523],[24.90373,61.31618,110.1451],[24.89412,61.30833,171.1622],[24.8905,61.29864,146.1179],[24.89143,61.29267,112.6009],[24.8812,61.28411,120.4629],[24.8042,61.26748,86.936],[24.77867,61.26866,93.0],[24.76451,61.27714,121.6015],[24.7426,61.30422,104.2093],[24.73651,61.31039,105.8059],[24.72441,61.29815,84.5],[24.71408,61.2836,102.0078],[24.68783,61.2744,106.6224],[24.65558,61.27874,106.1986],[24.58437,61.29481,98.1248],[24.55078,61.29595,113.7053],[24.5175,61.29073,116.1835],[24.38035,61.24381,83.0],[24.34366,61.23817,127.4567],[24.27948,61.23714,100.4678],[24.2679,61.23156,86.6919],[24.26553,61.2157,102.8772],[24.27411,61.20425,78.5],[24.28764,61.1972,78.5],[24.29385,61.19541,78.5],[24.28217,61.18402,78.5],[24.22822,61.15828,78.5],[24.18708,61.14725,78.5],[24.13572,61.13885,84.0769],[24.13685,61.13637,98.3755],[24.14016,61.12542,116.8624],[24.08859,61.12893,113.1646],[24.03288,61.12139,81.2917],[23.93263,61.09312,90.4313],[23.79796,61.07534,127.198],[23.77853,61.06831,134.274],[23.76695,61.05715,124.5],[23.80003,61.05217,139.8368],[23.80447,61.04837,151.2138],[23.80271,61.04475,163.5796],[23.79827,61.03188,155.3376],[23.79641,61.02832,134.9025],[23.80447,61.02677,141.948],[23.85367,61.03524,134.0535],[23.86586,61.03509,108.0],[23.87806,61.02718,127.2853],[23.87113,61.01741,109.8518],[23.85253,61.00871,118.0699],[23.82524,60.99969,111.1122],[23.82772,60.99437,114.2876],[23.83651,60.99044,127.0719],[23.85108,60.98028,141.8131],[23.86193,60.96708,141.7799],[23.86596,60.95923,135.9418],[23.85232,60.94633,138.1294],[23.83568,60.95013,147.0705],[23.77894,60.99307,109.1879],[23.72292,61.00232,106.5],[23.70701,61.007,106.5],[23.66329,61.00431,117.6458],[23.58547,60.98574,166.0183],[23.47395,60.98594,141.0128],[23.45793,60.9822,128.8569],[23.4601,60.97938,134.0169],[23.4693,60.96421,105.0899],[23.43705,60.96948,105.805],[23.34114,61.00672,125.5519],[23.2752,61.01912,112.3506],[23.19738,60.99995,123.6446],[23.24006,60.97235,101.5338],[23.26486,60.96155,98.489],[23.27975,60.95824,98.023],[23.29577,60.94672,95.9851],[23.29494,60.93628,96.1387],[23.28843,60.9222,93.1621],[23.27489,60.91571,94.8857],[23.26424,60.91569,95.7844],[23.25639,60.91458,96.8469],[23.25846,60.91122,98.4594],[23.26507,60.8967,107.248],[23.26714,60.89334,105.89],[23.25102,60.89143,120.1318],[23.19221,60.89535,98.4971],[23.15769,60.89024,93.7685],[23.13826,60.87091,88.8171],[23.14198,60.84621,85.2139],[23.16575,60.83432,86.2601],[23.21205,60.82931,84.0989],[23.21567,60.81954,82.4478],[23.20306,60.81376,85.8274],[23.18446,60.80254,118.3483],[23.16906,60.78781,108.4171],[23.16244,60.77988,106.0731],[23.1765,60.76373,117.7837],[23.232,60.73983,89.0266],[23.26735,60.72821,93.2616],[23.30776,60.72299,95.2602],[23.35633,60.72694,104.7134],[23.4509,60.74503,99.4186],[23.47705,60.74652,125.4128],[23.5125,60.72658,108.1438],[23.528,60.71278,112.5612],[23.57131,60.69782,127.2162],[23.65285,60.68955,104.6301],[23.70463,60.66113,127.8578],[23.76613,60.65242,147.2661],[23.89666,60.64875,107.5],[23.94782,60.65268,139.9945],[24.19277,60.61979,133.4478],[24.23483,60.60746,126.6712],[24.2524,60.59713,102.3296],[24.28392,60.5654,93.8392],[24.30408,60.56827,114.5422],[24.30366,60.58178,106.0259],[24.30925,60.59403,114.9869],[24.34056,60.60183,137.0844],[24.3818,60.59899,133.4432],[24.3972,60.59625,117.022],[24.40516,60.57718,131.719],[24.41405,60.56344,115.5352],[24.46293,60.55289,119.7577],[24.52494,60.55853,105.8484],[24.56628,60.57821,96.2156],[24.5699,60.58953,122.3876],[24.56794,60.61757,95.1557],[24.57455,60.63645,113.3236],[24.59192,60.65495,131.5017],[24.61238,60.66051,120.7962],[24.75067,60.65444,136.7568],[24.91117,60.66493,128.0051],[24.96347,60.67671,87.1172],[24.99468,60.68002,91.5019],[25.02796,60.67836,91.7253],[25.09555,60.66374,113.0295],[25.10765,60.6665,110.4881],[25.10455,60.67139,104.7011],[25.09328,60.69826,119.7166],[25.10382,60.70477,98.273],[25.18237,60.72358,105.8531],[25.17307,60.72756,110.6953],[25.12377,60.7342,89.642],[25.09958,60.73118,98.0661],[25.06341,60.71645,95.7193],[25.0599,60.72089,139.5072],[25.06558,60.73371,120.3735],[25.07571,60.74363,84.8959],[25.09638,60.75655,81.9649],[25.12212,60.76399,86.0777],[25.13907,60.76663,80.4817],[25.15622,60.77198,117.498],[25.15695,60.77748,119.6068],[25.15023,60.78515,120.0999],[25.12759,60.79572,113.5819],[25.11622,60.8051,104.6827],[25.10889,60.81985,84.3383],[25.10279,60.82135,83.7969],[25.09638,60.82166,83.7803],[25.09338,60.82138,83.9169],[25.08625,60.82885,86.4822],[25.08419,60.83784,108.0721],[25.08832,60.84776,87.9419],[25.09762,60.85523,95.805],[25.14165,60.90871,113.6984],[25.16459,60.92987,100.3437],[25.19074,60.94873,114.5495],[25.2204,60.96341,99.3501],[25.23725,60.96902,117.0383],[25.2543,60.97659,117.0129],[25.25534,60.98212,127.0201],[25.25007,60.98953,147.1268],[25.24376,60.99351,132.4832],[25.22661,61.00217,115.921],[25.21245,61.00734,135.3187],[25.20914,61.01062,108.8847],[25.22195,61.01328,128.2112],[25.23095,61.01416,118.2927],[25.23663,61.01385,115.5173],[25.25182,61.02852,122.7335],[25.28665,61.0757,129.267],[25.28758,61.10304,109.2673],[25.26547,61.11366,153.5585],[25.24056,61.12056,173.5004],[25.24107,61.12828,127.078],[25.24004,61.13306,154.0558],[25.23808,61.13854,138.0877],[25.24294,61.14828,133.8979],[25.24945,61.15358,143.7532],[25.25637,61.16314,140.6402],[25.25957,61.1741,145.8842],[25.26071,61.18097,147.8254],[25.25213,61.19208,155.7004],[25.2234,61.2052,167.4724],[25.20945,61.21864,170.8215],[25.20562,61.22882,185.4958],[25.18774,61.24003,145.5],[25.07612,61.25347,176.7959],[25.03241,61.25394,150.4167],[25.02021,61.26277,153.4392],[25.0167,61.27471,153.0042],[25.00357,61.28166,130.8141],[24.99044,61.27902,93.0]]]}
,"properties": {"ISO3166-1-Alpha-3": "FIN","country": "Finland","fill": "#F00","name": "Tavastia Proper","area_km2": 5857.521,"hist_schema_id": "Elevation0-9000","hist_area_km2": {"75": 478.514,"100": 1921.518,"125": 2338.164,"150": 1000.062,"175": 118.19,"200": 1.073}}}