{"type":"Feature","properties":{"GID_2":"FIN.5.9_1","GID_0":"FIN","country":"Finland","GID_1":"FIN.5_1","province":"WesternFinland","NL_NAME_1":"NA","county":"TavastiaProper","VARNAME_2":"Kanta-Häme|EgentligaTavastland","NL_NAME_2":"NA","TYPE_2":"Maakunta|landskap","ENGTYPE_2":"Region","CC_2":"NA","HASC_2":"NA","name":"Tavastia_Proper.county"},
"geometry":{"type": "MultiPolygon","coordinates": [[[[24.596,60.6583,128.0971],[24.6052,60.658,116.7863],[24.6058,60.6624,103.0],[24.6149,60.6621,103.0],[24.6156,60.6666,103.0],[24.6339,60.666,103.0],[24.6332,60.6615,103.0],[24.6515,60.6609,108.1435],[24.6509,60.6564,119.7644],[24.6783,60.6554,129.3367],[24.6777,60.651,114.3495],[24.7508,60.6484,130.9312],[24.7514,60.6529,132.5059],[24.7697,60.6522,116.5139],[24.7704,60.6567,111.6358],[24.7795,60.6564,121.5399],[24.7802,60.6609,125.7227],[24.7893,60.6605,104.8071],[24.79,60.665,100.5187],[24.7992,60.6647,112.7657],[24.7998,60.6692,89.0354],[24.809,60.6688,87.6403],[24.8097,60.6733,103.2401],[24.8188,60.673,86.3988],[24.8181,60.6685,97.9542],[24.8364,60.6679,87.9071],[24.8351,60.6589,90.7658],[24.8808,60.6572,139.406],[24.8815,60.6617,143.2412],[24.9089,60.6607,126.6665],[24.9096,60.6652,126.4581],[24.9187,60.6649,100.8978],[24.9194,60.6693,116.1138],[24.9285,60.669,93.753],[24.9292,60.6735,100.7977],[24.9475,60.6728,87.9166],[24.9482,60.6773,88.9162],[24.9665,60.6766,86.819],[24.9672,60.6811,95.4638],[25.0038,60.6797,116.2789],[25.0045,60.6842,94.3395],[25.0502,60.6825,102.9997],[25.0495,60.678,91.4254],[25.0587,60.6777,107.3654],[25.058,60.6732,86.0],[25.0671,60.6729,99.3673],[25.0664,60.6684,102.8318],[25.0847,60.6677,100.5257],[25.084,60.6632,103.2181],[25.1114,60.6622,116.2932],[25.1128,60.6711,108.5323],[25.1037,60.6715,104.7011],[25.1051,60.6804,88.9534],[25.096,60.6808,98.475],[25.0974,60.6897,86.5169],[25.0882,60.6901,91.2018],[25.0904,60.7035,97.8431],[25.1087,60.7028,101.3153],[25.1094,60.7073,99.0358],[25.1185,60.707,93.5514],[25.1192,60.7114,86.8755],[25.1376,60.7107,78.1919],[25.1383,60.7152,81.7214],[25.1474,60.7149,84.1538],[25.1481,60.7193,84.103],[25.1756,60.7183,103.9004],[25.1763,60.7228,108.337],[25.1946,60.7221,109.5723],[25.1954,60.7265,102.7068],[25.1587,60.7279,98.1108],[25.1595,60.7324,102.8524],[25.1411,60.7331,91.0877],[25.1419,60.7376,93.2115],[25.1327,60.7379,86.6658],[25.1334,60.7424,83.1431],[25.1243,60.7428,89.3035],[25.125,60.7472,80.0077],[25.1158,60.7476,79.4202],[25.1144,60.7386,79.4764],[25.1052,60.739,83.3029],[25.1045,60.7345,82.2402],[25.0953,60.7349,103.0749],[25.0939,60.7259,92.5819],[25.0848,60.7262,95.4653],[25.084,60.7218,90.4615],[25.0749,60.7221,134.2938],[25.0735,60.7132,109.686],[25.0643,60.7135,98.5311],[25.0657,60.7225,114.5328],[25.0566,60.7228,130.1424],[25.0573,60.7273,94.5747],[25.0664,60.7269,111.0794],[25.0686,60.7404,93.4778],[25.0777,60.74,87.2068],[25.0798,60.7535,83.2756],[25.089,60.7531,84.3146],[25.0904,60.7621,86.6165],[25.1088,60.7614,83.3773],[25.1095,60.7659,83.7513],[25.137,60.7648,83.4833],[25.1377,60.7693,78.896],[25.1561,60.7686,107.1305],[25.1582,60.782,122.2698],[25.149,60.7824,119.8118],[25.1498,60.7868,116.8771],[25.1406,60.7872,115.7499],[25.1413,60.7917,120.0442],[25.1321,60.792,104.4412],[25.1329,60.7965,117.9325],[25.1237,60.7968,97.3254],[25.1244,60.8013,98.7524],[25.1152,60.8017,91.2854],[25.1159,60.8061,94.1538],[25.1067,60.8065,84.4414],[25.1096,60.8244,106.7565],[25.1004,60.8247,83.5395],[25.0997,60.8203,83.2616],[25.0905,60.8206,85.8352],[25.0919,60.8296,86.6432],[25.0828,60.8299,85.4498],[25.0884,60.8657,93.6134],[25.1252,60.8643,84.5554],[25.1317,60.9046,90.5415],[25.1409,60.9043,116.5977],[25.1424,60.9132,124.6993],[25.1516,60.9129,104.5576],[25.1523,60.9174,118.5856],[25.1615,60.917,110.98],[25.1622,60.9215,127.2113],[25.1715,60.9211,99.5595],[25.1736,60.9346,141.822],[25.1829,60.9342,119.2047],[25.1858,60.9521,128.6098],[25.195,60.9518,120.1504],[25.1957,60.9562,145.9373],[25.205,60.9559,121.8902],[25.2057,60.9604,99.3904],[25.2149,60.96,92.2739],[25.215699999999998,60.9645,93.4227],[25.2249,60.9641,105.0062],[25.2256,60.9686,102.5725],[25.2348,60.9683,115.6446],[25.2356,60.9727,119.4678],[25.254,60.972,114.7337],[25.2563,60.9855,145.4899],[25.247,60.9858,157.1415],[25.2478,60.9903,142.5314],[25.2385,60.9906,156.2411],[25.2393,60.9951,135.1778],[25.23,60.9955,149.6618],[25.2315,61.0044,130.694],[25.2223,61.0048,117.1076],[25.223,61.0093,135.1921],[25.2045,61.01,118.298],[25.2053,61.0144,161.7836],[25.2145,61.0141,154.8896],[25.2152,61.0186,164.6418],[25.2337,61.0178,121.3201],[25.233,61.0134,118.5055],[25.2422,61.013,116.6062],[25.2452,61.0309,126.4499],[25.2544,61.0306,118.6296],[25.2552,61.035,114.0195],[25.2644,61.0347,110.2427],[25.2659,61.0436,109.102],[25.2752,61.0433,114.9626],[25.2766,61.0522,142.9261],[25.2859,61.0519,127.5607],[25.2874,61.0608,125.5994],[25.2966,61.0605,124.893],[25.2997,61.0784,110.7508],[25.2904,61.0787,110.8272],[25.2911,61.0832,112.106],[25.2819,61.0836,127.4237],[25.2841,61.097,114.6562],[25.2748,61.0974,103.272],[25.2764,61.1063,121.9349],[25.2671,61.1067,128.7859],[25.2678,61.1111,134.3227],[25.2585,61.1115,136.595],[25.2593,61.116,158.1243],[25.2407,61.1167,166.0352],[25.2415,61.1212,170.7699],[25.2508,61.1208,142.5688],[25.2523,61.1297,139.5083],[25.243,61.1301,129.3999],[25.2445,61.1391,134.3501],[25.2352,61.1394,135.3713],[25.2359,61.1439,140.5721],[25.2452,61.1435,137.1193],[25.246,61.148,140.9804],[25.2552,61.1477,133.9179],[25.259,61.17,139.175],[25.2497,61.1704,145.2136],[25.2504,61.1749,142.7852],[25.2512,61.1794,150.234],[25.2604,61.179,154.8263],[25.2619,61.1879,148.4886],[25.2527,61.1883,157.5009],[25.2534,61.1928,152.7166],[25.2441,61.1931,152.7532],[25.2449,61.1976,151.3877],[25.2356,61.198,156.4273],[25.2363,61.2024,177.9358],[25.227,61.2028,172.1018],[25.2277,61.2073,165.1009],[25.2185,61.2076,175.2123],[25.2192,61.2121,161.6701],[25.2099,61.2125,183.4841],[25.2114,61.2214,171.378],[25.2021,61.2218,166.7597],[25.205,61.2397,160.8362],[25.1678,61.2411,133.5],[25.1685,61.2456,159.3729],[25.1406,61.2466,167.8781],[25.1413,61.2511,168.2265],[25.1041,61.2525,154.2338],[25.1048,61.257,152.0136],[25.0955,61.2573,169.3952],[25.0948,61.2528,155.804],[25.0668,61.2539,177.8672],[25.0661,61.2494,180.0731],[25.0475,61.2501,158.588],[25.0468,61.2456,176.3438],[25.028199999999998,61.2463,122.5],[25.0303,61.2597,151.6084],[25.021,61.2601,153.34],[25.0231,61.2735,170.3126],[25.0138,61.2738,138.0465],[25.016,61.2873,106.5],[25.0066,61.2876,112.6989],[25.0059,61.2831,112.8095],[24.9966,61.2835,114.6594],[24.9959,61.279,103.1644],[24.9866,61.2793,101.9725],[24.9858,61.2749,93.0],[24.9672,61.2755,93.0],[24.9686,61.2845,94.1457],[24.9593,61.2848,93.0],[24.96,61.2893,105.5143],[24.9414,61.29,93.0],[24.9407,61.2855,113.7866],[24.922,61.2862,93.0],[24.9248,61.3041,102.7621],[24.9155,61.3044,112.8717],[24.9183,61.3223,99.2523],[24.909,61.3227,107.2477],[24.9076,61.3137,114.1556],[24.8982,61.314,122.64],[24.8968,61.3051,161.5541],[24.8875,61.3054,152.4663],[24.8854,61.292,110.0877],[24.8947,61.2917,100.6147],[24.894,61.2872,93.0],[24.8847,61.2875,113.866],[24.884,61.283,108.4145],[24.8654,61.2837,134.3885],[24.8647,61.2792,124.5425],[24.8367,61.2802,86.0],[24.836,61.2757,86.0],[24.8174,61.2764,89.8199],[24.8167,61.2719,112.6975],[24.7887,61.2729,125.0764],[24.7881,61.2684,125.0356],[24.7694,61.2691,125.3211],[24.7708,61.278,120.8328],[24.7615,61.2783,111.7853],[24.7628,61.2873,123.3594],[24.7535,61.2876,118.8456],[24.7548,61.2966,110.8282],[24.7455,61.2969,108.2115],[24.7469,61.3059,115.3938],[24.7375,61.3062,103.0019],[24.7389,61.3151,93.4535],[24.7295,61.3155,84.5],[24.7268,61.2976,84.5],[24.7175,61.2979,84.5],[24.7142,61.2755,86.0],[24.7048,61.2758,110.5755],[24.7042,61.2713,95.2201],[24.6762,61.2723,106.984],[24.6769,61.2767,86.0],[24.6489,61.2777,125.3477],[24.6496,61.2822,126.6834],[24.6216,61.2831,140.5568],[24.6222,61.2876,136.1452],[24.5943,61.2886,97.408],[24.5949,61.293,103.6232],[24.5856,61.2934,84.4472],[24.5862,61.2978,92.7067],[24.5769,61.2981,93.4973],[24.5776,61.3026,88.0],[24.5589,61.3032,117.035],[24.5583,61.2988,104.0406],[24.5489,61.2991,124.4418],[24.5483,61.2946,117.9049],[24.5296,61.2952,134.2489],[24.529,61.2907,124.5708],[24.5196,61.291,114.3417],[24.519,61.2866,106.6306],[24.5003,61.2872,111.9337],[24.4997,61.2827,125.4269],[24.4904,61.283,100.0154],[24.4897,61.2785,94.0303],[24.4804,61.2788,106.0583],[24.4798,61.2743,108.4226],[24.4704,61.2746,123.4074],[24.4698,61.2702,94.1937],[24.4605,61.2705,101.8108],[24.4598,61.266,108.1262],[24.4505,61.2663,116.64],[24.4499,61.2618,112.8533],[24.4406,61.2621,102.6361],[24.4399,61.2576,127.7929],[24.4306,61.2579,116.2081],[24.43,61.2534,122.4525],[24.4113,61.2541,106.5139],[24.4107,61.2496,83.0],[24.3921,61.2502,83.0],[24.3914,61.2457,83.0],[24.3635,61.2466,83.0],[24.3629,61.2421,119.4799],[24.3443,61.2427,134.4974],[24.3436,61.2382,127.4567],[24.325,61.2388,117.5423],[24.3244,61.2343,125.9597],[24.2871,61.2355,109.6261],[24.2877,61.24,95.0117],[24.2784,61.2403,95.4951],[24.2772,61.2313,89.3665],[24.2679,61.2316,86.6919],[24.2648,61.2092,78.5],[24.2742,61.2089,85.052],[24.2736,61.2044,78.5],[24.2829,61.2041,78.5],[24.2822,61.1996,78.5],[24.2915,61.1994,78.5],[24.2909,61.1949,78.5],[24.3002,61.1946,78.5],[24.2996,61.1901,78.5],[24.2903,61.1904,78.5],[24.2891,61.181399999999996,78.5],[24.2798,61.1817,93.5822],[24.2792,61.1772,78.5],[24.2699,61.1775,78.5],[24.2687,61.1686,78.5],[24.2594,61.1689,78.5],[24.2582,61.1599,78.5],[24.2489,61.1602,78.5],[24.2483,61.1557,78.5],[24.239,61.156,78.5],[24.2384,61.1515,78.5],[24.2198,61.1521,78.5],[24.2192,61.1476,78.5],[24.1914,61.1485,78.5],[24.1908,61.144,78.5],[24.1536,61.1451,78.5],[24.153,61.1406,78.5],[24.1344,61.1412,78.5],[24.1333,61.1322,130.1828],[24.1426,61.132,98.1546],[24.1414,61.123,110.0711],[24.1321,61.1233,113.2248],[24.1327,61.1278,119.2882],[24.0955,61.1289,109.4084],[24.095,61.1244,119.7359],[24.0671,61.1252,115.8197],[24.0665,61.1207,94.4532],[24.0294,61.1218,82.6371],[24.0288,61.1174,87.7844],[24.0103,61.1179,115.2297],[24.0097,61.1134,107.8559],[24.0004,61.1137,114.5358],[23.9999,61.1092,119.3904],[23.9813,61.1098,124.5263],[23.9807,61.1053,102.8879],[23.9622,61.1058,104.8068],[23.9616,61.1013,110.1658],[23.9523,61.1016,107.377],[23.9518,61.0971,105.902],[23.9332,61.0976,88.5287],[23.9327,61.0932,90.4313],[23.9234,61.0934,88.3595],[23.9228,61.089,91.9906],[23.9136,61.0892,106.9714],[23.913,61.0847,100.8797],[23.8945,61.0853,119.668],[23.8939,61.0808,119.1806],[23.8754,61.0813,121.3332],[23.8748,61.0768,127.127],[23.8563,61.0774,143.4674],[23.8557,61.0729,118.8859],[23.8464,61.0731,137.2908],[23.847,61.0776,140.412],[23.8284,61.0781,143.1438],[23.829,61.0826,132.5],[23.8197,61.0829,140.5347],[23.8192,61.0784,144.4557],[23.8006,61.0789,143.4872],[23.8001,61.0744,125.8043],[23.7908,61.0747,126.8055],[23.7903,61.0702,123.0154],[23.781,61.0705,155.081],[23.7805,61.066,140.4026],[23.7712,61.0662,142.9076],[23.7707,61.0617,145.6271],[23.7614,61.062,135.7029],[23.7609,61.0575,124.5],[23.7794,61.057,136.7349],[23.7789,61.0525,124.5],[23.8067,61.0518,130.5674],[23.8051,61.0383,160.8309],[23.7958,61.0386,162.517],[23.7942,61.0251,135.0045],[23.8127,61.0246,130.4732],[23.8133,61.0291,142.9034],[23.8318,61.0285,150.4748],[23.8323,61.0331,157.7409],[23.8508,61.0325,132.619],[23.8514,61.037,150.8175],[23.8699,61.0365,108.0],[23.8688,61.0275,109.1002],[23.878,61.0272,127.2853],[23.877,61.0183,109.2437],[23.8677,61.0186,123.6085],[23.8672,61.0141,116.8169],[23.8579,61.0143,112.8611],[23.8574,61.0098,115.716],[23.8481,61.0101,114.4573],[23.8476,61.0056,128.3182],[23.8291,61.0061,109.0],[23.8285,61.0017,109.0],[23.8193,61.0019,116.1304],[23.8187,60.9974,128.7098],[23.828,60.9972,129.9955],[23.8274,60.9927,113.9001],[23.8367,60.9924,120.834],[23.8361,60.9879,144.8824],[23.8454,60.9877,143.4166],[23.8448,60.9832,136.1713],[23.8541,60.983,156.9672],[23.853,60.974,143.0858],[23.8622,60.9737,155.2042],[23.8601,60.9558,142.2939],[23.8693,60.9555,139.5208],[23.8688,60.951,140.1075],[23.8595,60.9513,127.0],[23.859,60.9468,140.0482],[23.8498,60.9471,139.7019],[23.8492,60.9426,137.3409],[23.84,60.9429,136.562],[23.8405,60.9473,142.0795],[23.8313,60.9476,145.9277],[23.8324,60.9566,143.966],[23.8231,60.9568,135.0892],[23.8242,60.9658,131.5813],[23.815,60.9661,133.0959],[23.816,60.975,137.329],[23.8068,60.9753,154.5688],[23.8079,60.9842,140.2184],[23.7986,60.9845,149.2463],[23.7992,60.989,135.8183],[23.7899,60.9893,143.5885],[23.7904,60.9937,113.3257],[23.772,60.9943,111.8183],[23.7725,60.9987,112.1256],[23.7632,60.999,116.9269],[23.7627,60.9945,109.6825],[23.7442,60.995,109.1299],[23.7437,60.9905,146.9499],[23.7344,60.9908,133.6332],[23.736,61.0042,106.5],[23.6898,61.0055,109.5905],[23.6892,61.001,117.6257],[23.6152,61.003,128.8121],[23.6142,60.994,131.4184],[23.605,60.9943,131.9865],[23.6039,60.9853,157.8712],[23.5762,60.986,128.6314],[23.5772,60.995,146.0793],[23.568,60.9953,140.8959],[23.5402,60.996,139.87],[23.5392,60.987,130.0239],[23.53,60.9873,136.9334],[23.5305,60.9917,142.8102],[23.5212,60.992,142.3136],[23.5217,60.9965,142.7681],[23.5124,60.9967,116.8207],[23.512,60.9922,134.5297],[23.4935,60.9927,112.5658],[23.493,60.9882,139.1305],[23.4745,60.9887,108.0],[23.474,60.9842,152.1607],[23.4555,60.9847,117.7932],[23.455,60.9802,115.7132],[23.4642,60.9799,131.9162],[23.4633,60.971,115.2011],[23.4725,60.9708,125.4248],[23.4715,60.9618,105.5414],[23.4623,60.962,122.8198],[23.4628,60.9665,105.4479],[23.4073,60.9679,103.8665],[23.4083,60.9769,137.266],[23.399,60.9771,137.3137],[23.3995,60.9816,151.1542],[23.3903,60.9818,138.0875],[23.3917,60.9953,129.8768],[23.3825,60.9955,131.9784],[23.3834,61.0045,129.8029],[23.3741,61.0047,129.7181],[23.3746,61.0092,139.5483],[23.3654,61.0094,136.134],[23.3659,61.0139,132.1284],[23.3566,61.0141,130.7493],[23.3561,61.0096,148.1293],[23.3191,61.0106,116.1884],[23.3196,61.015,108.1681],[23.2825,61.0159,114.5251],[23.283,61.0204,106.79],[23.2645,61.0209,90.9933],[23.2631,61.0074,91.9551],[23.2168,61.0085,120.226],[23.2164,61.004,118.2929],[23.1978,61.0045,119.8245],[23.1974,61.0,123.6446],[23.2067,60.9998,128.51],[23.2057,60.9908,110.3746],[23.215,60.9906,120.3887],[23.2145,60.9861,108.6578],[23.2238,60.9859,117.9468],[23.2233,60.9814,110.517],[23.2326,60.9812,120.4725],[23.2321,60.9767,113.4691],[23.2414,60.9765,107.8654],[23.2409,60.972,100.964],[23.2502,60.9718,99.0255],[23.2497,60.9673,97.8704],[23.259,60.967,98.1235],[23.2585,60.9626,102.0865],[23.2677,60.9623,98.1142],[23.2673,60.9579,98.662],[23.295,60.9572,96.633],[23.2908,60.9168,91.7882],[23.2539,60.9177,96.2835],[23.2535,60.9132,105.3531],[23.2627,60.913,107.8582],[23.2609,60.8951,113.8139],[23.2701,60.8948,102.7516],[23.2696,60.8903,101.4177],[23.1497,60.8932,89.572],[23.1493,60.8887,101.465],[23.1401,60.8889,86.3269],[23.1361,60.8485,86.898],[23.1453,60.8483,87.2053],[23.1444,60.8394,82.9735],[23.1628,60.8389,94.2183],[23.1624,60.8344,93.5994],[23.2084,60.8334,86.1949],[23.208,60.8289,84.3328],[23.2264,60.8284,84.1356],[23.2255,60.8195,81.9198],[23.2071,60.8199,82.0553],[23.2066,60.8154,81.4746],[23.1974,60.8156,82.6284],[23.1965,60.8067,110.4108],[23.1873,60.8069,101.6294],[23.1864,60.7979,116.3969],[23.1773,60.7981,117.555],[23.1764,60.7891,109.0048],[23.1672,60.7894,111.5392],[23.1658,60.7759,99.1864],[23.1566,60.7761,110.3737],[23.1562,60.7716,101.7566],[23.1654,60.7714,99.4565],[23.165,60.7669,101.5521],[23.1741,60.7667,109.8605],[23.1737,60.7622,113.6159],[23.1921,60.7618,95.0297],[23.1916,60.7573,104.202],[23.2008,60.7571,95.385],[23.2004,60.7526,101.0801],[23.2095,60.7524,118.7335],[23.2091,60.7479,95.1946],[23.2183,60.7477,92.7611],[23.2178,60.7432,92.5919],[23.227,60.743,94.7039],[23.2266,60.7385,99.9103],[23.2449,60.738,90.3019],[23.2445,60.7336,90.6295],[23.2536,60.7333,91.2868],[23.2532,60.7289,109.6467],[23.2624,60.7286,92.7789],[23.2615,60.7197,102.738],[23.2706,60.7195,96.6661],[23.2702,60.715,104.3367],[23.2793,60.7147,95.0889],[23.2798,60.7192,94.4678],[23.289,60.719,109.3335],[23.2894,60.7235,95.214],[23.3169,60.7228,97.9453],[23.3165,60.7183,108.1874],[23.344,60.7177,100.0869],[23.3445,60.7221,102.2054],[23.3536,60.7219,98.6406],[23.3541,60.7264,104.0168],[23.3724,60.7259,118.9626],[23.3729,60.7304,115.9094],[23.3821,60.7302,110.996],[23.3826,60.7347,101.4986],[23.4009,60.7342,107.3576],[23.4014,60.7387,99.209],[23.4198,60.7382,92.5964],[23.4202,60.7427,91.6534],[23.4386,60.7422,99.0214],[23.4391,60.7467,106.6123],[23.4574,60.7463,109.1922],[23.4579,60.7508,103.626],[23.4671,60.7505,98.4198],[23.4666,60.746,128.907],[23.5033,60.7451,99.9045],[23.5014,60.7271,129.3995],[23.5105,60.7269,108.1745],[23.51,60.7224,126.5993],[23.5284,60.722,130.3574],[23.5279,60.7175,113.7909],[23.5371,60.7172,126.5023],[23.5356,60.7038,134.0483],[23.5539,60.7033,97.1788],[23.5534,60.6988,131.8761],[23.5718,60.6983,121.8805],[23.5713,60.6938,100.0095],[23.6537,60.6916,131.1581],[23.653199999999998,60.6871,107.2137],[23.6807,60.6864,114.469],[23.6781,60.664,84.158],[23.6873,60.6637,90.2174],[23.6868,60.6592,96.392],[23.7051,60.6587,146.1662],[23.7056,60.6632,129.9512],[23.7239,60.6627,149.9885],[23.7234,60.6582,127.4845],[23.7417,60.6577,143.9756],[23.7412,60.6532,129.6049],[23.7686,60.6525,143.7724],[23.7691,60.657,141.2923],[23.8698,60.6541,118.9582],[23.8693,60.6496,117.7119],[23.9059,60.6486,118.644],[23.9064,60.653,107.5],[23.9338,60.6522,136.7751],[23.9333,60.6478,114.148],[23.9516,60.6472,133.2165],[23.951,60.6427,115.8998],[23.9693,60.6422,138.0254],[23.9688,60.6377,116.0463],[23.9871,60.6372,131.7518],[23.9876,60.6417,128.315],[24.0059,60.6411,127.8267],[24.0065,60.6456,121.9965],[24.0522,60.6442,118.6875],[24.0516,60.6398,111.0],[24.0608,60.6395,111.0],[24.0602,60.635,111.0],[24.0785,60.6344,127.2759],[24.0779,60.63,147.5047],[24.1236,60.6286,123.8131],[24.1231,60.6241,121.5432],[24.1596,60.623,153.6753],[24.1602,60.6274,148.0266],[24.1968,60.6263,134.3507],[24.1962,60.6218,124.6718],[24.2327,60.6207,124.8339],[24.2321,60.6162,136.2664],[24.2413,60.6159,120.7959],[24.2383,60.5935,118.4375],[24.2475,60.5932,104.7496],[24.2469,60.5887,125.0113],[24.256,60.5884,115.4771],[24.2554,60.584,134.3738],[24.2645,60.5837,116.265],[24.264,60.5792,148.553],[24.2731,60.5789,124.8029],[24.2725,60.5744,109.8443],[24.2816,60.5741,134.0632],[24.2804,60.5652,93.6319],[24.2895,60.5649,95.098],[24.2902,60.5694,107.9587],[24.3084,60.5688,118.1157],[24.309,60.5732,133.7805],[24.2999,60.5735,131.438],[24.3016,60.587,107.1173],[24.3108,60.5867,134.6859],[24.3114,60.5912,118.6887],[24.3205,60.5909,135.9212],[24.3217,60.5998,133.0054],[24.3308,60.5996,130.2508],[24.3314,60.604,144.3472],[24.3406,60.6037,138.3093],[24.3412,60.6082,148.1622],[24.3503,60.6079,133.9754],[24.3509,60.6124,149.0335],[24.3601,60.6121,135.5225],[24.3594,60.6076,135.2564],[24.3777,60.607,130.8847],[24.3771,60.6026,141.5045],[24.3954,60.602,141.2727],[24.3947,60.5975,118.2199],[24.4039,60.5972,123.3049],[24.4033,60.5927,126.5315],[24.4124,60.5924,124.3046],[24.4112,60.5834,122.1694],[24.402,60.5837,126.4523],[24.4002,60.5703,111.6651],[24.4093,60.57,115.3769],[24.4087,60.5655,112.4478],[24.4178,60.5652,115.8978],[24.4166,60.5563,117.1905],[24.4257,60.556,108.3092],[24.4251,60.5515,105.9115],[24.4434,60.5509,117.389],[24.444,60.5554,128.3083],[24.4896,60.5538,136.1806],[24.4902,60.5583,140.4213],[24.5358,60.5568,112.0958],[24.5364,60.5613,102.498],[24.5546,60.5606,117.3734],[24.5559,60.5696,117.623],[24.565,60.5693,107.686],[24.5663,60.5783,96.2156],[24.5754,60.5779,87.9728],[24.5767,60.5869,107.8115],[24.5773,60.5914,130.1978],[24.5682,60.5917,137.5049],[24.5695,60.6007,95.0614],[24.5603,60.601,99.262],[24.5654,60.6368,121.0334],[24.5745,60.6365,113.3236],[24.5758,60.6455,127.5518],[24.5849,60.6451,128.6007],[24.5856,60.6496,139.3264],[24.5947,60.6493,138.9945],[24.596,60.6583,128.0971]]]]}}