{"type":"Feature","properties":{"id":44103.0,"name":"Viiksinselka","lge_id":null,"pfafstette":8417.0,"lke_type":"N","altitude":145,"objectid":26281,"scalerank":12,"featurecla":"Lake","note":null,"funkyname":1,"min_zoom":7.0,"min_label":8.0},
"geometry":{"type": "Polygon","coordinates": [[[31.151133659771233,62.523993231244077,151.8313],[31.151133659771233,62.523993231244077,151.8313],[31.136973503521233,62.521002508587827,167.258],[31.123301628521233,62.506476141400327,147.7141],[31.141368034771233,62.479376532025327,146.0786],[31.161021355083733,62.462469793744077,144.0],[31.169077995708733,62.453863836712827,146.8519],[31.209727409771233,62.445563055462827,144.0],[31.227305534771233,62.455633856244077,150.3836],[31.219859245708733,62.480902410931577,144.0],[31.198741081646233,62.502569891400327,153.9467],[31.163706901958733,62.520148016400327,157.0906],[31.151133659771233,62.523993231244077,151.8313]]]}}