{"type":"Feature","properties":{"id":51690.0,"name":"Pyhjärvi","lge_id":null,"pfafstette":6511.0,"lke_type":"N","altitude":120,"objectid":26655,"scalerank":11,"featurecla":"Lake","note":null,"funkyname":0,"min_zoom":6.7,"min_label":7.7},
"geometry":{"type": "Polygon","coordinates": [[[25.533946159771233,62.662482000775327,128.5881],[25.533946159771233,62.662482000775327,128.5881],[25.530528191021233,62.671271063275327,120.0],[25.537852409771233,62.685187078900327,120.0],[25.548838737896233,62.700445867962827,127.9282],[25.534190300396233,62.710760809369077,151.2859],[25.514170769146233,62.726263739056577,128.0238],[25.497813347271233,62.739020086712827,134.1029],[25.489878776958733,62.750555731244077,120.0],[25.496226433208733,62.768194891400327,120.0],[25.489512566021233,62.782232977337827,129.459],[25.467051628521233,62.787359930462827,152.7768],[25.442759636333733,62.791022039837827,134.1357],[25.418101433208733,62.785834051556577,131.1671],[25.407237175396233,62.770636297650327,126.019],[25.412364128521233,62.761236883587827,120.0],[25.412974480083733,62.754828192181577,120.0],[25.390757683208733,62.760870672650327,131.7068],[25.372202995708733,62.765448309369077,134.1898],[25.386241081646233,62.755743719525327,124.3319],[25.392344597271233,62.740240789837827,139.6803],[25.379893425396233,62.721686102337827,128.2406],[25.391368034771233,62.707403875775327,120.0],[25.406870964458733,62.708014227337827,120.0],[25.413584831646233,62.719244696087827,120.0],[25.428477409771233,62.725043035931577,120.0],[25.449717644146233,62.723211981244077,120.0],[25.461192253521233,62.710455633587827,120.0],[25.478037956646233,62.698614813275327,120.0],[25.502329948833733,62.684332586712827,120.0],[25.520274284771233,62.664862371869077,120.0],[25.533946159771233,62.662482000775327,128.5881]]]}}