{"type": "Feature","id": 85488.0,"bbox": [23.703379753521233,60.771307684369077,23.811167839458733,60.813238836712827],"geometry": {"type": "Polygon","coordinates": [[[23.811167839458733,60.791022039837827,96.0],[23.811167839458733,60.791022039837827,96.0],[23.808360222271233,60.804693914837827,121.7986],[23.795054558208733,60.810492254681577,101.6841],[23.779795769146233,60.812018133587827,112.6907],[23.745860222271233,60.813238836712827,114.6871],[23.705699089458733,60.809271551556577,133.8493],[23.703379753521233,60.795294500775327,96.0],[23.727671745708733,60.782232977337827,96.0],[23.746836784771233,60.776129461712827,96.0],[23.759776237896233,60.771307684369077,96.0],[23.776621941021233,60.777350164837827,96.0],[23.797129753521233,60.784064032025327,96.0],[23.811167839458733,60.791022039837827,96.0]]]}
,"properties": {"name": "Pyhjärvi","lge_id": null,"pfafstette": 297.0,"lke_type": "N","altitude": 97,"objectid": 43980,"scalerank": 12,"featurecla": "Lake","note": null,"funkyname": 0,"min_zoom": 7.0,"min_label": 8.0,"area_km2": 19.1282,"hist_schema_id": "Elevation0-9000","hist_area_km2": {"100": 17.06006,"125": 1.98542,"150": 0.08272}}}