{"type": "Feature","id": 75570.0,"bbox": [26.385020378521233,61.328436590619077,26.536021355083733,61.421454168744077],"geometry": {"type": "Polygon","coordinates": [[[26.507578972271233,61.402228094525327,93.4974],[26.507578972271233,61.402228094525327,93.4974],[26.499156120708733,61.416998602337827,112.1218],[26.483164909771233,61.416571356244077,97.242],[26.468882683208733,61.418402410931577,109.5337],[26.444224480083733,61.421454168744077,96.9523],[26.428721550396233,61.415961004681577,107.1132],[26.437266472271233,61.408087469525327,80.5],[26.461314323833733,61.400458074994077,100.3949],[26.469248894146233,61.391607977337827,80.5],[26.433848503521233,61.383124090619077,109.5169],[26.395640495708733,61.381903387494077,120.7104],[26.385020378521233,61.379767157025327,117.5243],[26.412608269146233,61.378851629681577,122.1252],[26.452159050396233,61.381293035931577,100.4491],[26.476817253521233,61.384039617962827,80.5],[26.491953972271233,61.383734442181577,80.5],[26.489756706646233,61.370978094525327,123.4249],[26.477305534771233,61.363653875775327,125.0133],[26.466441276958733,61.357306219525327,108.7005],[26.474009636333733,61.345709539837827,80.5],[26.496226433208733,61.335089422650327,91.1049],[26.518443230083733,61.328436590619077,80.5],[26.528452995708733,61.336310125775327,86.9713],[26.534800651958733,61.353644110150327,80.5],[26.536021355083733,61.370367742962827,92.6175],[26.525645378521233,61.370978094525327,91.4023],[26.516856316021233,61.368841864056577,82.8244],[26.514781120708733,61.377325750775327,87.5126],[26.512339714458733,61.387701727337827,80.5],[26.507578972271233,61.402228094525327,93.4974]]]}
,"properties": {"name": "Enonvesi","lge_id": null,"pfafstette": 2239.0,"lke_type": "N","altitude": 0,"objectid": 41001,"scalerank": 10,"featurecla": "Lake","note": null,"funkyname": 0,"min_zoom": 6.0,"min_label": 7.0,"area_km2": 27.45368,"hist_schema_id": "Elevation0-9000","hist_area_km2": {"75": 17.28034,"100": 8.0407,"125": 2.06154,"150": 0.07111}}}