{"type": "Feature","id": 60351.0,"bbox": [28.055186394146233,61.973089910931577,28.252452019146233,62.046637274212827],"geometry": {"type": "Polygon","coordinates": [[[28.135752800396233,62.001349188275327,98.0],[28.135752800396233,62.001349188275327,98.0],[28.147837761333733,61.998602606244077,98.0],[28.159922722271233,61.995611883587827,98.0],[28.188487175396233,61.991949774212827,98.0],[28.219248894146233,61.984015203900327,101.0558],[28.248179558208733,61.973089910931577,108.3295],[28.252452019146233,61.978888250775327,115.2337],[28.228037956646233,61.989203192181577,123.3094],[28.201426628521233,62.000433660931577,105.8338],[28.181285026958733,62.008002020306577,131.2293],[28.153086784771233,62.020514227337827,125.3969],[28.094981316021233,62.040899969525327,128.4733],[28.055186394146233,62.046637274212827,102.8979],[28.068125847271233,62.033880926556577,98.0],[28.098887566021233,62.018988348431577,98.0],[28.118662956646233,62.008917547650327,98.0],[28.135752800396233,62.001349188275327,98.0]]]}
,"properties": {"name": "Kolkonjärvi","lge_id": null,"pfafstette": 59891.0,"lke_type": "N","altitude": 0,"objectid": 30826,"scalerank": 12,"featurecla": "Lake","note": null,"funkyname": 0,"min_zoom": 7.0,"min_label": 8.0,"area_km2": 17.97919,"hist_schema_id": "Elevation0-9000","hist_area_km2": {"100": 12.89536,"125": 5.01421,"150": 0.06962}}}