{"type":"Feature","properties":{"id":33144.0,"name":"Laakajärvi","lge_id":null,"pfafstette":66975.0,"lke_type":"N","altitude":0,"objectid":19796,"scalerank":12,"featurecla":"Lake","note":null,"funkyname":0,"min_zoom":7.0,"min_label":8.0},
"geometry":{"type": "Polygon","coordinates": [[[27.972422722271233,63.819220282025327,163.3654],[27.972422722271233,63.819220282025327,163.3654],[27.989512566021233,63.817694403119077,163.6469],[28.006480339458733,63.810065008587827,163.6535],[28.027476433208733,63.800055242962827,163.3941],[28.050547722271233,63.791876532025327,163.4878],[28.065196159771233,63.790045477337827,175.8068],[28.042735222271233,63.807074285931577,190.6296],[28.002574089458733,63.825018621869077,175.0061],[27.983775261333733,63.836920477337827,174.8798],[27.969493034771233,63.850592352337827,175.6626],[27.947276237896233,63.858465887494077,169.2033],[27.934825066021233,63.868475653119077,169.4471],[27.926524284771233,63.888556219525327,167.8773],[27.920176628521233,63.906744696087827,172.9426],[27.912364128521233,63.912848211712827,170.4005],[27.899546745708733,63.914374090619077,175.389],[27.879161003521233,63.917120672650327,181.3802],[27.864024284771233,63.912848211712827,170.7879],[27.876719597271233,63.904913641400327,163.5231],[27.885874870708733,63.889410711712827,196.9476],[27.887461784771233,63.868780828900327,163.7088],[27.878306511333733,63.861456610150327,177.277],[27.877452019146233,63.853277899212827,168.4504],[27.897105339458733,63.841131903119077,163.9577],[27.920176628521233,63.837774969525327,163.7283],[27.948985222271233,63.828985907025327,163.7139],[27.972422722271233,63.819220282025327,163.3654]]]}}