{"type":"Feature","properties":{"id":18861.0,"name":"Kostonjärvi","lge_id":null,"pfafstette":8551.0,"lke_type":"N","altitude":232,"objectid":11258,"scalerank":11,"featurecla":"Lake","note":null,"funkyname":0,"min_zoom":6.7,"min_label":7.7},
"geometry":{"type": "Polygon","coordinates": [[[28.429331901958733,65.829474188275327,241.7018],[28.429331901958733,65.829474188275327,241.7018],[28.410411003521233,65.825567938275327,257.4601],[28.388926628521233,65.812506414837827,246.3837],[28.382456901958733,65.795172430462827,231.5],[28.403819206646233,65.783941961712827,231.5],[28.419566276958733,65.773321844525327,231.5],[28.428721550396233,65.767218328900327,231.5],[28.449351433208733,65.767828680462827,231.5],[28.473399284771233,65.768439032025327,231.5],[28.509287956646233,65.761481024212827,246.2319],[28.532603386333733,65.761114813275327,253.6669],[28.518931511333733,65.767523504681577,242.1148],[28.496104362896233,65.771734930462827,231.5],[28.485850456646233,65.782110907025327,231.5],[28.493174675396233,65.788824774212827,231.5],[28.500010612896233,65.794317938275327,231.5],[28.519541862896233,65.807013250775327,231.5],[28.549327019146233,65.821295477337827,231.5],[28.537242058208733,65.829840399212827,244.7849],[28.503184441021233,65.832892157025327,236.346],[28.477671745708733,65.831915594525327,238.048],[28.460703972271233,65.833746649212827,248.2421],[28.457530144146233,65.842291571087827,235.0104],[28.451792839458733,65.852911688275327,231.5],[28.430796745708733,65.866339422650327,237.8687],[28.417491081646233,65.866888739056577,231.5],[28.426524284771233,65.857428289837827,231.5],[28.437022331646233,65.843146063275327,231.5],[28.429331901958733,65.829474188275327,241.7018]]]}}