{"type": "Feature","id": 77130.0,"bbox": [30.136973503521233,60.773688055462827,30.353526237896233,60.862616278119077],"geometry": {"type": "Polygon","coordinates": [[[30.271250847271233,60.837347723431577,19.5],[30.271250847271233,60.837347723431577,19.5],[30.281504753521233,60.818915106244077,19.5],[30.218272331646233,60.828375555462827,65.5365],[30.148326042583733,60.842047430462827,49.7121],[30.136973503521233,60.821295477337827,19.5],[30.153330925396233,60.797491766400327,19.5],[30.190562370708733,60.787970282025327,19.5],[30.228282097271233,60.788336492962827,19.5],[30.250376823833733,60.785040594525327,19.5],[30.283702019146233,60.774054266400327,19.5],[30.316050651958733,60.773688055462827,19.5],[30.329966667583733,60.786505438275327,19.5],[30.339854362896233,60.789801336712827,19.5],[30.353526237896233,60.790411688275327,19.5],[30.350230339458733,60.808233953900327,38.914],[30.342539909771233,60.824286199994077,22.6656],[30.339854362896233,60.836188055462827,32.8535],[30.310069206646233,60.851568914837827,56.86],[30.270030144146233,60.862616278119077,39.2951],[30.251841667583733,60.856940008587827,21.7727],[30.271250847271233,60.837347723431577,19.5]]]}
,"properties": {"name": "Pyukhayärvi","lge_id": "ru","pfafstette": 422859.0,"lke_type": "N","altitude": 0,"objectid": 39417,"scalerank": 10,"featurecla": "Lake","note": null,"funkyname": 0,"min_zoom": 6.0,"min_label": 7.0,"area_km2": 65.86271,"hist_schema_id": "Elevation0-9000","hist_area_km2": {"25": 58.90564,"50": 6.42994,"75": 0.52713}}}