{"type":"Feature","properties":{"id":50785.0,"name":"Pjärvi","lge_id":null,"pfafstette":673.0,"lke_type":"N","altitude":144,"objectid":26905,"scalerank":12,"featurecla":"Lake","note":null,"funkyname":0,"min_zoom":7.0,"min_label":8.0},
"geometry":{"type": "Polygon","coordinates": [[[24.790782097271233,62.878241278119077,143.5],[24.790782097271233,62.878241278119077,143.5],[24.788096550396233,62.880987860150327,143.5],[24.791758659771233,62.889776922650327,157.1982],[24.781016472271233,62.896490789837827,163.4177],[24.753428581646233,62.901617742962827,149.076],[24.726084831646233,62.911627508587827,150.6799],[24.703868034771233,62.907416082806577,157.3788],[24.685923698833733,62.901373602337827,157.6809],[24.676768425396233,62.901373602337827,158.9566],[24.677744987896233,62.895270086712827,143.5],[24.686289909771233,62.884039617962827,143.5],[24.696543816021233,62.870367742962827,143.5],[24.722666862896233,62.859991766400327,143.5],[24.743052605083733,62.860907293744077,151.1015],[24.739390495708733,62.870001532025327,152.2692],[24.739390495708733,62.879767157025327,143.5],[24.760386589458733,62.883368231244077,143.5],[24.775889519146233,62.873968817181577,143.5],[24.792246941021233,62.858771063275327,143.5],[24.815440300396233,62.840826727337827,143.5],[24.826670769146233,62.831122137494077,143.5],[24.832041862896233,62.836554266400327,160.6323],[24.825205925396233,62.849371649212827,158.9481],[24.808116081646233,62.866949774212827,155.6185],[24.790782097271233,62.878241278119077,143.5]]]}}