{"type": "Feature","id": 61213.0,"bbox": [26.994151237896233,61.919562078900327,27.198008659771233,62.100104071087827],"geometry": {"type": "Polygon","coordinates": [[[27.123789909771233,62.012579657025327,110.1332],[27.123789909771233,62.012579657025327,110.1332],[27.109263542583733,62.009527899212827,99.5],[27.102549675396233,62.018988348431577,104.0377],[27.083994987896233,62.029669500775327,107.257],[27.056407097271233,62.041754461712827,114.9605],[27.040049675396233,62.049383856244077,132.3578],[27.028697136333733,62.046332098431577,110.0292],[27.018077019146233,62.046942449994077,105.3904],[27.004161003521233,62.068243719525327,126.902],[26.994395378521233,62.071905828900327,108.1728],[27.007212761333733,62.045416571087827,99.5],[27.019053581646233,62.022589422650327,106.0631],[27.026011589458733,62.013800360150327,99.5],[27.049327019146233,62.007696844525327,99.5],[27.060069206646233,61.995001532025327,99.5],[27.051768425396233,61.980719305462827,107.9929],[27.025157097271233,61.976690985150327,100.4676],[26.998057487896233,61.972174383587827,107.1363],[26.994151237896233,61.951544500775327,104.8765],[27.004649284771233,61.942694403119077,113.3588],[27.017222526958733,61.943304754681577,110.8473],[27.032481316021233,61.940558172650327,99.5],[27.042491081646233,61.937506414837827,99.5],[27.032725456646233,61.936041571087827,104.3398],[27.023936394146233,61.929327703900327,102.8985],[27.042124870708733,61.919562078900327,103.8558],[27.062754753521233,61.924444891400327,105.7971],[27.058848503521233,61.933233953900327,99.5],[27.054209831646233,61.939337469525327,99.5],[27.067881706646233,61.937506414837827,99.5],[27.082286003521233,61.940558172650327,99.5],[27.088267448833733,61.945685125775327,110.5221],[27.099619987896233,61.944525457806577,99.5],[27.116221550396233,61.942999578900327,99.5],[27.144053581646233,61.936835028119077,99.5],[27.178599480083733,61.922613836712827,99.5],[27.197520378521233,61.921393133587827,111.772],[27.180674675396233,61.939032293744077,115.9679],[27.159434441021233,61.957281805462827,103.0364],[27.160655144146233,61.978583074994077,99.5],[27.167979362896233,61.999823309369077,99.5],[27.184336784771233,62.009833074994077,99.5],[27.198008659771233,62.027472235150327,99.5],[27.190196159771233,62.042975164837827,103.053],[27.175791862896233,62.036627508587827,107.4762],[27.165782097271233,62.032660223431577,107.5157],[27.163096550396233,62.041754461712827,102.0724],[27.158213737896233,62.055792547650327,113.7846],[27.138194206646233,62.063666082806577,105.5153],[27.119883659771233,62.070074774212827,112.0055],[27.113047722271233,62.087652899212827,101.8122],[27.097178581646233,62.100104071087827,109.1666],[27.080088737896233,62.096197821087827,99.5],[27.089854362896233,62.078253485150327,99.5],[27.117198112896233,62.058844305462827,99.5],[27.143321159771233,62.041754461712827,99.5],[27.155528191021233,62.025030828900327,99.5],[27.143321159771233,62.019598699994077,107.5991],[27.123789909771233,62.012579657025327,110.1332]],
[[27.108409050396233,61.986761785931577,101.9416],[27.108409050396233,61.986761785931577,101.9416],[27.103770378521233,61.995856024212827,99.5],[27.111704948833733,62.004706121869077,99.5],[27.116221550396233,61.995611883587827,101.4903],[27.108409050396233,61.986761785931577,101.9416]]]}
,"properties": {"name": "Kyyvesi","lge_id": null,"pfafstette": 0.0,"lke_type": "N","altitude": 101,"objectid": 38563,"scalerank": 10,"featurecla": "Lake","note": null,"funkyname": 0,"min_zoom": 6.0,"min_label": 7.0,"area_km2": 94.34612,"hist_schema_id": "Elevation0-9000","hist_area_km2": {"100": 90.88232,"125": 3.4638}}}