{"type": "Feature","id": 33387.0,"bbox": [26.221446159771233,63.990973211712827,26.330332878521233,64.059942938275327],"geometry": {"type": "Polygon","coordinates": [[[26.283457878521233,63.990973211712827,136.5],[26.283457878521233,63.990973211712827,136.5],[26.314219597271233,63.993048407025327,136.5],[26.330332878521233,64.005865789837827,137.5637],[26.327647331646233,64.019171453900327,138.3819],[26.309092644146233,64.028937078900327,143.7431],[26.292246941021233,64.038092352337827,139.6866],[26.278575066021233,64.043585516400327,142.2761],[26.264414909771233,64.053595282025327,143.006],[26.254283073833733,64.059942938275327,140.3362],[26.243662956646233,64.049017645306577,138.7182],[26.232432487896233,64.040228582806577,142.111],[26.221446159771233,64.030157782025327,144.624],[26.228770378521233,64.013800360150327,136.5],[26.246104362896233,64.005865789837827,136.5],[26.259165886333733,63.999518133587827,136.5],[26.283457878521233,63.990973211712827,136.5]]]}
,"properties": {"name": "Iso Lamujärvi","lge_id": null,"pfafstette": 47.0,"lke_type": "N","altitude": 137,"objectid": 19890,"scalerank": 12,"featurecla": "Lake","note": null,"funkyname": 0,"min_zoom": 7.0,"min_label": 8.0,"area_km2": 23.44191,"hist_schema_id": "Elevation0-9000","hist_area_km2": {"125": 18.89316,"150": 4.54875}}}