{"type":"Feature","properties":{"id":81926.0,"name":"Pelinginselka","lge_id":null,"pfafstette":19.0,"lke_type":"N","altitude":65,"objectid":41268,"scalerank":11,"featurecla":"Lake","note":null,"funkyname":1,"min_zoom":6.7,"min_label":7.7},
"geometry":{"type": "Polygon","coordinates": [[[26.390757683208733,60.969488836712827,71.8616],[26.390757683208733,60.969488836712827,71.8616],[26.392344597271233,60.966742254681577,72.3342],[26.410166862896233,60.959112860150327,65.0],[26.426280144146233,60.962774969525327,65.0],[26.438487175396233,60.980963446087827,65.0],[26.429942253521233,60.994086004681577,86.0134],[26.428477409771233,61.005926824994077,73.8265],[26.460703972271233,61.011358953900327,65.0],[26.478282097271233,61.001105047650327,65.0],[26.490489128521233,60.991339422650327,65.0],[26.509898308208733,60.995856024212827,65.0],[26.524424675396233,60.998297430462827,65.0],[26.539805534771233,60.996527410931577,65.0],[26.556162956646233,60.993475653119077,65.0],[26.568858269146233,60.996222235150327,65.5715],[26.564952019146233,61.010138250775327,65.0],[26.542735222271233,61.031134344525327,78.8936],[26.517588737896233,61.046942449994077,82.7396],[26.505381706646233,61.043951727337827,73.6852],[26.488047722271233,61.045416571087827,68.1056],[26.472544792583733,61.044806219525327,70.1382],[26.463145378521233,61.035406805462827,105.6927],[26.440928581646233,61.029303289837827,71.4806],[26.416880730083733,61.032965399212827,66.8533],[26.406016472271233,61.033575750775327,89.478],[26.407237175396233,61.022955633587827,65.0],[26.397471550396233,61.011725164837827,124.0152],[26.398081901958733,60.999884344525327,65.0],[26.406016472271233,60.982245184369077,86.9677],[26.390757683208733,60.969488836712827,71.8616]]]}}