{"type": "Feature","id": 14831.0,"bbox": [24.656504753521233,66.651983953900327,24.781016472271233,66.741339422650327],"geometry": {"type": "Polygon","coordinates": [[[24.740733269146233,66.660162664837827,96.0],[24.740733269146233,66.660162664837827,96.0],[24.769297722271233,66.651983953900327,96.0],[24.781016472271233,66.662359930462827,143.046],[24.767710808208733,66.671148992962827,120.0097],[24.750743034771233,66.682989813275327,137.8722],[24.737315300396233,66.699408270306577,138.6736],[24.728282097271233,66.713385321087827,107.3249],[24.722422722271233,66.718878485150327,128.2033],[24.703623894146233,66.727972723431577,129.3359],[24.688365105083733,66.741339422650327,105.9117],[24.675303581646233,66.734991766400327,115.0953],[24.656504753521233,66.720953680462827,121.7763],[24.656504753521233,66.705511785931577,96.0],[24.672251823833733,66.689093328900327,96.0],[24.676524284771233,66.682074285931577,96.0],[24.687754753521233,66.671393133587827,96.0],[24.712168816021233,66.669928289837827,96.0],[24.740733269146233,66.660162664837827,96.0]]]}
,"properties": {"name": "Raanujärvi","lge_id": null,"pfafstette": 2653.0,"lke_type": "N","altitude": 0,"objectid": 8242,"scalerank": 12,"featurecla": "Lake","note": null,"funkyname": 0,"min_zoom": 7.0,"min_label": 8.0,"area_km2": 24.6024,"hist_schema_id": "Elevation0-9000","hist_area_km2": {"100": 21.79376,"125": 2.54045,"150": 0.20116,"175": 0.06703}}}