{"type": "Feature","id": 15989.0,"bbox": [29.498057487896233,66.061407782025327,29.723155144146233,66.093512274212827],"geometry": {"type": "Polygon","coordinates": [[[29.596202019146233,66.064703680462827,251.7038],[29.596202019146233,66.064703680462827,251.7038],[29.600962761333733,66.075445867962827,251.9676],[29.623789909771233,66.075445867962827,251.9447],[29.646983269146233,66.077154852337827,251.9485],[29.671763542583733,66.080755926556577,266.8063],[29.707163933208733,66.074225164837827,251.7306],[29.723155144146233,66.075690008587827,286.2243],[29.693492058208733,66.084967352337827,260.3696],[29.637950066021233,66.085821844525327,278.6375],[29.566905144146233,66.086127020306577,271.2185],[29.509165886333733,66.093512274212827,278.5715],[29.498057487896233,66.091192938275327,266.4211],[29.515635612896233,66.079596258587827,254.7659],[29.535899284771233,66.070074774212827,251.8494],[29.562632683208733,66.061407782025327,251.8855],[29.596202019146233,66.064703680462827,251.7038]]]}
,"properties": {"name": "Suininki","lge_id": null,"pfafstette": 7891.0,"lke_type": "N","altitude": 0,"objectid": 11347,"scalerank": 12,"featurecla": "Lake","note": null,"funkyname": 0,"min_zoom": 7.0,"min_label": 8.0,"area_km2": 14.27972,"hist_schema_id": "Elevation0-9000","hist_area_km2": {"250": 9.40623,"275": 4.12583,"300": 0.74766}}}