{"type": "Feature","id": 28064.0,"bbox": [27.962412956646233,64.488531805462827,28.159434441021233,64.540472723431577],"geometry": {"type": "Polygon","coordinates": [[[27.972422722271233,64.526800848431577,151.3813],[27.972422722271233,64.526800848431577,151.3813],[27.962412956646233,64.519781805462827,136.6133],[28.012950066021233,64.508307196087827,133.0],[28.035411003521233,64.509527899212827,133.0],[28.047618034771233,64.518316961712827,133.0],[28.070567253521233,64.520758367962827,133.0],[28.087657097271233,64.510382391400327,133.0],[28.089121941021233,64.498297430462827,133.0],[28.101573112896233,64.490973211712827,133.0],[28.134532097271233,64.488531805462827,141.8317],[28.159434441021233,64.495489813275327,142.1985],[28.139048698833733,64.505255438275327,163.1178],[28.102793816021233,64.514044500775327,139.1303],[28.097666862896233,64.522589422650327,138.734],[28.089854362896233,64.530157782025327,152.0679],[28.070078972271233,64.534430242962827,163.3346],[28.046885612896233,64.528692938275327,140.1611],[28.027842644146233,64.524420477337827,136.8181],[28.023814323833733,64.531378485150327,133.0],[28.021372917583733,64.540472723431577,142.3329],[28.014170769146233,64.534430242962827,133.0],[27.972422722271233,64.526800848431577,151.3813]]]}
,"properties": {"name": "Lahnajärvi","lge_id": null,"pfafstette": 5571.0,"lke_type": "N","altitude": 133,"objectid": 16489,"scalerank": 12,"featurecla": "Lake","note": null,"funkyname": 0,"min_zoom": 7.0,"min_label": 8.0,"area_km2": 17.60729,"hist_schema_id": "Elevation0-9000","hist_area_km2": {"125": 9.0326,"150": 7.9362,"175": 0.63848}}}