{"type": "Feature","id": 6188.0,"bbox": [26.479502800396233,68.850409246869077,26.657725456646233,68.906317449994077],"geometry": {"type": "Polygon","coordinates": [[[26.640635612896233,68.900580145306577,144.5],[26.640635612896233,68.900580145306577,144.5],[26.637217644146233,68.906317449994077,160.6154],[26.615977409771233,68.898688055462827,157.18],[26.580821159771233,68.887457586712827,230.9444],[26.543711784771233,68.878668524212827,191.0696],[26.519297722271233,68.874762274212827,178.9741],[26.488902214458733,68.868048407025327,245.9762],[26.479502800396233,68.855597235150327,144.5],[26.511485222271233,68.850409246869077,144.5],[26.535411003521233,68.858893133587827,144.5],[26.559092644146233,68.861944891400327,144.5],[26.588267448833733,68.864996649212827,144.5],[26.623789909771233,68.873175360150327,144.5],[26.650645378521233,68.873541571087827,144.5],[26.657725456646233,68.876227117962827,152.7148],[26.650035026958733,68.886297918744077,152.1554],[26.640635612896233,68.900580145306577,144.5]]]}
,"properties": {"name": "Paadarjärvi","lge_id": null,"pfafstette": 6195.0,"lke_type": "N","altitude": 0,"objectid": 3450,"scalerank": 12,"featurecla": "Lake","note": null,"funkyname": 0,"min_zoom": 7.0,"min_label": 8.0,"area_km2": 16.81064,"hist_schema_id": "Elevation0-9000","hist_area_km2": {"150": 12.43288,"175": 2.33012,"200": 1.27607,"225": 0.55006,"250": 0.2215}}}