{"type":"Feature","properties":{"id":28990.0,"name":"Kivesjärvi","lge_id":null,"pfafstette":0.0,"lke_type":"N","altitude":0,"objectid":19095,"scalerank":12,"featurecla":"Lake","note":null,"funkyname":0,"min_zoom":7.0,"min_label":8.0},
"geometry":{"type": "Polygon","coordinates": [[[27.411143425396233,64.434454657025327,133.5],[27.411143425396233,64.434454657025327,133.5],[27.427500847271233,64.426520086712827,133.5],[27.444590691021233,64.417731024212827,139.5725],[27.460703972271233,64.407965399212827,133.5],[27.470713737896233,64.406744696087827,133.5],[27.487315300396233,64.412848211712827,133.5],[27.496836784771233,64.419562078900327,150.8983],[27.482554558208733,64.432257391400327,168.5566],[27.470103386333733,64.447760321087827,133.5],[27.478526237896233,64.459357000775327,133.5],[27.476451042583733,64.469671942181577,136.6521],[27.463389519146233,64.475714422650327,141.3018],[27.442393425396233,64.476324774212827,139.4544],[27.408946159771233,64.483038641400327,147.6774],[27.388560417583733,64.481573797650327,137.4682],[27.395518425396233,64.474249578900327,133.5],[27.413584831646233,64.468512274212827,133.5],[27.416026237896233,64.460272528119077,137.8049],[27.401133659771233,64.458746649212827,150.8833],[27.394663933208733,64.448736883587827,133.5],[27.411143425396233,64.434454657025327,133.5]]]}}