{"type":"Feature","properties":{"id":57899.0,"name":"Sysmjärvi","lge_id":null,"pfafstette":6255.0,"lke_type":"N","altitude":0,"objectid":32521,"scalerank":12,"featurecla":"Lake","note":null,"funkyname":0,"min_zoom":7.0,"min_label":8.0},
"geometry":{"type": "Polygon","coordinates": [[[27.680430534771233,62.206549383587827,96.5809],[27.680430534771233,62.206549383587827,96.5809],[27.670054558208733,62.214361883587827,100.4931],[27.646372917583733,62.229620672650327,102.3905],[27.608164909771233,62.240545965619077,116.2249],[27.605967644146233,62.228399969525327,87.0],[27.630625847271233,62.211065985150327,87.0],[27.653941276958733,62.204962469525327,89.6764],[27.677012566021233,62.195318914837827,87.0],[27.687388542583733,62.182501532025327,87.0],[27.674937370708733,62.180365301556577,114.3449],[27.661143425396233,62.179205633587827,87.0],[27.669444206646233,62.170660711712827,94.3077],[27.686534050396233,62.154242254681577,87.0],[27.723887566021233,62.137213446087827,87.0],[27.757334831646233,62.136297918744077,87.0],[27.755381706646233,62.155157782025327,91.8796],[27.725108269146233,62.179754949994077,94.2145],[27.694590691021233,62.196783758587827,100.9067],[27.680430534771233,62.206549383587827,96.5809]]]}}