{"type":"Feature","properties":{"id":15655.0,"name":"Iso Vietonen","lge_id":null,"pfafstette":2611.0,"lke_type":"N","altitude":0,"objectid":9216,"scalerank":11,"featurecla":"Lake","note":null,"funkyname":0,"min_zoom":6.7,"min_label":7.7},
"geometry":{"type": "Polygon","coordinates": [[[24.443980339458733,66.652289129681577,100.8223],[24.443980339458733,66.652289129681577,100.8223],[24.441905144146233,66.647101141400327,97.2311],[24.494151237896233,66.638312078900327,92.0],[24.557139519146233,66.629523016400327,98.2456],[24.592051628521233,66.616461492962827,92.0],[24.615977409771233,66.596319891400327,92.0],[24.627207878521233,66.584234930462827,92.0],[24.644908073833733,66.593023992962827,92.0],[24.675303581646233,66.605780340619077,92.0],[24.693858269146233,66.615484930462827,100.2445],[24.683238151958733,66.640448309369077,108.1851],[24.667491081646233,66.652899481244077,106.0413],[24.652110222271233,66.646795965619077,108.5766],[24.614512566021233,66.649237371869077,138.27],[24.572886589458733,66.660773016400327,148.7066],[24.557627800396233,66.664435125775327,104.2063],[24.563120964458733,66.655951239056577,92.0],[24.567637566021233,66.644049383587827,99.5625],[24.542246941021233,66.639532782025327,129.0806],[24.501719597271233,66.648932196087827,121.8223],[24.479014519146233,66.660773016400327,142.3194],[24.465830925396233,66.665961004681577,115.8971],[24.454112175396233,66.659552313275327,98.6296],[24.443980339458733,66.652289129681577,100.8223]]]}}