{"type":"Feature","properties":{"id":58044.0,"name":"Lngelmenjärvi","lge_id":null,"pfafstette":62713.0,"lke_type":"N","altitude":0,"objectid":32214,"scalerank":12,"featurecla":"Lake","note":null,"funkyname":0,"min_zoom":7.0,"min_label":8.0},
"geometry":{"type": "Polygon","coordinates": [[[27.497080925396233,62.220770574994077,105.8716],[27.497080925396233,62.220770574994077,105.8716],[27.486216667583733,62.219244696087827,107.4405],[27.471324089458733,62.214117742962827,101.2129],[27.457896355083733,62.213141180462827,118.8327],[27.435679558208733,62.217779852337827,98.0],[27.418711784771233,62.208990789837827,100.8663],[27.411387566021233,62.191046453900327,98.0],[27.421153191021233,62.175177313275327,98.0],[27.428111198833733,62.163336492962827,98.0],[27.433604362896233,62.150641180462827,98.0],[27.439097526958733,62.141180731244077,98.0],[27.445811394146233,62.130255438275327,98.7788],[27.456309441021233,62.138739324994077,120.1547],[27.452403191021233,62.157843328900327,98.0],[27.448741081646233,62.165167547650327,107.2512],[27.443369987896233,62.170965887494077,118.0698],[27.433360222271233,62.179205633587827,106.9187],[27.435069206646233,62.185858465619077,98.0],[27.451914909771233,62.194342352337827,98.0],[27.470713737896233,62.202887274212827,99.0577],[27.480967644146233,62.206793524212827,111.8876],[27.510508659771233,62.201300360150327,103.3972],[27.556651237896233,62.188849188275327,98.0],[27.577647331646233,62.190680242962827,135.0049],[27.567637566021233,62.198919989056577,111.0316],[27.531748894146233,62.225958563275327,103.6089],[27.500254753521233,62.236273504681577,98.0],[27.497080925396233,62.220770574994077,105.8716]]]}}