{"type":"Feature","properties":{"id":11665.0,"name":"UNARINJÄRVI 1","lge_id":null,"pfafstette":2255.0,"lke_type":"N","altitude":180,"objectid":6734,"scalerank":12,"featurecla":"Lake","note":null,"funkyname":0,"min_zoom":7.0,"min_label":8.0},
"geometry":{"type": "Polygon","coordinates": [[[25.692271355083733,67.205206610150327,185.6002],[25.692271355083733,67.205206610150327,185.6002],[25.676768425396233,67.209112860150327,183.7784],[25.646739128521233,67.206061102337827,189.6436],[25.617198112896233,67.191168524212827,180.1041],[25.619883659771233,67.181158758587827,179.0677],[25.650035026958733,67.175055242962827,179.5066],[25.686778191021233,67.166266180462827,192.8391],[25.718150261333733,67.155890203900327,179.4647],[25.736338737896233,67.160162664837827,179.3583],[25.752940300396233,67.166815496869077,179.1031],[25.792613151958733,67.154425360150327,179.3186],[25.819590691021233,67.152594305462827,184.839],[25.807749870708733,67.161078192181577,222.3109],[25.794444206646233,67.171393133587827,179.466],[25.789317253521233,67.185431219525327,189.4496],[25.769786003521233,67.193915106244077,184.7362],[25.747325066021233,67.194220282025327,181.6596],[25.722911003521233,67.194525457806577,200.5251],[25.705943230083733,67.202398992962827,182.1325],[25.692271355083733,67.205206610150327,185.6002]]]}}