{"type":"Feature","properties":{"id":34933.0,"name":"Viekinjärvi","lge_id":null,"pfafstette":9221311.0,"lke_type":"N","altitude":0,"objectid":20547,"scalerank":12,"featurecla":"Lake","note":null,"funkyname":0,"min_zoom":7.0,"min_label":8.0},
"geometry":{"type": "Polygon","coordinates": [[[29.735606316021233,63.419806219525327,95.4826],[29.735606316021233,63.419806219525327,95.4826],[29.707408073833733,63.449835516400327,112.6378],[29.669444206646233,63.469122625775327,102.9938],[29.642954948833733,63.467352606244077,99.0104],[29.662608269146233,63.456366278119077,92.5],[29.687754753521233,63.441229559369077,92.5],[29.686045769146233,63.427862860150327,92.5],[29.683604362896233,63.413580633587827,92.5],[29.705332878521233,63.398443914837827,92.5],[29.732188347271233,63.384772039837827,92.5],[29.756114128521233,63.374029852337827,92.5],[29.773692253521233,63.384405828900327,92.5],[29.762705925396233,63.401983953900327,111.6093],[29.735606316021233,63.419806219525327,95.4826]]]}}