{"type": "Feature","id": 27005.0,"bbox": [29.804698112896233,64.417608953900327,29.908702019146233,64.491034246869077],"geometry": {"type": "Polygon","coordinates": [[[29.832896355083733,64.448248602337827,191.7049],[29.832896355083733,64.448248602337827,191.7049],[29.835581901958733,64.432440496869077,182.0],[29.846202019146233,64.417608953900327,182.0],[29.862925651958733,64.427130438275327,186.786],[29.883189323833733,64.448797918744077,182.0],[29.908702019146233,64.462774969525327,182.0],[29.903330925396233,64.477667547650327,193.3146],[29.883433464458733,64.474066473431577,207.7205],[29.864390495708733,64.469000555462827,201.2067],[29.846934441021233,64.477972723431577,210.1783],[29.826060417583733,64.491034246869077,213.0631],[29.804698112896233,64.485357977337827,188.9637],[29.813487175396233,64.466315008587827,182.0],[29.832896355083733,64.448248602337827,191.7049]]]}
,"properties": {"name": "nttijärvi","lge_id": null,"pfafstette": 49593.0,"lke_type": "N","altitude": 183,"objectid": 16029,"scalerank": 12,"featurecla": "Lake","note": null,"funkyname": 0,"min_zoom": 7.0,"min_label": 8.0,"area_km2": 18.43879,"hist_schema_id": "Elevation0-9000","hist_area_km2": {"175": 14.07086,"200": 4.19437,"225": 0.17357}}}