{"type": "Feature","id": 19058.0,"bbox": [30.462657097271233,65.490912176556577,30.599619987896233,65.581549383587827],"geometry": {"type": "Polygon","coordinates": [[[30.514048698833733,65.561651922650327,173.8711],[30.514048698833733,65.561651922650327,173.8711],[30.513682487896233,65.552740789837827,165.4327],[30.483409050396233,65.545904852337827,175.1213],[30.462657097271233,65.528082586712827,163.4498],[30.479502800396233,65.510809637494077,163.1782],[30.504161003521233,65.500738836712827,163.3562],[30.528086784771233,65.490912176556577,163.3544],[30.559825066021233,65.500982977337827,163.595],[30.584239128521233,65.510260321087827,171.0846],[30.599619987896233,65.522711492962827,163.5579],[30.584483269146233,65.539374090619077,168.3943],[30.566905144146233,65.552740789837827,166.171],[30.566416862896233,65.571417547650327,190.1506],[30.551768425396233,65.581549383587827,180.4545],[30.529307487896233,65.576239324994077,187.7643],[30.501841667583733,65.569098211712827,172.0942],[30.489268425396233,65.561957098431577,164.4198],[30.498057487896233,65.559881903119077,163.6743],[30.514048698833733,65.561651922650327,173.8711]]]}
,"properties": {"name": "Pistojärvi and Ohtajärvi","lge_id": "fi","pfafstette": 977.0,"lke_type": "N","altitude": 0,"objectid": 13171,"scalerank": 11,"featurecla": "Lake","note": null,"funkyname": 0,"min_zoom": 6.7,"min_label": 7.7,"area_km2": 36.73179,"hist_schema_id": "Elevation0-9000","hist_area_km2": {"175": 36.09095,"200": 0.64084}}}