{"type": "Feature","id": 49310.0,"bbox": [29.905772331646233,62.290045477337827,30.049571159771233,62.409247137494077],"geometry": {"type": "Polygon","coordinates": [[[29.982676628521233,62.321844793744077,76.5],[29.982676628521233,62.321844793744077,76.5],[30.001231316021233,62.315924383587827,76.5],[29.981822136333733,62.306402899212827,86.0212],[30.012217644146233,62.290045477337827,76.5],[30.049571159771233,62.309637762494077,96.2493],[30.037364128521233,62.339667059369077,110.6146],[30.007090691021233,62.356329657025327,79.6314],[29.980723503521233,62.366400457806577,76.0],[29.974742058208733,62.375372625775327,76.0],[29.962535026958733,62.383978582806577,84.8658],[29.941661003521233,62.395270086712827,76.0],[29.924815300396233,62.409247137494077,77.8163],[29.905772331646233,62.397345282025327,94.3676],[29.906016472271233,62.376837469525327,76.0],[29.927744987896233,62.368780828900327,76.0],[29.939097526958733,62.360174871869077,87.9059],[29.945567253521233,62.347418524212827,76.5],[29.953013542583733,62.336065985150327,76.5],[29.982676628521233,62.321844793744077,76.5]]]}
,"properties": {"name": "Suuri Onkamojärvi","lge_id": null,"pfafstette": 77453.0,"lke_type": "N","altitude": 0,"objectid": 28352,"scalerank": 11,"featurecla": "Lake","note": null,"funkyname": 0,"min_zoom": 6.7,"min_label": 7.7,"area_km2": 36.66448,"hist_schema_id": "Elevation0-9000","hist_area_km2": {"75": 32.81766,"100": 3.74839,"125": 0.09842}}}