{"type": "Feature","id": 1224.0,"bbox": [29.008555534771233,69.371100164837827,29.151133659771233,69.433722235150327],"geometry": {"type": "Polygon","coordinates": [[[29.009776237896233,69.389044500775327,201.6297],[29.009776237896233,69.389044500775327,201.6297],[29.008555534771233,69.372565008587827,160.1053],[29.028086784771233,69.371100164837827,160.625],[29.054453972271233,69.378668524212827,160.1968],[29.072764519146233,69.387213446087827,160.8055],[29.088145378521233,69.392645574994077,159.7717],[29.103404167583733,69.394781805462827,159.8419],[29.124766472271233,69.401129461712827,160.2009],[29.151133659771233,69.408758856244077,169.8764],[29.140879753521233,69.419440008587827,170.85],[29.120860222271233,69.433722235150327,187.6281],[29.104380730083733,69.433111883587827,222.2767],[29.079356316021233,69.419989324994077,202.0368],[29.059947136333733,69.417242742962827,227.1558],[29.042735222271233,69.409674383587827,205.6399],[29.026866081646233,69.399359442181577,218.809],[29.009776237896233,69.389044500775327,201.6297]]]}
,"properties": {"name": "Surnujärvi","lge_id": null,"pfafstette": 49753.0,"lke_type": "N","altitude": 0,"objectid": 957,"scalerank": 12,"featurecla": "Lake","note": null,"funkyname": 0,"min_zoom": 7.0,"min_label": 8.0,"area_km2": 17.97576,"hist_schema_id": "Elevation0-9000","hist_area_km2": {"150": 9.13981,"175": 5.53314,"200": 2.87783,"225": 0.42498}}}