{"type": "Feature","id": 1604.0,"bbox": [27.855723503521233,69.393561102337827,28.035655144146233,69.456488348431577],"geometry": {"type": "Polygon","coordinates": [[[27.859385612896233,69.393561102337827,209.4038],[27.859385612896233,69.393561102337827,209.4038],[27.878306511333733,69.396002508587827,209.448],[27.903575066021233,69.405768133587827,209.4565],[27.936289909771233,69.415167547650327,209.3307],[27.968272331646233,69.426642157025327,209.3683],[27.985606316021233,69.433111883587827,209.347],[27.997080925396233,69.435797430462827,209.4252],[28.021128776958733,69.445807196087827,214.7],[28.035655144146233,69.453741766400327,228.0047],[28.021128776958733,69.453741766400327,255.7761],[28.003794792583733,69.453436590619077,258.6848],[27.988291862896233,69.451910711712827,247.6959],[27.977061394146233,69.451300360150327,234.9951],[27.959971550396233,69.456488348431577,221.4214],[27.931407097271233,69.453436590619077,225.4122],[27.908702019146233,69.447943426556577,233.9831],[27.887095573833733,69.440924383587827,218.4986],[27.863658073833733,69.423956610150327,216.945],[27.855723503521233,69.409674383587827,210.6049],[27.856089714458733,69.400274969525327,211.2045],[27.859385612896233,69.393561102337827,209.4038]]]}
,"properties": {"name": "Paudijärvi","lge_id": null,"pfafstette": 44995.0,"lke_type": "N","altitude": 0,"objectid": 1389,"scalerank": 12,"featurecla": "Lake","note": null,"funkyname": 0,"min_zoom": 7.0,"min_label": 8.0,"area_km2": 21.96071,"hist_schema_id": "Elevation0-9000","hist_area_km2": {"200": 16.63068,"225": 4.68257,"250": 0.64746}}}