{"type":"Feature","properties":{"id":76859.0,"name":"Vesijärvi","lge_id":null,"pfafstette":642411.0,"lke_type":"N","altitude":87,"objectid":39860,"scalerank":11,"featurecla":"Lake","note":null,"funkyname":0,"min_zoom":6.7,"min_label":7.7},
"geometry":{"type": "Polygon","coordinates": [[[24.126719597271233,61.541144110150327,86.0],[24.126719597271233,61.541144110150327,86.0],[24.111582878521233,61.536932684369077,106.9927],[24.096324089458733,61.533270574994077,94.3344],[24.082041862896233,61.531744696087827,144.7056],[24.068125847271233,61.524176336712827,86.0],[24.080577019146233,61.504706121869077,86.0],[24.090830925396233,61.491339422650327,102.2804],[24.081065300396233,61.488592840619077,119.4596],[24.074961784771233,61.483404852337827,92.5643],[24.095347526958733,61.471564032025327,86.0],[24.121836784771233,61.474920965619077,86.0],[24.130869987896233,61.490729071087827,86.0],[24.126963737896233,61.501654364056577,92.6973],[24.124278191021233,61.512579657025327,86.0],[24.138560417583733,61.524420477337827,86.0],[24.142100456646233,61.534491278119077,97.246],[24.138438347271233,61.545416571087827,90.5716],[24.156138542583733,61.555182196087827,90.9644],[24.194468620708733,61.561529852337827,86.0],[24.223033073833733,61.567023016400327,86.0],[24.254405144146233,61.570379949994077,86.0],[24.281748894146233,61.577643133587827,116.5118],[24.271250847271233,61.586737371869077,138.1828],[24.260996941021233,61.593451239056577,117.3176],[24.250010612896233,61.598944403119077,111.16],[24.226084831646233,61.586493231244077,109.2787],[24.194468620708733,61.571905828900327,86.0],[24.151621941021233,61.558233953900327,118.9543],[24.126719597271233,61.541144110150327,86.0]]]}}