{"type":"Feature","properties":{"id":22127.0,"name":"Puhosjärvi","lge_id":null,"pfafstette":4237.0,"lke_type":"N","altitude":250,"objectid":15394,"scalerank":12,"featurecla":"Lake","note":null,"funkyname":0,"min_zoom":7.0,"min_label":8.0},
"geometry":{"type": "Polygon","coordinates": [[[28.001719597271233,65.339850164837827,178.5143],[28.001719597271233,65.339850164837827,178.5143],[27.988536003521233,65.346564032025327,199.9299],[27.969737175396233,65.348089910931577,205.8668],[27.949717644146233,65.348089910931577,200.0774],[27.916270378521233,65.342901922650327,197.6759],[27.891001823833733,65.338019110150327,189.4672],[27.868907097271233,65.329840399212827,176.4191],[27.855723503521233,65.315802313275327,188.1849],[27.840342644146233,65.304571844525327,186.1153],[27.828745964458733,65.295782782025327,200.9736],[27.843638542583733,65.291815496869077,176.2613],[27.861827019146233,65.293951727337827,176.5492],[27.887461784771233,65.298834539837827,176.1528],[27.914073112896233,65.304327703900327,176.182],[27.938487175396233,65.310370184369077,175.8248],[27.963633659771233,65.322882391400327,178.1414],[27.983164909771233,65.333807684369077,176.4062],[28.001719597271233,65.339850164837827,178.5143]]]}}