{"type":"Feature","properties":{"GID_3":"FIN.5.1.5_1","GID_0":"FIN","country":"Finland","GID_1":"FIN.5_1","province":"WesternFinland","NL_NAME_1":"NA","GID_2":"FIN.5.1_1","county":"CentralFinland","NL_NAME_2":"NA","city":"Saarijärvi","VARNAME_3":"NA","NL_NAME_3":"NA","TYPE_3":"Seutukunta|Ekonomiskregion","ENGTYPE_3":"Sub-Region","CC_3":"NA","HASC_3":"FI.LS.SJ","name":"Saarijärvi.city"},
"geometry":{"type": "MultiPolygon","coordinates": [[[[24.9116,62.5926,223.3322],[24.9214,62.5923,221.1124],[24.9206,62.5878,229.5539],[24.9303,62.5875,222.8941],[24.9296,62.583,227.62],[24.9393,62.5827,234.522],[24.9386,62.5782,232.0373],[24.9483,62.5779,224.0617],[24.9476,62.5734,210.964],[24.9962,62.5717,220.2341],[24.9969,62.5762,192.3822],[25.0455,62.5744,215.2102],[25.0463,62.5789,225.8479],[25.0949,62.5772,199.1931],[25.0957,62.5817,183.3518],[25.1443,62.5799,175.3449],[25.1451,62.5844,170.5311],[25.1839,62.583,168.4351],[25.1832,62.5785,176.9374],[25.1929,62.5782,177.3181],[25.1921,62.5737,181.7505],[25.2018,62.5733,194.5136],[25.2011,62.5688,181.6044],[25.2108,62.5685,198.8739],[25.21,62.564,193.9241],[25.2197,62.5637,197.2048],[25.2189,62.5592,184.1827],[25.2286,62.5588,189.3943],[25.2271,62.5499,189.8846],[25.2368,62.5495,187.9666],[25.236,62.545,190.2484],[25.2457,62.5447,188.6918],[25.2449,62.5402,191.3439],[25.3614,62.5359,162.2873],[25.3606,62.5314,168.939],[25.3703,62.531,161.7801],[25.3695,62.5265,157.6839],[25.3986,62.5254,156.8122],[25.3978,62.521,159.6983],[25.4172,62.5202,167.7005],[25.418,62.5247,141.3764],[25.4374,62.524,121.7525],[25.4382,62.5284,115.0143],[25.4479,62.5281,111.5],[25.4504,62.5415,111.5],[25.4698,62.5407,185.7511],[25.4706,62.5452,142.12],[25.4803,62.5448,146.5596],[25.4869,62.5806,200.3976],[25.4772,62.581,181.6128],[25.4797,62.5944,196.3383],[25.4894,62.5941,224.2073],[25.4902,62.5985,208.5415],[25.5097,62.5978,216.9292],[25.5105,62.6023,217.7236],[25.5202,62.6019,151.6842],[25.5219,62.6108,107.5],[25.5121,62.6112,107.5],[25.5138,62.6202,107.5],[25.5041,62.6206,107.5],[25.5049,62.625,107.5],[25.4952,62.6254,107.5],[25.496,62.6299,107.5],[25.4862,62.6302,107.5],[25.4871,62.6347,119.7559],[25.4773,62.6351,107.5],[25.4815,62.6575,169.653],[25.4912,62.6571,146.3551],[25.502,62.7153,120.0],[25.4922,62.7157,120.0],[25.4947,62.7291,120.0],[25.5045,62.7287,120.0],[25.5053,62.7332,130.9161],[25.5248,62.7324,152.8019],[25.5257,62.7369,151.8143],[25.5452,62.7361,191.9818],[25.546,62.7406,221.8302],[25.5754,62.7395,165.9798],[25.5762,62.744,180.0691],[25.5957,62.7432,183.4365],[25.5966,62.7477,188.1548],[25.6259,62.7465,169.179],[25.6268,62.751,163.5058],[25.6463,62.7502,146.816],[25.6472,62.7547,156.8224],[25.6765,62.7535,147.1245],[25.6782,62.7625,145.1098],[25.688,62.7621,144.7468],[25.6914,62.78,159.2715],[25.7012,62.7796,157.0155],[25.7021,62.7841,173.2516],[25.6923,62.7845,157.0981],[25.694,62.7934,191.8401],[25.6842,62.7938,165.6644],[25.6851,62.7983,161.5574],[25.6753,62.7987,161.7445],[25.6761,62.8032,166.6752],[25.6664,62.8035,162.8291],[25.6672,62.808,179.7003],[25.6574,62.8084,153.5],[25.6583,62.8129,159.8808],[25.6485,62.8133,157.2169],[25.6493,62.8177,164.128],[25.6395,62.8181,163.95],[25.6413,62.8271,166.8854],[25.6315,62.8274,167.4689],[25.6332,62.8364,170.6096],[25.6234,62.8368,171.3331],[25.6242,62.8413,170.7829],[25.6144,62.8417,173.9393],[25.6153,62.8461,163.7129],[25.6055,62.8465,161.0],[25.6063,62.851,166.6219],[25.5867,62.8517,161.0],[25.5875,62.8562,161.0],[25.5777,62.8566,174.4527],[25.5794,62.8656,178.3648],[25.5892,62.8652,167.5318],[25.5901,62.8697,167.0543],[25.5999,62.8693,156.5361],[25.6007,62.8737,170.6057],[25.6106,62.8734,174.2494],[25.6114,62.8778,191.0749],[25.6212,62.8774,187.1613],[25.6221,62.8819,188.8121],[25.6319,62.8815,184.9774],[25.6328,62.886,195.7018],[25.6426,62.8856,186.5187],[25.6434,62.8901,187.3798],[25.6533,62.8897,182.8375],[25.6541,62.8942,183.8315],[25.6639,62.8938,178.1565],[25.6657,62.9028,154.0],[25.6755,62.9024,174.9112],[25.6764,62.9068,191.6665],[25.6862,62.9065,182.8682],[25.687,62.9109,197.4386],[25.6969,62.9105,191.5782],[25.6977,62.915,191.6967],[25.7076,62.9146,185.1856],[25.7102,62.9281,181.5177],[25.7003,62.9284,184.3492],[25.7021,62.9374,176.3984],[25.6922,62.9378,181.9671],[25.694,62.9467,170.8239],[25.6841,62.9471,192.8429],[25.685,62.9516,185.2962],[25.6653,62.9524,179.2685],[25.6645,62.9479,178.5003],[25.6546,62.9483,166.3163],[25.6538,62.9438,170.1286],[25.6341,62.9446,160.4706],[25.6332,62.9401,167.5325],[25.6136,62.9409,126.0895],[25.6144,62.9453,141.4458],[25.6046,62.9457,116.8062],[25.6054,62.9502,125.2073],[25.5956,62.9506,133.0733],[25.5964,62.9551,146.0582],[25.5866,62.9554,131.5047],[25.5875,62.9599,133.0241],[25.5776,62.9603,128.9841],[25.5785,62.9648,120.01],[25.5686,62.9651,106.5],[25.5695,62.9696,131.3087],[25.5596,62.97,123.7633],[25.5605,62.9745,132.7693],[25.5506,62.9749,106.5],[25.5515,62.9793,113.1837],[25.5318,62.9801,106.5],[25.5326,62.9846,106.5],[25.5129,62.9853,106.5],[25.5205,63.0256,106.5],[25.5304,63.0252,106.5],[25.532,63.0342,106.5],[25.5222,63.0346,114.2753],[25.523,63.039,117.3837],[25.5131,63.0394,121.87],[25.514,63.0439,113.6631],[25.4942,63.0446,135.935],[25.4951,63.0491,138.3969],[25.4852,63.0495,115.9703],[25.4861,63.054,119.809],[25.4762,63.0543,125.2468],[25.477,63.0588,131.0462],[25.4573,63.0596,135.5013],[25.4581,63.064,129.0146],[25.4482,63.0644,152.6225],[25.4491,63.0689,144.4719],[25.4392,63.0693,148.5401],[25.44,63.0737,142.015],[25.4203,63.0745,133.171],[25.4211,63.079,137.562],[25.4112,63.0793,135.5838],[25.412,63.0838,139.8906],[25.4021,63.0842,153.4105],[25.403,63.0886,158.0092],[25.3832,63.0894,140.091],[25.384,63.0939,168.1919],[25.3741,63.0942,150.3448],[25.3766,63.1077,162.9039],[25.3667,63.108,165.4053],[25.3692,63.1215,153.1111],[25.3593,63.1218,157.4604],[25.3609,63.1308,159.4226],[25.351,63.1311,153.8018],[25.3535,63.1446,159.7894],[25.3436,63.1449,166.9595],[25.3452,63.1539,160.1507],[25.3353,63.1543,170.9082],[25.3394,63.1766,129.2076],[25.3295,63.177,141.7402],[25.3336,63.1994,146.0452],[25.3237,63.1998,152.2033],[25.3278,63.2221,168.1016],[25.3178,63.2225,167.5349],[25.3219,63.2449,174.2188],[25.3816,63.2427,171.7168],[25.3824,63.2472,172.1667],[25.3725,63.2475,176.2099],[25.3741,63.2565,175.4519],[25.3642,63.2569,165.9362],[25.365,63.2613,188.6425],[25.3451,63.2621,181.1334],[25.3459,63.2666,183.627],[25.336,63.2669,179.5208],[25.3368,63.2714,182.6577],[25.3269,63.2718,181.9124],[25.3277,63.2762,179.4798],[25.2978,63.2773,178.7994],[25.297,63.2729,180.3126],[25.2771,63.2736,175.6901],[25.2763,63.2691,178.6737],[25.2663,63.2695,168.7142],[25.2655,63.265,174.0015],[25.2456,63.2657,164.1293],[25.2448,63.2612,148.857],[25.2349,63.2616,148.3627],[25.2341,63.2571,167.7703],[25.2142,63.2578,144.7712],[25.2134,63.2533,140.0442],[25.1935,63.2541,141.9887],[25.1927,63.2496,131.3727],[25.1827,63.2499,148.1888],[25.1819,63.2454,145.6624],[25.1621,63.2462,143.562],[25.1612,63.2417,143.7417],[25.1513,63.242,130.8442],[25.1505,63.2375,130.7569],[25.1008,63.2393,154.5507],[25.1,63.2348,142.6514],[25.0503,63.2366,166.1258],[25.0495,63.2321,161.1028],[24.9998,63.2338,167.0347],[24.999,63.2293,165.1968],[24.8201,63.2354,181.0344],[24.8223,63.2488,180.8714],[24.8124,63.2491,187.963],[24.8153,63.2671,190.8397],[24.8054,63.2674,178.691],[24.8069,63.2763,174.1325],[24.7969,63.2767,174.8077],[24.7962,63.2722,179.1183],[24.7762,63.2729,175.6866],[24.7755,63.2684,192.5608],[24.7655,63.2687,192.4265],[24.7648,63.2642,185.6088],[24.7549,63.2645,182.3823],[24.7534,63.2556,190.3302],[24.7633,63.2552,180.3612],[24.7589,63.2284,196.536],[24.7689,63.2281,192.3489],[24.7667,63.2146,207.5923],[24.7567,63.2149,196.2901],[24.7538,63.197,196.7871],[24.7439,63.1973,199.9007],[24.7351,63.1436,199.4501],[24.755,63.1429,202.5947],[24.7542,63.1384,203.471],[24.7641,63.1381,199.8128],[24.7634,63.1336,204.7478],[24.7436,63.1343,206.2856],[24.7443,63.1388,198.4721],[24.6749,63.141,194.1584],[24.6756,63.1455,198.9761],[24.5963,63.148,194.3023],[24.597,63.1525,195.15],[24.5375,63.1544,161.0856],[24.5382,63.1589,159.7461],[24.5283,63.1592,158.6484],[24.5276,63.1547,153.8272],[24.5177,63.155,154.699],[24.517,63.1505,163.6898],[24.4971,63.1511,173.0786],[24.4964,63.1467,171.3116],[24.4865,63.147,174.8913],[24.4858,63.1425,172.8435],[24.466,63.1431,177.5154],[24.4653,63.1386,179.4653],[24.4455,63.1392,181.0036],[24.4448,63.1348,175.7121],[24.4349,63.1351,179.0268],[24.4342,63.1306,181.4191],[24.4144,63.1312,180.4841],[24.4137,63.1267,181.0076],[24.3939,63.1273,179.1674],[24.3932,63.1228,177.2063],[24.3833,63.1231,175.3024],[24.3826,63.1186,172.6132],[24.3628,63.1192,177.7611],[24.3615,63.1103,176.4554],[24.3515,63.1106,170.6648],[24.3495,63.0971,180.8022],[24.3396,63.0974,186.9549],[24.337,63.0795,183.3676],[24.3271,63.0798,184.1836],[24.3251,63.0663,184.5901],[24.2954,63.0672,183.7377],[24.2948,63.0627,190.1848],[24.2651,63.0636,182.5496],[24.2644,63.0591,182.2749],[24.2743,63.0588,190.1393],[24.2717,63.0409,200.7969],[24.2816,63.0406,200.844],[24.2803,63.0317,201.5189],[24.2902,63.0314,198.7166],[24.2908,63.0358,203.1571],[24.3007,63.0355,204.2284],[24.2994,63.0266,193.956],[24.3093,63.0263,189.3582],[24.3066,63.0084,182.4533],[24.2968,63.0087,194.0604],[24.2961,63.0042,188.3637],[24.2941,62.9907,185.5289],[24.304,62.9904,189.2584],[24.3027,62.9815,194.988],[24.3126,62.9812,190.5913],[24.3119,62.9767,192.7799],[24.3218,62.9764,202.5336],[24.3224,62.9809,196.5837],[24.3421,62.9803,192.7921],[24.3408,62.9713,207.7262],[24.3507,62.971,190.3875],[24.3427,62.9173,186.4243],[24.4116,62.9151,183.2295],[24.4109,62.9107,182.7215],[24.4405,62.9098,173.7794],[24.4391,62.9008,179.3398],[24.4489,62.9005,176.1156],[24.4449,62.8736,198.2804],[24.4547,62.8733,191.3743],[24.454,62.8688,196.5998],[24.4246,62.8697,193.5],[24.4239,62.8652,195.6386],[24.3846,62.8664,188.5383],[24.3839,62.862,198.3603],[24.3545,62.8629,187.998],[24.3531,62.8539,212.7828],[24.363,62.8536,202.6448],[24.3616,62.8446,213.8085],[24.3715,62.8443,209.405],[24.3708,62.8399,212.9881],[24.3806,62.8396,202.9657],[24.3793,62.8306,204.9495],[24.3891,62.8303,200.5],[24.3884,62.8258,205.1835],[24.3982,62.8255,211.5421],[24.3969,62.8165,200.0928],[24.4067,62.8162,214.809],[24.406,62.8118,209.2109],[24.4158,62.8115,206.7558],[24.4152,62.807,205.4244],[24.425,62.8067,223.8246],[24.4236,62.7977,207.7473],[24.4334,62.7974,208.2447],[24.4321,62.7884,215.3536],[24.4419,62.7881,229.146],[24.4412,62.7837,216.1698],[24.451,62.7834,212.8914],[24.4497,62.7744,214.0113],[24.4595,62.7741,220.3164],[24.4581,62.7651,216.8679],[24.4679,62.7648,223.3997],[24.4665,62.7559,219.5179],[24.4763,62.7556,214.4726],[24.475,62.7466,227.7513],[24.4848,62.7463,217.9463],[24.4834,62.7373,227.464],[24.4932,62.737,241.0869],[24.4918,62.7281,218.319],[24.5016,62.7277,216.8196],[24.4996,62.7143,219.8822],[24.5093,62.714,229.6544],[24.5073,62.7006,227.8006],[24.5171,62.7002,230.871],[24.515,62.6868,219.9941],[24.5248,62.6865,236.2604],[24.5241,62.682,234.9717],[24.5436,62.681399999999996,227.3591],[24.5429,62.6769,223.3575],[24.5527,62.6766,224.8803],[24.552,62.6721,227.0186],[24.5715,62.6715,224.5087],[24.5709,62.667,217.1453],[24.5904,62.6664,213.7271],[24.589,62.6574,215.5506],[24.5987,62.6571,225.7868],[24.5973,62.6482,201.8014],[24.6071,62.6478,209.9141],[24.6057,62.6389,215.4527],[24.6155,62.6386,213.3456],[24.6141,62.6296,229.1892],[24.6238,62.6293,218.4854],[24.6224,62.6203,227.1608],[24.6322,62.62,219.0406],[24.6315,62.6155,212.819],[24.6412,62.6152,213.4466],[24.6398,62.6063,227.9649],[24.6495,62.6059,214.7351],[24.6482,62.597,204.2498],[24.6579,62.5966,213.0951],[24.6565,62.5877,198.9139],[24.6662,62.5874,197.2384],[24.6648,62.5784,181.0813],[24.6745,62.5781,181.846],[24.6731,62.5691,176.0522],[24.6829,62.5688,179.1373],[24.6815,62.5599,169.4987],[24.6912,62.5595,170.239],[24.6905,62.555,167.8797],[24.7002,62.5547,174.8111],[24.6988,62.5458,163.5687],[24.7085,62.5455,173.3957],[24.7071,62.5365,162.938],[24.7168,62.5362,167.0361],[24.7161,62.5317,155.1001],[24.7258,62.5314,167.1557],[24.7265,62.5359,172.8881],[24.7459,62.5352,191.395],[24.7466,62.5397,184.0196],[24.7661,62.539,213.8343],[24.7668,62.5435,232.0848],[24.7862,62.5429,212.8736],[24.7869,62.5473,222.961],[24.7967,62.547,220.6334],[24.7974,62.5515,221.614],[24.8071,62.5512,220.2532],[24.8085,62.5601,223.6579],[24.8182,62.5598,229.0548],[24.8197,62.5687,215.3198],[24.8294,62.5684,206.0701],[24.8301,62.5729,199.0012],[24.8399,62.5726,186.0],[24.8413,62.5815,193.9369],[24.851,62.5812,196.8797],[24.8518,62.5857,191.1361],[24.8615,62.5854,191.5993],[24.8622,62.5898,186.3706],[24.872,62.5895,188.9642],[24.8727,62.594,181.8545],[24.8824,62.5936,217.2956],[24.8832,62.5981,188.3663],[24.8929,62.5978,201.6304],[24.8936,62.6023,196.7115],[24.9034,62.6019,198.9342],[24.9026,62.5975,205.3463],[24.9124,62.5971,214.795],[24.9116,62.5926,223.3322]]]]}}