{"type":"Feature","properties":{"ISO3166-1-Alpha-3":"FIN","country":"Finland","fill":"#F0F","id":"3191","name":"Finland Proper"},
"geometry":{"type": "MultiPolygon","coordinates": [[[[21.37306,59.78522,0.0],[21.36573,59.78453,3.3729],[21.36655,59.7792,0.0],[21.37216,59.77403,1.4473],[21.38136,59.77586,0.0],[21.38673,59.78213,-0.0751],[21.38299,59.78311,0.2048],[21.37835,59.78274,1.5855],[21.37306,59.78522,0.0]]],
[[[22.33872,59.80724,7.5238],[22.33725,59.81066,0.7822],[22.33383,59.8122,5.6525],[22.32537,59.81916,0.7984],[22.31959,59.82779,1.4906],[22.31764,59.82547,0.0],[22.31601,59.8131,0.0],[22.31235,59.80915,0.369],[22.31398,59.80362,11.4825],[22.31959,59.80158,0.0],[22.32097,59.80378,7.2345],[22.32472,59.80488,0.0],[22.33367,59.80471,1.9648],[22.33872,59.80724,7.5238]]],
[[[21.63974,59.8323,0.2285],[21.64088,59.8347,0.1889],[21.62053,59.83124,0.0],[21.59539,59.83181,0.0],[21.56967,59.81997,0.0],[21.56804,59.81859,0.5952],[21.57211,59.81802,0.0],[21.57407,59.8166,0.0],[21.577,59.81554,0.8788],[21.60711,59.82494,1.4095],[21.61712,59.82477,0.0],[21.62932,59.82701,0.0349],[21.63974,59.8323,0.2285]]],
[[[22.39576,59.85904,15.5847],[22.38868,59.85851,8.1109],[22.38339,59.85366,5.6598],[22.37477,59.85106,0.0],[22.37542,59.84797,14.5036],[22.39772,59.84199,0.0],[22.40105,59.84235,4.0555],[22.40594,59.85342,11.9137],[22.40423,59.85611,9.1517],[22.40032,59.85602,0.0],[22.39576,59.85904,15.5847]]],
[[[22.08636,59.85737,0.0],[22.09099,59.85908,1.4951],[22.0971,59.86331,8.4597],[22.08538,59.86437,0.0],[22.0761,59.86127,4.4943],[22.07081,59.85997,3.1426],[22.06731,59.85655,4.1494],[22.06853,59.85566,4.1494],[22.08636,59.85737,0.0]]],
[[[21.9616,59.86839,10.2455],[21.95004,59.86591,0.0],[21.94972,59.86249,0.0],[21.95899,59.8594,0.0],[21.9616,59.86839,10.2455]]],
[[[22.2055,59.86815,0.0],[22.20509,59.8734,5.1063],[22.19353,59.87698,10.4325],[22.18328,59.87613,5.5094],[22.17286,59.8699,2.8565],[22.17514,59.86701,0.0],[22.18515,59.86538,0.0],[22.2055,59.86815,0.0]]],
[[[22.4437,59.85147,4.6361],[22.50506,59.86872,4.8422],[22.51287,59.87372,2.5107],[22.51026,59.87629,9.6156],[22.49855,59.87763,5.7648],[22.48813,59.87665,18.4333],[22.48015,59.87434,2.1572],[22.45704,59.87299,0.0],[22.43377,59.86677,4.2397],[22.42774,59.86591,0.0],[22.42189,59.86567,1.7545],[22.41383,59.86123,19.9415],[22.41603,59.85293,3.736],[22.42774,59.84951,0.0],[22.4437,59.85147,4.6361]]],
[[[22.50628,59.88451,0.0],[22.51555,59.88467,3.5984],[22.52247,59.88666,3.9381],[22.52784,59.89159,1.4325],[22.53159,59.89724,0.0],[22.52402,59.89916,4.381],[22.47698,59.8874,5.9198],[22.47307,59.88296,0.6963],[22.47397,59.87824,14.6022],[22.47739,59.87527,0.0],[22.50628,59.88451,0.0]]],
[[[22.55128,59.90156,2.622],[22.55665,59.90477,6.8524],[22.55698,59.90681,14.4469],[22.54274,59.90799,0.5526],[22.54103,59.90143,5.3199],[22.54575,59.89631,6.2904],[22.55128,59.90156,2.622]]],
[[[21.46681,59.91112,1.2517],[21.45509,59.91128,2.8144],[21.45997,59.90656,8.7802],[21.46192,59.90241,0.0],[21.46681,59.91112,1.2517]]],
[[[22.37509,59.9125,6.0755],[22.38445,59.91987,7.061],[22.38526,59.92235,1.5322],[22.37843,59.92548,0.0],[22.37078,59.92418,0.0],[22.35873,59.91706,0.0],[22.35027,59.90904,0.0],[22.35694,59.9055,1.3744],[22.37509,59.9125,6.0755]]],
[[[21.79208,59.91405,0.0],[21.79721,59.91739,0.0],[21.80047,59.92276,0.0],[21.7933,59.92943,0.0],[21.78191,59.93057,17.1071],[21.78045,59.92589,18.0389],[21.7811,59.92202,24.3181],[21.77971,59.91954,20.2749],[21.78289,59.91527,15.0477],[21.78785,59.91246,0.0],[21.79208,59.91405,0.0]]],
[[[22.47796,59.92316,1.2671],[22.47535,59.92837,5.0407],[22.47161,59.93354,0.0],[22.47234,59.93679,4.4586],[22.46852,59.94225,0.0],[22.46339,59.94147,13.3771],[22.46152,59.93386,15.4529],[22.45948,59.93073,4.2847],[22.45965,59.92467,0.0],[22.47592,59.9173,0.0],[22.47755,59.91726,0.0],[22.47796,59.92316,1.2671]]],
[[[22.5761,59.9477,7.1491],[22.5866,59.95563,2.3702],[22.5761,59.95409,2.0743],[22.56715,59.95283,6.5379],[22.5569,59.94416,2.4038],[22.5761,59.9477,7.1491]]],
[[[21.61451,59.95563,0.0],[21.61362,59.95624,0.0],[21.60678,59.95926,0.0],[21.60206,59.9549,13.6408],[21.60125,59.95413,13.6408],[21.59702,59.95535,0.0],[21.60442,59.94916,8.4061],[21.61484,59.94941,1.8619],[21.62761,59.94847,0.9411],[21.62289,59.95295,11.6581],[21.61451,59.95563,0.0]]],
[[[22.64405,59.93948,14.2635],[22.63966,59.94522,3.3599],[22.64332,59.9475,5.5396],[22.65113,59.94839,1.1968],[22.6526,59.95087,7.783],[22.64763,59.95303,15.3558],[22.63819,59.95401,0.0],[22.63006,59.95515,8.0329],[22.62941,59.95791,5.9438],[22.62574,59.96031,11.1554],[22.61516,59.96263,12.7525],[22.59905,59.96202,11.7145],[22.5892,59.95877,12.852],[22.62794,59.93964,0.0],[22.64332,59.93586,0.0],[22.64405,59.93948,14.2635]]],
[[[22.36459,59.94526,1.0285],[22.37005,59.94904,16.1932],[22.37127,59.95372,2.1494],[22.36915,59.95974,3.8208],[22.35043,59.96341,16.2148],[22.33766,59.96247,1.2429],[22.33456,59.96003,7.432],[22.33033,59.94827,5.6801],[22.33261,59.94208,2.5878],[22.3392,59.93448,0.0],[22.3436,59.93309,5.9447],[22.36459,59.94526,1.0285]]],
[[[21.76751,59.944,0.0],[21.78216,59.95193,0.0],[21.78793,59.95828,0.0],[21.78077,59.96463,3.3804],[21.761,59.9656,5.6506],[21.75668,59.96442,13.1733],[21.75506,59.95913,16.4554],[21.75685,59.95498,0.0],[21.761,59.95437,5.1716],[21.76075,59.95213,11.8909],[21.75261,59.94851,16.3746],[21.74969,59.94485,11.3864],[21.75758,59.94212,0.0],[21.76751,59.944,0.0]]],
[[[21.2955,59.97407,0.0],[21.30055,59.97472,0.7715],[21.29746,59.97858,8.4568],[21.28907,59.97777,4.1671],[21.29436,59.97154,0.0],[21.2955,59.97407,0.0]]],
[[[22.5464,59.96658,12.326],[22.55266,59.96951,3.0855],[22.55681,59.9737,7.9041],[22.55372,59.98033,19.5131],[22.5433,59.98461,4.3797],[22.51718,59.98611,27.6686],[22.50522,59.97879,16.4408],[22.50261,59.9691,6.4497],[22.50375,59.96341,7.2337],[22.50815,59.95893,6.9297],[22.5464,59.96658,12.326]]],
[[[22.45419,59.97622,0.9182],[22.45167,59.97777,0.0],[22.45102,59.98208,0.0],[22.4454,59.98648,8.2018],[22.43751,59.98428,3.7213],[22.43344,59.97736,0.0],[22.42913,59.97427,4.6594],[22.42595,59.97687,16.7185],[22.41985,59.97659,0.0],[22.41342,59.97154,0.0],[22.41188,59.96747,0.0],[22.41415,59.96454,11.5144],[22.41757,59.96328,3.791],[22.40414,59.9593,2.4991],[22.40235,59.95677,5.9527],[22.39348,59.94864,9.9451],[22.39552,59.93586,2.3942],[22.40178,59.92715,10.5291],[22.40984,59.92202,4.3946],[22.4157,59.92357,0.0],[22.42294,59.92796,18.6868],[22.42661,59.93822,0.0],[22.42587,59.94689,4.131],[22.43165,59.95921,15.0769],[22.43295,59.96491,27.0817],[22.43426,59.96597,21.0559],[22.43548,59.96129,4.7815],[22.43889,59.9617,8.0147],[22.44394,59.96581,8.5019],[22.45305,59.96642,5.1338],[22.45916,59.96564,0.0],[22.46323,59.96235,1.9051],[22.46681,59.96434,12.0321],[22.4677,59.96927,16.9075],[22.46738,59.97297,8.4896],[22.46583,59.97622,8.9977],[22.46127,59.97659,0.0],[22.45737,59.97598,5.8574],[22.45419,59.97622,0.9182]]],
[[[22.64649,59.96214,7.5717],[22.64926,59.96658,0.0],[22.62997,59.98497,0.0],[22.62078,59.99067,5.6381],[22.61492,59.98949,9.9111],[22.60654,59.97944,19.2426],[22.60467,59.97386,7.5725],[22.60735,59.97106,17.6933],[22.61069,59.96935,3.7342],[22.61191,59.96841,16.0303],[22.63526,59.96084,8.0206],[22.64649,59.96214,7.5717]]],
[[[22.35825,59.96691,16.7094],[22.3593,59.97256,0.0],[22.36801,59.9855,0.0],[22.37289,59.99441,21.7781],[22.36866,59.99816,13.0064],[22.36126,59.99767,2.4998],[22.34734,59.98827,4.581],[22.34482,59.98229,0.0],[22.34099,59.97765,0.0],[22.33863,59.97106,0.0],[22.34734,59.9656,3.1482],[22.35825,59.96691,16.7094]]],
[[[21.4712,60.02599,7.9662],[21.4712,60.03335,0.0],[21.4616,60.03506,0.0],[21.45802,60.0253,5.2367],[21.46372,60.02444,0.0],[21.4712,60.02599,7.9662]]],
[[[22.93377,60.01301,0.0],[22.94158,60.01809,0.0],[22.95078,60.01923,0.0],[22.95704,60.02208,21.2693],[22.96111,60.02709,0.0],[22.97145,60.0327,28.3686],[22.9734,60.03583,16.4669],[22.9629,60.04605,0.0],[22.95582,60.04975,0.0],[22.94597,60.05036,10.436],[22.93247,60.04503,0.0],[22.92197,60.03693,3.9198],[22.9179,60.02973,0.0],[22.91822,60.02521,0.0],[22.91904,60.02241,0.0],[22.91448,60.02037,0.0],[22.90707,60.01907,2.3559],[22.90439,60.01374,0.0],[22.90903,60.00983,6.9326],[22.91684,60.00983,0.0],[22.92132,60.00764,0.0],[22.92441,60.00483,0.0],[22.9284,60.00507,3.203],[22.93377,60.01301,0.0]]],
[[[22.81577,60.0386,13.5041],[22.81511,60.04735,13.4509],[22.8086,60.05134,0.0],[22.80209,60.05162,0.0],[22.80038,60.04507,0.0],[22.80413,60.03514,0.0],[22.81088,60.03213,8.1086],[22.81577,60.0386,13.5041]]],
[[[22.88006,60.01105,23.1989],[22.88404,60.01935,0.0],[22.8934,60.03315,0.0],[22.90073,60.03754,1.8339],[22.90659,60.0384,4.4863],[22.91098,60.04157,18.9024],[22.91684,60.04922,5.5967],[22.91961,60.05834,0.0],[22.92661,60.06538,4.8868],[22.91774,60.06867,15.4211],[22.88738,60.06778,17.763],[22.86329,60.06257,10.3724],[22.85515,60.05557,32.221],[22.86199,60.05191,20.6002],[22.87517,60.0515,9.1803],[22.8838,60.04808,6.0213],[22.88331,60.04312,0.0],[22.85572,60.04133,23.1928],[22.85108,60.0279,0.0],[22.85955,60.01142,14.4601],[22.87224,60.00605,18.7121],[22.88006,60.01105,23.1989]]],
[[[21.37591,60.07262,8.3402],[21.36459,60.07941,7.105],[21.35296,60.07604,0.0],[21.35654,60.07477,0.0],[21.36411,60.07372,0.0],[21.36411,60.06993,0.0],[21.37029,60.06932,2.7126],[21.37591,60.07262,8.3402]]],
[[[22.44947,60.06647,31.6005],[22.43043,60.08185,28.1843],[22.41179,60.08519,20.5266],[22.40187,60.07575,23.2484],[22.40838,60.0528,14.1293],[22.38722,60.05166,38.6785],[22.38347,60.06184,47.5107],[22.38266,60.07453,42.2149],[22.37062,60.08076,30.3716],[22.35483,60.07563,0.0],[22.34889,60.06322,0.0],[22.34946,60.04751,0.0],[22.3532,60.03229,0.0],[22.35971,60.0209,0.0],[22.37143,60.00454,0.0],[22.38282,59.99258,0.0],[22.38795,59.99445,0.0],[22.39454,60.00503,12.9672],[22.40952,60.00934,6.3073],[22.42563,60.0069,0.0],[22.4358,59.9975,0.0],[22.44264,59.9975,0.0],[22.44801,60.01236,21.7467],[22.44972,60.02953,31.2322],[22.44947,60.06647,31.6005]]],
[[[22.96315,60.09687,27.3918],[22.96168,60.1044,47.0881],[22.95753,60.11079,0.0],[22.95004,60.11864,40.5497],[22.93767,60.12434,0.0],[22.917,60.12507,0.0],[22.89161,60.11909,9.9645],[22.87973,60.11367,0.0],[22.8733,60.10985,0.0],[22.86402,60.10082,3.1357],[22.85662,60.09162,0.0],[22.84506,60.08576,3.413],[22.84547,60.08222,31.5844],[22.86158,60.08104,15.0017],[22.87037,60.08153,0.0],[22.89894,60.081,15.0943],[22.91505,60.0847,21.0457],[22.92791,60.08991,3.2146],[22.93328,60.08975,6.4181],[22.93198,60.08588,17.2028],[22.93686,60.08389,0.0],[22.94679,60.0847,12.48],[22.95729,60.08885,20.936],[22.96315,60.09687,27.3918]]],
[[[21.98764,60.11205,9.1111],[22.00733,60.11546,14.844],[22.01238,60.12275,12.5513],[21.99977,60.12849,0.0],[21.99155,60.12995,0.0],[21.97722,60.13076,0.0],[21.96209,60.13788,16.7158],[21.95053,60.13573,0.0],[21.93572,60.13129,13.3125],[21.92994,60.12458,17.7918],[21.9393,60.11628,0.0],[21.94386,60.11347,3.7053],[21.97136,60.1114,14.4957],[21.98764,60.11205,9.1111]]],
[[[21.077,60.13219,0.0],[21.08448,60.13585,8.0945],[21.08554,60.14256,3.1068],[21.08107,60.14777,0.0],[21.0726,60.1459,0.0],[21.06902,60.13959,0.0],[21.0739,60.13467,3.1328],[21.07032,60.13398,5.6323],[21.07114,60.13203,0.0],[21.077,60.13219,0.0]]],
[[[22.1312,60.14098,3.6703],[22.13413,60.14769,9.5077],[22.13347,60.15615,0.0],[22.12485,60.15953,0.0],[22.1115,60.15355,28.7374],[22.10613,60.14362,15.422],[22.11012,60.13902,23.4651],[22.12119,60.13886,24.2815],[22.1312,60.14098,3.6703]]],
[[[21.90699,60.15477,5.8904],[21.88364,60.15961,0.0],[21.87696,60.15892,2.0943],[21.86948,60.1542,9.35],[21.84262,60.15091,0.0],[21.83351,60.14252,0.0],[21.83269,60.13927,13.9675],[21.83994,60.13528,23.0932],[21.8864,60.13528,14.1803],[21.89804,60.14053,11.74],[21.89999,60.14521,0.0],[21.88754,60.14614,0.0],[21.88779,60.14822,2.5323],[21.89267,60.14993,11.813],[21.89747,60.1505,15.0961],[21.90162,60.14883,19.1791],[21.90724,60.14773,0.0],[21.91326,60.14981,28.4642],[21.90699,60.15477,5.8904]]],
[[[22.26401,60.13235,0.0],[22.27744,60.13935,11.8372],[22.28142,60.14558,13.3727],[22.28305,60.15929,12.0857],[22.28256,60.16185,0.0],[22.26645,60.15904,0.0],[22.25611,60.15611,14.0136],[22.25131,60.14936,0.0],[22.24887,60.14273,0.0],[22.24944,60.13833,3.4651],[22.2531,60.12991,0.0],[22.26401,60.13235,0.0]]],
[[[21.30706,60.15131,27.998],[21.31625,60.15945,10.7052],[21.31414,60.16629,20.0264],[21.30616,60.16905,9.0267],[21.30104,60.16808,0.0],[21.29746,60.16275,0.0],[21.29607,60.15648,0.0],[21.29396,60.15286,7.7735],[21.29664,60.14887,0.0],[21.30706,60.15131,27.998]]],
[[[21.63738,60.13882,19.4865],[21.64747,60.14509,0.0],[21.65431,60.15583,16.2321],[21.61451,60.16889,27.3705],[21.57106,60.17036,17.0006],[21.5298,60.15941,22.7998],[21.49659,60.13532,4.7219],[21.53305,60.13703,26.405],[21.549,60.13345,28.4379],[21.55812,60.12165,18.7745],[21.51857,60.12287,14.7075],[21.4992,60.12108,13.5178],[21.48227,60.11481,19.8598],[21.49317,60.11017,10.2823],[21.50392,60.10297,0.0],[21.51441,60.09736,0.0],[21.52426,60.09781,0.0],[21.53435,60.10139,0.0],[21.56178,60.10659,0.0],[21.57203,60.10737,0.0],[21.59913,60.10273,0.0],[21.61313,60.10212,17.4793],[21.62631,60.10737,16.6395],[21.6351,60.11616,23.2994],[21.63697,60.12368,27.9485],[21.63022,60.12849,14.7436],[21.61329,60.1291,22.3092],[21.63738,60.13882,19.4865]]],
[[[22.24806,60.1682,0.6249],[22.26189,60.17406,10.5256],[22.20973,60.1789,0.0],[22.2046,60.17813,0.0],[22.19711,60.17414,9.8539],[22.19565,60.1704,17.7268],[22.20102,60.16462,0.0],[22.20769,60.16336,5.6092],[22.24806,60.1682,0.6249]]],
[[[22.1395,60.18065,0.0],[22.14633,60.19302,19.2684],[22.13901,60.19554,0.0],[22.12908,60.19343,0.0],[22.12192,60.19029,12.7949],[22.11826,60.18647,0.0],[22.11883,60.18305,0.0],[22.11443,60.18045,0.0],[22.10133,60.17658,6.0829],[22.09221,60.17064,0.0],[22.09799,60.16861,14.1513],[22.1395,60.18065,0.0]]],
[[[21.88771,60.18374,0.0],[21.85353,60.19676,16.8273],[21.79957,60.1966,19.4987],[21.74366,60.19062,15.1599],[21.72348,60.18358,17.5027],[21.70818,60.17178,0.0],[21.70509,60.16071,0.0],[21.7225,60.15583,24.4595],[21.7225,60.1496,9.09],[21.7173,60.14838,13.9281],[21.70265,60.14216,2.9465],[21.70688,60.12958,0.0],[21.70444,60.1269,0.0],[21.69581,60.12165,4.2478],[21.72023,60.11371,0.0],[21.75213,60.11518,0.0],[21.78321,60.12324,0.0],[21.80567,60.13532,23.6182],[21.80104,60.13972,9.2174],[21.79656,60.14138,14.5979],[21.80714,60.14252,20.4629],[21.81715,60.14545,0.0],[21.82618,60.1496,4.6659],[21.79151,60.15583,20.7933],[21.86785,60.15583,19.8411],[21.85231,60.16718,2.1867],[21.84604,60.17011,8.9433],[21.85564,60.17414,5.2525],[21.86573,60.17642,11.2548],[21.87648,60.17695,15.3707],[21.88771,60.17634,7.2904],[21.88771,60.18374,0.0]]],
[[[21.66009,60.18549,7.8124],[21.66196,60.18639,2.5081],[21.6635,60.18879,14.9788],[21.66147,60.19241,8.2303],[21.65162,60.19815,12.4149],[21.63982,60.2014,0.0],[21.60141,60.20148,8.2448],[21.60344,60.19583,0.0],[21.61036,60.1916,5.7978],[21.62778,60.18533,0.0],[21.66009,60.18549,7.8124]]],
[[[22.32374,60.14688,0.0],[22.33692,60.1485,21.0626],[22.33326,60.15404,8.1303],[22.3191,60.1601,8.4806],[22.32,60.16405,0.0],[22.34425,60.16885,0.0],[22.36793,60.17739,17.8839],[22.38559,60.19526,0.0],[22.37501,60.20405,20.7046],[22.31316,60.19196,17.6667],[22.30454,60.18879,0.0],[22.29933,60.1822,19.4598],[22.29908,60.17593,9.5671],[22.29819,60.17255,0.0],[22.29371,60.17036,11.5188],[22.29078,60.16462,12.1111],[22.29225,60.15632,5.7177],[22.29217,60.15204,4.7469],[22.28834,60.14985,1.5349],[22.29868,60.14688,0.0],[22.32374,60.14688,0.0]]],
[[[21.39438,60.19086,17.4038],[21.36891,60.1966,1.0],[21.35328,60.21109,16.5251],[21.30641,60.2097,15.2645],[21.28517,60.20384,0.0],[21.27068,60.19062,5.3767],[21.28972,60.19086,0.0],[21.30079,60.18574,0.0],[21.31056,60.17939,0.0],[21.32569,60.17634,0.0],[21.35711,60.17447,0.0],[21.37224,60.17036,0.0],[21.38054,60.16267,0.0],[21.38738,60.16267,0.0],[21.39422,60.17866,0.0],[21.40935,60.18452,13.6077],[21.4489,60.18374,0.0],[21.4489,60.19062,0.0],[21.39438,60.19086,17.4038]]],
[[[22.00929,60.13727,15.9725],[22.03785,60.15583,0.6377],[22.0315,60.15851,0.1337],[22.01743,60.1673,37.6515],[22.01124,60.17011,10.0405],[22.07203,60.19676,25.0492],[22.05893,60.21109,42.0478],[22.04176,60.21141,0.0],[22.02654,60.20576,0.0],[21.99757,60.19062,9.9745],[21.95021,60.18138,0.0],[21.93539,60.17634,9.5236],[21.95069,60.14907,0.0],[21.97771,60.13548,0.0],[22.00929,60.13727,15.9725]]],
[[[22.36915,60.22171,0.0],[22.37045,60.22663,34.2366],[22.36394,60.22923,0.0],[22.33456,60.22842,0.2595],[22.30763,60.21422,15.9001],[22.31088,60.20763,8.946],[22.32504,60.20551,2.0926],[22.33668,60.20816,0.0],[22.34368,60.21174,13.0205],[22.34791,60.21528,0.0],[22.34978,60.21825,-0.0492],[22.35483,60.22045,0.0532],[22.3602,60.22036,3.1406],[22.36362,60.21947,31.9363],[22.36915,60.22171,0.0]]],
[[[22.08261,60.23745,0.0],[22.08863,60.24055,0.0],[22.08937,60.24356,14.3303],[22.08465,60.24885,21.1366],[22.07586,60.2521,0.0],[22.06625,60.253,0.0],[22.0455,60.24563,0.0],[22.04493,60.24246,8.9398],[22.05991,60.2298,0.0],[22.06642,60.22809,12.7784],[22.08261,60.23745,0.0]]],
[[[22.2693,60.19587,0.0],[22.29689,60.22126,17.6344],[22.29176,60.24518,43.5224],[22.27166,60.253,24.9595],[22.24586,60.24307,35.8066],[22.22242,60.22386,16.5509],[22.20924,60.20425,6.9091],[22.23227,60.18496,0.0],[22.2693,60.19587,0.0]]],
[[[21.78517,60.25279,0.0],[21.78557,60.25853,15.0247],[21.77556,60.26126,0.0],[21.76458,60.26057,0.0],[21.75465,60.25711,23.753],[21.75107,60.25174,0.0],[21.75131,60.24763,0.0],[21.7527,60.2449,0.0],[21.78517,60.25279,0.0]]],
[[[21.71315,60.25825,6.1933],[21.71656,60.26305,0.0],[21.69557,60.26199,0.0],[21.69101,60.2554,0.0],[21.70362,60.2543,0.0],[21.71315,60.25825,6.1933]]],
[[[21.59742,60.25703,0.0],[21.60678,60.26069,5.9135],[21.60467,60.26878,12.6171],[21.58692,60.26935,18.3308],[21.57106,60.25593,0.0],[21.56227,60.23994,0.0],[21.56349,60.22622,14.8903],[21.57789,60.22163,0.0],[21.58741,60.22256,0.0],[21.5923,60.22175,9.7896],[21.60174,60.22256,9.1941],[21.60646,60.22826,17.9094],[21.61012,60.23485,0.0],[21.62159,60.24311,7.8887],[21.62672,60.25259,21.9633],[21.6159,60.25519,0.0],[21.60043,60.25483,0.0],[21.59742,60.25703,0.0]]],
[[[21.42652,60.27049,1.8274],[21.4437,60.27501,0.0],[21.44687,60.2836,0.2591],[21.44435,60.28885,24.6686],[21.43051,60.29039,0.0],[21.41928,60.28885,0.0],[21.41603,60.28628,0.0],[21.38445,60.28347,0.0],[21.37941,60.28018,12.9731],[21.3803,60.27574,0.0],[21.38233,60.27123,0.0],[21.38583,60.26862,20.2364],[21.42652,60.27049,1.8274]]],
[[[22.83351,60.19306,10.495],[22.83985,60.20112,9.3128],[22.86687,60.20746,0.0],[22.87306,60.21552,0.0],[22.87745,60.22565,22.4065],[22.88453,60.2353,9.0647],[22.90642,60.24746,39.7789],[22.93043,60.25723,9.7273],[22.94947,60.27045,0.0],[22.95639,60.29295,49.5569],[22.92075,60.2967,25.7902],[22.89096,60.28555,0.0],[22.86573,60.26533,0.0],[22.84352,60.24177,0.0],[22.81495,60.227,20.0732],[22.62062,60.21109,29.9396],[22.60206,60.20637,32.5297],[22.56658,60.1933,23.9345],[22.46648,60.18374,24.2109],[22.45102,60.18854,22.4276],[22.4559,60.20002,22.3206],[22.47731,60.22468,45.8692],[22.44809,60.22138,0.0],[22.43393,60.19941,0.0],[22.42612,60.17133,38.0995],[22.41521,60.1496,0.0],[22.60027,60.14216,45.7862],[22.60027,60.13532,42.1033],[22.50082,60.13532,29.0],[22.48048,60.13231,43.4443],[22.44304,60.11872,0.0],[22.42213,60.11481,0.0],[22.43483,60.10513,0.0],[22.46176,60.09756,0.0],[22.47364,60.09097,0.0],[22.47633,60.08222,0.0],[22.4734,60.07123,7.7686],[22.47145,60.05899,0.5],[22.47731,60.04658,10.4497],[22.47169,60.03563,0.5],[22.46957,60.02367,23.8444],[22.4699,59.9975,0.0],[22.48634,60.00186,0.0],[22.52996,60.00825,0.0],[22.54623,60.02082,0.0],[22.58155,60.03864,30.5926],[22.59344,60.04658,32.6768],[22.58961,60.03278,7.3128],[22.58082,60.0246,16.4566],[22.57488,60.01704,0.0],[22.57911,60.00495,0.0],[22.59148,60.01093,0.0],[22.59897,60.00804,0.0],[22.6019,59.99848,0.0],[22.60027,59.98452,0.0],[22.60646,59.98452,0.0],[22.60532,59.99592,0.0],[22.60841,60.00015,0.0],[22.61394,60.00165,15.6464],[22.64625,60.02192,4.1741],[22.65496,60.03229,13.8372],[22.6692,60.0163,31.2532],[22.68214,59.9975,13.5843],[22.69483,60.00511,0.0],[22.70541,60.0069,13.0892],[22.72983,60.00495,24.9731],[22.73512,60.00861,11.0448],[22.74822,60.02619,0.0],[22.75799,60.03229,7.9986],[22.74578,60.03848,4.3585],[22.73976,60.04011,21.1011],[22.73048,60.03974,24.4145],[22.73048,60.04658,20.562],[22.81316,60.0821,0.0],[22.84685,60.11103,24.644],[22.83302,60.14216,33.8135],[22.8357,60.14594,47.4946],[22.84034,60.15583,18.6089],[22.82504,60.16144,19.287],[22.81935,60.16267,5.2509],[22.82455,60.16462,14.6981],[22.82887,60.16714,49.7827],[22.83351,60.16926,53.5687],[22.84034,60.17011,41.2592],[22.83399,60.18207,3.8036],[22.83351,60.19306,10.495]]],
[[[21.98316,60.28498,40.4452],[21.99578,60.2873,46.6064],[22.00603,60.29214,31.7945],[22.00831,60.29731,24.7021],[21.99635,60.29613,45.6206],[21.97901,60.28925,0.0],[21.97291,60.28535,15.454],[21.97682,60.28457,25.7578],[21.98316,60.28498,40.4452]]],
[[[21.67172,60.28339,0.0],[21.67368,60.28852,18.0956],[21.66033,60.29593,0.0],[21.64487,60.29853,21.4304],[21.63933,60.29654,0.0],[21.63014,60.28714,15.1629],[21.63266,60.28486,0.0],[21.64357,60.28229,-0.09],[21.67172,60.28339,0.0]]],
[[[21.85108,60.28531,0.0],[21.85637,60.2884,9.7559],[21.8545,60.29243,28.6656],[21.83489,60.29413,16.6329],[21.81983,60.29881,0.0],[21.81479,60.29763,5.1902],[21.83823,60.2836,0.0],[21.84425,60.28339,2.615],[21.85108,60.28531,0.0]]],
[[[21.72608,60.29121,15.876],[21.73308,60.2956,0.0],[21.72812,60.29662,0.0],[21.72096,60.30292,0.0],[21.7116,60.30333,0.0],[21.70427,60.29942,0.0],[21.70232,60.29694,0.0],[21.7055,60.29413,0.0],[21.71477,60.29039,0.0],[21.72608,60.29121,15.876]]],
[[[21.56398,60.28722,10.8914],[21.56894,60.28848,0.0],[21.57464,60.28852,7.0426],[21.57968,60.2899,12.5995],[21.58107,60.29405,0.0],[21.57089,60.30142,23.7701],[21.55511,60.3037,21.1983],[21.54632,60.29959,0.0],[21.53191,60.29841,20.6941],[21.52955,60.29597,0.0],[21.5219,60.29295,6.3992],[21.52101,60.2895,9.3535],[21.52703,60.28665,8.9791],[21.55934,60.28417,0.0],[21.56398,60.28722,10.8914]]],
[[[21.95981,60.31216,10.3551],[21.92547,60.31265,13.7098],[21.90854,60.30939,32.0396],[21.89519,60.31061,0.0],[21.87973,60.31053,0.0],[21.87534,60.30488,0.0],[21.88494,60.2895,17.2371],[21.89601,60.2897,0.0],[21.90968,60.2801,0.0],[21.92595,60.27729,16.7327],[21.94459,60.27709,26.7403],[21.95688,60.2814,0.0],[21.97535,60.30256,25.6186],[21.97381,60.30931,24.5731],[21.95981,60.31216,10.3551]]],
[[[22.33961,60.2862,0.0],[22.3213,60.29706,48.7564],[22.24977,60.31147,38.2615],[22.13201,60.31566,7.8198],[22.10678,60.31346,0.0],[22.08383,60.30146,0.0],[22.07667,60.28351,0.0],[22.08009,60.26948,0.0],[22.08937,60.26911,0.0],[22.10963,60.27131,0.0],[22.13689,60.2624,0.0],[22.16334,60.25922,21.8257],[22.1819,60.27871,45.954],[22.14088,60.27871,10.786],[22.15699,60.28172,31.7028],[22.18116,60.28132,15.1126],[22.20395,60.27631,0.0],[22.21664,60.26569,12.779],[22.20086,60.25434,31.5424],[22.21551,60.25312,0.565],[22.261,60.25886,26.671],[22.26539,60.26008,45.0989],[22.2776,60.2663,0.0],[22.2815,60.26911,0.5254],[22.28981,60.27314,0.0],[22.2977,60.27074,11.0929],[22.30519,60.26675,0.0],[22.31284,60.26569,10.1606],[22.3318,60.26944,12.6128],[22.33717,60.27448,0.0],[22.33961,60.2862,0.0]]],
[[[22.42897,60.33393,13.4102],[22.40162,60.34138,28.7392],[22.40065,60.34398,31.1876],[22.4017,60.34862,4.6317],[22.40187,60.35309,4.4035],[22.3982,60.35505,11.4527],[22.37371,60.35342,44.7338],[22.35027,60.34785,31.8289],[22.32936,60.33735,19.8189],[22.31284,60.32095,0.0],[22.3506,60.31367,31.4709],[22.36988,60.31452,0.1722],[22.38795,60.32095,26.848],[22.37989,60.3061,21.5446],[22.37452,60.29922,26.4578],[22.36744,60.29295,7.6952],[22.39479,60.29316,10.7264],[22.4253,60.29906,59.8156],[22.45444,60.30891,8.8925],[22.47731,60.32095,3.2309],[22.469,60.33153,26.0116],[22.45753,60.33413,29.605],[22.44386,60.33324,45.8234],[22.42897,60.33393,13.4102]]],
[[[21.15691,60.34418,0.5438],[21.15634,60.34951,11.0675],[21.15813,60.35135,0.0],[21.16424,60.35322,15.3528],[21.16513,60.35834,0.0],[21.15927,60.35973,0.0],[21.14991,60.35635,0.0],[21.14088,60.34858,10.173],[21.14365,60.3404,0.0],[21.15325,60.34007,10.9332],[21.15691,60.34418,0.5438]]],
[[[21.71217,60.34707,13.5975],[21.70436,60.35065,0.0],[21.69532,60.35265,0.0],[21.68051,60.36119,9.5859],[21.65699,60.36477,0.0],[21.64593,60.36302,0.0],[21.64283,60.35814,0.0],[21.6513,60.35191,0.0],[21.65537,60.34658,9.7267],[21.66179,60.34329,13.4576],[21.67595,60.34536,14.1852],[21.70232,60.33938,0.0],[21.71087,60.34138,25.768],[21.71217,60.34707,13.5975]]],
[[[22.20216,60.34321,5.5294],[22.28956,60.35798,25.0878],[22.29965,60.36758,29.7231],[22.28492,60.37499,13.2325],[22.25571,60.37417,28.4751],[22.16424,60.36164,33.9326],[22.15707,60.3583,36.4228],[22.15724,60.35187,0.0],[22.17018,60.34418,14.4277],[22.19109,60.34174,7.0882],[22.20216,60.34321,5.5294]]],
[[[21.7881,60.3747,0.0],[21.78517,60.37853,10.6095],[21.77589,60.37828,0.0],[21.75579,60.37283,0.0],[21.7492,60.37385,0.0],[21.74277,60.37828,5.9407],[21.7339,60.37771,14.6528],[21.72861,60.37132,6.9822],[21.73211,60.3677,0.0],[21.75034,60.36628,11.5636],[21.78289,60.37136,4.5767],[21.7881,60.3747,0.0]]],
[[[22.20753,60.37556,11.6207],[22.20623,60.38255,0.0],[22.14682,60.38044,11.4562],[22.13787,60.3791,10.4249],[22.12208,60.37165,13.6681],[22.10426,60.35415,10.7869],[22.11248,60.35293,14.6442],[22.20753,60.37556,11.6207]]],
[[[21.67205,60.3793,0.0],[21.66326,60.38203,7.5679],[21.65203,60.3826,5.0937],[21.64275,60.3771,0.0],[21.65455,60.37311,0.0],[21.66749,60.37018,0.0],[21.69174,60.36205,0.0],[21.69866,60.36473,0.0],[21.69614,60.36872,13.1418],[21.68678,60.37206,0.0],[21.6749,60.37206,0.0],[21.67205,60.3793,0.0]]],
[[[21.47625,60.35981,6.6214],[21.47942,60.36396,3.8327],[21.48968,60.37104,9.4362],[21.48919,60.37364,3.863],[21.48658,60.37547,18.1886],[21.48943,60.38345,16.442],[21.48585,60.38736,0.0],[21.48015,60.38943,6.2016],[21.46762,60.38679,0.0],[21.46713,60.38345,10.692],[21.47348,60.37584,0.0],[21.47438,60.37132,0.0],[21.4725,60.36868,0.0],[21.46811,60.36473,0.0],[21.4673,60.35977,0.0],[21.47161,60.35794,0.0],[21.47625,60.35981,6.6214]]],
[[[21.35231,60.37043,0.0],[21.33806,60.38337,16.4582],[21.31983,60.39151,0.0],[21.30779,60.38959,9.019],[21.30299,60.38369,0.0],[21.29615,60.37759,4.5399],[21.29444,60.37051,0.0],[21.30388,60.36424,0.0],[21.32374,60.36669,3.5674],[21.33107,60.36518,8.9686],[21.33399,60.36298,0.0],[21.33367,60.35602,0.0],[21.33839,60.35309,18.0337],[21.34571,60.35383,2.128],[21.35279,60.35163,6.4512],[21.35532,60.35179,7.2534],[21.35711,60.35814,19.2596],[21.35231,60.37043,0.0]]],
[[[21.40512,60.37385,0.0],[21.40561,60.39224,17.1383],[21.39991,60.39737,1.014],[21.37525,60.40465,5.313],[21.36524,60.40502,0.0],[21.35792,60.39973,30.1599],[21.3558,60.39354,0.0],[21.36573,60.38198,0.0],[21.4017,60.36795,0.0],[21.40512,60.37385,0.0]]],
[[[21.42815,60.42198,8.7406],[21.42148,60.4278,0.0],[21.41586,60.4252,0.0],[21.40244,60.41515,1.5852],[21.40162,60.41275,6.2268],[21.40585,60.41153,9.5467],[21.4109,60.41328,15.785],[21.41228,60.41246,0.0],[21.4109,60.4064,0.0],[21.41318,60.40127,0.0],[21.42107,60.39883,0.0],[21.42954,60.39977,0.0288],[21.43645,60.40412,21.5528],[21.43572,60.41144,31.0625],[21.42815,60.42198,8.7406]]],
[[[21.22608,60.40583,16.411],[21.22055,60.41547,0.0],[21.21949,60.423,19.4546],[21.21949,60.42756,0.0],[21.21567,60.42967,10.5264],[21.21062,60.42772,6.3061],[21.20761,60.42292,0.5216],[21.20655,60.41828,0.0],[21.20834,60.41515,0.0],[21.20761,60.41376,1.5393],[21.1998,60.41372,0.0],[21.19793,60.40969,2.0905],[21.19947,60.40245,0.0],[21.20411,60.39684,0.0],[21.20761,60.39798,12.1516],[21.2107,60.40111,0.0],[21.21225,60.40339,0.0],[21.21567,60.40335,0.0],[21.22039,60.40103,0.5681],[21.22657,60.40017,15.5855],[21.22608,60.40583,16.411]]],
[[[21.71111,60.41767,10.6088],[21.71673,60.42569,4.9739],[21.7129,60.42756,6.6834],[21.70965,60.43838,15.1303],[21.70135,60.44558,21.3573],[21.68759,60.44961,1.3703],[21.67823,60.44819,0.0],[21.67677,60.44396,0.0],[21.6819,60.43871,6.1525],[21.69443,60.437,0.0],[21.69378,60.43419,3.6965],[21.6906,60.4289,0.0],[21.68946,60.42227,0.0],[21.69142,60.4171,0.0],[21.70069,60.41201,8.2536],[21.71111,60.41767,10.6088]]],
[[[21.64039,60.44916,1.3066],[21.63201,60.45425,17.15],[21.62192,60.45185,2.6541],[21.61508,60.44664,0.0],[21.61345,60.44335,0.0],[21.61606,60.44033,0.0],[21.61533,60.4394,0.0],[21.61101,60.44082,19.5733],[21.60597,60.43964,0.0],[21.60255,60.43586,0.0],[21.60141,60.43061,0.0],[21.60344,60.42223,0.0],[21.60328,60.41987,1.8402],[21.60524,60.41621,0.0],[21.60206,60.41462,17.7921],[21.59921,60.40982,4.0976],[21.60694,60.40721,16.0343],[21.61533,60.40965,3.5413],[21.61915,60.41214,0.0],[21.62338,60.41641,17.1638],[21.62582,60.42129,8.0169],[21.62599,60.42609,0.0],[21.62973,60.42715,0.0],[21.63632,60.42585,0.0],[21.6408,60.42703,12.7505],[21.6434,60.43529,1.2809],[21.64039,60.44916,1.3066]]],
[[[21.95037,60.40217,25.404],[21.93198,60.42333,4.8704],[21.92302,60.42398,22.1782],[21.91285,60.42646,6.095],[21.90463,60.43163,20.3681],[21.90138,60.44038,5.6385],[21.89234,60.4492,12.1344],[21.8484,60.46381,9.4506],[21.83237,60.47114,19.7311],[21.81788,60.47199,1.1638],[21.80812,60.4667,27.3506],[21.80193,60.45677,0.0],[21.79835,60.44379,7.9839],[21.84604,60.41649,0.0],[21.84604,60.40965,16.5655],[21.82887,60.40961,2.7681],[21.80885,60.40522,0.0],[21.79225,60.39696,0.0],[21.78533,60.38544,0.0],[21.79412,60.37397,0.0],[21.81446,60.36424,0.0],[21.83741,60.35757,5.195],[21.86842,60.35395,17.4592],[21.87924,60.3509,9.7533],[21.90138,60.34138,21.8422],[21.9017,60.33902,0.0],[21.90073,60.32954,16.3365],[21.90138,60.32709,16.2835],[21.90789,60.32673,18.0308],[21.91383,60.32941,21.0137],[21.91871,60.33267,0.0],[21.92172,60.33393,19.6471],[21.94109,60.32958,0.0],[21.96062,60.32754,8.1608],[21.97967,60.3286,6.6239],[21.99757,60.33393,4.0891],[21.99757,60.34138,0.0],[21.98797,60.34125,20.4835],[21.9795,60.3426,10.557],[21.96339,60.3476,27.9907],[21.97332,60.34785,13.5787],[21.99757,60.35505,24.8645],[21.98862,60.36591,21.2201],[21.97486,60.36945,2.2691],[21.94223,60.36811,26.1323],[21.95037,60.37556,35.4185],[21.93678,60.38264,4.9207],[21.90797,60.39045,24.0786],[21.89454,60.39598,41.6616],[21.90699,60.40176,0.0],[21.92107,60.40119,29.6179],[21.95037,60.39598,2.3269],[21.95037,60.40217,25.404]]],
[[[21.66993,60.46267,5.2884],[21.67368,60.46955,5.643],[21.66782,60.47496,2.7049],[21.66074,60.47748,15.3052],[21.64796,60.47761,16.6081],[21.64454,60.47659,0.0],[21.64552,60.4737,0.0],[21.64422,60.47085,0.0],[21.63982,60.46719,0.0],[21.6434,60.46206,0.0],[21.65618,60.46019,8.6709],[21.66993,60.46267,5.2884]]],
[[[21.56935,60.50568,0.0],[21.57325,60.51097,8.1477],[21.57211,60.51553,5.9764],[21.56544,60.52139,4.48],[21.55502,60.52534,23.2502],[21.55006,60.52281,0.0],[21.55079,60.51691,0.0],[21.55429,60.51126,3.1443],[21.55567,60.50658,0.0],[21.55055,60.50524,12.3161],[21.54485,60.50707,6.5462],[21.53492,60.51443,14.401],[21.52394,60.51317,0.0],[21.51531,60.50076,0.0],[21.51425,60.496,0.0],[21.53069,60.49319,0.0],[21.5372,60.48981,0.0],[21.5468,60.48412,0.0],[21.55323,60.48554,28.7691],[21.55323,60.49083,0.0],[21.55535,60.49413,0.0],[21.56935,60.50568,0.0]]],
[[[21.70069,60.4597,0.0],[21.7151,60.47089,21.4351],[21.72592,60.48168,14.6998],[21.75082,60.50165,0.1918],[21.76051,60.51203,27.8269],[21.76417,60.52578,24.7024],[21.74187,60.52643,27.7119],[21.7142,60.50861,1.3901],[21.69093,60.48408,0.0],[21.68165,60.46491,0.0],[21.688,60.45531,15.9386],[21.70069,60.4597,0.0]]],
[[[21.32488,60.48208,0.0],[21.30763,60.50959,5.7337],[21.30494,60.51895,23.3992],[21.27849,60.5423,14.8799],[21.25025,60.55988,9.9283],[21.22918,60.55988,0.0],[21.23845,60.54194,24.1788],[21.25294,60.5314,3.5116],[21.26059,60.51972,19.1367],[21.25025,60.49844,12.7092],[21.26596,60.49006,0.0],[21.30014,60.48774,0.0],[21.3191,60.48168,1.0289],[21.32488,60.48208,0.0]]],
[[[21.46192,60.53937,29.5006],[21.41098,60.54291,17.0782],[21.39422,60.55988,21.8541],[21.35255,60.56184,3.4478],[21.33383,60.55736,9.5828],[21.32594,60.54316,0.0],[21.32862,60.52534,0.0],[21.33611,60.51944,0.0],[21.34693,60.52289,0.0],[21.36012,60.53319,9.7555],[21.37127,60.50837,17.7437],[21.39226,60.48998,0.0],[21.41765,60.47769,0.0],[21.44264,60.47114,0.0],[21.43067,60.48115,0.0],[21.4336,60.48908,12.6093],[21.44646,60.49335,9.7393],[21.46315,60.49225,-1.0],[21.45753,60.49852,7.9793],[21.45631,60.50678,7.1834],[21.45851,60.5161,22.6073],[21.46315,60.52578,19.0691],[21.47071,60.52375,6.4931],[21.47478,60.52407,17.7192],[21.47779,60.52521,7.1964],[21.48227,60.52578,5.9416],[21.46192,60.53937,29.5006]]],
[[[21.29868,60.56733,14.0143],[21.29868,60.57416,16.9875],[21.2815,60.57563,0.0],[21.27833,60.58613,0.0],[21.28338,60.6009,19.8564],[21.29119,60.61514,3.0],[21.28126,60.62031,6.8195],[21.27491,60.62678,13.5476],[21.27149,60.63447,0.0],[21.27068,60.64305,6.6254],[21.25929,60.64753,12.2425],[21.25327,60.6435,16.6792],[21.2492,60.63569,12.7302],[21.24342,60.62873,16.1875],[21.21909,60.62263,0.0],[21.21388,60.61636,0.0],[21.22291,60.60147,3.0908],[21.23316,60.5939,0.0],[21.2444,60.59081,0.0],[21.26441,60.58784,0.0],[21.26979,60.58169,0.0],[21.27329,60.57282,0.0],[21.28102,60.56635,6.8248],[21.29868,60.56733,14.0143]]],
[[[21.31967,60.70987,4.1591],[21.31772,60.71568,14.5127],[21.30323,60.71979,3.9666],[21.29217,60.71878,0.0],[21.28745,60.71568,0.0],[21.28411,60.71231,0.0],[21.28745,60.70958,0.0],[21.29721,60.70755,0.0],[21.31967,60.70987,4.1591]]],
[[[21.01645,60.71654,6.4119],[21.02076,60.72061,5.1287],[21.0219,60.72517,0.6357],[21.02882,60.73212,6.4464],[21.02695,60.73574,0.0],[21.01629,60.73269,0.0],[21.00579,60.72679,0.0],[21.00497,60.72045,0.2195],[21.00945,60.71573,0.0],[21.01645,60.71654,6.4119]]],
[[[21.27866,60.75991,9.0801],[21.27589,60.76472,13.9016],[21.26393,60.7683,0.0],[21.2562,60.76744,0.0],[21.25099,60.76512,0.0],[21.25148,60.76065,12.0616],[21.25522,60.75735,5.0554],[21.27866,60.75991,9.0801]]],
[[[21.36728,60.74645,0.0],[21.37338,60.75344,9.4554],[21.36752,60.75853,0.0],[21.36134,60.76187,0.0],[21.358,60.76524,0.0],[21.34799,60.76899,0.0],[21.33473,60.76748,15.9751],[21.32781,60.76362,16.1887],[21.33033,60.75853,0.0],[21.3379,60.75475,0.0],[21.34449,60.74897,9.4402],[21.35353,60.74413,0.0],[21.36728,60.74645,0.0]]],
[[[21.29566,60.76313,12.3937],[21.29656,60.76484,12.1408],[21.29868,60.76533,7.2047],[21.30055,60.76891,7.2102],[21.29851,60.77326,6.2116],[21.27996,60.77574,0.0],[21.27304,60.77497,0.0],[21.27182,60.77106,7.6306],[21.27654,60.76687,4.549],[21.28956,60.76199,13.7333],[21.29566,60.76313,12.3937]]],
[[[21.16717,60.78901,7.7789],[21.15016,60.80089,6.5443],[21.14869,60.80414,12.9392],[21.14365,60.80842,0.0],[21.14088,60.80785,0.0],[21.13803,60.80451,0.0],[21.13486,60.80239,0.0],[21.12973,60.80126,0.0],[21.1312,60.79568,0.0],[21.13819,60.78665,0.0],[21.16765,60.78115,3.9805],[21.17563,60.78124,0.0],[21.17685,60.78478,17.5605],[21.17425,60.78885,11.8241],[21.1705,60.78844,5.4243],[21.16717,60.78901,7.7789]]],
[[[21.27508,60.80589,3.4952],[21.28175,60.80886,4.3724],[21.2837,60.81122,14.804],[21.27597,60.81656,7.3079],[21.2697,60.81904,14.7383],[21.247,60.81338,0.0],[21.24252,60.81053,0.0],[21.2448,60.80667,7.6939],[21.2527,60.80394,0.0],[21.26425,60.80313,3.6655],[21.27508,60.80589,3.4952]]],
[[[21.33033,60.81981,19.9066],[21.32317,60.82477,-1.5],[21.30755,60.8218,-1.5],[21.30649,60.81904,1.8678],[21.31902,60.81302,0.0],[21.32854,60.81245,0.0],[21.33033,60.81981,19.9066]]],
[[[21.31471,60.83165,17.2896],[21.30893,60.83662,15.3429],[21.30112,60.83824,13.7297],[21.29754,60.83348,-1.5],[21.29575,60.82941,-1.5],[21.29135,60.82909,-1.5],[21.285,60.83133,9.4242],[21.28256,60.82909,15.1662],[21.28842,60.82335,4.1195],[21.29347,60.82144,13.0157],[21.29339,60.82359,6.1392],[21.29485,60.82392,-0.5],[21.30616,60.82282,-1.5],[21.31064,60.82457,9.8889],[21.31414,60.82823,12.1824],[21.31471,60.83165,17.2896]]],
[[[21.03647,60.8356,2.786],[21.03598,60.83849,0.0707],[21.02361,60.84638,0.0],[21.0114,60.84886,0.0],[21.004,60.84699,0.4999],[21.00961,60.84247,0.0],[21.03207,60.83426,0.0],[21.03647,60.8356,2.786]]],
[[[21.22462,60.85029,6.1941],[21.22153,60.85895,12.6364],[21.20655,60.86319,10.7087],[21.18946,60.86054,7.7063],[21.18629,60.85651,0.0],[21.19549,60.85224,3.9706],[21.20118,60.84829,0.0],[21.2024,60.84492,2.7714],[21.20533,60.84325,11.2207],[21.20981,60.84528,14.552],[21.25017,60.83295,1.0],[21.26319,60.83027,5.9989],[21.26759,60.8378,3.0],[21.26734,60.85106,-1.5],[21.25953,60.85309,5.7482],[21.25196,60.84711,5.8401],[21.24586,60.84601,5.5687],[21.24204,60.84821,1.392],[21.23536,60.84862,14.4316],[21.22657,60.84711,-1.5],[21.22462,60.85029,6.1941]]],
[[[21.32594,60.88947,-1.5],[21.32789,60.91014,15.9407],[21.33855,60.91669,17.2131],[21.35475,60.91987,5.0419],[21.37428,60.93041,0.0],[21.33709,60.94672,14.5],[21.32195,60.95624,25.0154],[21.30494,60.97138,7.9018],[21.285,60.97199,12.4612],[21.27003,60.96796,0.0],[21.24342,60.95087,0.0],[21.26482,60.94961,0.0],[21.28321,60.94282,0.0],[21.31227,60.923,13.5047],[21.30641,60.91934,15.9568],[21.29737,60.9123,0.0],[21.29119,60.90998,13.8006],[21.29282,60.90615,7.4355],[21.29379,60.90298,11.9648],[21.29526,60.89964,-1.5],[21.29868,60.8957,-1.5],[21.27662,60.88911,8.4841],[21.22779,60.89973,7.9174],[21.2024,60.88947,13.0488],[21.21656,60.8841,11.5452],[21.2317,60.88203,11.0303],[21.26441,60.88203,-1.5],[21.27524,60.88329,-1.5],[21.29737,60.87914,4.798],[21.31813,60.88019,-1.5],[21.32594,60.88947,-1.5]]],
[[[21.19036,60.98937,0.0],[21.1893,60.99461,0.0],[21.18572,60.99746,0.0],[21.17986,60.99559,0.0],[21.17449,60.99453,0.0],[21.17368,60.98892,6.1681],[21.17595,60.9881,4.3499],[21.19036,60.98937,0.0]]],
[[[21.3366,60.99995,0.0],[21.33147,61.00174,0.0],[21.33229,60.99657,0.0],[21.3366,60.99995,0.0]]],
[[[23.00741,61.02932,88.0902],[22.99542,61.03204,81.0557],[22.96979,61.04552,78.4938],[22.92194,61.05472,73.2384],[22.840699999999998,61.0911,82.8545],[22.82603,61.09002,105.4301],[22.82561,61.07787,72.3016],[22.83523,61.0724,81.5733],[22.8376,61.05984,70.4234],[22.82768,61.0463,74.063],[22.81972,61.04025,81.8107],[22.82768,61.0125,93.4454],[22.80112,60.99656,65.579],[22.7574,60.98698,93.8877],[22.72299,60.98331,96.1707],[22.57023,60.98605,101.5029],[22.54832,60.98176,96.3876],[22.53457,60.96997,86.416],[22.56558,60.95122,78.656],[22.57312,60.94801,90.5077],[22.56186,60.94362,87.9409],[22.24622,60.92458,69.7467],[22.2147,60.91478,60.7437],[22.17346,60.88907,61.875],[22.15113,60.88569,58.929],[22.00561,60.89866,43.2616],[21.98918,60.90863,56.4902],[21.98866,60.91618,61.8515],[21.97791,60.92801,59.4005],[21.95135,60.94253,40.4179],[21.94536,60.9507,41.7093],[21.94763,60.95452,41.3719],[21.94939,60.96052,40.387],[21.95042,60.96767,57.4479],[21.95187,60.97315,49.3723],[21.92955,60.98008,48.4707],[21.90588,60.98462,54.2271],[21.8448,61.00971,48.0256],[21.80997,61.01829,41.4954],[21.82196,61.03038,38.0268],[21.82444,61.03248,36.4528],[21.81431,61.03581,43.1488],[21.80149,61.03669,41.9088],[21.77896,61.03534,35.8092],[21.76645,61.02795,34.6121],[21.76635,61.01984,32.5787],[21.7555,61.00602,34.4339],[21.73989,61.00183,39.1439],[21.70641,60.99876,33.8528],[21.67468,61.00175,12.4822],[21.64967,61.00951,30.105],[21.6446,61.01713,29.0296],[21.64129,61.0293,22.8902],[21.63571,61.04067,29.3923],[21.62372,61.04578,35.5956],[21.60822,61.04273,15.2312],[21.60026,61.03441,14.7687],[21.59882,61.02284,33.0388],[21.60047,61.01628,34.7705],[21.57422,61.00783,24.0304],[21.4934,61.00369,24.4868],[21.45061,61.01462,25.4782],[21.4195,61.04702,7.857],[21.40813,61.04815,6.8568],[21.40886,61.04328,21.9387],[21.38738,61.04027,22.829],[21.36427,61.04475,16.1871],[21.32032,61.06021,15.5383],[21.29868,61.06013,0.0],[21.30209,61.04605,0.0],[21.31153,61.03754,0.0],[21.33904,61.0266,2.7885],[21.33286,61.02391,0.0],[21.31853,61.01236,0.0],[21.3357,61.00458,0.0],[21.38054,60.95771,0.0],[21.38551,60.95026,26.1711],[21.38787,60.94367,18.9882],[21.39259,60.93903,-0.6223],[21.40447,60.93724,0.0],[21.41277,60.9335,0.0],[21.41782,60.9243,7.6891],[21.42221,60.91291,6.6772],[21.4284,60.90253,13.9281],[21.41619,60.90323,8.0359],[21.4074,60.90827,13.8298],[21.39967,60.91405,11.5909],[21.3908,60.91682,9.5982],[21.38168,60.91462,1.891],[21.36378,60.90485,11.3112],[21.35328,60.90253,15.2887],[21.37371,60.88459,-1.5],[21.38087,60.88203,20.6514],[21.40594,60.88203,17.3389],[21.41733,60.88032,20.6733],[21.4284,60.8758,13.3081],[21.40789,60.86457,7.5369],[21.38233,60.86319,12.443],[21.33253,60.86835,7.3924],[21.31853,60.86469,-1.5],[21.33644,60.84471,11.3884],[21.32594,60.83487,-1.5],[21.32887,60.82754,19.0673],[21.33326,60.82184,18.8783],[21.33904,60.81712,10.1965],[21.34645,60.81314,0.0],[21.36085,60.81623,4.9428],[21.37428,60.8076,0.0],[21.38087,60.7934,0.0],[21.37428,60.77961,0.0],[21.38771,60.77924,7.5864],[21.40024,60.77456,4.4026],[21.42213,60.7591,0.0],[21.41163,60.75967,0.0],[21.40333,60.75825,0.0],[21.38738,60.75235,0.0],[21.4065,60.74348,15.6492],[21.42709,60.73652,0.0],[21.4485,60.73225,5.6374],[21.46998,60.73115,14.5459],[21.46998,60.725,16.0229],[21.42213,60.725,12.6399],[21.43116,60.71296,10.2402],[21.44093,60.70303,14.0046],[21.44565,60.69286,25.989],[21.43898,60.68032,14.307],[21.42595,60.67963,19.5308],[21.35328,60.69017,11.7054],[21.35621,60.68439,8.1956],[21.3558,60.68293,3.9515],[21.35401,60.68171,9.8349],[21.35328,60.67658,8.1867],[21.36305,60.66279,0.0],[21.37965,60.64704,0.0],[21.39991,60.6341,10.1261],[21.42156,60.62873,5.6286],[21.46998,60.6083,13.609],[21.46266,60.60175,17.4257],[21.44516,60.6022,27.4458],[21.41481,60.6083,0.0],[21.4284,60.59406,0.0],[21.41944,60.58991,13.5348],[21.41505,60.58845,11.1219],[21.40854,60.58784,0.0],[21.40854,60.58039,16.3206],[21.41847,60.57844,5.4404],[21.43434,60.56989,9.8038],[21.44264,60.56733,13.7584],[21.4546,60.56769,0.0],[21.48609,60.57416,0.0],[21.55502,60.57217,5.6218],[21.57862,60.56733,1.2029],[21.57862,60.55988,26.1384],[21.53346,60.56806,0.0],[21.51775,60.56733,10.0889],[21.56967,60.52643,5.3742],[21.58375,60.50503,22.7486],[21.55812,60.49225,0.0],[21.57984,60.48786,17.2243],[21.61207,60.48884,0.0],[21.64145,60.49575,0.0],[21.65431,60.50898,0.0],[21.65447,60.51984,20.9445],[21.65561,60.52595,16.984],[21.6587,60.53034,23.8024],[21.66481,60.53632,19.2506],[21.66896,60.54523,19.5612],[21.66017,60.55907,7.76],[21.66179,60.56733,23.4448],[21.67897,60.57648,8.2582],[21.73178,60.58173,0.0],[21.75424,60.59097,0.0],[21.77394,60.60395,0.7569],[21.84051,60.62873,0.7565],[21.8309,60.61713,0.0],[21.82846,60.60639,1.132],[21.83326,60.5965,0.0],[21.84604,60.58784,12.9129],[21.81959,60.58503,0.0],[21.80787,60.57559,0.0],[21.80535,60.56196,0.0],[21.80567,60.54682,0.0],[21.80299,60.52513,0.0],[21.78956,60.4951,4.9117],[21.78533,60.47797,0.0],[21.806,60.48599,0.0],[21.82862,60.48542,11.152],[21.87403,60.47797,2.7076],[21.84848,60.50373,8.6733],[21.84392,60.51553,34.2822],[21.85353,60.52578,31.263],[21.87403,60.52953,0.0],[21.90317,60.52888,0.0],[21.93165,60.52497,0.0],[21.95037,60.51895,10.6367],[21.94565,60.51203,0.0],[21.93971,60.49921,0.0],[21.93539,60.49225,0.0],[21.9839,60.49225,0.0],[21.97918,60.48078,0.0],[21.98194,60.47675,0.0],[21.98902,60.47517,0.0],[21.99757,60.47114,0.0],[22.00172,60.47012,0.0],[22.01344,60.47175,9.0034],[22.01808,60.47114,6.9398],[22.01857,60.4687,5.8145],[22.01743,60.45991,11.5435],[22.01808,60.45746,28.5342],[22.04705,60.43879,27.2041],[22.06446,60.43635,7.6089],[22.08269,60.44721,0.0],[22.10108,60.46214,34.9871],[22.10816,60.45685,13.1596],[22.11101,60.44408,0.0],[22.11671,60.43696,0.0],[22.16114,60.43464,32.1703],[22.18149,60.43049,2.8063],[22.24952,60.40461,6.8502],[22.28012,60.38646,0.0],[22.29151,60.38264,0.0],[22.32618,60.38239,38.9855],[22.48357,60.40217,0.0],[22.46306,60.37556,0.0],[22.54347,60.37254,0.0],[22.58082,60.37592,0.0],[22.62428,60.39907,21.2734],[22.63136,60.38955,25.0393],[22.62761,60.37539,56.4893],[22.59636,60.36367,0.0],[22.54566,60.33393,0.0],[22.54029,60.319,37.0548],[22.5088,60.30109,27.1458],[22.48748,60.28498,25.3181],[22.46941,60.27692,0.0],[22.46306,60.27253,0.0],[22.45916,60.26496,17.2507],[22.45924,60.25873,0.0],[22.45777,60.25239,0.0],[22.44947,60.24518,0.0],[22.50359,60.24706,0.0],[22.52735,60.25214,0.0],[22.57455,60.27082,39.8689],[22.5984,60.27578,13.0561],[22.64812,60.27871,21.653199999999998],[22.60108,60.26822,3.4209],[22.59034,60.26227,25.4048],[22.57203,60.24266,2.8449],[22.5735,60.23493,57.7086],[22.59344,60.23216,30.4686],[22.53981,60.21357,2.5589],[22.52508,60.20425,14.2454],[22.5534,60.20502,8.9617],[22.61118,60.21996,29.3067],[22.73618,60.23819,0.0],[22.87713,60.30109,0.0],[22.94117,60.31647,0.0],[22.99806,60.30663,0.0],[23.01059,60.32396,11.9453],[23.03419,60.34394,0.0],[23.06031,60.35733,0.0],[23.08058,60.35505,10.5368],[23.08286,60.34589,76.3697],[23.07252,60.33869,31.2799],[23.04591,60.32709,16.7089],[23.0381,60.31916,1.3894],[23.03126,60.30264,36.228],[23.0254,60.29295,46.0307],[23.00758,60.277,36.145],[22.94288,60.24518,16.9953],[22.92156,60.23115,26.4255],[22.8672,60.18374,0.0],[22.87916,60.17748,0.0],[22.88559,60.16934,11.0059],[22.88478,60.15986,16.9412],[22.87469,60.1496,0.0],[22.88697,60.14492,0.0],[22.90789,60.13178,0.0],[22.94256,60.12739,0.0],[22.95867,60.12157,0.0],[22.96827,60.11083,0.0],[22.96949,60.09439,5.1038],[22.97788,60.09878,0.0],[22.99676,60.10371,28.8709],[23.00489,60.10737,6.5322],[23.0088,60.11201,7.835],[23.01987,60.12881,10.5751],[23.0254,60.13532,0.8695],[23.04591,60.12165,1.4554],[23.02125,60.1068,0.0],[23.02126,60.1068,0.0],[23.0286,60.1015,7.1116],[23.0686,60.08936,51.0132],[23.11418,60.09473,58.5679],[23.19314,60.12326,61.3621],[23.29577,60.18155,30.9753],[23.31055,60.1864,62.3616],[23.32419,60.18516,29.1493],[23.32016,60.17907,28.5615],[23.31664,60.1724,35.1609],[23.33328,60.16548,54.7153],[23.35158,60.16253,52.0244],[23.39302,60.16005,58.2817],[23.4387,60.16356,52.3686],[23.48749,60.17431,78.8911],[23.54133,60.19953,45.1671],[23.56304,60.20377,54.057],[23.5741,60.20361,52.1331],[23.6297,60.19674,51.2583],[23.64169,60.19803,57.9985],[23.65078,60.21278,82.6634],[23.64603,60.22353,66.6436],[23.63197,60.23901,70.5972],[23.61192,60.2496,67.3112],[23.59962,60.25374,38.0426],[23.59239,60.25852,42.2453],[23.60727,60.26232,47.4942],[23.61823,60.26278,75.9117],[23.62557,60.2619,76.8711],[23.63022,60.27394,76.2443],[23.64107,60.28304,58.5],[23.68386,60.29637,97.0376],[23.72458,60.31919,87.5307],[23.73295,60.34415,57.0],[23.74618,60.37073,91.4512],[23.76489,60.37526,96.2131],[23.78607,60.39259,85.748],[23.79362,60.41853,109.6654],[23.7932,60.43406,117.0825],[23.77925,60.4497,91.2137],[23.69967,60.45192,120.7413],[23.7191,60.476,120.7698],[23.74422,60.48628,122.6145],[23.85129,60.5016,108.0787],[23.86503,60.51209,129.9093],[23.86204,60.52886,94.8138],[23.85553,60.5423,103.3757],[23.86142,60.55633,89.0],[23.87372,60.55938,122.1268],[23.89304,60.57088,135.0644],[23.90782,60.58777,126.9044],[23.91392,60.59749,134.0346],[23.90638,60.60883,127.8543],[23.89387,60.6117,135.8694],[23.88054,60.62038,149.8237],[23.88095,60.63302,111.0],[23.89666,60.64875,107.5],[23.76613,60.65242,147.2661],[23.70463,60.66113,127.8578],[23.65285,60.68955,104.6301],[23.57131,60.69782,127.2162],[23.528,60.71278,112.5612],[23.5125,60.72658,108.1438],[23.47705,60.74652,125.4128],[23.4509,60.74503,99.4186],[23.35633,60.72694,104.7134],[23.30776,60.72299,95.2602],[23.26735,60.72821,93.2616],[23.232,60.73983,89.0266],[23.1765,60.76373,117.7837],[23.16244,60.77988,106.0731],[23.16906,60.78781,108.4171],[23.18446,60.80254,118.3483],[23.20306,60.81376,85.8274],[23.21567,60.81954,82.4478],[23.21205,60.82931,84.0989],[23.16575,60.83432,86.2601],[23.14198,60.84621,85.2139],[23.13826,60.87091,88.8171],[23.15769,60.89024,93.7685],[23.19221,60.89535,98.4971],[23.25102,60.89143,120.1318],[23.26714,60.89334,105.89],[23.26507,60.8967,107.248],[23.25846,60.91122,98.4594],[23.25639,60.91458,96.8469],[23.26424,60.91569,95.7844],[23.27489,60.91571,94.8857],[23.28843,60.9222,93.1621],[23.29494,60.93628,96.1387],[23.29577,60.94672,95.9851],[23.27975,60.95824,98.023],[23.26486,60.96155,98.489],[23.24006,60.97235,101.5338],[23.19738,60.99995,123.6446],[23.16999,61.00814,102.2982],[23.1487,61.0208,96.8422],[23.12244,61.03157,98.504],[23.08007,61.0341,98.9005],[23.03325,61.02925,91.2958],[23.00741,61.02932,88.0902]]]]}}