{"type":"Feature","properties":{"GID_3":"FIN.5.9.4_1","GID_0":"FIN","country":"Finland","GID_1":"FIN.5_1","province":"WesternFinland","NL_NAME_1":"NA","GID_2":"FIN.5.9_1","county":"TavastiaProper","NL_NAME_2":"NA","city":"Riihimäki","VARNAME_3":"NA","NL_NAME_3":"NA","TYPE_3":"Seutukunta|Ekonomiskregion","ENGTYPE_3":"Sub-Region","CC_3":"NA","HASC_3":"FI.ES.RI","name":"Riihimäki.city"},
"geometry":{"type": "MultiPolygon","coordinates": [[[[24.6149,60.6621,103.0],[24.6156,60.6666,103.0],[24.6339,60.666,103.0],[24.6332,60.6615,103.0],[24.6515,60.6609,108.1435],[24.6509,60.6564,119.7644],[24.6783,60.6554,129.3367],[24.6777,60.651,114.3495],[24.7508,60.6484,130.9312],[24.7514,60.6529,132.5059],[24.7697,60.6522,116.5139],[24.7704,60.6567,111.6358],[24.7795,60.6564,121.5399],[24.7802,60.6609,125.7227],[24.7893,60.6605,104.8071],[24.79,60.665,100.5187],[24.7992,60.6647,112.7657],[24.7998,60.6692,89.0354],[24.809,60.6688,87.6403],[24.8097,60.6733,103.2401],[24.8188,60.673,86.3988],[24.8181,60.6685,97.9542],[24.8364,60.6679,87.9071],[24.8351,60.6589,90.7658],[24.8808,60.6572,139.406],[24.8815,60.6617,143.2412],[24.9089,60.6607,126.6665],[24.9096,60.6652,126.4581],[24.9187,60.6649,100.8978],[24.9194,60.6693,116.1138],[24.9285,60.669,93.753],[24.9292,60.6735,100.7977],[24.9475,60.6728,87.9166],[24.9482,60.6773,88.9162],[24.9665,60.6766,86.819],[24.9672,60.6811,95.4638],[25.0038,60.6797,116.2789],[25.0045,60.6842,94.3395],[25.0502,60.6825,102.9997],[25.0495,60.678,91.4254],[25.0587,60.6777,107.3654],[25.058,60.6732,86.0],[25.0671,60.6729,99.3673],[25.0664,60.6684,102.8318],[25.0847,60.6677,100.5257],[25.084,60.6632,103.2181],[25.1114,60.6622,116.2932],[25.1128,60.6711,108.5323],[25.1037,60.6715,104.7011],[25.1051,60.6804,88.9534],[25.096,60.6808,98.475],[25.0974,60.6897,86.5169],[25.0882,60.6901,91.2018],[25.0904,60.7035,97.8431],[25.1087,60.7028,101.3153],[25.1094,60.7073,99.0358],[25.1185,60.707,93.5514],[25.1192,60.7114,86.8755],[25.1376,60.7107,78.1919],[25.1383,60.7152,81.7214],[25.1474,60.7149,84.1538],[25.1481,60.7193,84.103],[25.1756,60.7183,103.9004],[25.1763,60.7228,108.337],[25.1946,60.7221,109.5723],[25.1954,60.7265,102.7068],[25.1587,60.7279,98.1108],[25.1595,60.7324,102.8524],[25.1411,60.7331,91.0877],[25.1419,60.7376,93.2115],[25.1327,60.7379,86.6658],[25.1334,60.7424,83.1431],[25.1243,60.7428,89.3035],[25.125,60.7472,80.0077],[25.1158,60.7476,79.4202],[25.1144,60.7386,79.4764],[25.1052,60.739,83.3029],[25.1045,60.7345,82.2402],[25.0953,60.7349,103.0749],[25.0939,60.7259,92.5819],[25.0848,60.7262,95.4653],[25.084,60.7218,90.4615],[25.0749,60.7221,134.2938],[25.0735,60.7132,109.686],[25.0643,60.7135,98.5311],[25.0657,60.7225,114.5328],[25.0566,60.7228,130.1424],[25.0573,60.7273,94.5747],[25.0664,60.7269,111.0794],[25.0686,60.7404,93.4778],[25.0777,60.74,87.2068],[25.0798,60.7535,83.2756],[25.089,60.7531,84.3146],[25.0904,60.7621,86.6165],[25.1088,60.7614,83.3773],[25.1095,60.7659,83.7513],[25.137,60.7648,83.4833],[25.1377,60.7693,78.896],[25.1561,60.7686,107.1305],[25.1582,60.782,122.2698],[25.149,60.7824,119.8118],[25.1498,60.7868,116.8771],[25.1406,60.7872,115.7499],[25.1413,60.7917,120.0442],[25.1321,60.792,104.4412],[25.1329,60.7965,117.9325],[25.1237,60.7968,97.3254],[25.1244,60.8013,98.7524],[25.1152,60.8017,91.2854],[25.1159,60.8061,94.1538],[25.1067,60.8065,84.4414],[25.1096,60.8244,106.7565],[25.1004,60.8247,83.5395],[25.0997,60.8203,83.2616],[25.0905,60.8206,85.8352],[25.0919,60.8296,86.6432],[25.0828,60.8299,85.4498],[25.087,60.8568,89.63],[25.041,60.8585,86.285],[25.0417,60.863,81.5],[25.0325,60.8633,85.8844],[25.0347,60.8768,81.5],[25.0162,60.8774,126.1068],[25.017,60.8819,118.4947],[24.9709,60.8836,129.141],[24.9716,60.8881,139.4462],[24.9348,60.8894,106.3035],[24.9341,60.8849,91.9655],[24.9433,60.8846,101.9378],[24.9419,60.8757,86.6595],[24.9511,60.8753,86.8955],[24.947,60.8485,99.7072],[24.9378,60.8488,83.4419],[24.9371,60.8443,84.4796],[24.9187,60.845,80.8958],[24.918,60.8405,92.5288],[24.8996,60.8412,84.3529],[24.8989,60.8367,84.2269],[24.8897,60.837,82.7835],[24.8904,60.8415,86.0687],[24.8812,60.8418,82.093],[24.8819,60.8463,80.976],[24.8635,60.847,88.1771],[24.8642,60.8515,81.1771],[24.855,60.8518,81.7172],[24.8557,60.8563,88.2704],[24.8465,60.8566,85.0325],[24.8478,60.8656,83.8584],[24.811,60.8669,107.3488],[24.8076,60.8445,105.4683],[24.7985,60.8448,82.3907],[24.7978,60.8403,81.8729],[24.7794,60.841,148.5724],[24.7787,60.8365,94.7309],[24.7419,60.8378,83.1995],[24.7413,60.8333,91.311],[24.7321,60.8336,110.6761],[24.7288,60.8112,87.4895],[24.7196,60.8116,83.8158],[24.7163,60.7892,96.0838],[24.7255,60.7888,100.2748],[24.7242,60.7799,92.1977],[24.7333,60.7796,87.4671],[24.732,60.7706,86.9783],[24.7412,60.7703,85.5059],[24.7405,60.7658,87.6244],[24.7497,60.7655,85.3558],[24.7484,60.7565,108.0802],[24.73,60.7572,113.702],[24.7294,60.7527,104.2577],[24.6835,60.7543,93.6108],[24.6848,60.7633,97.8691],[24.6756,60.7636,100.3851],[24.6769,60.7725,117.7159],[24.6678,60.7728,101.1235],[24.6671,60.7683,98.6233],[24.6488,60.769,107.3896],[24.6494,60.7735,98.0485],[24.6311,60.7741,101.1736],[24.6317,60.7786,117.5952],[24.6225,60.7789,138.8738],[24.6206,60.7655,100.9901],[24.6298,60.7651,94.8102],[24.6285,60.7562,99.6532],[24.5918,60.7574,163.1562],[24.5924,60.7619,98.5741],[24.5557,60.7632,92.8],[24.5551,60.7587,103.0911],[24.5459,60.759,93.2063],[24.5434,60.7411,145.4638],[24.5342,60.7414,149.763],[24.5348,60.7459,108.8117],[24.5165,60.7465,90.5],[24.5171,60.751,90.5],[24.4988,60.7516,126.2097],[24.4975,60.7426,133.351],[24.4883,60.7429,130.4626],[24.489,60.7474,145.6286],[24.4706,60.748,123.4586],[24.4713,60.7525,133.6642],[24.4529,60.7531,121.6112],[24.4535,60.7576,123.2333],[24.4168,60.7588,152.9515],[24.4162,60.7543,136.6017],[24.3979,60.7549,155.8131],[24.3985,60.7594,128.2772],[24.3893,60.7597,131.8495],[24.3899,60.7642,122.8368],[24.3807,60.7645,123.5518],[24.3814,60.7689,124.6713],[24.3722,60.7692,126.7257],[24.3728,60.7737,121.0887],[24.3636,60.774,121.571],[24.3642,60.7785,128.5393],[24.355,60.7788,124.197],[24.3557,60.7833,117.0726],[24.3465,60.7836,113.8045],[24.3477,60.7925,105.2484],[24.3017,60.794,101.6292],[24.3023,60.7985,94.1051],[24.284,60.7991,92.571],[24.2834,60.7946,112.1554],[24.2742,60.7949,91.0],[24.2736,60.7904,91.0],[24.2644,60.7907,94.5568],[24.2638,60.7862,113.6786],[24.2546,60.7865,122.0525],[24.2552,60.791,112.4181],[24.246,60.7913,114.472],[24.2466,60.7957,108.3535],[24.2374,60.796,119.7775],[24.238,60.8005,115.9385],[24.2288,60.8008,105.077],[24.23,60.8098,119.6019],[24.2208,60.8101,118.9781],[24.2214,60.8145,137.6484],[24.1938,60.8154,116.5646],[24.1944,60.8199,123.4505],[24.1301,60.8218,154.2097],[24.1289,60.8129,137.6247],[24.1197,60.8132,130.4464],[24.1186,60.8042,134.1193],[24.1094,60.8045,135.2339],[24.1088,60.8,131.2884],[24.0996,60.8003,132.7521],[24.0979,60.7868,134.8092],[24.0795,60.7874,147.6261],[24.0801,60.7919,116.0],[24.0617,60.7924,116.0],[24.0583,60.7655,132.5326],[24.0491,60.7658,127.8016],[24.0452,60.7344,145.4009],[24.0543,60.7341,119.5099],[24.0453,60.6624,119.141],[24.0545,60.6622,120.5575],[24.0516,60.6398,111.0],[24.0608,60.6395,111.0],[24.0602,60.635,111.0],[24.0785,60.6344,127.2759],[24.0779,60.63,147.5047],[24.1236,60.6286,123.8131],[24.1231,60.6241,121.5432],[24.1596,60.623,153.6753],[24.1602,60.6274,148.0266],[24.1876,60.6266,140.6531],[24.1968,60.6263,134.3507],[24.1962,60.6218,124.6718],[24.2327,60.6207,124.8339],[24.2321,60.6162,136.2664],[24.2413,60.6159,120.7959],[24.2383,60.5935,118.4375],[24.2475,60.5932,104.7496],[24.2469,60.5887,125.0113],[24.256,60.5884,115.4771],[24.2554,60.584,134.3738],[24.2645,60.5837,116.265],[24.264,60.5792,148.553],[24.2731,60.5789,124.8029],[24.2725,60.5744,109.8443],[24.2816,60.5741,134.0632],[24.2804,60.5652,93.6319],[24.2895,60.5649,95.098],[24.2902,60.5694,107.9587],[24.3084,60.5688,118.1157],[24.309,60.5732,133.7805],[24.2999,60.5735,131.438],[24.3016,60.587,107.1173],[24.3108,60.5867,134.6859],[24.3114,60.5912,118.6887],[24.3205,60.5909,135.9212],[24.3217,60.5998,133.0054],[24.3308,60.5996,130.2508],[24.3314,60.604,144.3472],[24.3406,60.6037,138.3093],[24.3412,60.6082,148.1622],[24.3503,60.6079,133.9754],[24.3509,60.6124,149.0335],[24.3601,60.6121,135.5225],[24.3594,60.6076,135.2564],[24.3777,60.607,130.8847],[24.3771,60.6026,141.5045],[24.3954,60.602,141.2727],[24.3947,60.5975,118.2199],[24.4039,60.5972,123.3049],[24.4033,60.5927,126.5315],[24.4124,60.5924,124.3046],[24.4112,60.5834,122.1694],[24.402,60.5837,126.4523],[24.4002,60.5703,111.6651],[24.4093,60.57,115.3769],[24.4087,60.5655,112.4478],[24.4178,60.5652,115.8978],[24.4166,60.5563,117.1905],[24.4257,60.556,108.3092],[24.4251,60.5515,105.9115],[24.4434,60.5509,117.389],[24.444,60.5554,128.3083],[24.4896,60.5538,136.1806],[24.4902,60.5583,140.4213],[24.5358,60.5568,112.0958],[24.5364,60.5613,102.498],[24.5546,60.5606,117.3734],[24.5559,60.5696,117.623],[24.565,60.5693,107.686],[24.5663,60.5783,96.2156],[24.5754,60.5779,87.9728],[24.5767,60.5869,107.8115],[24.5773,60.5914,130.1978],[24.5682,60.5917,137.5049],[24.5695,60.6007,95.0614],[24.5603,60.601,99.262],[24.5654,60.6368,121.0334],[24.5745,60.6365,113.3236],[24.5758,60.6455,127.5518],[24.5849,60.6451,128.6007],[24.5856,60.6496,139.3264],[24.5947,60.6493,138.9945],[24.596,60.6583,128.0971],[24.6052,60.658,116.7863],[24.6058,60.6624,103.0],[24.6149,60.6621,103.0]]]]}}