{"type":"Feature","properties":{"featurecla":"Lake","scalerank":9,"name":"Pyhjrvi1","name_abb":"Pyhjrvi","name_alt":null,"note":null,"delta":null,"dam_name":null,"year":-99,"admin":null,"min_zoom":7.0,"min_label":8.0},
"geometry":{"type": "Polygon","coordinates": [[[22.389192339448016,60.9379035562346,43.0],[22.359461562607692,60.974699072126072,43.0],[22.353279915937946,60.988828550228391,43.0],[22.332380062911596,61.0232691531028,43.0],[22.234356808576734,61.060947761375644,43.0],[22.202859846973666,61.088029261071767,43.0],[22.186081091727146,61.0921503588516,53.9921],[22.17224597775197,61.0939165436144,57.62],[22.159588320285309,61.090972902343083,79.6485],[22.147813755200048,61.081258886147737,70.6357],[22.152229217107021,61.063008310265559,52.4089],[22.15046303234422,61.051528109307441,62.7024],[22.1372166466233,61.046523919146182,61.0536],[22.129857543445013,61.037692995332236,57.7197],[22.147519391072905,61.018559327068687,78.5681],[22.309125296868189,60.891394024147814,73.7285],[22.32590405211468,60.881974372079583,65.847],[22.33767861719997,60.882563100333869,62.5226],[22.376534681981354,60.891099660020672,51.8865],[22.388014882939473,60.895809486054787,53.8268],[22.391252888337931,60.902285496851675,49.2145],[22.398317627389076,60.92524589876794,43.0],[22.398317627389076,60.930544453056314,43.0],[22.389192339448016,60.9379035562346,43.0]]]}}