{"type": "Feature","bbox": [21.4943,60.2125,22.885,60.9041],"geometry": {"type": "MultiPolygon","coordinates": [[[[21.8432,60.2922,29.4354],[21.84,60.2917,37.2677],[21.8397,60.2859,17.4591],[21.8421,60.2848,0.0],[21.85,60.2875,11.8264],[21.8563,60.2875,0.0],[21.8583,60.2896,15.0501],[21.8542,60.2938,19.8513],[21.8458,60.2938,0.0],[21.8432,60.2922,29.4354]]],
[[[21.8422,60.3078,0.0],[21.8359,60.3047,0.0],[21.8474,60.3047,15.5077],[21.8453,60.3078,0.0],[21.8422,60.3078,0.0]]],
[[[21.8099,60.313,0.0],[21.8068,60.3109,14.4186],[21.8104,60.3083,6.4868],[21.8146,60.3083,9.401],[21.8182,60.3109,0.0],[21.8125,60.3146,14.243],[21.8099,60.313,0.0]]],
[[[21.8667,60.3167,6.7445],[21.8745,60.3151,0.0],[21.8708,60.3187,20.042],[21.8609,60.3182,6.0905],[21.8625,60.3167,5.5949],[21.8667,60.3167,6.7445]]],
[[[21.9604,60.3125,10.3551],[21.9479,60.3125,0.0],[21.9438,60.3146,0.0],[21.9188,60.3146,0.0],[21.9083,60.3083,34.7286],[21.8813,60.3083,23.3661],[21.8771,60.3104,11.6525],[21.8714,60.3068,16.6617],[21.887,60.3016,9.4022],[21.8859,60.2984,17.3307],[21.887,60.2943,2.509],[21.8797,60.2901,5.2908],[21.8896,60.2875,0.0],[21.8937,60.2896,14.751],[21.8995,60.2891,0.0],[21.8953,60.2839,1.0341],[21.888,60.2849,16.8049],[21.888,60.2818,30.8852],[21.8917,60.2792,9.4003],[21.8958,60.2813,0.0],[21.9083,60.2813,0.0],[21.9208,60.2771,9.3933],[21.9292,60.2771,16.333],[21.9333,60.2792,37.4252],[21.9375,60.2792,11.8553],[21.9417,60.2771,20.978],[21.95,60.2771,29.1245],[21.9599,60.2797,0.0],[21.9547,60.2828,0.0],[21.9625,60.2875,0.0],[21.9682,60.287,3.8257],[21.9708,60.2833,3.391],[21.9917,60.2833,0.0],[21.9995,60.2859,0.0],[22.0005,60.2891,33.3197],[22.0057,60.2901,0.0],[22.0099,60.2964,28.235],[22.0083,60.2979,24.7021],[22.0,60.2979,52.568],[21.9958,60.2958,29.4925],[21.9896,60.2958,0.0],[21.9828,60.2859,47.1946],[21.975,60.2854,11.0893],[21.9714,60.288,7.7576],[21.9729,60.2917,0.0],[21.9714,60.2953,22.3874],[21.9755,60.3016,0.0],[21.9807,60.3026,0.0],[21.9828,60.3047,0.0],[21.9828,60.3078,33.4831],[21.9792,60.3104,7.0383],[21.9667,60.3104,5.596],[21.9604,60.3125,10.3551]]],
[[[21.9854,60.3,0.0],[21.987,60.3005,0.0],[21.987,60.3016,13.2916],[21.9839,60.3016,0.0],[21.9854,60.3,0.0]]],
[[[22.0167,60.3354,4.9567],[22.0021,60.3396,10.5869],[21.9979,60.3354,7.8852],[21.9792,60.3354,23.2369],[21.975,60.3333,25.1188],[21.9646,60.3333,0.0],[21.9568,60.3307,0.0],[21.9479,60.325,0.0],[21.9318,60.3245,3.4954],[21.9276,60.3224,8.1825],[21.9255,60.3193,0.0],[21.9313,60.3187,0.0],[21.9354,60.3208,39.5642],[21.9396,60.3187,0.0],[21.9542,60.3187,18.4712],[21.9583,60.3167,0.0],[21.9771,60.3146,17.6539],[21.9813,60.3125,9.4673],[22.0,60.3104,15.4389],[22.0042,60.3083,20.26],[22.0271,60.3104,0.0],[22.0328,60.313,38.8813],[22.037,60.3172,27.0807],[22.0391,60.3224,0.0],[22.0365,60.3247,0.0],[22.0234,60.3276,17.5584],[22.0203,60.3328,19.7266],[22.0167,60.3354,4.9567]]],
[[[21.9063,60.3312,5.8667],[21.8937,60.3312,20.5714],[21.8896,60.3333,0.0],[21.8688,60.3333,4.3631],[21.8609,60.3297,11.5096],[21.8688,60.3292,15.6371],[21.8729,60.3271,0.0],[21.9104,60.3271,26.3742],[21.9146,60.325,0.0],[21.9188,60.325,0.0],[21.9229,60.3271,27.7679],[21.9271,60.325,0.0],[21.9349,60.3276,21.5686],[21.9333,60.3292,14.9786],[21.9208,60.3292,9.0564],[21.9167,60.3312,0.0],[21.9125,60.3292,21.0137],[21.9063,60.3312,5.8667]]],
[[[21.8312,60.3208,32.8209],[21.8167,60.325,13.6462],[21.8068,60.3245,17.1037],[21.8089,60.3214,0.0],[21.8167,60.3187,0.0],[21.8349,60.3193,12.2837],[21.8312,60.3208,32.8209]]],
[[[21.9104,60.3208,0.0],[21.9141,60.3224,0.0],[21.9042,60.325,0.0],[21.8917,60.325,0.0],[21.8875,60.3229,10.3307],[21.8833,60.325,10.1805],[21.8734,60.3245,0.0],[21.8813,60.3208,0.0],[21.9104,60.3208,0.0]]],
[[[21.8578,60.3349,0.0],[21.8521,60.3354,16.1892],[21.8505,60.3339,19.146],[21.8563,60.3333,24.8883],[21.8578,60.3349,0.0]]],
[[[21.8639,60.337,0.0],[21.8682,60.3359,0.0],[21.8646,60.3396,0.0],[21.8505,60.3391,16.6312],[21.8521,60.3375,0.0],[21.8639,60.337,0.0]]],
[[[21.7984,60.338,0.0],[21.8016,60.338,0.0],[21.8036,60.3411,10.234],[21.8,60.3438,0.0],[21.7771,60.3438,16.7643],[21.775,60.3417,8.2637],[21.7792,60.3375,0.0],[21.7833,60.3375,0.0],[21.7938,60.3417,14.2087],[21.7984,60.338,0.0]]],
[[[21.8729,60.3458,11.407],[21.8688,60.3458,13.5731],[21.8672,60.3443,9.7205],[21.8745,60.3443,15.3087],[21.8729,60.3458,11.407]]],
[[[21.8661,60.3464,18.3298],[21.8646,60.3479,21.0467],[21.863,60.3474,24.2994],[21.863,60.3464,12.2094],[21.8661,60.3464,18.3298]]],
[[[21.7729,60.3542,3.6696],[21.7745,60.3557,20.9262],[21.7714,60.3557,6.4623],[21.7714,60.3547,5.2967],[21.7729,60.3542,3.6696]]],
[[[21.7708,60.2979,28.79],[21.7672,60.2974,18.6637],[21.7651,60.2943,0.0],[21.7766,60.2943,8.9174],[21.7745,60.2974,22.8264],[21.7708,60.2979,28.79]]],
[[[21.7313,60.3104,0.0],[21.7354,60.3104,21.2716],[21.7396,60.3083,0.0],[21.7417,60.3104,18.6662],[21.7396,60.3125,0.0],[21.7297,60.312,0.0],[21.7313,60.3104,0.0]]],
[[[21.7203,60.3224,0.0],[21.7172,60.3224,0.0],[21.7151,60.3193,9.2835],[21.7182,60.3193,10.0653],[21.7203,60.3224,0.0]]],
[[[21.7354,60.3333,20.1652],[21.7229,60.3333,2.8246],[21.7188,60.3354,0.0],[21.7026,60.3349,0.0],[21.7042,60.3333,6.9587],[21.7167,60.3333,9.8913],[21.7208,60.3312,0.0],[21.7391,60.3318,19.0993],[21.7354,60.3333,20.1652]]],
[[[21.6901,60.3349,3.7734],[21.6911,60.337,0.0],[21.6792,60.3417,0.0],[21.675,60.3375,13.2171],[21.6604,60.3375,16.8024],[21.6526,60.3339,5.4244],[21.6599,60.3328,18.7995],[21.6646,60.3292,0.0],[21.6703,60.3307,14.0796],[21.6792,60.325,0.0],[21.7224,60.3255,10.4822],[21.7208,60.3271,0.0],[21.6938,60.3292,26.0746],[21.6859,60.3318,0.0],[21.6901,60.3349,3.7734]]],
[[[21.6729,60.3625,7.211],[21.6604,60.3625,25.0952],[21.6563,60.3646,0.0],[21.6521,60.3625,8.42],[21.6396,60.3625,11.8191],[21.6359,60.3589,2.5789],[21.6453,60.3578,1.8007],[21.6557,60.3516,0.0],[21.6526,60.3464,0.0],[21.6583,60.3438,0.7709],[21.6625,60.3438,11.2364],[21.6667,60.3458,0.0],[21.675,60.3458,10.0949],[21.6792,60.3438,8.0749],[21.6896,60.3438,13.096],[21.6938,60.3417,0.0],[21.7,60.3417,14.0173],[21.7042,60.3396,0.0],[21.7161,60.3401,0.0],[21.7161,60.3432,4.2668],[21.712,60.3495,15.5156],[21.7,60.35,7.818],[21.6901,60.3526,14.9351],[21.6839,60.3547,0.0],[21.6891,60.3568,0.0],[21.6891,60.3599,14.354],[21.6729,60.3625,7.211]]],
[[[21.6354,60.3542,23.9936],[21.6318,60.3536,10.3962],[21.6297,60.3505,5.3715],[21.6391,60.3526,21.9271],[21.6354,60.3542,23.9936]]],
[[[21.6167,60.3583,10.7412],[21.6104,60.3583,13.1446],[21.6089,60.3568,14.6296],[21.6203,60.3568,9.2465],[21.6167,60.3583,10.7412]]],
[[[21.6708,60.3646,13.4442],[21.6724,60.3661,7.6112],[21.6604,60.3708,8.7659],[21.6505,60.3703,9.5053],[21.6667,60.3646,0.0],[21.6708,60.3646,13.4442]]],
[[[21.6833,60.3708,21.2833],[21.6776,60.3714,0.0],[21.6714,60.3755,21.469],[21.6724,60.3786,11.1781],[21.6688,60.3812,7.9744],[21.6479,60.3812,17.1675],[21.6443,60.3786,0.0],[21.6464,60.3755,9.4305],[21.6708,60.3708,19.3247],[21.6755,60.3672,0.1997],[21.6875,60.3625,0.0],[21.6974,60.363,19.7082],[21.6974,60.3661,11.4736],[21.6932,60.3703,0.0],[21.6833,60.3708,21.2833]]],
[[[21.6792,60.3896,5.4329],[21.6807,60.3911,0.0],[21.6729,60.3917,4.4301],[21.6688,60.3937,11.8577],[21.6651,60.3911,5.2329],[21.6667,60.3896,0.0],[21.6792,60.3896,5.4329]]],
[[[21.5042,60.3937,0.0],[21.5057,60.3953,9.102],[21.5026,60.3953,11.7742],[21.5026,60.3943,6.5512],[21.5042,60.3937,0.0]]],
[[[21.7536,60.3557,20.1419],[21.7479,60.3563,0.0],[21.7464,60.3547,10.6623],[21.7521,60.3542,0.0],[21.7536,60.3557,20.1419]]],
[[[21.7083,60.3625,23.8751],[21.7161,60.3609,0.0],[21.7125,60.3646,9.4458],[21.7068,60.3641,15.2019],[21.7083,60.3625,23.8751]]],
[[[21.7776,60.3703,3.3928],[21.7854,60.3708,0.0],[21.787,60.3724,0.0],[21.7839,60.3745,1.8849],[21.7932,60.3755,0.0],[21.7911,60.3807,13.4851],[21.7687,60.3792,0.0],[21.7651,60.3766,0.0],[21.7661,60.3734,5.624],[21.7646,60.3729,7.3187],[21.7479,60.3729,2.9302],[21.7464,60.3745,0.0],[21.7495,60.3786,0.0],[21.7438,60.3812,19.18],[21.7396,60.3812,17.0766],[21.7318,60.3786,2.058],[21.7276,60.3724,7.5147],[21.7318,60.3693,7.081],[21.7396,60.3667,0.3883],[21.7646,60.3667,0.0],[21.7776,60.3703,3.3928]]],
[[[21.7307,60.4036,0.2106],[21.725,60.4042,12.4043],[21.7234,60.4026,14.9862],[21.7292,60.4021,0.0],[21.7307,60.4036,0.2106]]],
[[[21.688,60.3922,0.3305],[21.6958,60.3875,14.7502],[21.7016,60.388,2.2421],[21.7021,60.3896,0.0],[21.6974,60.3953,17.2577],[21.6922,60.3984,0.0],[21.6901,60.4026,13.0423],[21.6911,60.4057,0.0],[21.688,60.4068,12.4938],[21.6828,60.412,29.1455],[21.6797,60.412,24.0793],[21.6776,60.4099,3.9979],[21.6786,60.4047,13.378],[21.6755,60.4005,2.0451],[21.688,60.3922,0.3305]]],
[[[21.563,60.4078,22.2662],[21.5609,60.4047,8.3703],[21.563,60.4026,2.5406],[21.5703,60.4026,6.9862],[21.5693,60.4057,7.0658],[21.5703,60.4078,0.0],[21.563,60.4078,22.2662]]],
[[[21.5932,60.4099,0.0],[21.5859,60.4109,16.8411],[21.587,60.4161,12.0453],[21.5755,60.4161,10.3115],[21.5771,60.4146,7.4533],[21.5828,60.4141,10.5658],[21.5797,60.4089,0.0],[21.5917,60.4083,3.6717],[21.5932,60.4099,0.0]]],
[[[21.5812,60.4188,13.4398],[21.5828,60.4193,18.1308],[21.5828,60.4203,15.8757],[21.5797,60.4203,7.8666],[21.5812,60.4188,13.4398]]],
[[[21.7453,60.412,6.3422],[21.7396,60.4125,14.3647],[21.738,60.4109,6.89],[21.7438,60.4104,12.6509],[21.7453,60.412,6.3422]]],
[[[21.7425,60.4247,20.0965],[21.7401,60.4224,10.06],[21.7401,60.4193,0.0],[21.7557,60.4193,5.6876],[21.7557,60.4224,0.0],[21.7516,60.4266,9.8425],[21.7458,60.4271,18.1273],[21.7425,60.4247,20.0965]]],
[[[21.7062,60.4437,16.8963],[21.7016,60.4474,29.7413],[21.6938,60.45,0.0],[21.6896,60.4479,19.0426],[21.6854,60.45,0.0],[21.6797,60.4495,0.0],[21.6807,60.4464,6.8336],[21.6792,60.4437,0.0],[21.6818,60.4401,11.2551],[21.6995,60.437,17.2723],[21.6953,60.4297,14.5768],[21.6901,60.4286,0.0],[21.6932,60.4224,8.3905],[21.6922,60.4172,0.0],[21.6974,60.4161,0.1071],[21.7021,60.4125,18.4196],[21.7083,60.4146,10.6332],[21.7141,60.4141,12.3261],[21.7109,60.4099,19.5916],[21.7109,60.4068,6.3866],[21.7224,60.4068,0.0],[21.7245,60.412,10.7304],[21.7214,60.4172,2.0921],[21.7224,60.4203,0.0],[21.7193,60.4214,0.0],[21.7203,60.4245,22.879],[21.7182,60.4266,6.2876],[21.7089,60.4297,0.0],[21.7089,60.4328,3.5378],[21.712,60.437,10.3655],[21.7089,60.438,15.1303],[21.7099,60.4411,0.0],[21.7062,60.4437,16.8963]]],
[[[21.7724,60.4255,0.0],[21.7703,60.4307,0.0],[21.7599,60.4391,0.0],[21.7505,60.437,9.0545],[21.7526,60.4339,0.0],[21.7599,60.4328,4.9533],[21.762,60.4307,0.0],[21.7609,60.4276,3.7675],[21.7724,60.4255,0.0]]],
[[[21.6755,60.4245,24.6395],[21.6714,60.4193,12.9628],[21.6771,60.4188,12.162],[21.6807,60.4214,4.9839],[21.6786,60.4245,20.9321],[21.6755,60.4245,24.6395]]],
[[[21.4958,60.425,8.4286],[21.4974,60.4255,16.026],[21.4974,60.4266,17.3824],[21.4943,60.4266,15.8468],[21.4958,60.425,8.4286]]],
[[[21.6437,60.4292,0.0],[21.6422,60.4318,9.1614],[21.6437,60.4354,1.2809],[21.6422,60.4391,1.5106],[21.6453,60.4453,0.0],[21.638,60.4505,11.745],[21.6391,60.4536,0.0],[21.6359,60.4547,13.4786],[21.637,60.4578,0.0],[21.6354,60.4583,8.6834],[21.6266,60.4526,7.4774],[21.6214,60.4516,8.3141],[21.6224,60.4484,15.828],[21.6172,60.4474,0.0],[21.6203,60.438,3.3607],[21.6146,60.4375,21.1366],[21.6104,60.4396,22.8747],[21.6047,60.4349,11.7108],[21.6078,60.4328,22.3574],[21.6047,60.4266,3.2815],[21.6078,60.4203,9.0234],[21.6068,60.4172,11.0499],[21.6125,60.4167,0.0],[21.6141,60.4151,7.9377],[21.6021,60.4146,17.7921],[21.6005,60.413,0.0],[21.6047,60.4068,16.8216],[21.612,60.4068,0.0],[21.6172,60.4141,9.7091],[21.6266,60.4151,0.0],[21.6234,60.4182,5.8979],[21.6255,60.4203,10.5001],[21.6307,60.4214,0.0],[21.6234,60.4286,0.0],[21.6354,60.4271,12.3718],[21.6396,60.425,0.0],[21.6437,60.4292,0.0]]],
[[[21.563,60.438,7.2434],[21.5604,60.4396,0.0],[21.5464,60.4411,0.0],[21.5484,60.438,2.2225],[21.5526,60.4359,4.0138],[21.5703,60.4318,0.0],[21.5703,60.4349,0.0],[21.5682,60.437,12.9419],[21.563,60.438,7.2434]]],
[[[21.7318,60.4516,0.0],[21.7297,60.4484,0.0],[21.7318,60.4464,0.0],[21.7411,60.4484,0.0],[21.7391,60.4516,1.1934],[21.7318,60.4516,0.0]]],
[[[21.7708,60.4521,0.0],[21.7724,60.4536,6.7799],[21.7693,60.4536,0.0],[21.7693,60.4526,0.0],[21.7708,60.4521,0.0]]],
[[[21.7646,60.4583,0.0],[21.7583,60.4583,0.0],[21.7568,60.4568,0.0],[21.7682,60.4568,0.0],[21.7646,60.4583,0.0]]],
[[[21.7354,60.4604,2.0704],[21.7417,60.4583,0.0],[21.7453,60.462,0.0],[21.7432,60.4641,0.0],[21.7375,60.4646,0.0],[21.7339,60.462,0.0],[21.7354,60.4604,2.0704]]],
[[[21.575,60.4417,21.4814],[21.5766,60.4432,12.03],[21.5734,60.4432,20.546],[21.5734,60.4422,17.1474],[21.575,60.4417,21.4814]]],
[[[21.5224,60.4484,10.0574],[21.5208,60.45,12.3646],[21.5172,60.4495,14.1977],[21.5187,60.4479,15.0752],[21.5224,60.4484,10.0574]]],
[[[21.6958,60.4521,0.0],[21.7,60.4521,0.0],[21.7016,60.4536,0.0],[21.6964,60.4547,1.8384],[21.6953,60.4578,0.0],[21.6917,60.4604,19.0084],[21.6859,60.4599,16.4482],[21.6839,60.4578,5.3824],[21.6839,60.4547,7.7054],[21.6917,60.4542,5.8174],[21.6958,60.4521,0.0]]],
[[[21.6724,60.4745,0.0],[21.6625,60.4792,0.0],[21.6583,60.4771,13.4085],[21.6484,60.4786,20.4034],[21.6464,60.4755,2.243],[21.6516,60.4714,6.8802],[21.6464,60.4703,0.0],[21.6422,60.463,7.4051],[21.6516,60.4599,0.0],[21.6505,60.4568,0.0],[21.6599,60.4536,12.7787],[21.6547,60.4516,0.0],[21.6568,60.4484,0.0],[21.6682,60.4484,13.0359],[21.6672,60.4516,7.7663],[21.6682,60.4536,0.0],[21.6568,60.4599,0.0],[21.6745,60.463,0.0],[21.6766,60.4661,0.0],[21.6734,60.4672,4.2853],[21.6745,60.4703,3.2119],[21.6724,60.4745,0.0]]],
[[[21.6604,60.4854,0.0],[21.6589,60.4818,0.267],[21.6688,60.4813,21.375],[21.6729,60.4854,1.5667],[21.6708,60.4875,0.0],[21.6625,60.4875,0.0],[21.6604,60.4854,0.0]]],
[[[21.7766,60.4641,16.1379],[21.7708,60.4646,7.8373],[21.7693,60.463,0.0],[21.775,60.4625,0.0],[21.7766,60.4641,16.1379]]],
[[[21.7375,60.4771,0.0],[21.7292,60.4771,5.4809],[21.7276,60.4786,0.504],[21.7359,60.4849,0.0],[21.7417,60.4854,0.0],[21.7484,60.4776,0.0],[21.7557,60.4766,0.0],[21.7604,60.4729,0.0],[21.7646,60.4729,0.0],[21.7724,60.4755,0.0],[21.7745,60.4807,0.0],[21.7714,60.487,0.0],[21.7797,60.4932,8.8641],[21.7854,60.4938,20.0784],[21.7979,60.4896,1.2345],[21.8104,60.4896,0.0],[21.8151,60.4953,1.9366],[21.8203,60.4964,0.0],[21.8229,60.5,0.2553],[21.8286,60.4995,0.9314],[21.8354,60.4958,0.0],[21.8396,60.4958,3.2425],[21.8438,60.4979,0.4441],[21.85,60.4938,0.0],[21.8661,60.4911,0.0],[21.8625,60.4875,0.0],[21.8583,60.4875,23.1519],[21.8542,60.4896,0.0],[21.8438,60.4896,9.2121],[21.8396,60.4917,0.0],[21.8333,60.4875,0.0],[21.8214,60.487,2.0049],[21.8193,60.4828,7.3132],[21.8208,60.4792,9.3848],[21.8182,60.4755,0.0],[21.8089,60.4745,12.9242],[21.8078,60.4714,19.8263],[21.8026,60.4703,0.0],[21.8005,60.4682,0.0],[21.7984,60.463,0.0],[21.8083,60.4625,0.0],[21.812,60.4651,0.0],[21.8151,60.4703,0.2169],[21.8182,60.4703,0.0],[21.8208,60.4667,3.0199],[21.8193,60.463,14.1238],[21.8245,60.4589,0.0],[21.8188,60.4583,5.9407],[21.8146,60.4604,0.0],[21.8089,60.4557,0.0],[21.8167,60.4479,0.0],[21.8125,60.4437,3.4759],[21.7979,60.4479,26.263],[21.788,60.4474,0.0],[21.7839,60.4432,0.0],[21.787,60.4411,1.645],[21.7859,60.438,0.0],[21.8,60.4396,1.4142],[21.8016,60.438,0.0],[21.7938,60.4375,9.8021],[21.7922,60.4359,12.3107],[21.8021,60.4354,0.0],[21.8099,60.4318,0.0],[21.7896,60.4313,0.0],[21.7839,60.4286,17.3719],[21.7818,60.4255,0.0],[21.7896,60.425,16.6795],[21.7938,60.4229,0.0],[21.7979,60.425,8.7598],[21.8021,60.425,0.0],[21.8063,60.4229,0.0],[21.8146,60.4229,0.0],[21.8188,60.4208,15.9519],[21.8229,60.4208,2.6781],[21.8271,60.4229,0.0],[21.8312,60.4188,5.2265],[21.8292,60.4167,1.8393],[21.8188,60.4167,0.0],[21.8146,60.4146,4.7829],[21.8104,60.4167,8.0271],[21.8063,60.4146,7.8263],[21.7984,60.4141,14.6628],[21.7964,60.4109,14.0092],[21.8021,60.4083,1.6749],[21.8063,60.4083,0.0],[21.8104,60.4104,10.9062],[21.8146,60.4104,8.9088],[21.8161,60.4089,0.0],[21.8109,60.4078,0.0],[21.8021,60.4021,23.2593],[21.7943,60.4016,7.4195],[21.7922,60.3984,9.8177],[21.7979,60.3958,10.251],[21.8057,60.3953,0.0],[21.8026,60.388,0.0],[21.8083,60.3896,6.6695],[21.8182,60.3891,14.6293],[21.8193,60.3859,0.0],[21.8245,60.3849,0.0],[21.8229,60.3812,0.0],[21.825,60.3792,2.3798],[21.8312,60.3792,8.916],[21.8354,60.3771,0.0],[21.8458,60.3771,15.3836],[21.8604,60.3708,0.0],[21.8729,60.3708,6.3603],[21.8896,60.3646,0.4164],[21.9188,60.3646,7.9174],[21.9266,60.362,8.5032],[21.925,60.3604,0.0],[21.9188,60.3604,0.0],[21.9146,60.3583,1.8034],[21.9104,60.3583,0.0],[21.9063,60.3604,23.774],[21.8917,60.3604,10.9291],[21.8813,60.3646,0.0],[21.8604,60.3646,0.0],[21.8479,60.3729,0.0],[21.8417,60.3729,10.7123],[21.8375,60.375,0.0],[21.8229,60.375,24.979],[21.8229,60.3729,0.0],[21.8286,60.3724,0.0],[21.8333,60.3688,6.5947],[21.8417,60.3688,9.8274],[21.8495,60.3661,5.4261],[21.8479,60.3646,15.2464],[21.8396,60.3646,26.1087],[21.8354,60.3667,4.3538],[21.8255,60.3661,15.5376],[21.8234,60.363,16.4188],[21.8333,60.3563,6.7442],[21.8688,60.3542,21.0017],[21.8771,60.35,12.7699],[21.9,60.35,0.0],[21.9042,60.3479,0.0],[21.9167,60.3479,15.4708],[21.9208,60.3458,0.0],[21.925,60.3479,11.1521],[21.9292,60.3458,0.0],[21.9646,60.3458,18.4838],[21.9792,60.3396,9.0271],[21.9938,60.3417,0.0],[22.0083,60.3479,4.4414],[22.0182,60.3474,0.0],[22.0167,60.3458,1.4741],[22.0089,60.3453,1.2445],[22.0089,60.3422,0.0],[22.0104,60.3417,0.0],[22.0271,60.3417,0.0],[22.0292,60.3438,1.683],[22.0276,60.3474,0.0],[22.037,60.3484,0.0],[22.038,60.3516,14.4999],[22.0474,60.3526,15.8917],[22.0495,60.3557,0.0],[22.0458,60.3583,17.1904],[22.0375,60.3583,3.5968],[22.0297,60.3609,0.2232],[22.0349,60.3661,7.8224],[22.0313,60.3688,0.0],[22.0255,60.3693,0.0],[22.0286,60.3745,21.2818],[22.0187,60.3729,10.2604],[22.0089,60.3755,20.4221],[22.0161,60.3797,12.4411],[22.0146,60.3812,28.9346],[22.0062,60.3812,26.5459],[22.0021,60.3833,0.0],[21.9568,60.3839,0.0],[21.9625,60.3875,7.3029],[21.9708,60.3875,1.764],[21.975,60.3854,0.0],[21.9792,60.3875,2.409],[21.9896,60.3875,0.0],[21.9974,60.3901,6.7864],[21.9964,60.3932,0.0],[21.9995,60.3953,0.0],[21.9953,60.3995,0.0],[21.9708,60.4,0.0],[21.9667,60.3979,26.2381],[21.9458,60.3979,1.8278],[21.938,60.4005,6.4155],[21.9396,60.4021,7.8035],[21.9521,60.4021,18.4272],[21.9562,60.4,0.0],[21.9646,60.4,0.0],[21.9724,60.4026,5.3403],[21.9745,60.4068,6.7031],[21.9729,60.4104,0.0],[21.9745,60.4141,4.0216],[21.9724,60.4161,0.0],[21.9651,60.4172,0.0],[21.9557,60.4286,0.0],[21.9443,60.4297,5.145],[21.9328,60.4453,0.0],[21.9255,60.4464,13.8376],[21.9214,60.4505,3.4992],[21.9193,60.4547,7.2355],[21.9203,60.4578,0.0],[21.913,60.463,0.0],[21.9182,60.4682,0.0403],[21.913,60.4714,3.9288],[21.9141,60.4745,0.0],[21.9068,60.4797,16.9799],[21.9109,60.487,0.0],[21.9161,60.4891,0.0],[21.9104,60.4917,0.0],[21.8984,60.4922,0.6496],[21.8922,60.4964,0.0],[21.8932,60.4995,-0.0935],[21.8911,60.5036,19.5292],[21.8818,60.5068,0.0],[21.8776,60.5109,5.1619],[21.8755,60.5161,0.0],[21.8807,60.5245,0.0],[21.8693,60.5318,16.4098],[21.8729,60.5375,0.0],[21.8672,60.5474,0.0],[21.8729,60.5479,0.0],[21.8745,60.5474,0.0],[21.8734,60.5443,0.0],[21.8849,60.5432,0.0],[21.8813,60.5375,0.2647],[21.8828,60.5349,5.9178],[21.8818,60.5318,4.2549],[21.8896,60.5313,0.0],[21.8911,60.5328,0.0],[21.888,60.5349,0.0],[21.8932,60.5359,0.0],[21.9026,60.5495,0.0],[21.9099,60.5495,-0.0547],[21.9068,60.5422,0.0],[21.9141,60.5307,0.5522],[21.913,60.5276,0.0],[21.9349,60.5245,0.0],[21.9307,60.5214,0.0782],[21.9255,60.5203,0.0],[21.9276,60.5172,2.5737],[21.9396,60.5125,0.0],[21.9411,60.513,8.5051],[21.9396,60.5167,9.4629],[21.9417,60.5187,0.8601],[21.9542,60.5167,0.0],[21.9557,60.5151,0.0],[21.9526,60.512,0.0],[21.9526,60.5089,0.0],[21.9667,60.5042,0.0],[21.9771,60.5042,0.0],[21.9875,60.5104,0.0],[21.9891,60.5089,0.0],[21.9818,60.4974,0.0],[21.9839,60.4943,0.0],[21.987,60.4932,15.661],[21.9859,60.4901,0.0],[21.9979,60.4854,0.0],[22.0104,60.4854,0.0],[22.0187,60.4896,0.0],[22.0245,60.487,0.0],[22.0266,60.4849,0.0],[22.0266,60.4818,0.0],[22.0146,60.4813,0.0],[22.0109,60.4776,0.0],[22.0167,60.4771,3.6225],[22.0208,60.4792,0.7089],[22.025,60.4771,0.0],[22.0333,60.4771,23.5203],[22.0349,60.4755,3.4342],[22.0172,60.4745,3.1111],[22.013,60.4693,0.0],[22.0161,60.4682,10.1847],[22.0151,60.4651,0.0],[22.0203,60.462,4.3079],[22.0187,60.4604,11.5435],[22.0062,60.4625,24.8219],[21.9995,60.4682,0.0],[21.9896,60.4688,0.0],[21.9849,60.4724,0.0],[21.9625,60.4792,0.0],[21.9583,60.4771,13.7916],[21.9396,60.4833,10.2892],[21.9255,60.4849,0.0],[21.9286,60.4818,30.9469],[21.925,60.4771,0.0],[21.9266,60.4745,24.1687],[21.9255,60.4714,0.0],[21.9286,60.4703,21.8221],[21.9313,60.4667,23.6392],[21.9276,60.4609,0.0],[21.938,60.4568,0.0],[21.9411,60.4516,11.1275],[21.9401,60.4484,0.0],[21.9583,60.4417,0.0],[21.9667,60.4417,9.2394],[21.9708,60.4396,0.0],[21.9786,60.4391,6.609],[21.9828,60.437,10.6396],[21.9818,60.4339,0.0],[21.9839,60.4297,18.4217],[21.988,60.4255,16.4789],[21.9938,60.4229,0.0],[22.0125,60.4229,0.5846],[22.0167,60.4208,0.0],[22.0271,60.425,0.0],[22.0313,60.4229,0.0],[22.0521,60.4229,0.0],[22.0563,60.425,-0.0062],[22.0625,60.425,0.0],[22.0682,60.4318,24.6454],[22.0651,60.4349,7.8077],[22.0672,60.437,15.7528],[22.0724,60.438,0.0],[22.0745,60.4422,0.0],[22.0667,60.4458,14.4362],[22.0542,60.4458,0.0],[22.0479,60.4417,0.0],[22.0297,60.4422,10.2289],[22.0349,60.4443,0.0],[22.037,60.4495,3.2547],[22.0328,60.4557,9.8898],[22.0255,60.4568,29.3286],[22.0234,60.4589,16.6243],[22.025,60.4604,0.0],[22.0458,60.4583,7.0149],[22.05,60.4604,20.2369],[22.0583,60.4562,0.0],[22.0661,60.4557,33.8926],[22.0693,60.4526,0.0],[22.0766,60.4516,33.6542],[22.0896,60.4458,5.3972],[22.0979,60.4458,0.2464],[22.1078,60.4484,0.0],[22.1068,60.4516,1.1217],[22.1109,60.4578,12.6408],[22.1161,60.4589,0.0],[22.1172,60.462,13.2341],[22.1229,60.4625,0.0],[22.1286,60.4589,1.5611],[22.1234,60.4578,-2.505],[22.1172,60.4495,0.0],[22.1172,60.4464,0.0],[22.1208,60.4437,0.0],[22.125,60.4458,0.0],[22.1292,60.4458,0.0],[22.1307,60.4453,0.0],[22.1297,60.4422,0.0],[22.1396,60.4396,3.6331],[22.1542,60.4437,0.0],[22.1583,60.4417,0.0],[22.1792,60.4417,0.0],[22.1896,60.4458,4.5147],[22.1953,60.4453,0.0],[22.1854,60.4396,0.0],[22.1625,60.4396,0.0],[22.1505,60.4349,5.4393],[22.1458,60.4313,0.0],[22.1375,60.4313,9.3788],[22.1271,60.4354,0.0],[22.1229,60.4333,32.7145],[22.1125,60.4333,0.0],[22.1109,60.4328,0.0],[22.112,60.4297,20.7473],[22.0917,60.4271,0.0],[22.088,60.4245,0.0],[22.0958,60.4188,2.2963],[22.0995,60.4214,0.0],[22.1005,60.4245,10.9313],[22.1078,60.4245,0.0],[22.1068,60.4193,0.0],[22.1099,60.4141,8.5682],[22.1068,60.4078,0.0],[22.1083,60.4063,6.6373],[22.1203,60.4109,7.5981],[22.1297,60.4182,12.8184],[22.1349,60.4193,0.0],[22.1339,60.4224,0.0],[22.1354,60.4229,0.0],[22.1396,60.4208,0.0],[22.1437,60.4208,0.0],[22.1542,60.425,0.0],[22.1583,60.425,0.0],[22.1625,60.4229,0.0],[22.1786,60.4224,0.0],[22.1766,60.4193,0.0],[22.1708,60.4167,36.3481],[22.1604,60.4167,0.0],[22.1526,60.4141,0.0],[22.1516,60.4109,7.9484],[22.1464,60.4057,0.0],[22.1521,60.4021,0.0],[22.1604,60.4021,0.0],[22.1646,60.4042,0.0],[22.1703,60.4036,0.0],[22.1724,60.4005,0.0],[22.1667,60.3979,21.0295],[22.1589,60.3974,21.328],[22.1568,60.3943,0.0],[22.163,60.3901,0.0],[22.175,60.3854,0.0],[22.1917,60.3854,0.0],[22.1958,60.3875,2.5291],[22.2,60.3875,0.0],[22.2042,60.3854,0.0],[22.2292,60.3854,0.0],[22.2396,60.3896,28.3308],[22.2479,60.3896,0.0244],[22.2516,60.3859,0.0227],[22.2422,60.3849,5.2407],[22.2401,60.3797,4.9389],[22.2479,60.3771,0.9241],[22.2646,60.3771,0.0],[22.27,60.381,0.0],[22.2786,60.3818,10.9306],[22.2807,60.3849,0.0],[22.275,60.3875,11.671],[22.2687,60.3875,12.3149],[22.2646,60.3896,0.0],[22.2589,60.388,0.0],[22.2589,60.3911,18.1957],[22.2604,60.3917,0.0],[22.2687,60.3917,2.1318],[22.2729,60.3896,0.0],[22.2792,60.3896,0.0],[22.2807,60.3911,0.0],[22.2776,60.3922,7.6572],[22.2786,60.3953,0.0],[22.2766,60.3974,7.8864],[22.2708,60.3979,17.5848],[22.2661,60.4016,0.0],[22.2589,60.4026,26.6018],[22.2568,60.4047,1.336],[22.2578,60.4078,0.0],[22.2547,60.4089,0.0],[22.2557,60.412,0.0],[22.2505,60.4151,17.6966],[22.2521,60.4167,0.0],[22.2599,60.4161,28.9258],[22.262,60.4141,8.6822],[22.2609,60.4109,0.0],[22.2682,60.4099,12.11],[22.2714,60.4068,0.0],[22.2807,60.4057,0.0],[22.2828,60.4016,0.7892],[22.2818,60.3984,0.0],[22.287,60.3953,11.1644],[22.2859,60.3922,0.0],[22.2891,60.3911,8.7142],[22.288,60.388,10.9509],[22.2901,60.3859,0.0],[22.3125,60.3854,0.0],[22.3167,60.3875,1.0893],[22.3266,60.387,0.0],[22.3109,60.3786,14.4943],[22.312,60.3755,36.9478],[22.3109,60.3734,0.0],[22.3141,60.3714,10.0172],[22.3109,60.3682,20.6712],[22.3109,60.3651,0.0],[22.3188,60.3625,14.0414],[22.3203,60.363,24.4401],[22.3188,60.3667,0.0],[22.3208,60.3688,0.0],[22.3292,60.3688,9.8348],[22.3333,60.3667,0.0],[22.3417,60.3667,6.4671],[22.3458,60.3646,0.0],[22.35,60.3646,8.6022],[22.3729,60.3708,28.4866],[22.3792,60.3708,0.0],[22.3896,60.375,0.3522],[22.4021,60.375,0.0],[22.4167,60.3792,6.5917],[22.4354,60.3792,0.0],[22.4396,60.3812,0.2235],[22.4542,60.3812,0.0],[22.4568,60.3849,0.1846],[22.4708,60.3896,0.0],[22.4771,60.3854,0.0],[22.4854,60.3854,9.9789],[22.5,60.3812,0.0],[22.5042,60.3833,15.4629],[22.5167,60.3833,3.9027],[22.5208,60.3812,0.0],[22.525,60.3833,17.8546],[22.5292,60.3833,21.8612],[22.5333,60.3812,0.0],[22.5375,60.3833,40.3128],[22.5417,60.3812,0.0],[22.5458,60.3833,0.0],[22.5583,60.3833,0.0],[22.5625,60.3812,0.0],[22.5708,60.3812,0.0],[22.5771,60.3771,0.0],[22.5938,60.3771,0.0],[22.5984,60.3807,0.2171],[22.6078,60.3839,0.0],[22.6109,60.387,0.1122],[22.6161,60.388,0.0],[22.6172,60.3911,0.0339],[22.6224,60.3922,0.0],[22.6255,60.3953,0.2125],[22.6286,60.3953,0.0],[22.6255,60.3901,0.0],[22.6286,60.388,4.5482],[22.6234,60.387,0.0],[22.6203,60.3818,32.9023],[22.6089,60.3786,0.0],[22.5974,60.3609,3.1211],[22.5953,60.3589,4.6784],[22.5901,60.3578,0.0],[22.5932,60.3547,13.8833],[22.5812,60.3542,0.0],[22.5771,60.3521,2.486],[22.5729,60.3542,0.0],[22.563,60.3536,11.5469],[22.5583,60.3479,16.8687],[22.5599,60.3453,0.0],[22.5589,60.3422,0.0],[22.562,60.3401,0.0],[22.5599,60.338,0.0],[22.5547,60.337,0.0],[22.5557,60.3318,6.4271],[22.5536,60.3276,7.9959],[22.5422,60.3245,0.2112],[22.5391,60.3193,22.911],[22.5276,60.3161,9.9453],[22.5203,60.3109,23.5489],[22.5151,60.3099,0.0],[22.5151,60.3068,4.3477],[22.5203,60.3047,0.0],[22.5083,60.3042,0.0],[22.5036,60.3005,0.8117],[22.4964,60.2995,0.0],[22.4932,60.2964,14.1073],[22.488,60.2953,0.0],[22.487,60.2922,3.7163],[22.4818,60.2911,0.0],[22.4693,60.2807,0.0],[22.4703,60.2755,0.0944],[22.4693,60.2734,0.0],[22.4724,60.2714,-0.0135],[22.4682,60.2672,0.0],[22.4568,60.2661,5.3538],[22.4589,60.263,8.2013],[22.4708,60.2583,5.4493],[22.4911,60.2578,-0.0558],[22.4937,60.2542,2.1331],[22.4922,60.2505,7.7278],[22.4979,60.25,3.5063],[22.4995,60.2505,5.0704],[22.4984,60.2536,0.0],[22.5057,60.2547,16.5963],[22.5109,60.2599,0.0],[22.5187,60.2625,6.3633],[22.5271,60.2625,1.3131],[22.5286,60.262,10.04],[22.5276,60.2589,25.289],[22.5333,60.2583,4.3516],[22.537,60.2609,17.6541],[22.5339,60.2641,14.3645],[22.538,60.2682,0.0],[22.5438,60.2687,5.3962],[22.5479,60.2667,0.0],[22.5578,60.2693,8.3581],[22.5625,60.2729,3.0446],[22.5641,60.2724,3.0446],[22.563,60.2693,7.9842],[22.5661,60.2682,15.6849],[22.563,60.263,2.0403],[22.5661,60.262,-0.0834],[22.5682,60.2589,0.0],[22.5646,60.2562,36.7903],[22.5589,60.2557,19.4506],[22.5557,60.2526,20.701],[22.5464,60.2516,24.1623],[22.5464,60.2484,6.6867],[22.5479,60.2479,6.7383],[22.5521,60.2479,0.0],[22.5563,60.25,0.0],[22.562,60.2495,18.9653],[22.5599,60.2464,0.7927],[22.5547,60.2453,0.0],[22.5526,60.2401,4.3898],[22.5724,60.2401,0.0],[22.5766,60.2464,0.0],[22.5714,60.2484,19.8505],[22.5745,60.2505,0.0],[22.5734,60.2536,2.5952],[22.5755,60.2578,2.9868],[22.5833,60.2604,14.8193],[22.5891,60.2599,0.7803],[22.5839,60.2516,11.1842],[22.5839,60.2484,0.0],[22.5917,60.2458,0.0],[22.5995,60.2453,0.0],[22.5771,60.2375,27.6663],[22.5583,60.2375,8.6549],[22.5536,60.2318,0.0],[22.5458,60.2292,16.4751],[22.5318,60.2286,13.2888],[22.5245,60.2193,2.7649],[22.5193,60.2182,0.0],[22.5187,60.2167,0.0],[22.5193,60.2151,5.1484],[22.5271,60.2125,0.0],[22.5479,60.2125,0.0],[22.5521,60.2146,26.927],[22.5625,60.2146,6.2458],[22.5667,60.2167,16.5417],[22.5708,60.2146,0.0],[22.5734,60.2182,1.7188],[22.5849,60.2214,0.0],[22.5922,60.2266,12.1392],[22.6063,60.2313,22.0304],[22.6146,60.2313,0.0],[22.6208,60.2354,0.0],[22.6396,60.2375,0.0],[22.6437,60.2396,15.4181],[22.6542,60.2396,3.5144],[22.6688,60.2438,11.72],[22.6729,60.2417,0.0],[22.6875,60.2458,14.195],[22.6917,60.2438,0.0],[22.7208,60.2438,0.0],[22.725,60.2458,0.0],[22.7328,60.2464,9.7834],[22.7354,60.25,17.3869],[22.7458,60.25,0.0],[22.7604,60.2542,0.0],[22.7646,60.2542,13.4804],[22.7687,60.2521,0.0],[22.7813,60.2562,0.0],[22.7917,60.2562,0.4684],[22.8099,60.263,0.0],[22.8193,60.2703,43.0194],[22.8307,60.2734,0.0],[22.8339,60.2766,0.0],[22.8411,60.2776,0.0],[22.8443,60.2807,0.0],[22.8495,60.2818,0.0],[22.8505,60.2849,0.8326],[22.8583,60.2854,0.0],[22.8661,60.288,0.0],[22.8682,60.2911,0.0],[22.863,60.2943,22.996],[22.8651,60.2974,2.9309],[22.8714,60.3016,4.1202],[22.8766,60.3026,0.0],[22.8776,60.3057,0.0807],[22.885,60.3063,0.0953],[22.8812,60.3086,5.9854],[22.8751,60.3059,0.4623],[22.8759,60.3149,37.5065],[22.8669,60.3151,17.6787],[22.8673,60.3195,27.4529],[22.8582,60.3197,19.455],[22.859,60.3287,37.0256],[22.8499,60.3289,46.8314],[22.8503,60.3334,61.7328],[22.8412,60.3336,49.6394],[22.8436,60.3605,21.6236],[22.8345,60.3607,33.3722],[22.8349,60.3652,48.9711],[22.8258,60.3654,56.8265],[22.8262,60.3699,42.6663],[22.8171,60.3701,46.923],[22.8175,60.3746,61.3398],[22.8266,60.3744,64.6172],[22.8274,60.3833,67.9515],[22.8365,60.3831,64.8097],[22.8388,60.4101,34.7966],[22.8479,60.4099,30.1264],[22.8487,60.4188,30.2847],[22.8669,60.4184,35.2746],[22.8677,60.4274,68.2734],[22.8586,60.4276,54.1267],[22.8589,60.4321,73.0696],[22.868,60.4319,56.4191],[22.8688,60.4409,90.0787],[22.8779,60.4407,89.1585],[22.8787,60.4497,85.0493],[22.8696,60.4499,87.3958],[22.87,60.4543,80.1715],[22.8609,60.4545,80.8481],[22.8613,60.459,59.1506],[22.8522,60.4592,65.9745],[22.853,60.4682,53.4234],[22.8439,60.4684,65.2553],[22.8443,60.4729,66.8852],[22.8534,60.4727,58.1504],[22.8562,60.5041,70.3686],[22.8471,60.5043,61.0556],[22.8479,60.5133,82.441],[22.8387,60.5135,72.2654],[22.8395,60.5224,56.1821],[22.7666,60.5239,63.4413],[22.7669,60.5284,62.9715],[22.7487,60.5288,73.1108],[22.7491,60.5333,63.5549],[22.74,60.5335,63.5822],[22.7403,60.538,70.2496],[22.7221,60.5383,52.8599],[22.7225,60.5428,67.9656],[22.7042,60.5432,47.477],[22.7053,60.5567,56.3425],[22.6688,60.5574,68.4449],[22.6684,60.5529,68.5829],[22.6502,60.5533,62.2087],[22.6509,60.5622,44.9517],[22.6418,60.5624,43.8192],[22.6422,60.5669,44.6181],[22.633,60.5671,51.317],[22.6334,60.5716,65.4094],[22.6243,60.5718,75.8932],[22.6246,60.5762,65.367],[22.6155,60.5764,82.7374],[22.6159,60.5809,77.3695],[22.6067,60.5811,68.4478],[22.6078,60.5946,75.5647],[22.6169,60.5944,68.0632],[22.6173,60.5989,81.0471],[22.6264,60.5987,56.0802],[22.6272,60.6077,55.9078],[22.5906,60.6084,82.9973],[22.5902,60.6039,61.7342],[22.5719,60.6042,45.7076],[22.5716,60.5998,68.6548],[22.5624,60.5999,62.0857],[22.5621,60.5954,77.1616],[22.5529,60.5956,59.316],[22.5522,60.5866,64.7474],[22.5614,60.5864,79.3773],[22.561,60.582,69.3585],[22.5702,60.5818,76.6903],[22.5698,60.5773,63.1698],[22.5789,60.5771,66.1272],[22.5782,60.5681,54.5929],[22.56,60.5685,52.034],[22.5603,60.573,56.8322],[22.542,60.5733,65.5856],[22.5424,60.5778,51.9874],[22.5333,60.578,59.3867],[22.5336,60.5825,43.8897],[22.5153,60.5828,43.8784],[22.515,60.5783,51.8847],[22.5058,60.5785,40.8283],[22.5055,60.574,53.9175],[22.4964,60.5742,37.0496],[22.496,60.5697,48.2609],[22.4869,60.5699,37.3674],[22.4883,60.5878,58.8973],[22.4791,60.588,51.5361],[22.4815,60.6194,50.8922],[22.4907,60.6192,49.798],[22.4914,60.6282,50.3274],[22.5005,60.628,50.1161],[22.5009,60.6325,74.7472],[22.51,60.6324,58.056399999999996],[22.5104,60.6369,59.1116],[22.4555,60.6379,70.9857],[22.4558,60.6423,54.087],[22.4466,60.6425,52.413],[22.4477,60.656,55.6556],[22.4568,60.6558,55.4783],[22.4585,60.6783,59.4486],[22.4494,60.6784,60.2187],[22.4507,60.6964,61.8723],[22.4416,60.6965,67.1361],[22.4426,60.71,69.5607],[22.4334,60.7102,79.6969],[22.4341,60.7192,77.9836],[22.4249,60.7193,87.9484],[22.4259,60.7328,74.8146],[22.4167,60.7329,72.3551],[22.4171,60.7374,79.1408],[22.4079,60.7376,90.1856],[22.4082,60.7421,68.0],[22.399,60.7422,68.0],[22.3994,60.7467,68.0],[22.381,60.7471,82.2375],[22.3814,60.7515,72.6895],[22.3722,60.7517,70.8311],[22.3725,60.7562,79.6805],[22.3541,60.7565,78.7505],[22.3544,60.761,66.0],[22.3452,60.7612,73.0108],[22.3456,60.7657,71.4084],[22.3272,60.766,79.1305],[22.3275,60.7705,67.7874],[22.3183,60.7706,72.8329],[22.3187,60.7751,75.748],[22.3095,60.7753,74.0204],[22.3098,60.7798,69.0707],[22.2914,60.7801,72.1005],[22.2917,60.7846,70.3546],[22.2825,60.7847,70.1908],[22.2828,60.7892,71.3596],[22.2644,60.7895,64.4496],[22.2648,60.794,73.2416],[22.2556,60.7942,49.0908],[22.2559,60.7986,48.8089],[22.2375,60.799,67.0777],[22.2378,60.8034,66.4828],[22.2286,60.8036,58.6396],[22.2289,60.8081,63.8229],[22.2197,60.8082,68.6618],[22.2203,60.8172,58.9371],[22.2111,60.8174,70.3365],[22.2117,60.8263,56.5292],[22.2025,60.8265,56.2203],[22.2031,60.8355,57.988],[22.1939,60.8356,55.2495],[22.1946,60.8446,56.1903],[22.1853,60.8447,54.036],[22.1859,60.8537,53.927],[22.1767,60.8539,55.2977],[22.1773,60.8628,61.6964],[22.1681,60.863,57.655],[22.1687,60.872,53.7075],[22.1595,60.8721,55.702],[22.1598,60.8766,68.9986],[22.1506,60.8768,64.3197],[22.1512,60.8857,58.929],[22.142,60.8859,62.4142],[22.1426,60.8949,62.8463],[22.1333,60.895,62.0754],[22.1339,60.904,56.5766],[22.1247,60.9041,50.1191],[22.1244,60.8996,59.365],[22.1059,60.8999,45.7298],[22.1056,60.8954,49.2473],[22.0964,60.8956,50.6653],[22.0961,60.8911,50.1245],[22.0777,60.8914,47.362],[22.0774,60.8869,49.0669],[22.0681,60.887,61.2907],[22.0671,60.8715,56.7963],[22.07,60.869,44.8703],[22.0762,60.8689,47.1042],[22.0759,60.8644,49.9545],[22.0667,60.8646,43.6673],[22.0669,60.8673,44.9367],[22.0635,60.8691,60.3052],[22.0393,60.8695,49.5043],[22.0396,60.874,55.7869],[22.0304,60.8741,50.9717],[22.0298,60.8651,50.5197],[22.0206,60.8653,59.1574],[22.0203,60.8608,52.6275],[22.0111,60.8609,41.2721],[22.0105,60.8519,45.8141],[22.0013,60.8521,40.9622],[22.001,60.8476,56.1247],[21.9918,60.8477,57.5827],[21.9912,60.8387,39.0687],[21.982,60.8389,52.7903],[21.9818,60.8344,41.1535],[21.9725,60.8345,38.7223],[21.9723,60.83,36.4226],[21.9631,60.8302,35.2009],[21.9628,60.8257,34.886],[21.9536,60.8258,40.5318],[21.9533,60.8213,42.4981],[21.9441,60.8214,37.108],[21.9436,60.8125,39.1706],[21.9343,60.8126,55.5749],[21.9338,60.8036,44.4154],[21.9246,60.8038,43.3528],[21.9243,60.7993,48.417],[21.9059,60.7995,43.1789],[21.9056,60.795,50.0706],[21.8965,60.7952,36.6485],[21.8962,60.7907,47.5064],[21.887,60.7908,41.5525],[21.8867,60.7863,44.703],[21.8683,60.7866,40.7704],[21.8681,60.7821,46.0504],[21.8589,60.7822,38.2683],[21.8583,60.7732,52.0464],[21.8492,60.7734,50.9861],[21.8486,60.7644,48.7308],[21.8394,60.7645,53.156],[21.8389,60.7555,38.1117],[21.8297,60.7556,35.2962],[21.8295,60.7512,35.0209],[21.8203,60.7513,44.131],[21.82,60.7468,38.7498],[21.8109,60.7469,31.5068],[21.8106,60.7424,30.5514],[21.8014,60.7425,25.0083],[21.7997,60.7111,29.9108],[21.7905,60.7113,27.1024],[21.79,60.7023,21.6878],[21.7992,60.7021,26.8857],[21.7987,60.6932,25.8434],[21.8078,60.693,14.5711],[21.8073,60.6841,24.8357],[21.8165,60.6839,22.604],[21.8155,60.666,12.2556],[21.8246,60.6659,32.7809],[21.8249,60.6703,29.8987],[21.8432,60.6701,23.1388],[21.8435,60.6746,19.3193],[21.8618,60.6743,26.1826],[21.8621,60.6788,26.0193],[21.8804,60.6786,25.5553],[21.8802,60.6741,10.2764],[21.8893,60.674,6.6175],[21.8891,60.6695,6.4052],[21.9074,60.6692,9.7737],[21.9069,60.6602,8.7242],[21.916,60.6601,11.6639],[21.9155,60.6511,9.5854],[21.9247,60.651,8.1881],[21.9244,60.6465,6.9938],[21.9427,60.6462,7.3816],[21.943,60.6507,8.6862],[21.9521,60.6506,8.7903],[21.9518,60.6461,12.4727],[21.961,60.646,9.309],[21.9607,60.6415,26.1424],[21.9699,60.6414,9.052],[21.9696,60.6369,11.4329],[21.9788,60.6367,8.4299],[21.9779,60.6233,6.3375],[21.9597,60.6235,5.7263],[21.9594,60.619,6.8423],[21.9502,60.6192,32.333],[21.9497,60.6102,9.3425],[21.9405,60.6103,31.3922],[21.9403,60.6058,34.318],[21.9311,60.606,27.4203],[21.9308,60.6015,41.9936],[21.9217,60.6016,45.7167],[21.9212,60.5926,39.1713],[21.9029,60.5929,7.266],[21.9026,60.5884,22.8633],[21.8752,60.5888,10.9366],[21.8749,60.5843,6.344],[21.8473,60.5851,13.1586],[21.8404,60.5859,24.2112],[21.8386,60.5911,19.9681],[21.8314,60.5965,0.3024],[21.8234,60.5953,29.4316],[21.8214,60.5932,15.4388],[21.8245,60.5911,5.3331],[21.8208,60.5854,0.0],[21.8224,60.5818,0.0],[21.8146,60.5792,0.0],[21.8129,60.5792,7.958],[21.8125,60.5812,11.3289],[21.8089,60.5807,17.2165],[21.8141,60.5766,0.0],[21.813,60.5734,0.0],[21.8182,60.5703,1.7619],[21.8172,60.5672,0.0],[21.8203,60.5661,0.0],[21.8151,60.5641,0.0],[21.8125,60.5604,0.0],[21.8172,60.5547,0.0],[21.8224,60.5516,7.706],[21.8203,60.5484,0.0],[21.8172,60.5474,0.0],[21.8182,60.5443,0.8641],[21.8172,60.5422,8.487],[21.8203,60.5401,0.0],[21.8109,60.5391,0.0],[21.8161,60.5339,4.7398],[21.8109,60.5328,0.0],[21.812,60.5276,0.0],[21.8099,60.5255,0.0],[21.8047,60.5245,0.0],[21.8005,60.5182,16.9144],[21.8016,60.513,13.1734],[21.8005,60.5109,15.591],[21.8036,60.5089,32.4875],[21.7995,60.5047,0.0],[21.7875,60.5,12.2218],[21.7833,60.5021,0.0],[21.7792,60.5,13.3617],[21.7734,60.5005,0.0],[21.7735,60.5037,0.0],[21.7766,60.5078,0.0],[21.7734,60.5099,0.0],[21.7786,60.5109,0.0],[21.7818,60.5161,1.3811],[21.787,60.5172,0.0],[21.7922,60.5245,0.0],[21.7974,60.5255,0.0],[21.7964,60.5307,0.0855],[21.8036,60.5411,0.0],[21.7943,60.5443,0.0],[21.7932,60.5474,0.0],[21.7875,60.5521,0.0],[21.7818,60.5516,12.9371],[21.7771,60.5479,0.0],[21.7641,60.5536,0.0],[21.7547,60.5557,0.0],[21.7495,60.5484,13.1686],[21.7443,60.5474,0.0],[21.7422,60.5453,11.3654],[21.7474,60.5411,29.8699],[21.7453,60.5359,5.8072],[21.7401,60.5349,0.0],[21.7354,60.5292,0.0],[21.7234,60.5286,0.0],[21.7182,60.5214,4.653],[21.7104,60.5208,7.2412],[21.7068,60.5182,0.0],[21.7026,60.5109,0.0],[21.7057,60.5099,0.0],[21.7047,60.5068,0.0],[21.7104,60.5062,0.0],[21.712,60.5047,3.2553],[21.7078,60.5005,0.0],[21.7021,60.5021,0.0],[21.6984,60.4984,0.0],[21.7016,60.4974,1.3204],[21.7,60.4938,12.6062],[21.7042,60.4875,0.0],[21.7026,60.4839,0.0],[21.7078,60.4818,0.0983],[21.7005,60.4807,6.0371],[21.6922,60.4734,0.0253],[21.6974,60.4661,0.0],[21.6964,60.463,0.0],[21.7083,60.4583,0.7605],[21.7125,60.4583,6.191],[21.7172,60.462,0.1005],[21.7245,60.463,8.7298],[21.7286,60.4672,0.0],[21.7255,60.4703,8.741],[21.7333,60.4729,0.0],[21.7411,60.4734,0.0],[21.7375,60.4771,0.0]]],
[[[21.7604,60.5604,0.0],[21.762,60.5609,0.0],[21.762,60.562,0.0],[21.7589,60.562,0.0],[21.7604,60.5604,0.0]]],
[[[21.7568,60.5661,0.0],[21.7547,60.563,0.0],[21.7578,60.563,19.6495],[21.7599,60.5651,17.5836],[21.7568,60.5661,0.0]]],
[[[21.9057,60.4984,0.0],[21.9057,60.4995,0.0],[21.9026,60.4995,8.272],[21.9042,60.4979,0.0],[21.9057,60.4984,0.0]]],
[[[21.9271,60.5021,0.0],[21.9333,60.5021,0.0],[21.9349,60.5036,0.0],[21.9292,60.5062,21.5521],[21.9193,60.5057,11.852],[21.9193,60.5047,6.9854],[21.9271,60.5021,0.0]]],
[[[21.9021,60.5083,0.0],[21.9005,60.5078,0.0],[21.9016,60.5057,24.2807],[21.9057,60.5047,0.0],[21.9047,60.5068,6.2237],[21.9021,60.5083,0.0]]],
[[[21.8995,60.5255,15.905],[21.8995,60.5266,9.8496],[21.8964,60.5266,22.9562],[21.8979,60.525,17.5763],[21.8995,60.5255,15.905]]],
[[[21.7974,60.4693,0.0],[21.7958,60.4708,4.8178],[21.7943,60.4703,8.9297],[21.7943,60.4693,3.9179],[21.7974,60.4693,0.0]]],
[[[21.7813,60.4729,0.0],[21.7776,60.4724,0.0],[21.7776,60.4693,0.0],[21.7849,60.4693,0.0],[21.7875,60.4729,0.0],[21.7854,60.475,0.0],[21.7813,60.4729,0.0]]],
[[[21.8833,60.5187,0.0],[21.8896,60.5146,0.0],[21.8953,60.5203,0.0],[21.8818,60.5203,0.0],[21.8833,60.5187,0.0]]],
[[[21.7729,60.5563,12.3758],[21.7714,60.5547,12.8516],[21.7745,60.5547,2.5992],[21.7745,60.5557,0.0],[21.7729,60.5563,12.3758]]],
[[[22.6003,60.226,0.0],[22.6011,60.2262,0.0],[22.6051,60.2271,0.0],[22.6021,60.2271,0.0],[22.6003,60.226,0.0]]],
[[[22.6109,60.2286,19.858],[22.6107,60.2284,19.858],[22.6141,60.2292,7.3564],[22.6125,60.2292,4.9985],[22.6109,60.2286,19.858]]],
[[[22.6958,60.2417,4.0701],[22.6875,60.2417,0.0],[22.6859,60.2401,3.3685],[22.7099,60.2401,20.3703],[22.7083,60.2417,0.0],[22.6958,60.2417,4.0701]]],
[[[22.4964,60.2453,6.9193],[22.4937,60.2417,0.0],[22.4964,60.238,15.2981],[22.5104,60.2375,0.0],[22.5146,60.2396,1.8072],[22.5224,60.2401,0.0],[22.5266,60.2422,15.1922],[22.5313,60.2479,13.9464],[22.5307,60.2495,15.5714],[22.525,60.25,0.0],[22.5167,60.2458,4.9355],[22.4964,60.2453,6.9193]]],
[[[22.538,60.2443,14.8649],[22.5396,60.2438,0.6323],[22.5411,60.2453,0.2878],[22.538,60.2453,1.092],[22.538,60.2443,14.8649]]],
[[[22.7568,60.2443,0.0],[22.7625,60.2438,17.2664],[22.7641,60.2453,15.9667],[22.7547,60.2474,4.9731],[22.7568,60.2443,0.0]]],
[[[22.4797,60.2505,3.0667],[22.4755,60.2516,5.57],[22.4792,60.2479,0.0],[22.4807,60.2484,5.2854],[22.4797,60.2505,3.0667]]],
[[[22.8443,60.2505,0.0],[22.8474,60.2505,0.0],[22.8495,60.2536,26.1873],[22.8375,60.2583,3.5754],[22.8318,60.2578,22.4256],[22.838,60.2526,2.2713],[22.8443,60.2505,0.0]]],
[[[22.8141,60.2578,0.1624],[22.8229,60.2521,0.0],[22.8307,60.2547,0.0],[22.8255,60.2589,18.1165],[22.8266,60.262,0.0],[22.825,60.2625,0.0],[22.8208,60.2604,16.7812],[22.813,60.2599,0.0],[22.8141,60.2578,0.1624]]],
[[[22.8333,60.2625,0.0],[22.8375,60.2625,3.6095],[22.8417,60.2604,0.0],[22.8474,60.263,0.0],[22.8495,60.2661,0.0],[22.8453,60.2703,16.3025],[22.8396,60.2708,0.0],[22.8318,60.2641,3.1087],[22.8333,60.2625,0.0]]],
[[[22.5411,60.3589,30.1183],[22.5411,60.362,10.7738],[22.538,60.362,0.0],[22.538,60.3589,31.7805],[22.5411,60.3589,30.1183]]],
[[[22.2479,60.3437,0.0],[22.2495,60.3453,14.0235],[22.2443,60.3453,0.0],[22.2443,60.3443,0.0],[22.2479,60.3437,0.0]]],
[[[22.2542,60.3479,17.6837],[22.2505,60.3464,30.877],[22.2563,60.3438,0.0],[22.2578,60.3443,0.0],[22.2599,60.3495,8.908],[22.2583,60.35,0.0],[22.2542,60.3479,17.6837]]],
[[[22.1432,60.3505,0.0],[22.1401,60.3516,22.1808],[22.138,60.3484,0.0],[22.1411,60.3484,18.9331],[22.1432,60.3505,0.0]]],
[[[22.2266,60.3807,14.3886],[22.2166,60.3813,0.2378],[22.2125,60.3833,0.0],[22.2083,60.3812,22.2668],[22.2,60.3812,22.3215],[22.1958,60.3833,0.0],[22.1917,60.3812,15.4995],[22.1667,60.3812,32.2872],[22.1625,60.3792,29.9841],[22.1563,60.3812,0.3809],[22.1354,60.3812,4.714],[22.1313,60.3792,21.3694],[22.1271,60.3792,0.0],[22.1229,60.3812,0.0],[22.1208,60.3792,0.0],[22.1224,60.3755,0.0],[22.1172,60.3745,0.0],[22.1167,60.3729,0.0],[22.1203,60.3682,22.8797],[22.1172,60.3661,8.2377],[22.1182,60.363,6.9188],[22.1099,60.3568,17.2509],[22.1047,60.3557,0.0],[22.1021,60.3521,16.3991],[22.1042,60.35,13.5239],[22.1083,60.35,0.0],[22.1161,60.3526,0.0],[22.1172,60.3557,0.0],[22.1208,60.3583,9.6347],[22.1396,60.3583,0.0],[22.1437,60.3604,0.0],[22.1479,60.3604,0.0],[22.1495,60.3589,27.9906],[22.1464,60.3547,7.2301],[22.1505,60.3527,19.5337],[22.1563,60.3542,23.1533],[22.1661,60.3536,0.0],[22.1625,60.3479,0.0],[22.1651,60.3443,10.7853],[22.1729,60.3417,0.0],[22.2042,60.3417,0.0],[22.2083,60.3438,1.0313],[22.2271,60.3458,0.0],[22.2375,60.35,20.535],[22.2521,60.35,0.0],[22.2563,60.3521,13.8138],[22.2917,60.3542,0.0],[22.3057,60.3589,0.0],[22.3062,60.3604,10.4946],[22.3026,60.3651,7.2117],[22.3036,60.3703,0.0],[22.3016,60.3745,0.0],[22.2938,60.3771,0.0],[22.2854,60.3771,0.0],[22.2813,60.375,6.8632],[22.2583,60.375,7.8782],[22.2479,60.3708,47.6797],[22.2354,60.3729,0.0],[22.2313,60.3688,47.8337],[22.2068,60.3693,0.0],[22.2146,60.3729,1.6152],[22.225,60.3729,0.0],[22.2328,60.3755,1.3054],[22.2313,60.3771,0.0],[22.2255,60.3776,0.0],[22.2266,60.3807,14.3886]]],
[[[21.9708,60.3375,21.4216],[21.9745,60.3391,41.416],[21.9667,60.3396,22.8236],[21.9625,60.3417,0.0],[21.9583,60.3417,0.0],[21.9542,60.3396,1.2536],[21.9417,60.3396,16.091],[21.9375,60.3417,6.5403],[21.9208,60.3417,34.8426],[21.9193,60.3401,1.7278],[21.9245,60.3391,2.9811],[21.9266,60.3359,13.2725],[21.9208,60.3354,0.0],[21.9193,60.3339,18.1036],[21.9229,60.3312,0.0],[21.9313,60.3312,0.0],[21.9391,60.3339,16.4775],[21.9375,60.3354,26.611],[21.9318,60.3359,7.2522],[21.9333,60.3375,1.1555],[21.9708,60.3375,21.4216]]],
[[[21.9068,60.3422,26.8332],[21.9083,60.3417,20.2015],[21.9099,60.3432,0.0],[21.9068,60.3432,0.0],[21.9068,60.3422,26.8332]]],
[[[21.9193,60.4609,0.0],[21.9208,60.4604,0.0],[21.9224,60.462,16.8105],[21.9208,60.4625,24.2722],[21.9193,60.4609,0.0]]],
[[[21.8188,60.3771,0.0],[21.8151,60.3755,0.0],[21.8229,60.375,24.979],[21.8229,60.3771,0.0],[21.8188,60.3771,0.0]]],
[[[21.7755,60.3859,0.0],[21.7771,60.3854,0.0],[21.7786,60.387,12.1944],[21.7771,60.3875,25.1041],[21.7755,60.3859,0.0]]],
[[[21.7859,60.4568,0.2903],[21.7958,60.4562,0.0],[21.7974,60.4578,0.0],[21.7938,60.4625,0.0],[21.7896,60.4583,19.094],[21.7828,60.462,10.0266],[21.7797,60.462,0.0],[21.7797,60.4589,0.0],[21.7859,60.4568,0.2903]]],
[[[22.0047,60.4734,17.4092],[22.0062,60.4729,14.2515],[22.0078,60.4745,0.0],[22.0062,60.475,0.0],[22.0047,60.4734,17.4092]]],
[[[21.9771,60.4875,7.2307],[21.9734,60.4859,0.0],[21.9792,60.4833,0.0],[21.9828,60.4859,0.0],[21.9813,60.4875,15.5846],[21.9771,60.4875,7.2307]]],
[[[21.95,60.4917,0.0],[21.9443,60.4911,0.6227],[21.9422,60.488,13.9922],[21.9516,60.4901,0.0],[21.95,60.4917,0.0]]],
[[[21.9401,60.4922,1.6107],[21.9417,60.4917,1.3831],[21.9432,60.4932,18.7688],[21.9417,60.4938,0.0],[21.9401,60.4922,1.6107]]],
[[[21.9526,60.4922,6.4152],[21.9542,60.4917,0.0],[21.9557,60.4932,6.8435],[21.9542,60.4938,5.7996],[21.9526,60.4922,6.4152]]],
[[[21.9292,60.4958,0.0],[21.9307,60.4974,0.0],[21.9255,60.4974,10.3641],[21.9255,60.4964,0.0],[21.9292,60.4958,0.0]]],
[[[21.9432,60.4984,3.8219],[21.9417,60.5,0.0],[21.9359,60.4995,0.0],[21.9375,60.4979,3.3459],[21.9432,60.4984,3.8219]]],
[[[22.0771,60.375,2.0665],[22.0729,60.375,3.4546],[22.0714,60.3734,0.0],[22.075,60.3708,0.0],[22.0786,60.3734,4.6376],[22.0771,60.375,2.0665]]],
[[[22.238,60.3755,1.1899],[22.2411,60.3755,0.0],[22.2411,60.3766,5.2223],[22.2396,60.3771,0.0],[22.238,60.3755,1.1899]]],
[[[22.0604,60.3771,12.6758],[22.0667,60.3771,0.6721],[22.0682,60.3786,12.3459],[22.0604,60.3812,22.1845],[22.0547,60.3807,19.0752],[22.0568,60.3776,0.0],[22.0604,60.3771,12.6758]]],
[[[22.1375,60.3833,0.0],[22.1479,60.3833,0.0],[22.1536,60.387,0.0],[22.15,60.3896,0.0],[22.1417,60.3896,6.6017],[22.1313,60.3854,15.9126],[22.1271,60.3875,0.0],[22.1229,60.3875,0.0],[22.1208,60.3854,3.6713],[22.1229,60.3833,9.3199],[22.1375,60.3833,0.0]]],
[[[22.0391,60.3964,12.7612],[22.0375,60.3979,22.0598],[22.0318,60.3974,20.9148],[22.0333,60.3958,22.0185],[22.0391,60.3964,12.7612]]],
[[[22.0646,60.4146,0.0],[22.0641,60.4161,0.0],[22.0563,60.4167,2.1268],[22.0521,60.4188,0.0],[22.0464,60.4182,0.0],[22.0432,60.413,4.5889],[22.0354,60.4104,1.6685],[22.0276,60.4099,0.0],[22.025,60.4063,0.0],[22.0266,60.4036,26.5481],[22.0255,60.4005,0.0],[22.0438,60.4,0.0],[22.0479,60.3979,13.8906],[22.0521,60.3979,0.0],[22.0563,60.4,9.9804],[22.0641,60.4005,0.0],[22.0682,60.4068,10.4081],[22.063,60.4109,0.0],[22.0646,60.4146,0.0]]],
[[[22.1474,60.4172,28.2629],[22.1422,60.4161,29.0645],[22.1401,60.413,17.8419],[22.1474,60.413,17.6063],[22.1516,60.4182,6.3618],[22.1474,60.4172,28.2629]]],
[[[22.0193,60.4151,10.1227],[22.0224,60.4151,11.5125],[22.0224,60.4161,23.5732],[22.0193,60.4161,10.0634],[22.0193,60.4151,10.1227]]],
[[[22.525,60.3792,10.5656],[22.5104,60.3792,12.7405],[22.5063,60.3812,0.0],[22.4937,60.3771,21.5616],[22.4792,60.3771,0.0],[22.4646,60.3729,30.8563],[22.4604,60.375,0.0],[22.4562,60.375,0.0],[22.4474,60.3693,17.011],[22.4422,60.3682,0.0],[22.4432,60.363,0.237],[22.438,60.362,0.0],[22.4354,60.3583,30.0883],[22.4396,60.3542,0.0],[22.45,60.3542,15.2067],[22.4542,60.3521,5.1828],[22.4667,60.3521,1.9163],[22.4708,60.3542,1.1265],[22.4979,60.3542,0.0],[22.4995,60.3547,0.0],[22.4984,60.3578,0.0],[22.5026,60.3641,0.0],[22.5182,60.3693,0.0],[22.5214,60.3745,0.0],[22.5292,60.375,0.5606],[22.5328,60.3776,11.7039],[22.5313,60.3792,30.0495],[22.525,60.3792,10.5656]]],
[[[22.4792,60.3792,4.2574],[22.4854,60.3792,0.0],[22.487,60.3807,25.0838],[22.4792,60.3833,0.0],[22.4708,60.3833,0.0],[22.4667,60.3812,24.168],[22.4589,60.3807,0.0],[22.4604,60.3792,0.0],[22.4792,60.3792,4.2574]]],
[[[22.0688,60.4208,0.0],[22.0667,60.4229,16.6083],[22.0646,60.4208,0.0841],[22.0667,60.4188,0.0],[22.0688,60.4208,0.0]]]]}
,"properties": {"GID_3": "FIN.5.3.4_1","GID_0": "FIN","country": "Finland","GID_1": "FIN.5_1","province": "WesternFinland","NL_NAME_1": "NA","GID_2": "FIN.5.3_1","county": "FinlandProper","NL_NAME_2": "NA","city": "Turku","VARNAME_3": "NA","NL_NAME_3": "NA","TYPE_3": "Seutukunta|Ekonomiskregion","ENGTYPE_3": "Sub-Region","CC_3": "NA","HASC_3": "FI.LS.TU","name": "Turku.city","area_km2": 2422.467,"hist_schema_id": "Elevation0-9000","hist_area_km2": {"0": 419.788,"25": 835.633,"50": 872.621,"75": 279.118,"100": 15.307}}}