{"type":"Feature","properties":{"GID_2":"FIN.5.1_1","GID_0":"FIN","country":"Finland","GID_1":"FIN.5_1","province":"WesternFinland","NL_NAME_1":"NA","county":"CentralFinland","VARNAME_2":"Keski-Suomi|MellerstaFinland","NL_NAME_2":"NA","TYPE_2":"Maakunta|landskap","ENGTYPE_2":"Region","CC_2":"NA","HASC_2":"NA","name":"Central_Finland.county"},
"geometry":{"type": "MultiPolygon","coordinates": [[[[26.3034,61.622,102.5],[26.3128,61.6215,102.5],[26.311,61.6126,102.5],[26.3204,61.6122,108.5179],[26.3195,61.6077,102.5],[26.3289,61.6073,102.5],[26.3298,61.6117,102.5],[26.3392,61.6113,110.4722],[26.3401,61.6158,102.5],[26.3496,61.6153,114.3553],[26.3505,61.6198,113.6466],[26.3599,61.6194,107.1064],[26.3608,61.6238,106.2054],[26.3514,61.6243,114.6875],[26.3541,61.6377,107.3505],[26.373,61.6368,106.0134],[26.3776,61.6591,91.5],[26.387,61.6587,91.5],[26.3861,61.6543,91.5],[26.4237,61.6525,91.5],[26.4228,61.648,91.5],[26.4322,61.6476,91.5],[26.4313,61.6431,91.5],[26.4501,61.6423,91.5],[26.4492,61.6378,91.5],[26.4774,61.6365,91.5],[26.4765,61.632,91.5],[26.5047,61.6307,91.5],[26.5038,61.6262,91.5],[26.5132,61.6258,91.5],[26.5245,61.6794,91.5],[26.5339,61.6789,91.5],[26.5377,61.6968,91.5],[26.5283,61.6972,91.5],[26.5302,61.7062,91.5],[26.5207,61.7066,91.5],[26.5226,61.7156,91.5],[26.5132,61.716,114.4954],[26.5151,61.7249,91.5],[26.5056,61.7254,109.91],[26.5066,61.7299,91.5],[26.4971,61.7303,91.5],[26.499,61.7392,109.0105],[26.4896,61.7397,110.7325],[26.4915,61.7486,91.5],[26.482,61.7491,106.7353],[26.4839,61.758,101.9893],[26.4744,61.7584,120.1301],[26.4754,61.7629,129.6122],[26.4659,61.7633,120.6095],[26.4669,61.7678,131.5493],[26.4575,61.7682,143.248],[26.4593,61.7772,183.5011],[26.4499,61.7776,168.5968],[26.4508,61.7821,160.3701],[26.4413,61.7825,118.7154],[26.4423,61.787,132.3511],[26.4328,61.7874,129.4176],[26.4337,61.7919,124.6702],[26.4243,61.7923,101.0],[26.4252,61.7968,101.0],[26.4158,61.7972,101.0],[26.4167,61.8017,101.0],[26.3883,61.803,101.0],[26.3892,61.8075,101.0],[26.3798,61.8079,101.0],[26.3807,61.8124,113.6536],[26.3712,61.8128,101.0],[26.3787,61.8486,130.6811],[26.3881,61.8482,122.6108],[26.39,61.8571,91.5],[26.3805,61.8575,91.5],[26.3824,61.8665,94.118],[26.3729,61.8669,91.5],[26.3766,61.8848,101.5374],[26.3482,61.8861,111.0311],[26.3472,61.8816,100.5293],[26.3283,61.8825,98.4649],[26.3301,61.8914,99.5059],[26.3396,61.891,99.5252],[26.3461,61.9223,119.2207],[26.3366,61.9227,107.5207],[26.3393,61.9361,107.8459],[26.3298,61.9365,110.715],[26.3326,61.9499,113.57],[26.3421,61.9495,116.911],[26.3431,61.954,130.8454],[26.3526,61.9536,128.1229],[26.3535,61.958,120.7483],[26.3725,61.9571,125.0062],[26.3734,61.9616,121.218],[26.383,61.9612,115.6175],[26.3839,61.9656,116.4686],[26.3934,61.9652,109.6134],[26.3943,61.9697,113.6724],[26.4134,61.9688,101.2796],[26.4152,61.9777,95.046],[26.4057,61.9782,97.3752],[26.4067,61.9827,94.2263],[26.3972,61.9831,113.6208],[26.399,61.992,111.5445],[26.3895,61.9925,124.7985],[26.3904,61.9969,112.1001],[26.3809,61.9974,115.7867],[26.3818,62.0018,116.3555],[26.3723,62.0023,114.6704],[26.3742,62.0112,126.8099],[26.3647,62.0117,121.8706],[26.3656,62.0161,120.7031],[26.3561,62.0166,113.5191],[26.357,62.021,126.5435],[26.3475,62.0215,122.4936],[26.3493,62.0304,122.143],[26.3398,62.0308,131.5397],[26.340699999999998,62.0353,134.6785],[26.3312,62.0357,130.312],[26.3321,62.0402,138.2556],[26.3226,62.0406,135.2425],[26.3235,62.0451,135.5054],[26.314,62.0455,128.2817],[26.3158,62.0545,146.8602],[26.3063,62.0549,154.2727],[26.3072,62.0594,158.433],[26.2977,62.0598,182.4453],[26.2986,62.0643,189.3625],[26.2891,62.0647,191.501],[26.2909,62.0736,196.3227],[26.2814,62.0741,194.6765],[26.2823,62.0785,201.5855],[26.2727,62.079,190.0593],[26.2737,62.0834,193.3928],[26.2641,62.0839,197.2581],[26.2659,62.0928,214.0663],[26.2564,62.0932,214.0017],[26.2573,62.0977,209.2575],[26.2478,62.0981,197.2968],[26.2487,62.1026,189.8005],[26.2391,62.103,192.2343],[26.24,62.1075,174.008],[26.2305,62.1079,188.0213],[26.2323,62.1169,139.9747],[26.2228,62.1173,191.8953],[26.2246,62.1262,131.9996],[26.2342,62.1258,146.8129],[26.236,62.1348,155.0264],[26.2456,62.1343,145.9375],[26.2474,62.1432,137.581],[26.257,62.1428,157.6944],[26.2597,62.1562,138.062],[26.2693,62.1558,139.9225],[26.2712,62.1647,135.8082],[26.2807,62.1643,132.4311],[26.2826,62.1733,108.3523],[26.2922,62.1728,121.0823],[26.295,62.1862,117.1903],[26.3046,62.1858,126.6326],[26.3064,62.1948,106.7273],[26.316,62.1943,112.7261],[26.3169,62.1988,122.6978],[26.3265,62.1984,124.1037],[26.3256,62.1939,123.7493],[26.3352,62.1935,128.5272],[26.3361,62.1979,135.3419],[26.3457,62.1975,132.05],[26.3466,62.202,145.5693],[26.3562,62.2015,139.608],[26.3571,62.206,144.5009],[26.3859,62.2047,155.6686],[26.3869,62.2092,164.8167],[26.4156,62.2079,111.5],[26.4194,62.2257,125.9847],[26.4386,62.2248,98.5],[26.4376,62.2204,104.8027],[26.4472,62.2199,114.8962],[26.4453,62.211,108.646],[26.4549,62.2106,117.509],[26.4559,62.215,115.8083],[26.4655,62.2146,110.5],[26.4664,62.2191,110.5],[26.476,62.2186,117.7703],[26.477,62.2231,124.2896],[26.4866,62.2226,129.8231],[26.4875,62.2271,142.5414],[26.4971,62.2267,129.8978],[26.499,62.2356,135.4513],[26.4895,62.2361,134.5172],[26.4904,62.2405,139.761],[26.4808,62.241,136.8156],[26.4827,62.2499,134.3681],[26.5019,62.249,132.55],[26.5029,62.2535,131.2455],[26.5125,62.253,137.6655],[26.5135,62.2575,133.0107],[26.5231,62.2571,134.4748],[26.524,62.2615,127.9386],[26.5432,62.2606,123.4529],[26.5442,62.2651,102.8791],[26.5538,62.2647,104.763],[26.5528,62.2602,112.2688],[26.5624,62.2598,121.2693],[26.5605,62.2508,135.3297],[26.5701,62.2504,125.0],[26.5691,62.2459,140.9546],[26.5787,62.2454,149.4841],[26.5777,62.241,144.4967],[26.5873,62.2405,137.0],[26.5864,62.2361,163.661],[26.596,62.2356,149.0188],[26.595,62.2312,152.5346],[26.6046,62.2307,137.2477],[26.6036,62.2262,145.5459],[26.6132,62.2258,131.5],[26.6122,62.2213,131.5],[26.6218,62.2209,139.774],[26.6198,62.2119,160.8903],[26.639,62.211,132.0632],[26.64,62.2155,134.9819],[26.6592,62.2146,128.3473],[26.6631,62.2324,129.5],[26.6535,62.2329,129.5],[26.6545,62.2374,134.0592],[26.6353,62.2383,142.9385],[26.6383,62.2517,146.905],[26.6287,62.2521,153.7865],[26.6355,62.2834,126.724],[26.6259,62.2839,123.9537],[26.6269,62.2883,126.5942],[26.6173,62.2888,123.849],[26.6193,62.2977,125.4349],[26.6385,62.2968,133.9323],[26.6395,62.3013,140.1088],[26.6587,62.3004,155.1646],[26.6597,62.3048,140.3063],[26.6789,62.3039,158.968],[26.6819,62.3173,136.3657],[26.6723,62.3178,144.3182],[26.6733,62.3223,140.0491],[26.6636,62.3227,142.4019],[26.6646,62.3272,135.7638],[26.6743,62.3267,135.9959],[26.6782,62.3446,138.7152],[26.7071,62.3432,152.0049],[26.7081,62.3477,164.643],[26.7274,62.3468,211.356],[26.7284,62.3512,196.8308],[26.7573,62.3498,143.0],[26.7583,62.3543,154.2748],[26.7775,62.3534,123.0],[26.7785,62.3579,133.8359],[26.7689,62.3583,123.0],[26.7699,62.3628,123.0],[26.7603,62.3633,123.0],[26.7613,62.3677,134.0251],[26.7516,62.3682,123.0],[26.7526,62.3727,140.7243],[26.743,62.3731,123.0],[26.744,62.3776,131.3561],[26.7344,62.378,123.0],[26.7354,62.3825,123.0],[26.7161,62.3834,123.0],[26.7171,62.3879,123.0],[26.7075,62.3883,123.0],[26.7085,62.3928,123.0],[26.6892,62.3937,123.0],[26.6902,62.3982,123.0],[26.6805,62.3987,139.6373],[26.6835,62.4121,149.917],[26.6932,62.4116,123.7262],[26.6952,62.4205,124.1332],[26.7048,62.4201,132.7431],[26.7078,62.4335,121.965],[26.6981,62.4339,116.133],[26.7011,62.4473,106.0],[26.7108,62.4469,106.0],[26.7128,62.4558,106.0],[26.7031,62.4563,106.0],[26.7041,62.4607,112.9466],[26.6751,62.4621,106.0],[26.6742,62.4576,117.3108],[26.6548,62.4585,128.8062],[26.6538,62.4541,166.0268],[26.6442,62.4545,154.5982],[26.6432,62.4501,199.1407],[26.6335,62.4505,185.4816],[26.6345,62.455,151.9429],[26.6152,62.4559,105.0],[26.6162,62.4604,112.1582],[26.6065,62.4608,105.0],[26.6075,62.4653,105.0],[26.5978,62.4657,116.1506],[26.5988,62.4702,105.0],[26.5891,62.4706,105.0],[26.5901,62.4751,105.0],[26.5805,62.4756,105.0],[26.5814,62.48,105.0],[26.5718,62.4805,110.1199],[26.5727,62.4849,116.6211],[26.5534,62.4858,144.3473],[26.5544,62.4903,157.809],[26.5447,62.4907,158.9852],[26.5457,62.4952,165.4617],[26.5263,62.4961,181.9271],[26.5273,62.5006,175.8079],[26.5176,62.501,143.1196],[26.5186,62.5055,156.9709],[26.4992,62.5064,122.0],[26.5002,62.5109,143.6448],[26.4808,62.5117,144.3897],[26.4818,62.5162,140.8534],[26.4721,62.5167,147.553],[26.474,62.5256,131.2121],[26.4837,62.5251,132.6137],[26.4857,62.5341,114.5],[26.5148,62.5327,123.794],[26.5157,62.5372,108.355],[26.5254,62.5368,139.0338],[26.5264,62.5412,114.0362],[26.5361,62.5408,165.2382],[26.538,62.5497,155.7511],[26.5478,62.5493,153.3203],[26.5497,62.5582,133.8976],[26.5594,62.5578,141.0059],[26.5633,62.5756,94.0],[26.573,62.5752,94.0],[26.576,62.5886,94.0],[26.5954,62.5877,94.0],[26.5974,62.5966,103.4527],[26.5877,62.5971,94.0],[26.5887,62.6016,94.0],[26.579,62.602,116.4972],[26.58,62.6065,94.0],[26.5897,62.606,94.0],[26.590699999999998,62.6105,94.0],[26.6004,62.6101,94.0],[26.6033,62.6235,94.0],[26.5936,62.6239,94.0],[26.5976,62.6418,94.0],[26.5879,62.6422,94.0],[26.5899,62.6512,108.0817],[26.5801,62.6516,102.5673],[26.5821,62.6605,110.9501],[26.5724,62.661,94.0],[26.5744,62.6699,104.2273],[26.5646,62.6704,94.0],[26.5666,62.6793,94.0],[26.5569,62.6797,94.0],[26.5588,62.6887,94.0],[26.5491,62.6891,94.0],[26.5521,62.7025,94.0],[26.5423,62.703,94.0],[26.5443,62.7119,94.0],[26.5345,62.7124,94.0],[26.5365,62.7213,94.0],[26.5268,62.7218,94.0],[26.5287,62.7307,94.0],[26.519,62.7311,94.0],[26.52,62.7356,94.0],[26.5102,62.7361,94.0],[26.5112,62.7405,94.0],[26.5014,62.741,94.0],[26.5034,62.7499,94.0],[26.4936,62.7504,94.0],[26.4946,62.7548,94.0],[26.4848,62.7553,94.0],[26.4858,62.7597,94.0],[26.4761,62.7602,94.0],[26.478,62.7691,94.0],[26.4683,62.7696,94.0],[26.4692,62.774,94.0],[26.4595,62.7745,94.0],[26.4614,62.7834,94.0],[26.4516,62.7839,94.0],[26.4526,62.7883,94.0],[26.4428,62.7888,94.0],[26.4419,62.7843,94.0],[26.4223,62.7852,94.0],[26.4214,62.7807,94.0],[26.4018,62.7816,94.0],[26.4008,62.7771,94.0],[26.3911,62.7775,116.0643],[26.3901,62.7731,113.0588],[26.3999,62.7726,115.8225],[26.3979,62.7637,98.0],[26.3882,62.7641,98.0],[26.3862,62.7552,98.0],[26.3765,62.7556,98.0],[26.3755,62.7512,98.0],[26.3657,62.7516,98.0],[26.3648,62.7471,98.0],[26.355,62.7476,98.0],[26.356,62.752,98.0],[26.3462,62.7525,98.0],[26.3472,62.7569,98.0],[26.3374,62.7574,98.0],[26.3384,62.7618,98.0],[26.3286,62.7623,98.0],[26.3296,62.7667,98.0],[26.3198,62.7672,98.0],[26.3207,62.7716,98.0],[26.311,62.7721,98.0],[26.3119,62.7765,98.0],[26.3022,62.777,98.0],[26.3031,62.7814,98.0],[26.2933,62.7819,98.0],[26.2943,62.7864,98.0],[26.2845,62.7868,98.0],[26.2855,62.7912,98.0],[26.2757,62.7917,98.0],[26.2776,62.8006,98.0],[26.2678,62.801,98.0],[26.2687,62.8055,98.0],[26.259,62.8059,98.0],[26.2599,62.8104,98.0],[26.2501,62.8108,98.0],[26.2511,62.8153,98.0],[26.2413,62.8157,98.0],[26.2422,62.8202,111.7815],[26.2324,62.8206,110.6128],[26.2334,62.8251,117.5639],[26.2138,62.8259,119.3967],[26.2148,62.8304,128.8069],[26.205,62.8308,130.0918],[26.204,62.8264,126.4593],[26.1845,62.8272,98.0],[26.1854,62.8317,98.0],[26.1756,62.8321,98.0],[26.1765,62.8366,98.0],[26.1667,62.837,98.0],[26.1677,62.8415,105.4123],[26.1579,62.8419,98.0],[26.1597,62.8508,117.2059],[26.1695,62.8504,136.2792],[26.1705,62.8549,124.3354],[26.1803,62.8545,118.3124],[26.1812,62.8589,110.3986],[26.191,62.8585,110.819],[26.192,62.863,98.0],[26.1821,62.8634,98.0],[26.1831,62.8679,98.0],[26.1733,62.8683,98.0],[26.1742,62.8728,98.0],[26.1448,62.874,98.0],[26.1457,62.8785,98.0],[26.1065,62.8802,98.0],[26.1074,62.8847,98.0],[26.078,62.8859,98.0],[26.0789,62.8904,98.0],[26.0691,62.8908,98.0],[26.07,62.8953,98.0],[26.0602,62.8957,98.0],[26.063,62.9091,98.0],[26.0532,62.9095,98.0],[26.0559,62.9229,98.0],[26.0461,62.9233,98.0],[26.0479,62.9323,98.0],[26.0381,62.9327,98.0],[26.039,62.9372,98.0],[26.0685,62.9359,98.0],[26.0694,62.9404,98.0],[26.0989,62.9392,117.3195],[26.0999,62.9436,111.2451],[26.1097,62.9432,127.956],[26.1106,62.9477,121.9601],[26.1204,62.9473,125.4366],[26.1214,62.9517,115.4676],[26.1509,62.9505,137.1918],[26.1518,62.9549,127.7064],[26.2403,62.9511,143.9059],[26.2394,62.9467,130.9272],[26.2492,62.9462,131.5559],[26.2482,62.9418,120.4927],[26.2581,62.9413,127.1052],[26.2571,62.9369,109.625],[26.2669,62.9364,119.7173],[26.266,62.932,107.5],[26.2856,62.9311,123.4715],[26.2876,62.9401,133.7542],[26.2974,62.9396,124.1916],[26.2993,62.9486,133.3154],[26.3091,62.9481,124.6373],[26.3111,62.9571,120.5],[26.3209,62.9566,129.5676],[26.3257,62.979,143.8312],[26.3355,62.9786,173.2337],[26.3365,62.983,185.746],[26.307,62.9843,141.0237],[26.306,62.9799,139.7165],[26.2863,62.9807,146.8937],[26.2883,62.9897,144.4853],[26.2784,62.9901,134.419],[26.2794,62.9946,142.3291],[26.2695,62.995,141.1193],[26.2705,62.9995,149.0239],[26.2606,62.9999,157.9209],[26.2616,63.0043,164.381],[26.2517,63.0048,179.8144],[26.2527,63.0093,145.0878],[26.2428,63.0097,139.9486],[26.2438,63.0141,154.8327],[26.2339,63.0146,141.0428],[26.2359,63.0235,149.4532],[26.226,63.0239,136.0836],[26.2279,63.0329,145.616],[26.2378,63.0325,152.4977],[26.2397,63.0414,151.3229],[26.3284,63.0375,152.405],[26.3303,63.0465,169.1302],[26.3106,63.0473,145.0363],[26.3116,63.0518,152.7767],[26.2919,63.0527,152.8246],[26.2928,63.0571,152.9245],[26.2731,63.058,144.8031],[26.2741,63.0625,144.6247],[26.2543,63.0633,145.0466],[26.2553,63.0678,145.7888],[26.2454,63.0682,149.0653],[26.2464,63.0727,145.046],[26.2365,63.0731,148.3824],[26.2384,63.0821,156.602],[26.2285,63.0825,151.0271],[26.2304,63.0914,158.3766],[26.2205,63.0919,145.1367],[26.2215,63.0963,163.0039],[26.2116,63.0968,147.9245],[26.2145,63.1102,147.9915],[26.2046,63.1106,145.4585],[26.2055,63.1151,145.9832],[26.1957,63.1155,146.6747],[26.1966,63.12,150.9513],[26.1867,63.1204,147.4754],[26.1905,63.1383,134.8131],[26.1806,63.1387,134.8186],[26.1816,63.1432,134.7807],[26.1618,63.144,137.2532],[26.1665,63.1664,149.5513],[26.1566,63.1668,149.4489],[26.1604,63.1847,183.2371],[26.1505,63.1851,189.1553],[26.1562,63.2119,183.2455],[26.1859,63.2107,146.7195],[26.1888,63.2241,170.7359],[26.1789,63.2245,169.1863],[26.1827,63.2424,176.9759],[26.1728,63.2428,179.325],[26.1737,63.2473,180.1243],[26.1638,63.2477,179.4435],[26.1657,63.2566,182.53],[26.1557,63.2571,181.6323],[26.1576,63.266,174.4781],[26.1477,63.2664,170.3381],[26.1496,63.2754,173.8961],[26.1397,63.2758,169.2115],[26.1435,63.2937,166.0229],[26.1335,63.2941,185.1375],[26.1382,63.3165,143.8587],[26.1283,63.3169,147.4541],[26.1311,63.3303,140.9681],[26.1212,63.3307,143.6811],[26.1221,63.3352,141.7991],[26.1122,63.3356,148.0722],[26.1141,63.3445,150.2747],[26.1041,63.345,148.5874],[26.105,63.3494,151.9149],[26.0951,63.3498,155.0176],[26.096,63.3543,156.3404],[26.0761,63.3552,162.2305],[26.078,63.3641,174.9702],[26.0879,63.3637,175.0646],[26.0908,63.3771,141.28],[26.1007,63.3767,139.989],[26.1036,63.3901,145.145],[26.1136,63.3897,145.1112],[26.1174,63.4076,160.2142],[26.1274,63.4072,152.3779],[26.1283,63.4116,145.7078],[26.1383,63.4112,146.5308],[26.1402,63.4202,156.2645],[26.1502,63.4197,159.0226],[26.1511,63.4242,157.6312],[26.1611,63.4238,158.5003],[26.163,63.4327,166.4451],[26.173,63.4323,157.4232],[26.175,63.4412,142.2528],[26.165,63.4417,161.0932],[26.1659,63.4461,156.0451],[26.1559,63.4466,175.0369],[26.1569,63.451,169.0727],[26.1469,63.4515,182.353],[26.1478,63.4559,171.1598],[26.1278,63.4568,178.8726],[26.1269,63.4523,175.2125],[26.1069,63.4531,168.5948],[26.1059,63.4487,166.8713],[26.0859,63.4495,167.9031],[26.085,63.445,164.4256],[26.075,63.4454,170.5691],[26.074,63.441,166.7979],[26.054,63.4418,179.0521],[26.0531,63.4373,179.8771],[26.0331,63.4381,181.3821],[26.0321,63.4337,185.1162],[26.0121,63.4345,179.5761],[26.0112,63.43,179.2979],[25.9312,63.4333,157.4922],[25.9321,63.4378,161.8169],[25.8921,63.4394,154.5268],[25.8931,63.4439,164.9507],[25.8831,63.4443,157.5216],[25.884,63.4487,159.8173],[25.874,63.4491,158.2794],[25.8749,63.4536,161.6678],[25.8649,63.454,161.4632],[25.8667,63.463,180.4739],[25.8567,63.4634,169.7807],[25.8576,63.4678,178.184],[25.8476,63.4682,156.9171],[25.8485,63.4727,169.0382],[25.8385,63.4731,154.899],[25.8394,63.4776,154.2387],[25.8294,63.478,154.7772],[25.8303,63.4825,153.162],[25.8203,63.4829,151.9823],[25.8221,63.4918,146.3023],[25.8121,63.4922,143.0201],[25.813,63.4967,144.5976],[25.7929,63.4975,148.5351],[25.7938,63.5019,154.8024],[25.7738,63.5027,139.2925],[25.7747,63.5072,152.2792],[25.7546,63.508,143.2092],[25.7555,63.5125,152.3907],[25.7355,63.5133,148.709],[25.7363,63.5177,152.5206],[25.5056,63.5266,139.0],[25.5064,63.5311,146.5805],[25.4763,63.5322,147.5267],[25.4772,63.5367,149.8512],[25.4671,63.537,147.2803],[25.468,63.5415,148.3336],[25.4479,63.5423,139.2412],[25.4487,63.5467,140.3366],[25.4387,63.5471,135.2082],[25.4396,63.5516,138.0479],[25.4195,63.5523,132.6902],[25.4203,63.5568,133.7103],[25.4103,63.5572,125.4415],[25.4111,63.5617,134.6591],[25.401,63.562,125.4894],[25.4019,63.5665,139.4845],[25.3818,63.5672,126.1413],[25.3826,63.5717,142.5445],[25.3726,63.5721,122.8475],[25.3734,63.5765,149.6061],[25.3533,63.5773,132.4118],[25.3541,63.5818,124.6079],[25.3441,63.5821,133.119],[25.3449,63.5866,124.2439],[25.3248,63.5873,124.2277],[25.3256,63.5918,127.7331],[25.3055,63.5926,126.7531],[25.3063,63.597,127.7493],[25.2963,63.5974,128.4032],[25.2971,63.6019,135.576],[25.277,63.6026,137.9175],[25.2778,63.6071,138.4322],[25.2577,63.6078,148.5618],[25.2585,63.6123,149.3883],[25.2484,63.6126,143.1632],[25.2476,63.6082,145.9364],[25.2375,63.6085,142.4767],[25.2367,63.604,146.9154],[25.2266,63.6044,144.6075],[25.2258,63.5999,152.0792],[25.2158,63.6003,134.4],[25.2149,63.5958,149.9672],[25.2049,63.5961,142.1767],[25.2041,63.5917,140.3289],[25.194,63.592,143.8624],[25.1932,63.5876,141.0949],[25.1731,63.5883,135.5249],[25.1722,63.5838,141.8162],[25.1622,63.5841,135.4439],[25.1614,63.5797,134.359],[25.1513,63.58,134.8411],[25.1505,63.5755,133.6884],[25.1405,63.5759,144.2006],[25.1332,63.5356,154.5963],[25.1232,63.5359,157.218],[25.116,63.4956,182.7148],[25.106,63.496,182.4016],[25.1036,63.4825,186.7261],[25.0936,63.4829,178.3204],[25.0912,63.4695,172.8167],[25.0812,63.4698,168.2113],[25.0804,63.4653,173.4536],[25.0703,63.4657,173.0425],[25.0695,63.4612,173.5355],[25.0495,63.4619,167.1649],[25.0487,63.4574,168.1351],[25.0287,63.4581,170.8551],[25.0279,63.4536,173.378],[25.0079,63.4543,175.5761],[25.0071,63.4498,176.9358],[24.987,63.4505,171.8829],[24.9863,63.446,169.4826],[24.9662,63.4467,160.4495],[24.9655,63.4422,164.9822],[24.9555,63.4426,162.6877],[24.9547,63.4381,164.522],[24.9347,63.4388,161.4611],[24.9339,63.4343,161.3355],[24.9139,63.435,160.9605],[24.9131,63.4305,172.1323],[24.9031,63.4308,173.5567],[24.9023,63.4263,176.2095],[24.8923,63.4267,171.6982],[24.8916,63.4222,165.0798],[24.8816,63.4225,164.0673],[24.88,63.4136,167.3106],[24.87,63.4139,172.4375],[24.8693,63.4094,169.9265],[24.8593,63.4098,175.9678],[24.8578,63.4008,167.9813],[24.8478,63.4011,168.7328],[24.847,63.3967,180.2575],[24.837,63.397,173.1939],[24.8355,63.388,172.9549],[24.8255,63.3884,176.312],[24.8248,63.3839,173.8486],[24.8148,63.3842,169.2866],[24.8133,63.3752,173.4374],[24.8033,63.3756,168.0548],[24.8025,63.3711,176.171],[24.7925,63.3714,175.8218],[24.7911,63.3624,178.7122],[24.7811,63.3628,172.4491],[24.7774,63.3404,168.1494],[24.7874,63.3401,165.7055],[24.7844,63.3221,161.1588],[24.7944,63.3218,165.7495],[24.7906,63.2994,167.2348],[24.8006,63.2991,165.4106],[24.7984,63.2856,181.1536],[24.8084,63.2853,183.468],[24.8069,63.2763,174.1325],[24.7969,63.2767,174.8077],[24.7962,63.2722,179.1183],[24.7762,63.2729,175.6866],[24.7755,63.2684,192.5608],[24.7655,63.2687,192.4265],[24.7648,63.2642,185.6088],[24.7549,63.2645,182.3823],[24.7534,63.2556,190.3302],[24.7633,63.2552,180.3612],[24.7589,63.2284,196.536],[24.7689,63.2281,192.3489],[24.7667,63.2146,207.5923],[24.7567,63.2149,196.2901],[24.7538,63.197,196.7871],[24.7439,63.1973,199.9007],[24.7351,63.1436,199.4501],[24.755,63.1429,202.5947],[24.7542,63.1384,203.471],[24.7641,63.1381,199.8128],[24.7634,63.1336,204.7478],[24.7436,63.1343,206.2856],[24.7443,63.1388,198.4721],[24.6749,63.141,194.1584],[24.6756,63.1455,198.9761],[24.5963,63.148,194.3023],[24.597,63.1525,195.15],[24.5375,63.1544,161.0856],[24.5382,63.1589,159.7461],[24.5283,63.1592,158.6484],[24.5276,63.1547,153.8272],[24.5177,63.155,154.699],[24.517,63.1505,163.6898],[24.4971,63.1511,173.0786],[24.4964,63.1467,171.3116],[24.4865,63.147,174.8913],[24.4858,63.1425,172.8435],[24.466,63.1431,177.5154],[24.4653,63.1386,179.4653],[24.4455,63.1392,181.0036],[24.4448,63.1348,175.7121],[24.4349,63.1351,179.0268],[24.4342,63.1306,181.4191],[24.4144,63.1312,180.4841],[24.4137,63.1267,181.0076],[24.3939,63.1273,179.1674],[24.3932,63.1228,177.2063],[24.3833,63.1231,175.3024],[24.3826,63.1186,172.6132],[24.3628,63.1192,177.7611],[24.3615,63.1103,176.4554],[24.3515,63.1106,170.6648],[24.3495,63.0971,180.8022],[24.3396,63.0974,186.9549],[24.337,63.0795,183.3676],[24.3271,63.0798,184.1836],[24.3251,63.0663,184.5901],[24.2954,63.0672,183.7377],[24.2948,63.0627,190.1848],[24.2651,63.0636,182.5496],[24.2644,63.0591,182.2749],[24.2743,63.0588,190.1393],[24.2717,63.0409,200.7969],[24.2816,63.0406,200.844],[24.2803,63.0317,201.5189],[24.2902,63.0314,198.7166],[24.2908,63.0358,203.1571],[24.3007,63.0355,204.2284],[24.2994,63.0266,193.956],[24.3093,63.0263,189.3582],[24.3066,63.0084,182.4533],[24.2968,63.0087,194.0604],[24.2961,63.0042,188.3637],[24.2941,62.9907,185.5289],[24.304,62.9904,189.2584],[24.3027,62.9815,194.988],[24.3126,62.9812,190.5913],[24.3119,62.9767,192.7799],[24.3218,62.9764,202.5336],[24.3224,62.9809,196.5837],[24.3421,62.9803,192.7921],[24.3408,62.9713,207.7262],[24.3507,62.971,190.3875],[24.3427,62.9173,186.4243],[24.4116,62.9151,183.2295],[24.4109,62.9107,182.7215],[24.4405,62.9098,173.7794],[24.4391,62.9008,179.3398],[24.4489,62.9005,176.1156],[24.4449,62.8736,198.2804],[24.4547,62.8733,191.3743],[24.454,62.8688,196.5998],[24.4246,62.8697,193.5],[24.4239,62.8652,195.6386],[24.3846,62.8664,188.5383],[24.3839,62.862,198.3603],[24.3545,62.8629,187.998],[24.3531,62.8539,212.7828],[24.363,62.8536,202.6448],[24.3616,62.8446,213.8085],[24.3715,62.8443,209.405],[24.3708,62.8399,212.9881],[24.3806,62.8396,202.9657],[24.3793,62.8306,204.9495],[24.3891,62.8303,200.5],[24.3884,62.8258,205.1835],[24.3982,62.8255,211.5421],[24.3969,62.8165,200.0928],[24.4067,62.8162,214.809],[24.406,62.8118,209.2109],[24.4158,62.8115,206.7558],[24.4152,62.807,205.4244],[24.425,62.8067,223.8246],[24.4236,62.7977,207.7473],[24.4334,62.7974,208.2447],[24.4321,62.7884,215.3536],[24.4419,62.7881,229.146],[24.4412,62.7837,216.1698],[24.451,62.7834,212.8914],[24.4497,62.7744,214.0113],[24.4595,62.7741,220.3164],[24.4581,62.7651,216.8679],[24.4679,62.7648,223.3997],[24.4665,62.7559,219.5179],[24.4763,62.7556,214.4726],[24.475,62.7466,227.7513],[24.4848,62.7463,217.9463],[24.4834,62.7373,227.464],[24.4932,62.737,241.0869],[24.4918,62.7281,218.319],[24.5016,62.7277,216.8196],[24.4996,62.7143,219.8822],[24.5093,62.714,229.6544],[24.5073,62.7006,227.8006],[24.5171,62.7002,230.871],[24.515,62.6868,219.9941],[24.5248,62.6865,236.2604],[24.5241,62.682,234.9717],[24.5436,62.681399999999996,227.3591],[24.5429,62.6769,223.3575],[24.5527,62.6766,224.8803],[24.552,62.6721,227.0186],[24.5715,62.6715,224.5087],[24.5709,62.667,217.1453],[24.5806,62.6667,206.674],[24.5799,62.6622,211.3681],[24.5702,62.6625,213.9131],[24.5695,62.6581,213.4331],[24.5597,62.6584,217.8087],[24.5583,62.6494,209.8734],[24.5486,62.6497,218.8959],[24.5479,62.6452,212.466],[24.5382,62.6455,215.4413],[24.5375,62.6411,215.8552],[24.5277,62.6414,211.6754],[24.5271,62.6369,218.346],[24.5173,62.6372,212.5065],[24.5166,62.6327,214.2761],[24.5069,62.633,221.6213],[24.5048,62.6196,212.637],[24.573,62.6174,206.2819],[24.5737,62.6219,210.7505],[24.5835,62.6216,197.937],[24.5814,62.6081,200.0028],[24.5522,62.6091,212.3374],[24.5515,62.6046,212.1578],[24.5612,62.6043,208.2688],[24.5592,62.5908,221.7116],[24.5689,62.5905,207.1182],[24.5675,62.5816,218.1111],[24.5578,62.5819,229.4209],[24.5571,62.5774,218.6194],[24.5377,62.578,221.9978],[24.5363,62.5691,205.4155],[24.546,62.5687,213.8931],[24.5447,62.5598,194.0059],[24.5252,62.5604,201.982],[24.5245,62.5559,213.4752],[24.5343,62.5556,193.6233],[24.5336,62.5513,190.6553],[24.5322,62.5422,196.4925],[24.5225,62.5425,209.1674],[24.5211,62.5335,214.9409],[24.5309,62.5332,212.7169],[24.5295,62.5242,198.6704],[24.5101,62.5249,195.1436],[24.5067,62.5025,171.0],[24.5164,62.5022,171.0],[24.5157,62.4977,201.091],[24.4866,62.4986,172.2916],[24.486,62.4941,180.8956],[24.4568,62.495,170.5072],[24.4548,62.4816,161.5],[24.4452,62.4819,161.5],[24.4445,62.4774,161.5],[24.4348,62.4777,161.5],[24.4341,62.4732,161.5],[24.4244,62.4735,161.5],[24.4258,62.4825,161.5],[24.4161,62.4828,161.5],[24.4174,62.4918,173.8653],[24.4077,62.4921,184.6125],[24.4083,62.4965,183.3148],[24.3889,62.4971,194.9581],[24.3883,62.4927,192.6223],[24.3786,62.493,189.3185],[24.3799,62.5019,196.619],[24.3702,62.5022,204.6483],[24.3695,62.4977,201.5039],[24.3501,62.4983,184.9025],[24.3495,62.493899999999996,181.6243],[24.3398,62.4942,176.1822],[24.3391,62.4897,174.6797],[24.3197,62.4903,169.5332],[24.3184,62.4813,172.9967],[24.3281,62.481,155.3395],[24.3268,62.472,182.1082],[24.3365,62.4717,152.1553],[24.3339,62.4538,169.0319],[24.3242,62.4541,178.0586],[24.3236,62.4496,174.4003],[24.3042,62.4502,176.702],[24.3049,62.4547,163.9044],[24.2855,62.4553,194.1163],[24.2861,62.4598,196.7782],[24.2667,62.4604,183.5108],[24.2674,62.4648,195.4372],[24.248,62.4654,181.2224],[24.2486,62.4699,202.1463],[24.2389,62.4702,182.6651],[24.2396,62.4747,192.1733],[24.2202,62.4753,199.3099],[24.2208,62.4797,196.2314],[24.2014,62.4803,180.0467],[24.2008,62.4758,173.5],[24.1911,62.4761,194.8785],[24.1904,62.4716,194.1703],[24.1807,62.4719,198.1577],[24.1795,62.4629,190.3403],[24.1698,62.4632,181.1421],[24.1692,62.4588,193.4788],[24.1595,62.459,178.6459],[24.1582,62.4501,196.0761],[24.1486,62.4504,193.2668],[24.1473,62.4414,193.8169],[24.1376,62.4417,187.992],[24.137,62.4372,185.6681],[24.1273,62.4375,194.6262],[24.1261,62.4285,182.6245],[24.1164,62.4288,190.0251],[24.1158,62.4243,185.1241],[24.1061,62.4246,181.7321],[24.1049,62.4156,188.5914],[24.0952,62.4159,177.4128],[24.094,62.4069,187.4872],[24.0843,62.4072,180.4332],[24.0837,62.4027,174.398],[24.074,62.403,183.0629],[24.0728,62.394,178.0391],[24.0631,62.3943,178.2341],[24.0625,62.3898,177.9837],[24.0528,62.3901,187.2254],[24.0522,62.3856,189.8264],[24.0426,62.3859,198.6595],[24.0414,62.3769,200.4951],[24.0317,62.3772,201.0893],[24.0311,62.3727,196.8607],[24.0214,62.373,192.9484],[24.0172,62.3416,179.6227],[24.0269,62.3414,181.8628],[24.0233,62.3144,139.222],[24.033,62.3142,142.2],[24.0312,62.3007,119.555],[24.0505,62.3002,134.864],[24.0511,62.3047,130.198],[24.0703,62.3041,125.5],[24.0697,62.2996,125.5],[24.0794,62.2993,125.5],[24.077,62.2814,130.791],[24.0866,62.2811,127.4407],[24.0854,62.2722,137.7296],[24.1047,62.2716,170.2251],[24.1041,62.2671,158.6374],[24.1137,62.2668,157.9742],[24.1131,62.2624,151.1331],[24.1323,62.2618,157.3504],[24.1317,62.2573,157.7801],[24.1414,62.257,157.6781],[24.1407,62.2526,154.4122],[24.2274,62.25,193.5435],[24.228,62.2545,194.4924],[24.2761,62.253,193.2186],[24.2736,62.2351,174.2653],[24.2832,62.2348,176.8317],[24.2813,62.2214,164.9538],[24.2909,62.2211,172.3574],[24.2884,62.2031,127.4698],[24.298,62.2028,157.5867],[24.2967,62.1939,157.3117],[24.3063,62.1936,134.9201],[24.3051,62.1846,117.5],[24.3147,62.1843,121.8181],[24.314,62.1798,132.3427],[24.3236,62.1795,119.8512],[24.323,62.1751,145.5404],[24.3326,62.1748,139.1053],[24.332,62.1703,142.1485],[24.3416,62.17,108.0],[24.3409,62.1655,131.2452],[24.4081,62.1634,105.0],[24.4074,62.1589,105.0],[24.417,62.1586,124.1221],[24.4164,62.1542,105.0],[24.4356,62.1535,115.1289],[24.4362,62.158,122.6236],[24.4458,62.1577,131.8597],[24.4465,62.1622,122.6353],[24.4369,62.1625,120.253],[24.4382,62.1715,132.2718],[24.4286,62.1718,151.5949],[24.4293,62.1763,149.8116],[24.4389,62.176,138.0847],[24.4395,62.1804,150.3147],[24.4587,62.1798,128.0074],[24.4594,62.1843,143.3263],[24.469,62.184,146.0949],[24.4696,62.1885,160.2941],[24.4792,62.1882,160.4359],[24.4799,62.1927,154.8499],[24.4895,62.1924,160.0632],[24.4902,62.1968,167.7595],[24.5094,62.1962,154.697],[24.5101,62.2007,153.8898],[24.5197,62.2004,158.1219],[24.519,62.1959,156.1634],[24.5382,62.1953,150.1337],[24.5375,62.1908,161.5656],[24.5567,62.1902,154.4325],[24.5561,62.1857,156.4098],[24.5657,62.1854,172.3138],[24.565,62.1809,176.1821],[24.5746,62.1806,146.1295],[24.5732,62.1716,140.5743],[24.5828,62.1713,128.3248],[24.5815,62.1624,128.9012],[24.5911,62.1621,130.5685],[24.5904,62.1576,131.9811],[24.6,62.1573,114.6525],[24.5986,62.1483,116.9284],[24.6082,62.148,118.0404],[24.6069,62.139,107.5],[24.6165,62.1387,111.6461],[24.6151,62.1298,115.0133],[24.6247,62.1295,121.185],[24.624,62.125,105.9054],[24.6528,62.124,109.2406],[24.6521,62.1195,120.117],[24.6712,62.118899999999996,105.0],[24.6637,62.0696,105.0],[24.6732,62.0693,105.0],[24.6705,62.0514,105.0],[24.6896,62.0508,118.3233],[24.6889,62.0463,109.6932],[24.708,62.0456,110.4172],[24.7073,62.0411,119.1379],[24.7169,62.0408,132.0106],[24.7155,62.0319,135.4576],[24.7251,62.0315,159.4909],[24.7244,62.0271,146.2171],[24.753,62.0261,167.213],[24.7537,62.0306,170.1424],[24.7728,62.0299,151.9815],[24.7735,62.0344,148.0216],[24.7831,62.0341,160.308],[24.7838,62.0386,158.4492],[24.8029,62.0379,143.9304],[24.8036,62.0424,160.4306],[24.8227,62.0417,153.8291],[24.8234,62.0462,152.0588],[24.833,62.0459,138.2592],[24.8337,62.0504,142.7087],[24.8528,62.0497,156.7963],[24.8535,62.0542,150.3379],[24.8726,62.0535,177.8562],[24.8733,62.058,160.2579],[24.8829,62.0577,200.6447],[24.8807,62.0442,166.2472],[24.8903,62.0439,161.2131],[24.8881,62.0304,124.1865],[24.8977,62.0301,129.5028],[24.8948,62.0122,119.3658],[24.9043,62.0119,114.7238],[24.9022,61.9984,116.8257],[24.9117,61.9981,114.7083],[24.9089,61.9802,143.9588],[24.9184,61.9799,148.9802],[24.9162,61.9664,121.9687],[24.9258,61.9661,120.9556],[24.9236,61.9526,141.9859],[24.9331,61.9523,161.8856],[24.9317,61.9434,142.3628],[24.9412,61.943,167.1176],[24.939,61.9297,160.8437],[24.9485,61.9292,159.9857],[24.9384,61.8666,144.0],[24.9289,61.8669,160.3434],[24.9218,61.8221,151.5378],[24.9313,61.8218,145.3648],[24.9298,61.8128,165.5175],[24.9393,61.8125,149.3718],[24.9379,61.8035,135.0635],[24.9473,61.8032,169.0273],[24.9459,61.7942,143.6926],[24.9649,61.7935,142.5607],[24.9641,61.7891,134.9676],[24.9831,61.7884,170.422],[24.9824,61.7839,172.0379],[24.9729,61.7843,177.7736],[24.9722,61.7798,156.3283],[24.9627,61.7801,127.9176],[24.962,61.7756,141.235],[24.9714,61.7753,147.0113],[24.97,61.7663,162.1896],[24.9795,61.766,142.0847],[24.978,61.757,118.5],[24.9875,61.7567,154.7464],[24.986,61.7477,137.0345],[24.9955,61.7474,147.2543],[24.994,61.7384,118.5],[25.0035,61.7381,143.6077],[25.0021,61.7292,129.5541],[24.9926,61.7295,131.0128],[24.9919,61.725,143.2246],[24.9824,61.7254,127.4685],[24.9817,61.7209,120.3354],[24.9722,61.7212,118.5],[24.9737,61.7302,126.7294],[24.9642,61.7305,118.5],[24.9649,61.735,118.5],[24.9555,61.7353,144.3094],[24.9562,61.7398,137.0446],[24.9467,61.7401,118.5],[24.9453,61.7312,118.5],[24.9359,61.7315,118.5],[24.9337,61.7181,147.6515],[24.9242,61.7184,128.0283],[24.9214,61.7005,145.3453],[24.9308,61.7002,159.4923],[24.9294,61.6912,142.9764],[24.9389,61.6909,126.5],[24.9382,61.6864,136.9398],[24.9476,61.6861,133.0298],[24.9462,61.6771,123.5],[24.9556,61.6768,132.2788],[24.9549,61.6723,123.5],[24.9643,61.672,129.4622],[24.9629,61.663,123.5],[24.9723,61.6627,123.5],[24.9716,61.6582,126.4179],[24.9622,61.6585,129.8339],[24.9607,61.6496,130.0176],[24.9513,61.6499,127.9438],[24.9499,61.6409,122.7816],[24.9593,61.6406,122.8712],[24.9579,61.6317,129.2642],[24.9107,61.6333,124.0],[24.9114,61.6378,137.481],[24.902,61.6381,131.1267],[24.9027,61.6426,142.4347],[24.8839,61.6433,147.5074],[24.8846,61.6478,152.5847],[24.8374,61.6494,143.9474],[24.8381,61.6539,139.1157],[24.8098,61.6549,147.7386],[24.8084,61.6459,162.5043],[24.799,61.6463,138.8538],[24.7962,61.6283,100.5],[24.7868,61.6287,111.5286],[24.7847,61.6152,162.6271],[24.7941,61.6149,168.4834],[24.792,61.6015,153.9157],[24.8015,61.6012,162.2419],[24.8008,61.5967,130.1099],[24.8102,61.5963,137.4017],[24.8095,61.5919,142.8502],[24.8189,61.5915,139.3259],[24.8175,61.5826,111.0],[24.8269,61.5822,133.0706],[24.8248,61.5688,120.8231],[24.8342,61.5685,120.6063],[24.8322,61.5551,110.6088],[24.8415,61.5547,121.1087],[24.8437,61.5682,106.4179],[24.8531,61.5678,103.5],[24.8559,61.5857,100.5],[24.8653,61.5854,100.5],[24.866,61.5899,116.4361],[24.8754,61.5896,140.4531],[24.8761,61.594,132.9349],[24.8855,61.5937,127.4072],[24.8862,61.5982,142.3253],[24.8956,61.5979,155.7868],[24.8949,61.5934,154.1787],[24.9138,61.5927,156.9228],[24.9131,61.5882,158.365],[24.9225,61.5879,155.8328],[24.9182,61.561,149.9872],[24.9088,61.5614,157.2688],[24.9081,61.5569,161.1941],[24.8987,61.5572,158.5651],[24.898,61.5527,143.7019],[24.8886,61.5531,150.3042],[24.8879,61.5486,141.3728],[24.8785,61.5489,128.0],[24.8778,61.5444,128.0],[24.9342,61.5424,150.941],[24.9335,61.538,155.8586],[24.9429,61.5376,153.8196],[24.94,61.5197,152.9028],[24.9306,61.5201,143.7626],[24.9257,61.4887,106.5],[24.935,61.4884,117.5283],[24.9329,61.4749,106.5],[24.9423,61.4746,128.738],[24.9416,61.4701,130.2935],[24.951,61.4698,136.7696],[24.9503,61.4653,130.0991],[24.9596,61.465,135.4882],[24.9582,61.456,150.7855],[24.9676,61.4557,160.9468],[24.9669,61.4512,160.9914],[24.995,61.4502,160.4212],[24.9957,61.4547,167.1396],[25.0145,61.454,147.7852],[25.0152,61.4585,149.9781],[25.0433,61.4574,125.9842],[25.044,61.4619,119.2851],[25.0628,61.4612,120.7668],[25.0635,61.4657,124.7525],[25.0822,61.465,119.0156],[25.083,61.4695,132.4344],[25.1111,61.4684,129.4679],[25.1119,61.4729,114.5008],[25.1306,61.4722,153.1619],[25.1299,61.4677,127.1106],[25.1392,61.4674,124.7856],[25.1385,61.4629,117.2487],[25.1572,61.4622,130.7884],[25.158,61.4667,112.2603],[25.1674,61.4663,100.7519],[25.1681,61.4708,76.5],[25.1775,61.4705,82.3357],[25.1782,61.4749,81.4897],[25.1876,61.4746,96.2306],[25.1883,61.4791,129.6837],[25.2165,61.478,137.8453],[25.215699999999998,61.4735,106.8187],[25.2626,61.4717,76.5],[25.2634,61.4762,76.5],[25.2728,61.4758,76.5],[25.2735,61.4803,76.5],[25.311,61.4789,76.5],[25.3118,61.4834,76.5],[25.3681,61.4812,76.5],[25.3688,61.4857,76.5],[25.4251,61.4835,76.5],[25.4259,61.4879,76.5],[25.4446,61.4872,76.5],[25.4501,61.5185,76.5],[25.4595,61.5181,76.5],[25.4658,61.5539,76.5],[25.4752,61.5536,76.5],[25.4807,61.5849,76.5],[25.4901,61.5845,76.5],[25.4957,61.6158,76.5],[25.5051,61.6155,76.5],[25.5115,61.6513,76.5],[25.502,61.6516,76.5],[25.5068,61.6785,76.5],[25.5634,61.6762,76.5],[25.5626,61.6718,76.5],[25.572,61.6714,76.5],[25.5728,61.6758,76.5],[25.5917,61.6751,85.3137],[25.5925,61.6796,76.5],[25.6114,61.6788,76.5],[25.6122,61.6833,76.5],[25.6216,61.6829,76.5],[25.6225,61.6874,76.5],[25.6319,61.687,76.5],[25.6335,61.6959,86.4832],[25.643,61.6955,76.5],[25.6446,61.7045,86.1186],[25.654,61.7041,112.3131],[25.6557,61.7131,82.8163],[25.6746,61.7123,102.4552],[25.6754,61.7168,86.5019],[25.6943,61.716,76.5],[25.6934,61.7115,76.5],[25.7218,61.7104,98.9483],[25.7209,61.7059,101.9575],[25.7587,61.7043,156.4082],[25.7579,61.6998,154.3639],[25.7484,61.7002,138.3228],[25.7468,61.6913,137.9935],[25.7562,61.6909,133.3935],[25.7554,61.6864,132.267],[25.7743,61.6856,120.3811],[25.7759,61.6946,141.0186],[25.7854,61.6942,130.1958],[25.7887,61.7121,144.8574],[25.7981,61.7117,165.6136],[25.8015,61.7296,188.1083],[25.811,61.7292,163.9611],[25.8143,61.7471,147.3347],[25.8238,61.7467,151.7276],[25.8272,61.7646,157.6901],[25.8366,61.7642,142.9268],[25.8383,61.7731,149.8127],[25.8478,61.7727,144.4837],[25.8486,61.7772,144.8825],[25.8581,61.7768,147.7797],[25.8606,61.7902,146.4133],[25.8512,61.7906,139.4049],[25.8529,61.7996,127.2531],[25.8718,61.7988,110.0357],[25.871,61.7943,125.1888],[25.8804,61.7939,113.569],[25.877,61.776,156.5779],[25.8676,61.7764,151.3074],[25.865,61.763,150.8824],[25.9028,61.7614,159.7316],[25.9037,61.7658,163.9736],[25.9131,61.7654,130.0861],[25.9174,61.7878,132.1707],[25.9269,61.7874,132.0689],[25.926,61.7829,134.8882],[25.9355,61.7825,123.9679],[25.9346,61.778,135.3958],[25.9441,61.7776,129.4577],[25.9432,61.7732,124.5275],[25.9527,61.7728,107.3786],[25.9518,61.7683,108.1146],[25.9707,61.7675,137.0026],[25.9699,61.763,135.7705],[25.9793,61.7626,118.2403],[25.9785,61.7581,117.7388],[25.9879,61.7577,113.9797],[25.9862,61.7488,104.8311],[25.9956,61.7484,109.0917],[25.9922,61.7305,91.0],[26.0016,61.7301,101.9397],[26.0007,61.7256,96.5459],[26.0102,61.7252,112.5277],[26.0093,61.7207,120.0081],[26.028199999999998,61.7199,118.4975],[26.0291,61.7244,124.7002],[26.0385,61.724,91.0],[26.0394,61.7284,99.2463],[26.0488,61.728,91.0],[26.0506,61.737,91.0],[26.06,61.7365,95.8648],[26.0592,61.7321,91.0],[26.0686,61.7317,96.1462],[26.0651,61.7138,91.0],[26.0745,61.7134,99.2651],[26.0736,61.7089,91.0],[26.0831,61.7085,91.0],[26.0804,61.6951,91.0],[26.0898,61.6947,114.1316],[26.0881,61.6857,109.5114],[26.0787,61.6861,110.5382],[26.0769,61.6772,91.0],[26.0675,61.6776,91.0],[26.0666,61.6731,91.0],[26.076,61.6727,91.0],[26.0752,61.6683,91.0],[26.0846,61.6678,91.0],[26.0828,61.6589,91.0],[26.0922,61.6585,91.0],[26.0914,61.654,91.0],[26.1008,61.6536,91.0],[26.099,61.6446,91.0],[26.1178,61.6438,91.0],[26.117,61.6394,91.0],[26.1264,61.6389,91.0],[26.1255,61.6345,91.0],[26.1349,61.634,91.0],[26.134,61.6296,91.0],[26.1434,61.6292,91.0],[26.1417,61.6202,91.0],[26.1511,61.6198,91.0],[26.1502,61.6153,91.0],[26.1596,61.6149,91.0],[26.1605,61.6194,91.0],[26.1699,61.618899999999996,91.0],[26.1726,61.6324,91.0],[26.182,61.6319,91.0],[26.1856,61.6498,91.0],[26.2044,61.649,131.3269],[26.2035,61.6445,125.3111],[26.2694,61.6415,121.1833],[26.2712,61.6505,179.7342],[26.2806,61.6501,191.2527],[26.2825,61.659,147.5297],[26.2919,61.6586,155.3411],[26.291,61.6541,162.866],[26.3004,61.6537,133.4417],[26.2995,61.6492,168.9565],[26.3089,61.6488,116.3788],[26.308,61.6443,134.5002],[26.3174,61.6439,127.8475],[26.3156,61.6349,137.9547],[26.3062,61.6354,140.753],[26.3034,61.622,102.5]]]]}}