{"type":"Feature","properties":{"ISO3166-1-Alpha-3":"FIN","country":"Finland","fill":"#F0F","id":"3177","name":"Central Finland"},
"geometry":{"type": "Polygon","coordinates": [[[25.97106,63.43029,168.2195],[25.91214,63.43853,160.2574],[25.86729,63.45726,166.6289],[25.78667,63.50336,149.4603],[25.73634,63.51767,152.5206],[25.4914,63.53155,139.0],[25.44509,63.5417,138.4774],[25.35838,63.58211,129.128],[25.31053,63.59232,126.3608],[25.23157,63.60092,139.6186],[25.19054,63.59674,142.3997],[25.15054,63.57545,133.6884],[25.12181,63.53803,160.9921],[25.10517,63.50047,182.7982],[25.08067,63.47104,171.7861],[25.02868,63.45804,170.8551],[24.89567,63.41812,168.3701],[24.81123,63.38078,176.9173],[24.78343,63.35221,166.8599],[24.78457,63.31169,165.6855],[24.79986,63.27575,174.5291],[24.79304,63.27454,183.2869],[24.76782,63.26699,184.3374],[24.75935,63.26286,188.7157],[24.761,63.24451,197.4921],[24.7641,63.23157,190.0207],[24.75687,63.20834,196.406],[24.74333,63.18074,199.6103],[24.73754,63.1625,208.7781],[24.73919,63.1425,201.2999],[24.7364,63.13708,201.9598],[24.5854,63.15708,192.6226],[24.52825,63.15914,158.6484],[24.36278,63.1192,177.7611],[24.34542,63.09586,182.3881],[24.32651,63.07682,187.8826],[24.30129,63.06507,189.4561],[24.26615,63.06034,182.3324],[24.27834,63.03471,200.9313],[24.28661,63.03233,199.2679],[24.29281,63.03424,199.184],[24.29674,63.03496,201.2149],[24.30025,63.02664,193.956],[24.30005,63.01776,183.9733],[24.30098,63.00566,182.4157],[24.3047,62.99486,184.3663],[24.31255,62.98112,190.5913],[24.32537,62.97101,197.238],[24.33932,62.96536,194.5633],[24.34738,62.95161,190.3659],[24.34656,62.9342,189.4545],[24.36423,62.91787,188.2721],[24.38552,62.91732,184.8688],[24.41994,62.9111,187.4814],[24.4436,62.8958,182.6303],[24.45094,62.88309,191.4535],[24.44112,62.86797,192.9819],[24.37994,62.86435,192.0245],[24.36547,62.86185,189.3685],[24.36516,62.84348,208.8554],[24.42717,62.79575,204.0479],[24.50448,62.7125,223.6827],[24.53652,62.68731,228.152],[24.55802,62.67574,221.798],[24.57114,62.66057,213.0868],[24.52029,62.63535,218.7492],[24.51171,62.62822,221.1922],[24.51502,62.61856,214.3907],[24.54613,62.61775,212.6564],[24.57445,62.61977,218.4159],[24.58251,62.61721,200.4428],[24.58168,62.611579999999996,206.7421],[24.57786,62.60843,218.0644],[24.55564,62.60936,209.099],[24.55502,62.6061,207.8982],[24.55729,62.60269,204.9841],[24.55905,62.59923,211.131],[24.56329,62.58843,222.3225],[24.56515,62.58481,219.8359],[24.5637,62.58088,218.9438],[24.5421,62.57825,224.5153],[24.53735,62.57605,216.8523],[24.53703,62.57422,218.8304],[24.53683,62.56752,203.2045],[24.5391,62.5637,197.4654],[24.54272,62.563,201.3781],[24.54231,62.55949,193.1059],[24.53993,62.55959,186.9373],[24.5298,62.56101,194.4967],[24.52742,62.56094,195.1158],[24.52722,62.55561,206.4475],[24.52939,62.55086,200.6479],[24.5297,62.54781,201.1815],[24.5267,62.5443,203.9762],[24.52608,62.53414,217.1626],[24.52277,62.52032,195.7625],[24.51047,62.51448,183.877],[24.51109,62.51014,175.5114],[24.51357,62.50394,171.0],[24.50231,62.49841,172.6165],[24.48877,62.49758,173.3706],[24.47688,62.49546,173.8391],[24.45466,62.48818,161.5],[24.4343,62.47856,161.5],[24.42211,62.48009,161.5],[24.41859,62.48601,172.7235],[24.40888,62.49334,177.8264],[24.39544,62.49564,179.1212],[24.38655,62.49629,199.2749],[24.37229,62.49996,202.8746],[24.32785,62.49133,168.7858],[24.32878,62.48055,155.3395],[24.33467,62.4689,156.068],[24.3263,62.45872,170.7671],[24.30366,62.4567,164.5969],[24.22078,62.47058,189.6062],[24.19814,62.4688,186.7155],[24.1692,62.45869,188.7234],[24.132,62.44087,183.8581],[24.04962,62.39069,188.9066],[24.02027,62.364,197.4694],[24.02347,62.33069,166.5627],[24.03526,62.30943,131.8534],[24.05386,62.29591,139.055],[24.07753,62.28584,125.5],[24.11928,62.27256,147.3438],[24.16414,62.26336,182.6125],[24.24579,62.25475,183.09],[24.28124,62.22871,161.5],[24.29302,62.20685,166.4093],[24.3326,62.17496,139.1053],[24.36402,62.16602,105.0],[24.37642,62.15876,110.4249],[24.4157,62.15466,105.0],[24.4436,62.15951,125.9306],[24.4313,62.17409,153.3536],[24.44846,62.18034,163.1151],[24.49962,62.19264,151.433],[24.53032,62.19295,159.8282],[24.56494,62.18086,176.1821],[24.58902,62.16282,117.7483],[24.60856,62.14303,116.906],[24.63295,62.12662,123.4612],[24.65176,62.12096,121.8779],[24.66912,62.10903,105.0],[24.66747,62.0991,105.0],[24.66612,62.08164,105.0],[24.66726,62.0659,105.0],[24.6686,62.05851,105.0],[24.68524,62.04947,105.0],[24.74291,62.03394,154.0118],[24.77351,62.03435,148.0216],[24.8688,62.05575,169.3983],[24.88781,62.03885,160.8908],[24.89577,62.02107,113.2053],[24.93722,61.95121,149.8829],[24.94673,61.91767,148.9464],[24.94001,61.8692,160.1442],[24.93029,61.82946,173.0997],[24.93784,61.80145,144.201],[24.95933,61.79158,127.5181],[24.98073,61.78724,156.0418],[24.97143,61.78292,163.8915],[24.96574,61.78093,160.28],[24.9706,61.77181,159.169],[24.99396,61.74677,134.7277],[24.99571,61.73156,142.5579],[24.98497,61.72437,127.9961],[24.9674,61.72804,127.9618],[24.96057,61.73292,153.609],[24.94528,61.73502,125.5659],[24.93102,61.72724,118.5],[24.92275,61.70941,157.1837],[24.92771,61.69585,139.3465],[24.94228,61.68275,130.4796],[24.96595,61.66709,123.5],[24.96802,61.65675,125.9352],[24.96316,61.65138,130.7131],[24.95892,61.64787,126.6366],[24.95789,61.64399,123.7002],[24.95789,61.63776,130.6184],[24.93629,61.63306,147.7336],[24.87055,61.64885,138.2949],[24.82973,61.65314,143.9722],[24.79759,61.63727,126.3907],[24.78994,61.61502,168.9092],[24.80286,61.59738,128.4205],[24.82177,61.57911,142.0795],[24.82901,61.56792,107.0],[24.85164,61.57242,114.2379],[24.87531,61.58342,114.8292],[24.90662,61.58022,157.7779],[24.9121,61.56177,158.0271],[24.8967,61.54994,161.4262],[24.8998,61.54482,143.5557],[24.92109,61.53924,144.9207],[24.93618,61.5173,137.0473],[24.94218,61.48679,130.7563],[24.9582,61.45594,150.7855],[24.96688,61.45113,160.9914],[25.40334,61.48405,76.5],[25.42649,61.49036,76.5],[25.44375,61.50353,76.5],[25.46101,61.52705,76.5],[25.47703,61.56436,76.5],[25.50245,61.65368,76.5],[25.5162,61.67804,76.5],[25.53088,61.68145,76.5],[25.58224,61.67541,76.5],[25.59764,61.67913,76.5],[25.63351,61.69587,86.4832],[25.6643,61.70373,178.092],[25.69087,61.7059,76.5],[25.73934,61.7045,94.2109],[25.75732,61.70238,124.1626],[25.74843,61.69329,147.4446],[25.76404,61.69303,136.2793],[25.77954,61.70143,144.2039],[25.81644,61.73504,151.6023],[25.84507,61.7738,147.0958],[25.85117,61.7862,139.1616],[25.86202,61.79804,134.3617],[25.87091,61.79504,121.8604],[25.87794,61.78713,138.862],[25.87556,61.77623,156.5779],[25.8706,61.7692,154.2025],[25.87494,61.76021,152.9731],[25.88507,61.75879,191.5676],[25.90109,61.76101,156.0017],[25.91214,61.77039,133.9354],[25.91587,61.77876,146.1867],[25.92486,61.78372,134.8132],[25.96444,61.76662,119.3023],[25.97839,61.75809,117.7388],[25.98656,61.74874,100.5851],[25.99958,61.72732,91.0],[26.0093,61.72068,120.0081],[26.03028,61.71817,112.748],[26.05239,61.7275,112.6212],[26.06542,61.71918,91.0],[26.07017,61.71355,95.7873],[26.07792,61.70967,91.0],[26.08164,61.70502,91.0],[26.07989,61.70019,91.0],[26.07172,61.68683,110.6213],[26.06738,61.67706,91.0],[26.06201,61.67014,91.0],[26.05725,61.66823,115.1199],[26.05756,61.66564,104.7835],[26.06738,61.6566,113.279],[26.07782,61.65153,110.8022],[26.11906,61.6429,91.0],[26.14614,61.62632,102.8151],[26.15554,61.62663,104.0134],[26.16422,61.63133,91.0],[26.25259,61.64967,111.4283],[26.28938,61.65208,145.8136],[26.30396,61.64993,134.3673],[26.31212,61.63846,112.0],[26.30788,61.63239,114.9331],[26.30695,61.62415,102.5],[26.31171,61.6167,102.5],[26.31946,61.60764,102.5],[26.33052,61.60942,107.1082],[26.3546,61.61753,109.5436],[26.35832,61.62415,117.0087],[26.3578,61.62911,106.9883],[26.3607,61.63639,116.0261],[26.37279,61.65195,110.6881],[26.3947,61.65621,91.5],[26.49661,61.63099,91.5],[26.515,61.63846,122.8695],[26.52906,61.68636,91.5],[26.52916,61.70166,91.5],[26.5211,61.71546,91.5],[26.48772,61.74768,91.5],[26.47438,61.75838,120.1301],[26.38643,61.80455,101.0],[26.37796,61.81245,115.4491],[26.373,61.82868,123.909],[26.37899,61.86558,91.5],[26.37899,61.87534,105.9286],[26.3701,61.884,118.7543],[26.34013,61.88454,100.9724],[26.33413,61.88385,100.1568],[26.34581,61.91462,104.0862],[26.34747,61.93953,123.2098],[26.3608,61.95748,113.991],[26.38664,61.96518,120.7365],[26.39026,61.9903,110.7274],[26.24752,62.10065,185.0462],[26.24484,62.13667,135.0],[26.33403,62.19734,136.2417],[26.39997,62.22339,114.481],[26.42467,62.22375,110.153],[26.45309,62.21217,110.6916],[26.46085,62.21398,120.0422],[26.47511,62.21915,115.3412],[26.48792,62.22638,142.1962],[26.49371,62.23072,140.2143],[26.49609,62.23682,132.1104],[26.49309,62.23786,134.7027],[26.48813,62.2386,137.9151],[26.48358,62.23982,133.7604],[26.4995,62.25096,133.6457],[26.52027,62.25576,132.3974],[26.53309,62.25674,131.9015],[26.55738,62.2539,120.5378],[26.56844,62.24992,125.0],[26.59593,62.23558,149.0188],[26.62239,62.22726,139.6228],[26.6476,62.22618,140.5954],[26.6568,62.23047,129.5],[26.64657,62.23545,135.2443],[26.63582,62.24602,145.2287],[26.63572,62.25393,147.8651],[26.63303,62.26783,155.8415],[26.62704,62.27956,131.5966],[26.62259,62.28454,125.5663],[26.62693,62.29584,125.1743],[26.65546,62.30064,153.1276],[26.66982,62.30648,155.1893],[26.67634,62.31134,153.6078],[26.67913,62.31839,139.4291],[26.67623,62.31922,143.4537],[26.66879,62.32033,144.1032],[26.6661,62.32136,138.5799],[26.67313,62.33304,134.6805],[26.68533,62.3403,151.8929],[26.7153,62.34824,179.8181],[26.76346,62.35433,136.9763],[26.76646,62.36209,123.0],[26.6936,62.39343,123.0],[26.68729,62.40461,136.5374],[26.69339,62.41138,123.7262],[26.69804,62.418,121.7765],[26.70527,62.43164,120.0215],[26.71179,62.45128,106.0],[26.68657,62.4611,106.0],[26.61815,62.4643,115.9837],[26.58911,62.47061,105.0],[26.48813,62.51174,137.9401],[26.48183,62.52456,134.0861],[26.58249,62.58243,94.0],[26.595,62.59401,94.0],[26.59221,62.59949,94.0],[26.58869,62.60006,94.0],[26.58487,62.60026,94.0],[26.58187,62.60093,108.7074],[26.592,62.61075,94.0],[26.59696,62.62548,94.0],[26.58321,62.65747,113.2122],[26.56151,62.68925,94.0],[26.53712,62.70341,94.0],[26.52668,62.72232,94.0],[26.52079,62.73635,94.0],[26.50653,62.74868,94.0],[26.47211,62.76702,94.0],[26.44028,62.77922,94.0],[26.41558,62.78028,94.0],[26.3947,62.76542,98.0],[26.37475,62.75441,98.0],[26.36049,62.75751,98.0],[26.17414,62.83193,98.0],[26.16174,62.84394,98.0],[26.18324,62.85875,107.2967],[26.18748,62.86112,98.0],[26.16722,62.87198,98.0],[26.10149,62.89151,98.0],[26.068,62.90758,98.0],[26.05219,62.92102,98.0],[26.06387,62.93753,98.0],[26.18417,62.95401,167.6324],[26.24029,62.95109,143.9059],[26.28018,62.94474,128.6803],[26.29083,62.94546,138.9793],[26.31098,62.9558,120.5],[26.32432,62.96882,150.7988],[26.31884,62.98138,144.21],[26.30116,62.98256,140.3195],[26.27212,62.99171,139.763],[26.24763,63.00672,146.3211],[26.23678,63.01512,143.6382],[26.23388,63.03223,144.5338],[26.24401,63.03755,158.4089],[26.26944,63.04137,164.0258],[26.31357,63.0385,159.9585],[26.30013,63.05073,153.5429],[26.27202,63.06419,144.6496],[26.2343,63.09419,166.5845],[26.20236,63.1247,143.6928],[26.16092,63.15144,137.6045],[26.15575,63.18185,177.6471],[26.15482,63.20276,190.5583],[26.16112,63.21165,175.2044],[26.18314,63.21586,149.7463],[26.18438,63.22813,172.3635],[26.16567,63.2566,182.53],[26.13384,63.31614,146.9195],[26.10986,63.34239,147.8784],[26.09384,63.35117,155.6275],[26.08722,63.36802,157.7364],[26.09952,63.37978,148.0956],[26.16329,63.4298,167.3426],[26.17001,63.44331,156.0148],[26.1482,63.45318,181.7984],[26.13776,63.45628,182.0476],[26.02904,63.43463,183.5565],[25.97106,63.43029,168.2195]]]}}