{"type": "Feature","bbox": [22.0548,62.2697,23.3693,62.7195],"geometry": {"type": "MultiPolygon","coordinates": [[[[23.1332,62.319,152.7233],[23.1525,62.3186,155.5441],[23.153,62.323,150.7472],[23.1723,62.3226,147.7439],[23.1728,62.3271,147.2408],[23.1921,62.3266,144.3369],[23.1925,62.3312,143.0398],[23.2119,62.3307,131.6929],[23.2123,62.3352,140.655],[23.222,62.335,133.1714],[23.2229,62.344,129.7723],[23.2326,62.3437,138.241],[23.2341,62.3572,129.7582],[23.2437,62.357,135.2963],[23.2457,62.3749,137.1147],[23.2553,62.3747,142.1668],[23.2568,62.3881,140.3282],[23.2665,62.3879,129.9829],[23.2679,62.4014,134.3772],[23.2776,62.4012,133.8641],[23.2786,62.4101,134.0467],[23.2883,62.4099,136.4775],[23.2888,62.4144,136.7504],[23.3081,62.414,143.4683],[23.3086,62.4184,137.116],[23.328,62.418,138.6335],[23.3285,62.4225,146.3448],[23.3382,62.4222,135.8],[23.3387,62.4267,135.2516],[23.3581,62.4263,137.2108],[23.3586,62.4308,136.8643],[23.3682,62.4305,151.0391],[23.3693,62.4395,147.0604],[23.3595,62.4397,141.7422],[23.3606,62.4487,143.757],[23.3509,62.4489,136.6349],[23.3514,62.4534,140.8495],[23.3417,62.4536,140.2803],[23.3427,62.4626,134.4777],[23.333,62.4628,136.9489],[23.3335,62.4673,130.8555],[23.3238,62.4676,136.6329],[23.3248,62.4765,133.0109],[23.3151,62.4768,131.6139],[23.3155,62.4812,127.3989],[23.3058,62.4815,130.3322],[23.3068,62.4904,123.9849],[23.2971,62.4907,131.9866],[23.2976,62.4952,127.7311],[23.317,62.4947,124.1101],[23.3175,62.4992,122.7531],[23.3078,62.4994,129.1888],[23.3083,62.5039,124.1561],[23.2889,62.5043,122.7549],[23.2894,62.5088,121.0351],[23.2797,62.5091,128.053],[23.2806,62.518,117.3961],[23.2709,62.5183,115.6051],[23.2714,62.5227,118.8765],[23.2617,62.523,116.8041],[23.2627,62.5319,118.0619],[23.253,62.5322,116.4672],[23.2549,62.5501,109.896],[23.2646,62.5499,113.3601],[23.2661,62.5633,118.012],[23.2758,62.5631,118.1055],[23.2763,62.5676,115.2241],[23.2861,62.5674,121.2783],[23.2866,62.5719,119.3316],[23.306,62.5714,117.529],[23.307,62.5804,123.8919],[23.2778,62.5811,112.4123],[23.2803,62.6035,108.5437],[23.2705,62.6037,114.7067],[23.2715,62.6127,106.5978],[23.2423,62.6134,109.9139],[23.2418,62.6089,113.1179],[23.2223,62.6093,104.7782],[23.2218,62.6048,105.83],[23.212,62.605,102.0547],[23.2125,62.6095,104.3977],[23.2028,62.6098,100.3782],[23.2037,62.6187,101.1322],[23.194,62.618899999999996,103.0459],[23.1945,62.6234,100.0614],[23.1847,62.6236,100.3694],[23.1852,62.6281,103.7123],[23.1754,62.6283,98.9643],[23.1769,62.6418,110.9985],[23.1964,62.6414,110.1544],[23.1969,62.6459,108.4528],[23.1973,62.6504,112.0715],[23.1778,62.6508,108.6508],[23.1783,62.6553,108.3636],[23.1588,62.6557,107.6783],[23.1569,62.6378,100.4816],[23.1471,62.638,108.4596],[23.1447,62.6156,99.6818],[23.135,62.6158,100.2543],[23.1331,62.5978,107.0193],[23.1234,62.598,101.6927],[23.1243,62.607,106.6693],[23.1146,62.6072,106.516],[23.115,62.6117,109.0029],[23.1053,62.6119,107.5369],[23.1057,62.6164,111.8656],[23.096,62.6166,98.7674],[23.0964,62.6211,97.4943],[23.0867,62.6213,111.2702],[23.0872,62.6258,102.0202],[23.0774,62.626,111.3094],[23.0779,62.6305,109.9334],[23.0681,62.6307,111.828],[23.0686,62.6352,113.92],[23.0588,62.6354,109.4733],[23.0593,62.6399,111.5992],[23.0495,62.6401,117.1312],[23.05,62.6446,109.8958],[23.0402,62.6448,105.6977],[23.0407,62.6493,109.245],[23.0309,62.6495,104.9433],[23.0314,62.654,102.7119],[23.0216,62.6542,104.5683],[23.0221,62.6587,102.6173],[23.0025,62.6591,106.0362],[23.0021,62.6546,103.5609],[22.9825,62.655,95.9311],[22.9821,62.6505,103.1929],[22.9626,62.6509,93.7031],[22.9621,62.6464,95.4379],[22.9426,62.6468,91.7753],[22.9421,62.6423,93.6239],[22.9226,62.6427,95.7277],[22.9222,62.6383,87.2851],[22.8929,62.6389,94.4394],[22.8925,62.6344,97.9412],[22.8437,62.6353,95.7408],[22.8432,62.6309,98.4135],[22.7944,62.6318,106.8819],[22.794,62.6273,105.2215],[22.7452,62.6283,101.4885],[22.7448,62.6238,104.636],[22.7058,62.6245,97.2269],[22.705,62.6156,101.082],[22.6855,62.6159,96.2618],[22.6859,62.6204,100.7239],[22.6761,62.6206,110.5923],[22.6765,62.6251,103.2022],[22.6668,62.6253,109.4176],[22.6672,62.6298,93.8382],[22.6574,62.63,98.3622],[22.6566,62.621,100.1351],[22.6664,62.6208,104.3654],[22.666,62.6163,106.7729],[22.6757,62.6161,114.2828],[22.6753,62.6116,97.822],[22.6851,62.6114,95.4349],[22.6847,62.607,95.1404],[22.6944,62.6068,94.6683],[22.694,62.6023,94.297],[22.6842,62.6025,94.8737],[22.6838,62.598,94.3246],[22.6643,62.5983,95.4079],[22.6647,62.6028,89.7021],[22.6257,62.6036,88.6286],[22.6261,62.608,91.3222],[22.6359,62.6079,91.5065],[22.6371,62.6213,98.0008],[22.6273,62.6215,111.7435],[22.6277,62.626,108.2785],[22.5789,62.6269,92.3321],[22.5782,62.6179,106.1642],[22.5684,62.6181,90.4836],[22.5688,62.6226,90.4685],[22.559,62.6227,96.5477],[22.5594,62.6272,110.0061],[22.5106,62.6281,113.6114],[22.511,62.6326,108.0177],[22.5012,62.6328,121.8384],[22.5016,62.6373,118.5582],[22.4918,62.6374,118.3318],[22.4922,62.6419,115.2308],[22.4825,62.6421,120.4902],[22.4828,62.6466,118.3961],[22.4731,62.6467,119.5527],[22.4734,62.6512,119.0493],[22.4637,62.6514,92.0318],[22.464,62.6559,63.813],[22.4543,62.6561,57.4822],[22.4546,62.6605,53.2899],[22.4351,62.6609,42.6015],[22.4355,62.6654,40.9248],[22.4257,62.6655,51.6752],[22.4261,62.67,55.2457],[22.4163,62.6702,65.0802],[22.4166,62.6747,65.726],[22.3971,62.675,63.4444],[22.3975,62.6795,65.9472],[22.3779,62.6798,67.8379],[22.3783,62.6843,79.9108],[22.3489,62.6848,93.7932],[22.3493,62.6893,94.2638],[22.2808,62.6904,98.5682],[22.2812,62.6949,97.6533],[22.2616,62.6952,106.4151],[22.2619,62.6997,102.6997],[22.2326,62.7001,124.973],[22.2329,62.7046,111.3261],[22.2134,62.7049,144.5059],[22.2137,62.7094,150.1155],[22.1843,62.7099,140.3678],[22.1847,62.7144,138.7898],[22.1651,62.7147,145.4264],[22.1654,62.7192,148.5705],[22.1458,62.7195,133.8224],[22.1452,62.7105,147.3692],[22.1354,62.7106,145.8498],[22.1318,62.6612,158.6219],[22.1221,62.6614,154.5173],[22.1201,62.6344,162.799],[22.1104,62.6346,160.8818],[22.1085,62.6076,164.0075],[22.0987,62.6078,158.0117],[22.0984,62.6033,156.1184],[22.1082,62.6031,169.6594],[22.1078,62.5987,174.7603],[22.1176,62.5985,176.7563],[22.115,62.5626,141.0462],[22.1053,62.5627,129.6423],[22.105,62.5583,125.9609],[22.0953,62.5584,129.2772],[22.0949,62.5539,120.9357],[22.0852,62.5541,115.9338],[22.0849,62.5496,109.2573],[22.0752,62.5497,113.8936],[22.0749,62.5452,111.9607],[22.0554,62.5455,101.4929],[22.0548,62.5365,102.3017],[22.084,62.5361,112.1721],[22.0836,62.5316,112.3022],[22.1226,62.531,119.1441],[22.1223,62.5265,129.5362],[22.132,62.5264,132.1859],[22.1329,62.5399,127.022],[22.1427,62.5397,129.466],[22.1433,62.5487,120.0138],[22.1822,62.5481,116.8789],[22.1819,62.5436,124.0596],[22.2209,62.543,118.1478],[22.2205,62.5385,116.8878],[22.2595,62.5379,102.8435],[22.2591,62.5334,100.3177],[22.2883,62.533,82.7226],[22.288,62.5285,83.9468],[22.2977,62.5283,82.2082],[22.2973,62.5238,82.4162],[22.3071,62.5237,88.6311],[22.3067,62.5192,95.6127],[22.3359,62.5187,141.4764],[22.3356,62.5142,140.6122],[22.355,62.5139,123.1667],[22.3546,62.5094,121.2077],[22.3741,62.5091,114.9856],[22.3734,62.5001,111.9564],[22.3637,62.5003,116.7776],[22.3629,62.4913,125.3977],[22.3921,62.4908,117.8259],[22.3917,62.4863,117.3091],[22.4209,62.4858,146.9513],[22.4205,62.4813,140.2162],[22.4885,62.4801,142.1352],[22.4881,62.4757,142.651],[22.5173,62.4751,145.6557],[22.5169,62.4706,143.974],[22.5363,62.4703,145.617],[22.5359,62.4658,144.5986],[22.5845,62.4649,146.1706],[22.5841,62.4604,150.8555],[22.5938,62.4603,140.9852],[22.5926,62.4468,147.8511],[22.6023,62.4466,149.3669],[22.6015,62.4377,151.3385],[22.6112,62.4375,150.171],[22.6108,62.433,150.9882],[22.6205,62.4328,150.3723],[22.6197,62.4238,150.9128],[22.6294,62.4236,151.8831],[22.6291,62.4192,152.1601],[22.6388,62.419,158.5003],[22.638,62.41,148.3424],[22.6477,62.4098,142.7392],[22.6469,62.4009,153.0464],[22.6372,62.401,153.2746],[22.6336,62.3606,160.9798],[22.6433,62.3605,145.7787],[22.6421,62.347,154.4965],[22.6518,62.3468,151.062],[22.6506,62.3333,159.5823],[22.6603,62.3332,169.2222],[22.6591,62.3197,164.0043],[22.6687,62.3195,160.1431],[22.6684,62.315,155.1174],[22.6587,62.3152,161.9817],[22.6583,62.3107,157.9211],[22.6486,62.3109,160.1958],[22.6482,62.306399999999996,160.7295],[22.6386,62.3066,158.659],[22.6378,62.2976,161.3271],[22.6571,62.2973,161.6538],[22.6567,62.2928,161.2803],[22.676,62.2924,163.0215],[22.6756,62.2879,158.8159],[22.6949,62.2876,147.2646],[22.6945,62.2831,146.154],[22.7138,62.2827,158.7233],[22.7134,62.2782,155.8023],[22.7423,62.2776,137.4818],[22.7419,62.2732,142.0303],[22.9155,62.2697,157.7219],[22.9159,62.2742,156.083],[22.9352,62.2738,153.3463],[22.9357,62.2783,154.1521],[22.955,62.2779,146.0],[22.9554,62.2823,155.5988],[22.9747,62.2819,150.5983],[22.9751,62.2864,147.3069],[22.9944,62.286,151.7786],[22.9949,62.2905,149.0491],[23.0142,62.2901,177.7035],[23.0146,62.2946,181.7283],[23.0339,62.2942,175.3932],[23.0344,62.2986,171.406],[23.0537,62.2982,158.2779],[23.0541,62.3027,155.7043],[23.0734,62.3023,170.6648],[23.0739,62.3068,184.7839],[23.0932,62.306399999999996,153.6004],[23.0936,62.3109,159.1031],[23.1129,62.3104,152.6306],[23.1134,62.3149,142.5391],[23.1327,62.3145,174.759],[23.1332,62.319,152.7233]]]]}
,"properties": {"GID_3": "FIN.5.8.6_1","GID_0": "FIN","country": "Finland","GID_1": "FIN.5_1","province": "WesternFinland","NL_NAME_1": "NA","GID_2": "FIN.5.8_1","county": "SouthernOstrobothnia","NL_NAME_2": "NA","city": "SouthernSeinänaapuri","VARNAME_3": "NA","NL_NAME_3": "NA","TYPE_3": "Seutukunta|Ekonomiskregion","ENGTYPE_3": "Sub-Region","CC_3": "NA","HASC_3": "NA","name": "Southern_Seinänaapuri.city","area_km2": 1744.985,"hist_schema_id": "Elevation0-9000","hist_area_km2": {"50": 15.175,"75": 110.507,"100": 649.656,"125": 641.349,"150": 292.054,"175": 35.922,"200": 0.323}}}