{"type":"Feature","properties":{"GID_3":"FIN.5.8.5_1","GID_0":"FIN","country":"Finland","GID_1":"FIN.5_1","province":"WesternFinland","NL_NAME_1":"NA","GID_2":"FIN.5.8_1","county":"SouthernOstrobothnia","NL_NAME_2":"NA","city":"SouthEasternBothnia","VARNAME_3":"NA","NL_NAME_3":"NA","TYPE_3":"Seutukunta|Ekonomiskregion","ENGTYPE_3":"Sub-Region","CC_3":"NA","HASC_3":"NA","name":"South_Eastern_Bothnia.city"},
"geometry":{"type": "MultiPolygon","coordinates": [[[[21.6468,62.025,75.0772],[21.6465,62.0206,71.3206],[21.7422,62.0194,66.1736],[21.742,62.0149,72.081],[21.7707,62.0145,76.3933],[21.7704,62.0101,69.1568],[21.8087,62.0096,79.8151],[21.8084,62.0051,79.2625],[21.8371,62.0047,76.8197],[21.8368,62.0002,75.4182],[21.8655,61.9998,75.8934],[21.8653,61.9953,75.8178],[21.8939,61.995,82.0915],[21.8937,61.9905,88.7824],[21.9319,61.99,87.3802],[21.9316,61.9855,86.0438],[21.9603,61.9851,85.3379],[21.96,61.9806,94.0879],[21.9791,61.9803,86.2988],[21.9794,61.9848,86.471],[21.9985,61.9845,87.5647],[21.9988,61.989,98.6308],[22.0084,61.9889,87.7685],[22.0086,61.9934,88.6148],[22.0182,61.9932,96.5544],[22.0185,61.9977,96.8485],[22.0281,61.9976,94.3466],[22.0284,62.0021,96.9599],[22.0379,62.0019,94.7068],[22.0382,62.0064,102.6694],[22.0478,62.0063,95.1317],[22.0481,62.0108,102.8387],[22.0577,62.0106,102.9494],[22.058,62.0151,103.9493],[22.0771,62.0148,101.2718],[22.0774,62.0193,102.8055],[22.087,62.0192,110.7887],[22.0873,62.0237,112.0062],[22.0968,62.0235,111.1748],[22.0971,62.028,109.7577],[22.1067,62.0279,108.1],[22.107,62.0324,96.5575],[22.1166,62.0322,92.174],[22.1172,62.0412,106.6951],[22.1268,62.0411,106.1407],[22.1274,62.05,111.617],[22.137,62.0499,120.9579],[22.1376,62.0589,120.27],[22.1472,62.0587,132.4415],[22.1475,62.0632,116.0866],[22.1571,62.0631,125.388],[22.1577,62.0721,115.3302],[22.1673,62.0719,124.5858],[22.1679,62.0809,134.2815],[22.1775,62.0807,137.6635],[22.1782,62.0897,146.4613],[22.1878,62.0896,142.5786],[22.1884,62.0985,144.1221],[22.198,62.0984,144.8168],[22.1983,62.1029,150.2298],[22.3038,62.1012,137.3696],[22.3042,62.1057,139.2265],[22.3234,62.1054,141.6241],[22.3237,62.1098,144.7629],[22.3333,62.1097,139.4268],[22.3337,62.1142,140.8114],[22.3432,62.114,132.2133],[22.3439,62.123,139.0491],[22.3535,62.1228,134.0294],[22.3542,62.1318,148.8591],[22.3638,62.1317,144.6306],[22.3642,62.1362,145.9021],[22.3738,62.136,151.2678],[22.3745,62.145,149.0874],[22.3841,62.1448,148.1456],[22.3848,62.1538,156.3573],[22.3944,62.1536,156.2853],[22.3947,62.1581,162.6317],[22.4044,62.1579,157.4906],[22.4051,62.1669,162.8478],[22.4147,62.1668,167.3299],[22.4154,62.1757,160.1552],[22.425,62.1756,165.4861],[22.4254,62.18,168.1523],[22.435,62.1799,170.3775],[22.4357,62.1889,167.4525],[22.4453,62.1887,167.2426],[22.4461,62.1977,169.5363],[22.4557,62.1975,170.9702],[22.456,62.202,167.0123],[22.4753,62.2017,153.6831],[22.4756,62.2062,155.6492],[22.4853,62.206,154.0902],[22.4856,62.2105,154.12],[22.5049,62.2101,150.8331],[22.5053,62.2146,148.3292],[22.5149,62.2145,139.8988],[22.5152,62.2189,146.4258],[22.5345,62.2186,154.2036],[22.5353,62.2276,164.313],[22.5449,62.2274,177.6465],[22.5464,62.2453,165.9238],[22.556,62.2452,156.0635],[22.5575,62.2631,156.792],[22.5672,62.263,156.3101],[22.5683,62.2764,158.312],[22.578,62.2762,160.6689],[22.5795,62.2942,157.2012],[22.5892,62.294,158.3762],[22.590699999999998,62.312,155.0775],[22.6003,62.3118,161.3077],[22.6,62.3073,157.755],[22.6193,62.3069,155.8153],[22.6189,62.3025,148.7798],[22.6382,62.3021,158.91],[22.6386,62.3066,158.659],[22.6482,62.306399999999996,160.7295],[22.6486,62.3109,160.1958],[22.6583,62.3107,157.9211],[22.6587,62.3152,161.9817],[22.6684,62.315,155.1174],[22.6687,62.3195,160.1431],[22.6591,62.3197,164.0043],[22.6603,62.3332,169.2222],[22.6506,62.3333,159.5823],[22.6518,62.3468,151.062],[22.6421,62.347,154.4965],[22.6433,62.3605,145.7787],[22.6336,62.3606,160.9798],[22.6372,62.401,153.2746],[22.6469,62.4009,153.0464],[22.6477,62.4098,142.7392],[22.638,62.41,148.3424],[22.6388,62.419,158.5003],[22.6291,62.4192,152.1601],[22.6294,62.4236,151.8831],[22.6197,62.4238,150.9128],[22.6205,62.4328,150.3723],[22.6108,62.433,150.9882],[22.6112,62.4375,150.171],[22.6015,62.4377,151.3385],[22.6023,62.4466,149.3669],[22.5926,62.4468,147.8511],[22.5938,62.4603,140.9852],[22.5841,62.4604,150.8555],[22.5845,62.4649,146.1706],[22.5359,62.4658,144.5986],[22.5363,62.4703,145.617],[22.5169,62.4706,143.974],[22.5173,62.4751,145.6557],[22.4881,62.4757,142.651],[22.4885,62.4801,142.1352],[22.4205,62.4813,140.2162],[22.4209,62.4858,146.9513],[22.3917,62.4863,117.3091],[22.3921,62.4908,117.8259],[22.3629,62.4913,125.3977],[22.3637,62.5003,116.7776],[22.3734,62.5001,111.9564],[22.3741,62.5091,114.9856],[22.3546,62.5094,121.2077],[22.355,62.5139,123.1667],[22.3356,62.5142,140.6122],[22.3359,62.5187,141.4764],[22.3067,62.5192,95.6127],[22.3071,62.5237,88.6311],[22.2973,62.5238,82.4162],[22.2977,62.5283,82.2082],[22.288,62.5285,83.9468],[22.2883,62.533,82.7226],[22.2591,62.5334,100.3177],[22.2595,62.5379,102.8435],[22.2205,62.5385,116.8878],[22.2209,62.543,118.1478],[22.1819,62.5436,124.0596],[22.1822,62.5481,116.8789],[22.1725,62.5483,119.3085],[22.1433,62.5487,120.0138],[22.1427,62.5397,129.466],[22.1329,62.5399,127.022],[22.132,62.5264,132.1859],[22.1223,62.5265,129.5362],[22.1226,62.531,119.1441],[22.0836,62.5316,112.3022],[22.084,62.5361,112.1721],[22.0548,62.5365,102.3017],[22.0554,62.5455,101.4929],[22.0749,62.5452,111.9607],[22.0752,62.5497,113.8936],[22.0849,62.5496,109.2573],[22.0852,62.5541,115.9338],[22.0949,62.5539,120.9357],[22.0953,62.5584,129.2772],[22.105,62.5583,125.9609],[22.1053,62.5627,129.6423],[22.115,62.5626,141.0462],[22.1176,62.5985,176.7563],[22.1078,62.5987,174.7603],[22.1082,62.6031,169.6594],[22.0984,62.6033,156.1184],[22.0987,62.6078,158.0117],[22.1085,62.6076,164.0075],[22.1104,62.6346,160.8818],[22.1201,62.6344,162.799],[22.1221,62.6614,154.5173],[22.1318,62.6612,158.6219],[22.1354,62.7106,145.8498],[22.1452,62.7105,147.3692],[22.1458,62.7195,133.8224],[22.1556,62.7193,137.7153],[22.1563,62.7283,129.7557],[22.1661,62.7281,130.7943],[22.1664,62.7326,128.6083],[22.1762,62.7325,146.2794],[22.1768,62.7415,118.4796],[22.1866,62.7413,142.52],[22.187,62.7458,115.2031],[22.1968,62.7457,116.7507],[22.1974,62.7546,98.3578],[22.1778,62.7549,92.0049],[22.1782,62.7594,93.7009],[22.1487,62.7599,88.143],[22.1491,62.7644,89.755],[22.051,62.7658,86.7672],[22.0513,62.7703,92.3329],[22.0317,62.7706,86.1137],[22.032,62.7751,77.0],[22.0124,62.7753,77.0],[22.0127,62.7798,77.0],[21.9931,62.7801,90.7462],[21.9934,62.7846,87.6938],[21.9639,62.785,100.9655],[21.9642,62.7895,93.0253],[21.9446,62.7897,103.3326],[21.9449,62.7942,103.952],[21.9252,62.7945,107.737],[21.9255,62.799,96.0678],[21.9059,62.7993,64.3051],[21.9062,62.8037,55.5258],[21.8865,62.804,63.7995],[21.8868,62.8085,58.7637],[21.8672,62.8088,50.0986],[21.8675,62.8132,47.5952],[21.8478,62.8135,45.9062],[21.8481,62.818,45.9142],[21.8383,62.8181,48.2073],[21.8397,62.8406,37.1469],[21.8298,62.8407,38.2665],[21.8301,62.8452,32.5662],[21.8203,62.8453,34.7746],[21.8206,62.8498,35.6182],[21.8107,62.8499,25.9706],[21.811,62.8544,28.5363],[21.7913,62.8547,30.2454],[21.7916,62.8591,36.8126],[21.7818,62.8593,31.9773],[21.782,62.8638,36.6517],[21.7722,62.8639,26.4676],[21.7711,62.8459,32.4186],[21.7613,62.846,28.3694],[21.7607,62.8371,45.2137],[21.7509,62.8372,38.7822],[21.7506,62.8327,54.3702],[21.7408,62.8328,33.7645],[21.7403,62.8238,47.9902],[21.7305,62.824,24.7487],[21.7265,62.7566,37.6388],[21.7363,62.7565,37.1391],[21.7353,62.7385,42.9286],[21.7451,62.7384,42.6316],[21.744,62.7204,52.4564],[21.7538,62.7203,58.5914],[21.7536,62.7158,78.3204],[21.7634,62.7157,77.7336],[21.7631,62.7112,73.8331],[21.7729,62.7111,76.4439],[21.7723,62.7021,76.0397],[21.7821,62.702,81.3244],[21.7819,62.6975,88.2337],[21.7916,62.6974,82.1683],[21.7914,62.6929,76.5605],[21.7816,62.693,83.6476],[21.7813,62.6885,84.811],[21.7715,62.6886,67.4891],[21.7713,62.6841,67.7751],[21.7615,62.6842,66.8359],[21.7612,62.6797,61.4828],[21.7514,62.6799,64.9619],[21.7512,62.6754,49.5923],[21.7414,62.6755,44.0912],[21.7411,62.671,45.7244],[21.7314,62.6711,43.9822],[21.7311,62.6667,44.721],[21.7213,62.6668,49.6658],[21.7211,62.6623,48.3739],[21.7113,62.6624,48.4263],[21.711,62.6579,53.9707],[21.7013,62.658,53.2581],[21.701,62.6535,58.6767],[21.6912,62.6536,54.9617],[21.691,62.6492,50.6759],[21.6812,62.6493,51.6707],[21.6809,62.6448,56.2174],[21.6712,62.6449,57.3588],[21.6709,62.6404,60.7135],[21.6612,62.6405,55.0718],[21.6609,62.636,55.2227],[21.6512,62.6361,51.1039],[21.6501,62.6182,61.4982],[21.6404,62.6183,54.0599],[21.6402,62.6138,48.949],[21.6304,62.6139,47.669],[21.6301,62.6094,47.6326],[21.6106,62.6096,48.6342],[21.6104,62.6051,46.0782],[21.5909,62.6054,43.4777],[21.5902,62.5919,62.221],[21.5999,62.5918,55.6661],[21.5982,62.5603,84.0346],[21.6177,62.5601,85.833],[21.6167,62.5421,85.8068],[21.607,62.5423,86.4096],[21.6063,62.5288,84.7611],[21.5965,62.5289,77.7154],[21.5956,62.5109,77.3568],[21.5859,62.5111,89.3638],[21.5849,62.4931,88.2615],[21.5752,62.4932,86.6581],[21.5745,62.4797,68.0078],[21.5648,62.4798,69.4102],[21.5638,62.4619,49.5721],[21.5541,62.462,51.7724],[21.5534,62.4485,46.2672],[21.5437,62.4486,47.6294],[21.5435,62.4441,33.4276],[21.5532,62.444,50.2086],[21.5504,62.3901,39.8908],[21.5407,62.3902,59.3313],[21.5405,62.3857,60.6281],[21.5308,62.3858,69.4615],[21.5304,62.3769,67.5334],[21.54,62.3768,56.7036],[21.5398,62.3722,44.3807],[21.5592,62.372,31.1216],[21.5583,62.3541,25.2987],[21.5679,62.354,27.7853],[21.5682,62.3585,27.4309],[21.5972,62.3581,49.4652],[21.5974,62.3626,52.7532],[21.6361,62.3622,47.7223],[21.6364,62.3667,54.4654],[21.6557,62.3665,41.7153],[21.6555,62.362,44.5598],[21.6748,62.3617,58.843],[21.6746,62.3572,55.608],[21.6843,62.3571,58.7838],[21.684,62.3526,56.8997],[21.6937,62.3525,65.7403],[21.6929,62.339,63.7751],[21.6736,62.3393,69.3082],[21.6733,62.3348,76.8358],[21.6637,62.3349,86.0897],[21.6632,62.3259,78.6476],[21.6729,62.3258,85.8353],[21.6726,62.3213,82.6536],[21.6823,62.3212,75.3235],[21.6788,62.2583,33.9651],[21.7174,62.2579,44.7013],[21.7171,62.2534,40.1969],[21.746,62.253,59.6681],[21.7455,62.244,40.3979],[21.7551,62.243899999999996,65.5831],[21.7546,62.2349,61.4562],[21.7643,62.2348,79.0845],[21.7637,62.2258,49.6302],[21.7734,62.2257,52.5308],[21.7731,62.2212,53.277],[21.7635,62.2214,50.0602],[21.7632,62.2169,66.8786],[21.7247,62.2173,78.7342],[21.7244,62.2128,80.2288],[21.7052,62.2131,70.2251],[21.7047,62.2041,87.0875],[21.695,62.2042,73.7935],[21.6948,62.1997,88.2733],[21.6852,62.1998,69.2174],[21.6849,62.1954,75.3598],[21.6753,62.1955,67.1583],[21.6745,62.182,75.1717],[21.6842,62.1819,81.4848],[21.6839,62.1774,79.611],[21.6935,62.1773,93.3865],[21.6933,62.1728,88.3164],[21.7029,62.1727,94.8899],[21.7017,62.1502,66.3175],[21.692,62.1503,68.8183],[21.6913,62.1369,60.6459],[21.6817,62.137,56.4207],[21.6819,62.1415,45.9385],[21.6627,62.1417,73.2063],[21.663,62.1462,68.2976],[21.6437,62.1464,78.1241],[21.6416,62.106,64.3086],[21.632,62.1061,78.9326],[21.631,62.0881,76.9781],[21.6406,62.088,75.4143],[21.6399,62.0746,69.1762],[21.6495,62.0744,75.2813],[21.6485,62.0565,71.2087],[21.6389,62.0566,72.5387],[21.6382,62.0431,75.8782],[21.6286,62.0432,68.7741],[21.6284,62.0387,77.6301],[21.6379,62.0386,78.4908],[21.6375,62.0297,75.914],[21.647,62.0295,74.5498],[21.6468,62.025,75.0772]]]]}}