{"type": "Feature","bbox": [24.7847,61.4502,25.9824,62.2457],"geometry": {"type": "MultiPolygon","coordinates": [[[[25.5052,61.6695,76.5],[25.5076,61.683,76.5],[25.4982,61.6833,76.5],[25.5053,61.7236,76.5],[25.4959,61.724,76.5],[25.5031,61.7643,76.5],[25.5125,61.7639,76.5],[25.5141,61.7728,76.5],[25.5236,61.7725,76.5],[25.5244,61.7769,76.5],[25.5339,61.7766,76.5],[25.5347,61.781,76.5],[25.5441,61.7807,76.5],[25.5449,61.7851,76.5],[25.5544,61.7848,76.5],[25.5552,61.7892,76.5],[25.5647,61.7888,76.5],[25.5663,61.7978,76.5],[25.5758,61.7974,76.5],[25.5798,61.8198,76.5],[25.5893,61.8194,76.5],[25.5926,61.8373,76.5],[25.602,61.8369,76.5],[25.6053,61.8548,76.5],[25.6148,61.8544,76.5],[25.6156,61.8589,88.1658],[25.6915,61.8558,208.4092],[25.7295,61.8543,98.4978],[25.7286,61.8498,119.2387],[25.7571,61.8486,93.4193],[25.7596,61.862,139.6186],[25.7691,61.8617,157.9324],[25.7708,61.8706,131.3492],[25.7803,61.8702,132.8529],[25.7828,61.8836,158.5736],[25.7923,61.8832,155.2177],[25.794,61.8922,103.7026],[25.851,61.8898,107.936],[25.8518,61.8943,123.661],[25.8613,61.8939,127.4502],[25.8622,61.8983,141.9507],[25.8717,61.8979,144.8202],[25.8725,61.9024,152.1382],[25.882,61.902,161.1658],[25.8829,61.9065,153.2951],[25.8924,61.9061,147.3051],[25.8933,61.9106,156.2469],[25.9028,61.9102,168.306],[25.9045,61.9191,155.6025],[25.914,61.9187,171.8134],[25.9157,61.9277,164.4957],[25.9252,61.9273,145.4976],[25.927,61.9362,146.5794],[25.9365,61.9358,153.4194],[25.9373,61.9403,155.3332],[25.9468,61.9398,166.5696],[25.9486,61.9488,151.7002],[25.9581,61.9484,145.0171],[25.959,61.9529,159.852],[25.9685,61.9525,143.081],[25.9694,61.9569,145.6719],[25.9789,61.9565,113.8581],[25.9824,61.9744,108.113],[25.9729,61.9748,120.7059],[25.9746,61.9838,108.3349],[25.9651,61.9842,85.6014],[25.966,61.9886,95.7873],[25.9564,61.9891,76.5],[25.9582,61.998,76.5],[25.9487,61.9984,76.5],[25.9495,62.0029,101.0029],[25.9305,62.0037,76.5],[25.9313,62.0082,76.5],[25.9218,62.0086,76.5],[25.9227,62.013,76.5],[25.9036,62.0138,76.5],[25.9045,62.0183,76.5],[25.8949,62.0187,76.5],[25.8958,62.0232,76.5],[25.8863,62.0236,76.5],[25.8871,62.028,76.5],[25.868,62.0289,76.5],[25.8689,62.0333,76.5],[25.8594,62.0337,76.5],[25.8602,62.0382,76.5],[25.8507,62.0386,76.5],[25.8515,62.0431,76.5],[25.7847,62.0458,76.5],[25.7856,62.0503,76.5],[25.7665,62.0511,76.5],[25.769,62.0645,76.5],[25.7404,62.0657,76.5],[25.7412,62.0702,76.5],[25.703,62.0717,76.5],[25.7038,62.0762,76.5],[25.6752,62.0774,76.5],[25.6743,62.0729,100.3347],[25.6552,62.0737,127.5],[25.6544,62.0692,146.5647],[25.5302,62.0742,155.9838],[25.5318,62.0831,160.799],[25.484,62.085,195.8082],[25.4864,62.0984,165.0345],[25.496,62.098,190.2582],[25.4992,62.1159,148.1755],[25.5088,62.1156,133.666],[25.5104,62.1245,90.0],[25.52,62.1241,90.0],[25.5216,62.1331,90.0],[25.5312,62.1327,90.0],[25.5328,62.1417,90.0],[25.5424,62.1413,90.0],[25.5457,62.1592,90.0],[25.5169,62.1603,112.7219],[25.5161,62.1558,90.0],[25.5065,62.1562,90.0],[25.509,62.1696,90.0],[25.4994,62.17,95.4939],[25.501,62.179,90.0],[25.4914,62.1793,90.0],[25.493,62.1883,100.1271],[25.4834,62.1887,114.4052],[25.4842,62.1931,115.6819],[25.4746,62.1935,114.656],[25.4795,62.2204,120.0469],[25.4891,62.22,100.5],[25.4924,62.2379,126.8004],[25.4732,62.2386,134.2487],[25.474,62.2431,121.7818],[25.4067,62.2457,192.529],[25.4059,62.2412,169.9869],[25.3674,62.2427,202.9181],[25.3666,62.2382,203.4476],[25.357,62.2386,181.6736],[25.3562,62.2341,196.9625],[25.337,62.2349,175.5825],[25.3354,62.2259,198.9805],[25.345,62.2255,199.8657],[25.3419,62.2076,162.3946],[25.3515,62.2073,186.632],[25.3491,62.1938,139.6014],[25.3395,62.1942,156.4716],[25.3371,62.1808,158.3912],[25.3275,62.1811,159.4943],[25.3268,62.1767,144.48],[25.3172,62.177,138.5],[25.3156,62.1681,155.971],[25.306,62.1684,141.3804],[25.3044,62.1595,159.6823],[25.2949,62.1598,155.3499],[25.2941,62.1554,145.1765],[25.2845,62.1557,145.6841],[25.2837,62.1512,138.6124],[25.2645,62.152,133.1396],[25.2653,62.1565,166.558],[25.1694,62.16,114.4106],[25.1702,62.1645,108.0364],[25.1606,62.1648,117.8971],[25.1598,62.1604,114.0857],[25.1215,62.1618,168.9711],[25.1223,62.1662,174.2249],[25.1031,62.1669,148.428],[25.1038,62.1714,158.2172],[25.0847,62.1721,178.8949],[25.0854,62.1766,178.2864],[25.0662,62.1773,179.369],[25.067,62.1818,190.9658],[25.0478,62.1824,170.2479],[25.0485,62.1869,173.1255],[25.0293,62.1876,171.3454],[25.0301,62.1921,176.8787],[25.0109,62.1928,196.2928],[25.0116,62.1973,189.0307],[25.002,62.1976,173.8103],[25.0027,62.2021,177.7841],[24.9931,62.2024,183.5021],[24.9939,62.2069,173.0966],[24.9747,62.2076,150.2664],[24.9754,62.2121,149.9829],[24.9658,62.2124,144.7934],[24.9643,62.2034,154.4924],[24.9547,62.2038,166.8316],[24.954,62.1993,181.0355],[24.9444,62.1996,161.9823],[24.9437,62.1951,168.6369],[24.9341,62.1955,176.7461],[24.9326,62.1865,178.847],[24.923,62.1869,144.3093],[24.9215,62.1779,140.5],[24.9119,62.1782,154.5406],[24.9105,62.1693,148.9272],[24.9009,62.1696,183.0105],[24.8995,62.1607,161.2493],[24.8899,62.161,134.287],[24.8891,62.1565,138.5373],[24.8795,62.1568,153.897],[24.8781,62.1479,146.7878],[24.8685,62.1482,143.8272],[24.8671,62.1393,140.8951],[24.8575,62.1396,148.761],[24.8561,62.1306,150.8015],[24.8465,62.131,153.9528],[24.8451,62.122,154.9058],[24.8355,62.1223,145.1743],[24.8326,62.1044,142.365],[24.8422,62.1041,163.0128],[24.8408,62.0951,139.1136],[24.8503,62.0948,160.4667],[24.8489,62.0859,154.2204],[24.8585,62.0855,165.7345],[24.8571,62.0766,160.6272],[24.8666,62.0762,177.2075],[24.8652,62.0673,183.8691],[24.8747,62.067,178.5503],[24.874,62.0625,172.7483],[24.8836,62.0621,180.392],[24.8807,62.0442,166.2472],[24.8903,62.0439,161.2131],[24.8881,62.0304,124.1865],[24.8977,62.0301,129.5028],[24.8948,62.0122,119.3658],[24.9043,62.0119,114.7238],[24.9022,61.9984,116.8257],[24.9117,61.9981,114.7083],[24.9089,61.9802,143.9588],[24.9184,61.9799,148.9802],[24.9162,61.9664,121.9687],[24.9258,61.9661,120.9556],[24.9236,61.9526,141.9859],[24.9331,61.9523,161.8856],[24.9317,61.9434,142.3628],[24.9412,61.943,167.1176],[24.939,61.9297,160.8437],[24.9485,61.9292,159.9857],[24.9384,61.8666,144.0],[24.9289,61.8669,160.3434],[24.9218,61.8221,151.5378],[24.9313,61.8218,145.3648],[24.9298,61.8128,165.5175],[24.9393,61.8125,149.3718],[24.9379,61.8035,135.0635],[24.9473,61.8032,169.0273],[24.9459,61.7942,143.6926],[24.9649,61.7935,142.5607],[24.9641,61.7891,134.9676],[24.9831,61.7884,170.422],[24.9824,61.7839,172.0379],[24.9729,61.7843,177.7736],[24.9722,61.7798,156.3283],[24.9627,61.7801,127.9176],[24.962,61.7756,141.235],[24.9714,61.7753,147.0113],[24.97,61.7663,162.1896],[24.9795,61.766,142.0847],[24.978,61.757,118.5],[24.9875,61.7567,154.7464],[24.986,61.7477,137.0345],[24.9955,61.7474,147.2543],[24.994,61.7384,118.5],[25.0035,61.7381,143.6077],[25.0021,61.7292,129.5541],[24.9926,61.7295,131.0128],[24.9919,61.725,143.2246],[24.9824,61.7254,127.4685],[24.9817,61.7209,120.3354],[24.9722,61.7212,118.5],[24.9737,61.7302,126.7294],[24.9642,61.7305,118.5],[24.9649,61.735,118.5],[24.9555,61.7353,144.3094],[24.9562,61.7398,137.0446],[24.9467,61.7401,118.5],[24.9453,61.7312,118.5],[24.9359,61.7315,118.5],[24.9337,61.7181,147.6515],[24.9242,61.7184,128.0283],[24.9214,61.7005,145.3453],[24.9308,61.7002,159.4923],[24.9294,61.6912,142.9764],[24.9389,61.6909,126.5],[24.9382,61.6864,136.9398],[24.9476,61.6861,133.0298],[24.9462,61.6771,123.5],[24.9556,61.6768,132.2788],[24.9549,61.6723,123.5],[24.9643,61.672,129.4622],[24.9629,61.663,123.5],[24.9723,61.6627,123.5],[24.9716,61.6582,126.4179],[24.9622,61.6585,129.8339],[24.9607,61.6496,130.0176],[24.9513,61.6499,127.9438],[24.9499,61.6409,122.7816],[24.9593,61.6406,122.8712],[24.9579,61.6317,129.2642],[24.9107,61.6333,124.0],[24.9114,61.6378,137.481],[24.902,61.6381,131.1267],[24.9027,61.6426,142.4347],[24.8839,61.6433,147.5074],[24.8846,61.6478,152.5847],[24.8374,61.6494,143.9474],[24.8381,61.6539,139.1157],[24.8098,61.6549,147.7386],[24.8084,61.6459,162.5043],[24.799,61.6463,138.8538],[24.7962,61.6283,100.5],[24.7868,61.6287,111.5286],[24.7847,61.6152,162.6271],[24.7941,61.6149,168.4834],[24.792,61.6015,153.9157],[24.8015,61.6012,162.2419],[24.8008,61.5967,130.1099],[24.8102,61.5963,137.4017],[24.8095,61.5919,142.8502],[24.8189,61.5915,139.3259],[24.8175,61.5826,111.0],[24.8269,61.5822,133.0706],[24.8248,61.5688,120.8231],[24.8342,61.5685,120.6063],[24.8322,61.5551,110.6088],[24.8415,61.5547,121.1087],[24.8437,61.5682,106.4179],[24.8531,61.5678,103.5],[24.8559,61.5857,100.5],[24.8653,61.5854,100.5],[24.866,61.5899,116.4361],[24.8754,61.5896,140.4531],[24.8761,61.594,132.9349],[24.8855,61.5937,127.4072],[24.8862,61.5982,142.3253],[24.8956,61.5979,155.7868],[24.8949,61.5934,154.1787],[24.9138,61.5927,156.9228],[24.9131,61.5882,158.365],[24.9225,61.5879,155.8328],[24.9182,61.561,149.9872],[24.9088,61.5614,157.2688],[24.9081,61.5569,161.1941],[24.8987,61.5572,158.5651],[24.898,61.5527,143.7019],[24.8886,61.5531,150.3042],[24.8879,61.5486,141.3728],[24.8785,61.5489,128.0],[24.8778,61.5444,128.0],[24.9342,61.5424,150.941],[24.9335,61.538,155.8586],[24.9429,61.5376,153.8196],[24.94,61.5197,152.9028],[24.9306,61.5201,143.7626],[24.9257,61.4887,106.5],[24.935,61.4884,117.5283],[24.9329,61.4749,106.5],[24.9423,61.4746,128.738],[24.9416,61.4701,130.2935],[24.951,61.4698,136.7696],[24.9503,61.4653,130.0991],[24.9596,61.465,135.4882],[24.9582,61.456,150.7855],[24.9676,61.4557,160.9468],[24.9669,61.4512,160.9914],[24.995,61.4502,160.4212],[24.9957,61.4547,167.1396],[25.0145,61.454,147.7852],[25.0152,61.4585,149.9781],[25.0433,61.4574,125.9842],[25.044,61.4619,119.2851],[25.0628,61.4612,120.7668],[25.0635,61.4657,124.7525],[25.0822,61.465,119.0156],[25.083,61.4695,132.4344],[25.1111,61.4684,129.4679],[25.1119,61.4729,114.5008],[25.1306,61.4722,153.1619],[25.1299,61.4677,127.1106],[25.1392,61.4674,124.7856],[25.1385,61.4629,117.2487],[25.1572,61.4622,130.7884],[25.158,61.4667,112.2603],[25.1674,61.4663,100.7519],[25.1681,61.4708,76.5],[25.1775,61.4705,82.3357],[25.1782,61.4749,81.4897],[25.1876,61.4746,96.2306],[25.1883,61.4791,129.6837],[25.2165,61.478,137.8453],[25.215699999999998,61.4735,106.8187],[25.2626,61.4717,76.5],[25.2634,61.4762,76.5],[25.2728,61.4758,76.5],[25.2735,61.4803,76.5],[25.311,61.4789,76.5],[25.3118,61.4834,76.5],[25.3681,61.4812,76.5],[25.3688,61.4857,76.5],[25.4251,61.4835,76.5],[25.4259,61.4879,76.5],[25.4446,61.4872,76.5],[25.4501,61.5185,76.5],[25.4595,61.5181,76.5],[25.4658,61.5539,76.5],[25.4752,61.5536,76.5],[25.4807,61.5849,76.5],[25.4901,61.5845,76.5],[25.4957,61.6158,76.5],[25.5051,61.6155,76.5],[25.5115,61.6513,76.5],[25.502,61.6516,76.5],[25.5052,61.6695,76.5]]]]}
,"properties": {"GID_3": "FIN.5.1.2_1","GID_0": "FIN","country": "Finland","GID_1": "FIN.5_1","province": "WesternFinland","NL_NAME_1": "NA","GID_2": "FIN.5.1_1","county": "CentralFinland","NL_NAME_2": "NA","city": "Jämsä","VARNAME_3": "NA","NL_NAME_3": "NA","TYPE_3": "Seutukunta|Ekonomiskregion","ENGTYPE_3": "Sub-Region","CC_3": "NA","HASC_3": "FI.LS.JA","name": "Jämsä.city","area_km2": 2975.111,"hist_schema_id": "Elevation0-9000","hist_area_km2": {"75": 538.653,"100": 492.162,"125": 733.312,"150": 691.067,"175": 386.98,"200": 116.284,"225": 15.213,"250": 1.42}}}