{"type":"Feature","properties":{"GID_3":"FIN.5.8.3_1","GID_0":"FIN","country":"Finland","GID_1":"FIN.5_1","province":"WesternFinland","NL_NAME_1":"NA","GID_2":"FIN.5.8_1","county":"SouthernOstrobothnia","NL_NAME_2":"NA","city":"Kuusiokunnat","VARNAME_3":"NA","NL_NAME_3":"NA","TYPE_3":"Seutukunta|Ekonomiskregion","ENGTYPE_3":"Sub-Region","CC_3":"NA","HASC_3":"FI.LS.KU","name":"Kuusiokunnat.city"},
"geometry":{"type": "MultiPolygon","coordinates": [[[[23.8224,62.4865,166.6732],[23.8321,62.4863,170.0952],[23.8327,62.4907,167.819],[23.8424,62.4905,171.6711],[23.8384,62.4591,163.0231],[23.8674,62.4583,164.5052],[23.8709,62.4852,171.639],[23.9,62.4844,150.417],[23.8995,62.4799,164.3523],[23.9091,62.4796,159.1909],[23.9068,62.4617,160.3414],[23.9165,62.4614,157.7415],[23.9148,62.448,149.9446],[23.9051,62.4483,151.7529],[23.9027,62.4303,133.1172],[23.9124,62.4301,136.0673],[23.9101,62.4121,139.6406],[23.9198,62.4119,145.8688],[23.918,62.3984,149.8158],[23.9277,62.3981,168.7353],[23.9265,62.3892,154.6552],[23.9555,62.3884,181.9207],[23.9549,62.3839,195.0765],[23.984,62.3831,173.5044],[23.9834,62.3786,175.7193],[23.993,62.3783,176.4803],[23.9924,62.3738,181.4126],[24.0021,62.3736,188.9736],[24.0015,62.3691,188.4514],[24.0112,62.3688,192.0981],[24.0106,62.3643,190.5674],[24.0202,62.364,197.4694],[24.0214,62.373,192.9484],[24.0311,62.3727,196.8607],[24.0317,62.3772,201.0893],[24.0414,62.3769,200.4951],[24.0426,62.3859,198.6595],[24.0522,62.3856,189.8264],[24.0528,62.3901,187.2254],[24.0625,62.3898,177.9837],[24.0631,62.3943,178.2341],[24.0728,62.394,178.0391],[24.074,62.403,183.0629],[24.0837,62.4027,174.398],[24.0843,62.4072,180.4332],[24.094,62.4069,187.4872],[24.0952,62.4159,177.4128],[24.1049,62.4156,188.5914],[24.1061,62.4246,181.7321],[24.1158,62.4243,185.1241],[24.1164,62.4288,190.0251],[24.1261,62.4285,182.6245],[24.1273,62.4375,194.6262],[24.137,62.4372,185.6681],[24.1376,62.4417,187.992],[24.1473,62.4414,193.8169],[24.1486,62.4504,193.2668],[24.1582,62.4501,196.0761],[24.1595,62.459,178.6459],[24.1692,62.4588,193.4788],[24.1698,62.4632,181.1421],[24.1795,62.4629,190.3403],[24.1807,62.4719,198.1577],[24.1904,62.4716,194.1703],[24.1911,62.4761,194.8785],[24.2008,62.4758,173.5],[24.2014,62.4803,180.0467],[24.2208,62.4797,196.2314],[24.2202,62.4753,199.3099],[24.2396,62.4747,192.1733],[24.2389,62.4702,182.6651],[24.2486,62.4699,202.1463],[24.248,62.4654,181.2224],[24.2674,62.4648,195.4372],[24.2667,62.4604,183.5108],[24.2861,62.4598,196.7782],[24.2855,62.4553,194.1163],[24.3049,62.4547,163.9044],[24.3042,62.4502,176.702],[24.3236,62.4496,174.4003],[24.3242,62.4541,178.0586],[24.3339,62.4538,169.0319],[24.3365,62.4717,152.1553],[24.3268,62.472,182.1082],[24.3281,62.481,155.3395],[24.3184,62.4813,172.9967],[24.3197,62.4903,169.5332],[24.3391,62.4897,174.6797],[24.3398,62.4942,176.1822],[24.3495,62.493899999999996,181.6243],[24.3501,62.4983,184.9025],[24.3695,62.4977,201.5039],[24.3702,62.5022,204.6483],[24.3799,62.5019,196.619],[24.3786,62.493,189.3185],[24.3883,62.4927,192.6223],[24.3889,62.4971,194.9581],[24.4083,62.4965,183.3148],[24.4077,62.4921,184.6125],[24.4174,62.4918,173.8653],[24.4161,62.4828,161.5],[24.4258,62.4825,161.5],[24.4244,62.4735,161.5],[24.4341,62.4732,161.5],[24.4348,62.4777,161.5],[24.4445,62.4774,161.5],[24.4452,62.4819,161.5],[24.4548,62.4816,161.5],[24.4568,62.495,170.5072],[24.486,62.4941,180.8956],[24.4866,62.4986,172.2916],[24.5157,62.4977,201.091],[24.5164,62.5022,171.0],[24.5067,62.5025,171.0],[24.5101,62.5249,195.1436],[24.5295,62.5242,198.6704],[24.5309,62.5332,212.7169],[24.5211,62.5335,214.9409],[24.5225,62.5425,209.1674],[24.5322,62.5422,196.4925],[24.5336,62.5513,190.6553],[24.5343,62.5556,193.6233],[24.5245,62.5559,213.4752],[24.5252,62.5604,201.982],[24.5447,62.5598,194.0059],[24.546,62.5687,213.8931],[24.5363,62.5691,205.4155],[24.5377,62.578,221.9978],[24.5571,62.5774,218.6194],[24.5578,62.5819,229.4209],[24.5675,62.5816,218.1111],[24.5689,62.5905,207.1182],[24.5592,62.5908,221.7116],[24.5612,62.6043,208.2688],[24.5515,62.6046,212.1578],[24.5522,62.6091,212.3374],[24.5814,62.6081,200.0028],[24.5835,62.6216,197.937],[24.5737,62.6219,210.7505],[24.573,62.6174,206.2819],[24.5048,62.6196,212.637],[24.5069,62.633,221.6213],[24.5166,62.6327,214.2761],[24.5173,62.6372,212.5065],[24.5271,62.6369,218.346],[24.5277,62.6414,211.6754],[24.5375,62.6411,215.8552],[24.5382,62.6455,215.4413],[24.5479,62.6452,212.466],[24.5486,62.6497,218.8959],[24.5583,62.6494,209.8734],[24.5597,62.6584,217.8087],[24.5695,62.6581,213.4331],[24.5702,62.6625,213.9131],[24.5799,62.6622,211.3681],[24.5806,62.6667,206.674],[24.5709,62.667,217.1453],[24.5715,62.6715,224.5087],[24.552,62.6721,227.0186],[24.5527,62.6766,224.8803],[24.5429,62.6769,223.3575],[24.5436,62.681399999999996,227.3591],[24.5241,62.682,234.9717],[24.5248,62.6865,236.2604],[24.515,62.6868,219.9941],[24.5171,62.7002,230.871],[24.5073,62.7006,227.8006],[24.5093,62.714,229.6544],[24.4996,62.7143,219.8822],[24.5016,62.7277,216.8196],[24.4918,62.7281,218.319],[24.4932,62.737,241.0869],[24.4834,62.7373,227.464],[24.4848,62.7463,217.9463],[24.475,62.7466,227.7513],[24.4763,62.7556,214.4726],[24.4665,62.7559,219.5179],[24.4679,62.7648,223.3997],[24.4581,62.7651,216.8679],[24.4595,62.7741,220.3164],[24.4497,62.7744,214.0113],[24.451,62.7834,212.8914],[24.4412,62.7837,216.1698],[24.4419,62.7881,229.146],[24.4321,62.7884,215.3536],[24.4334,62.7974,208.2447],[24.4236,62.7977,207.7473],[24.425,62.8067,223.8246],[24.4152,62.807,205.4244],[24.4158,62.8115,206.7558],[24.406,62.8118,209.2109],[24.4067,62.8162,214.809],[24.3969,62.8165,200.0928],[24.3982,62.8255,211.5421],[24.3884,62.8258,205.1835],[24.3891,62.8303,200.5],[24.3793,62.8306,204.9495],[24.3806,62.8396,202.9657],[24.3708,62.8399,212.9881],[24.3715,62.8443,209.405],[24.3616,62.8446,213.8085],[24.363,62.8536,202.6448],[24.3531,62.8539,212.7828],[24.3545,62.8629,187.998],[24.3839,62.862,198.3603],[24.3846,62.8664,188.5383],[24.4239,62.8652,195.6386],[24.4246,62.8697,193.5],[24.454,62.8688,196.5998],[24.4547,62.8733,191.3743],[24.4449,62.8736,198.2804],[24.4489,62.9005,176.1156],[24.4391,62.9008,179.3398],[24.4405,62.9098,173.7794],[24.4109,62.9107,182.7215],[24.4116,62.9151,183.2295],[24.3427,62.9173,186.4243],[24.3507,62.971,190.3875],[24.3408,62.9713,207.7262],[24.3421,62.9803,192.7921],[24.3224,62.9809,196.5837],[24.3218,62.9764,202.5336],[24.3119,62.9767,192.7799],[24.3126,62.9812,190.5913],[24.3027,62.9815,194.988],[24.3034,62.986,190.9965],[24.2343,62.988,215.7389],[24.2356,62.997,216.8238],[24.2257,62.9972,211.7892],[24.227,63.0062,199.208],[24.2171,63.0065,194.5543],[24.2165,63.002,196.2825],[24.1869,63.0029,185.4958],[24.1882,63.0118,178.2037],[24.1684,63.0124,179.4356],[24.1665,62.999,185.2125],[24.1764,62.9987,175.9096],[24.1744,62.9852,169.9837],[24.1448,62.9861,166.7772],[24.1442,62.9816,163.4443],[24.1048,62.9827,136.4245],[24.1041,62.9783,136.5301],[24.0943,62.9785,132.3554],[24.0924,62.9651,113.8244],[24.0825,62.9654,112.836],[24.0831,62.9698,116.8609],[24.0634,62.9704,113.2929],[24.064,62.9749,128.4807],[24.0443,62.9754,119.406],[24.0437,62.971,129.3428],[24.0338,62.9712,131.67],[24.0301,62.9443,148.1486],[24.0203,62.9446,154.3942],[24.0185,62.9311,151.0623],[23.9495,62.9331,150.8443],[23.9483,62.9241,149.6713],[23.9385,62.9244,144.2067],[23.9391,62.9288,152.4527],[23.9292,62.9291,152.7177],[23.9298,62.9336,149.5074],[23.92,62.9339,156.6566],[23.9206,62.9384,159.4871],[23.9107,62.9386,159.361],[23.9113,62.9431,160.4792],[23.8916,62.9436,164.1148],[23.891,62.9392,161.7592],[23.8713,62.9397,150.7622],[23.8707,62.9352,154.7138],[23.8608,62.9355,158.6752],[23.8603,62.931,162.0438],[23.8504,62.9312,159.6967],[23.8498,62.9268,159.631],[23.84,62.927,162.0087],[23.8394,62.9225,152.0293],[23.8492,62.9223,149.4711],[23.8475,62.9088,152.901],[23.8376,62.9091,158.6411],[23.837,62.9046,150.8222],[23.8272,62.9049,150.4078],[23.8266,62.9004,147.8767],[23.8069,62.9009,153.1241],[23.8064,62.8964,153.5379],[23.7965,62.8967,151.679],[23.7959,62.8922,155.983],[23.7861,62.8924,144.9664],[23.7855,62.888,150.581],[23.7757,62.8882,151.243],[23.7751,62.8837,152.8884],[23.7653,62.884,160.1759],[23.7647,62.8795,163.1577],[23.7451,62.88,164.0677],[23.7445,62.8755,166.9187],[23.7346,62.8758,155.7005],[23.7341,62.8713,162.1327],[23.7242,62.8716,152.6777],[23.7237,62.8671,150.1904],[23.7335,62.8668,160.9349],[23.7329,62.8623,149.531],[23.7231,62.8626,155.3051],[23.7225,62.8581,161.107],[23.7127,62.8584,155.0888],[23.7122,62.8539,144.1965],[23.6925,62.8544,151.3009],[23.6931,62.8589,152.7328],[23.6833,62.8591,159.3146],[23.6827,62.8546,169.8031],[23.663,62.8551,154.6593],[23.6636,62.8596,160.9694],[23.6537,62.8599,166.4489],[23.6549,62.8688,145.9984],[23.645,62.8691,138.0617],[23.6461,62.8781,146.2834],[23.6363,62.8783,139.1298],[23.6369,62.8828,130.6035],[23.627,62.883,136.0468],[23.6276,62.8875,133.5746],[23.6079,62.888,125.6202],[23.6084,62.8925,134.1543],[23.5986,62.8928,131.8746],[23.5992,62.8972,130.7462],[23.5893,62.8975,128.2095],[23.5899,62.902,126.9061],[23.58,62.9022,120.5617],[23.5806,62.9067,120.9109],[23.5707,62.907,111.7953],[23.5713,62.9114,114.5028],[23.5516,62.9119,97.3013],[23.5521,62.9164,107.1649],[23.5127,62.9174,107.3824],[23.5122,62.9129,103.6652],[23.4925,62.9134,87.1176],[23.4919,62.9089,92.3365],[23.4427,62.9101,85.7312],[23.4422,62.9056,86.5177],[23.4225,62.9061,92.5966],[23.422,62.9016,96.4226],[23.4023,62.902,89.862],[23.4018,62.8975,85.7061],[23.3919,62.8978,81.7704],[23.3904,62.8843,90.4093],[23.3806,62.8846,78.31],[23.379,62.8711,95.3641],[23.3692,62.8713,101.448],[23.3676,62.8579,88.2002],[23.3578,62.8581,80.6403],[23.3568,62.8491,73.7738],[23.347,62.8493,68.5787],[23.3444,62.8269,100.0891],[23.3346,62.8271,95.5504],[23.3341,62.8227,99.435],[23.3243,62.8229,104.6633],[23.3238,62.8184,110.6912],[23.3139,62.8186,115.7379],[23.3134,62.8141,108.589],[23.3036,62.8144,105.4795],[23.3031,62.8099,106.2988],[23.2933,62.8101,102.6114],[23.2898,62.7787,115.3265],[23.28,62.7789,120.63],[23.2751,62.7341,118.211],[23.2555,62.7345,115.1877],[23.255,62.73,115.4178],[23.2354,62.7305,112.7037],[23.2349,62.726,105.411],[23.2056,62.7267,115.9827],[23.2041,62.7132,109.5241],[23.1943,62.7134,111.1025],[23.1924,62.6954,114.6481],[23.1826,62.6957,112.595],[23.1807,62.6777,111.1287],[23.1709,62.6779,108.1841],[23.1685,62.6555,105.5123],[23.1783,62.6553,108.3636],[23.1778,62.6508,108.6508],[23.1973,62.6504,112.0715],[23.1964,62.6414,110.1544],[23.1769,62.6418,110.9985],[23.1754,62.6283,98.9643],[23.1852,62.6281,103.7123],[23.1847,62.6236,100.3694],[23.1945,62.6234,100.0614],[23.194,62.618899999999996,103.0459],[23.2037,62.6187,101.1322],[23.2028,62.6098,100.3782],[23.2125,62.6095,104.3977],[23.212,62.605,102.0547],[23.2218,62.6048,105.83],[23.2223,62.6093,104.7782],[23.2418,62.6089,113.1179],[23.2423,62.6134,109.9139],[23.2715,62.6127,106.5978],[23.2705,62.6037,114.7067],[23.2803,62.6035,108.5437],[23.2778,62.5811,112.4123],[23.307,62.5804,123.8919],[23.306,62.5714,117.529],[23.2866,62.5719,119.3316],[23.2861,62.5674,121.2783],[23.2763,62.5676,115.2241],[23.2758,62.5631,118.1055],[23.2661,62.5633,118.012],[23.2646,62.5499,113.3601],[23.2549,62.5501,109.896],[23.253,62.5322,116.4672],[23.2627,62.5319,118.0619],[23.2617,62.523,116.8041],[23.2714,62.5227,118.8765],[23.2709,62.5183,115.6051],[23.2806,62.518,117.3961],[23.2797,62.5091,128.053],[23.2894,62.5088,121.0351],[23.2889,62.5043,122.7549],[23.3083,62.5039,124.1561],[23.3078,62.4994,129.1888],[23.3175,62.4992,122.7531],[23.317,62.4947,124.1101],[23.2976,62.4952,127.7311],[23.2971,62.4907,131.9866],[23.3068,62.4904,123.9849],[23.3058,62.4815,130.3322],[23.3155,62.4812,127.3989],[23.3151,62.4768,131.6139],[23.3248,62.4765,133.0109],[23.3238,62.4676,136.6329],[23.3335,62.4673,130.8555],[23.333,62.4628,136.9489],[23.3427,62.4626,134.4777],[23.3417,62.4536,140.2803],[23.3514,62.4534,140.8495],[23.3509,62.4489,136.6349],[23.3606,62.4487,143.757],[23.3595,62.4397,141.7422],[23.3693,62.4395,147.0604],[23.3682,62.4305,151.0391],[23.3586,62.4308,136.8643],[23.3581,62.4263,137.2108],[23.3387,62.4267,135.2516],[23.3382,62.4222,135.8],[23.3479,62.422,136.0465],[23.3474,62.4175,139.5351],[23.3571,62.4173,137.136],[23.3561,62.4083,147.021],[23.3657,62.4081,139.8528],[23.3652,62.4036,146.6636],[23.3749,62.4034,146.4065],[23.3744,62.3989,147.2465],[23.3841,62.3987,146.9895],[23.3831,62.3897,138.985],[23.4024,62.3892,138.8824],[23.4019,62.3847,139.0522],[23.4116,62.3845,138.8755],[23.4111,62.38,142.9796],[23.4304,62.3796,147.7718],[23.4299,62.3751,153.6071],[23.4493,62.3746,150.4294],[23.4498,62.3791,150.8844],[23.4691,62.3786,150.6353],[23.4697,62.3831,152.2264],[23.4793,62.3829,150.6241],[23.4788,62.3784,154.7887],[23.4982,62.3779,153.1237],[23.4976,62.3734,149.704],[23.5073,62.3732,151.2493],[23.5068,62.3687,152.9489],[23.5164,62.3684,147.8938],[23.5185,62.3864,149.5002],[23.5089,62.3866,150.3125],[23.5115,62.4091,146.8866],[23.5018,62.4093,147.275],[23.5023,62.4138,147.4891],[23.6766,62.4094,128.894],[23.6772,62.4139,127.7571],[23.6868,62.4136,126.9991],[23.688,62.4226,138.3067],[23.6976,62.4223,127.4321],[23.6982,62.4268,126.8493],[23.7079,62.4266,128.1744],[23.7084,62.431,151.9509],[23.7181,62.4308,146.0258],[23.7187,62.4353,144.2375],[23.7284,62.435,140.5843],[23.7295,62.444,160.5051],[23.7391,62.4437,153.8654],[23.7397,62.4482,157.0437],[23.7494,62.448,154.4217],[23.75,62.4524,152.775],[23.7597,62.4522,161.5143],[23.7602,62.4567,162.4039],[23.7796,62.4562,154.4147],[23.7802,62.4606,157.4275],[23.7996,62.4601,143.6768],[23.8001,62.4646,149.3356],[23.8195,62.4641,160.4958],[23.8201,62.4686,163.1162],[23.8104,62.4688,154.7699],[23.8113,62.4762,168.8746],[23.8121,62.4823,170.7281],[23.8218,62.482,166.0354],[23.8224,62.4865,166.6732]]]]}}