{"type": "Feature","bbox": [25.1432631128919,60.930544453056314,27.184678334550028,63.253960508506594],"geometry": {"type": "Polygon","coordinates": [[[26.30482395855347,61.414184713933651,144.7885],[26.265967893772086,61.375623013279409,128.8924],[26.258314426466654,61.365320268829805,108.3792],[26.253310236305424,61.356783709142974,89.7951],[26.245362404872878,61.350307698346086,95.4999],[26.214454171524039,61.34648096469337,95.7683],[26.201502149930263,61.3420655027864,95.4851],[26.104950716231059,61.283487041487177,128.6618],[26.087877596857425,61.265530829732143,76.5],[26.083756499077595,61.244042248451535,94.8895],[26.100535254324086,61.232267683366274,111.7289],[26.126144933384552,61.223436759552328,122.0088],[26.149988427682217,61.21107346621281,111.3284],[26.13438712894424,61.197238352237605,101.3484],[26.112015455282233,61.183697602389543,95.0954],[26.088760689238825,61.176338499211255,83.0821],[26.07080447748379,61.180459596991113,79.6042],[26.054320086364413,61.190762341440717,82.31],[26.016052749837314,61.204891819543036,82.297],[25.998390902209394,61.2184325693911,76.5],[26.015758385710171,61.225202944315129,98.1165],[26.022823124761345,61.234328232256189,92.1263],[26.019290755235744,61.244042248451535,76.5],[26.005750005387682,61.252578808138367,76.5],[25.986027608869875,61.255816813536825,114.012],[25.944227902817175,61.253756264646881,76.5],[25.924211142172226,61.2593491830624,76.5],[25.930098424714856,61.265530829732143,84.8987],[25.903016925018733,61.269651927512,91.9069],[25.875346697068352,61.280543400215862,76.5],[25.851208838643572,61.284075769741463,76.5],[25.834724447524195,61.265530829732143,91.1723],[25.849737018007914,61.2602322754438,86.6859],[25.855035572296288,61.2593491830624,79.1594],[25.79586838274281,61.256405541791082,76.5],[25.631907563930469,61.300854524987955,78.31],[25.588930401369254,61.279954671961605,76.5],[25.583337482953738,61.28378140561432,93.56],[25.571268553741362,61.295555970699581,76.5],[25.567147455961504,61.300854524987955,98.4992],[25.574506559139792,61.305858715149185,99.5676],[25.587752944860711,61.316750187853074,76.5],[25.595112048039027,61.320871285632904,79.7615],[25.570091097232819,61.329407845319736,88.345],[25.554784162621985,61.318810736742989,80.0857],[25.542126505155323,61.302326345623612,84.4956],[25.526230842290204,61.293495421809666,76.5],[25.541243412773923,61.326758568175535,76.5],[25.560671445164616,61.355017524380173,76.5],[25.552723613732041,61.355606252634459,97.1333],[25.539477228011123,61.360021714541432,76.5],[25.532412488959977,61.361787899304204,76.5],[25.547425059443697,61.370324458991035,117.3274],[25.589224765496368,61.3838652088391,99.8151],[25.595112048039027,61.395934138051473,84.5474],[25.581571298190966,61.401527056466989,87.5351],[25.505625353390997,61.416245262823566,76.5],[25.51004081529797,61.426253643146055,76.5],[25.510335179425084,61.435378931087143,76.5],[25.506802809899511,61.4436211266468,76.5],[25.498854978466966,61.451274593952235,94.0139],[25.614834444556834,61.444209854901089,111.7855],[25.613068259794034,61.45421823522355,86.6881],[25.62366536837078,61.455395691732093,95.4249],[25.674001634110311,61.447153496172405,120.5937],[25.689602932848288,61.440088757121231,90.3101],[25.705792959840522,61.4368507517228,116.1691],[25.724926628104072,61.444209854901089,87.099],[25.701966226187807,61.44921404506232,76.5],[25.697256400153691,61.456278784113465,89.2898],[25.704321139204865,61.475706816504157,95.231],[25.696962036026576,61.489836294606476,81.2815],[25.679888916652942,61.492779935877792,85.3799],[25.659577791880849,61.489836294606476,81.1434],[25.643387764888615,61.4854208326995,82.075],[25.658105971245192,61.480416642538273,80.5678],[25.663110161406422,61.479239186029758,85.5028],[25.663110161406422,61.472174446978585,76.5],[25.633085020439012,61.4665815285631,76.5],[25.596583868674685,61.472174446978585,76.5],[25.560671445164616,61.484537740318132,76.5],[25.532412488959977,61.498961582547565,76.5],[25.548013787697954,61.510147419378569,84.9222],[25.563615086435931,61.509853055251455,95.4254],[25.579216385173908,61.508086870488654,91.8103],[25.595112048039027,61.513385424777027,79.7199],[25.591285314386312,61.516329066048343,76.5],[25.584514939462281,61.523688169226631,89.9414],[25.580688205809565,61.526926174625089,83.0741],[25.587752944860711,61.533990913676234,76.5],[25.585692395970796,61.543116201617323,89.158],[25.57774456453825,61.552535853685526,76.5],[25.567147455961504,61.561072413372358,76.5],[25.585398031843681,61.565782239406445,76.5],[25.606592248997146,61.568431516550646,79.1329],[25.625137189006438,61.57461316322042,87.4845],[25.636028661710327,61.589037005449853,77.5],[25.611302075031261,61.594041195611112,98.2257],[25.568619276597161,61.584915907670023,76.5],[25.546541967062296,61.595218652119627,76.5],[25.571562917868476,61.615529776891719,87.3649],[25.593345863276227,61.619356510544435,81.8775],[25.720216802069984,61.597573565136685,90.9953],[25.786743094801722,61.57461316322042,95.5176],[25.755540497325768,61.597279201009542,112.1234],[25.699022584916491,61.614057956256062,89.4607],[25.655456694101019,61.635252173409526,76.5],[25.663110161406422,61.670870232792453,76.5],[25.653690509338219,61.674402602318054,76.5],[25.644270857270016,61.674991330572311,103.1879],[25.622193547735122,61.670870232792453,84.066],[25.635439933456041,61.685882803276172,76.5],[25.64956941155836,61.697657368361433,126.6912],[25.649275047431246,61.689709536928888,119.4251],[25.656928514736677,61.692064449945946,127.2985],[25.676945275381627,61.70501647153975,76.5],[25.716978796671526,61.7215008626591,122.5377],[25.724926628104072,61.725621960438957,89.0124],[25.729342090011045,61.736807797269961,76.5],[25.72728154112113,61.750348547118023,76.5],[25.7205111661971,61.7650667534746,76.5],[25.711091514128896,61.780079323958319,103.2354],[25.719922437942841,61.785083514119549,97.6766],[25.724337899849814,61.79097079666218,76.5],[25.723749171595557,61.798624263967611,76.5],[25.718450617307184,61.807455187781557,76.5],[25.725515356358358,61.810398829052872,76.5],[25.738173013825019,61.8180522963583,76.5],[25.745237752876164,61.820995937629618,76.5],[25.745237752876164,61.828060676680764,100.3494],[25.728753361756787,61.826294491917992,91.1158],[25.700788769679292,61.816580475722645,112.7727],[25.684304378559915,61.814814290959845,163.7063],[25.687836748085488,61.797152443331953,85.7643],[25.676062183000226,61.784789149992434,95.0071],[25.617483721701035,61.749465454736622,76.5],[25.596583868674685,61.748876726482365,76.5],[25.579216385173908,61.759473835059111,86.5841],[25.567147455961504,61.780079323958319,76.5],[25.585692395970796,61.795974986823438,76.5],[25.600704966454515,61.820112845248218,76.5],[25.607475341378546,61.844839431927284,101.4113],[25.601293694708772,61.862206915428061,126.5041],[25.670763628711853,61.858380181775345,184.9372],[25.690780389356803,61.862206915428061,167.1568],[25.704321139204865,61.871332203369121,94.9214],[25.714329519527354,61.882223676073011,79.1097],[25.726104084612615,61.889877143378413,107.9477],[25.745237752876164,61.889288415124156,111.2566],[25.745237752876164,61.896941882429587,76.5],[25.715801340163011,61.904006621480761,127.2707],[25.699611313170749,61.904595349735018,150.875],[25.687542383958373,61.8998855237009,198.0651],[25.672529813474654,61.888994050997042,76.5],[25.66134397664365,61.888994050997042,80.5484],[25.64956941155836,61.893998241158272,76.5],[25.632496292184726,61.896941882429587,91.4907],[25.62278227598938,61.89959115957376,92.9413],[25.61454008042972,61.906655898624933,95.039],[25.610713346777004,61.915486822438879,76.5],[25.614834444556834,61.924023382125711,76.5],[25.627492102023496,61.92726138752414,76.5],[25.646037042032788,61.925495202761368,136.3468],[25.676945275381627,61.916664278947422,103.3086],[25.667525623313395,61.927555751651283,110.531],[25.636028661710327,61.946100691660575,76.5],[25.629258286786296,61.954931615474521,76.5],[25.626903373769238,61.96229071865281,76.5],[25.617189357573892,61.968472365322583,94.0326],[25.614834444556834,61.974948376119471,76.5],[25.620132998845207,61.9826018434249,76.5],[25.632201928057611,61.986134212950475,76.5],[25.645742677905673,61.986428577077618,76.5],[25.656634150609534,61.98495675644196,106.8596],[25.675179090618826,61.967000544686925,88.9265],[25.685776199195573,61.958463985000094,85.5],[25.690780389356803,61.961701990398552,130.2706],[25.696078943645176,61.977303289136529,83.9554],[25.70814787285758,61.981424386916387,88.1643],[25.721982986832757,61.976420196755129,93.1227],[25.73228573128236,61.96493999579701,162.2083],[25.727575905248273,61.945806327533433,118.3079],[25.747887030020365,61.938447224355144,96.1323],[25.775851622097861,61.942568322135,76.5],[25.794396562107153,61.958463985000094,76.5],[25.779383991623433,61.964645631669867,76.5],[25.7614277798684,61.976420196755129,76.5],[25.753479948435853,61.987606033586133,106.2488],[25.769669975428087,61.992315859620248,76.5],[25.773202344953688,61.990255310730333,76.5],[25.778206535114919,61.985545484696217,125.442],[25.784388181784692,61.9808356586621,126.4268],[25.793807833852895,61.978775109772187,114.0601],[25.801166937031184,61.982307479297759,132.6081],[25.799695116395526,61.990549674857448,173.9432],[25.793513469725752,61.99996932692568,127.5802],[25.786743094801722,62.00673970184971,76.5],[25.802933121793984,62.017042446299314,76.5],[25.825010431328849,62.017925538680714,96.2727],[25.848559561499371,62.0132157126466,96.4771],[25.868870686271464,62.00673970184971,132.0891],[25.903605653273019,61.987017305331875,130.716],[25.922150593282311,61.9826018434249,167.6523],[25.930098424714856,61.995848229145821,131.6083],[25.927154783443541,61.998791870417136,108.293],[25.92038440851951,62.001735511688452,134.8772],[25.913319669468336,62.00673970184971,105.462],[25.910376028197021,62.016159353917914,76.5],[25.905371838035791,62.023812821223345,76.5],[25.893302908823387,62.02763955487606,76.5],[25.868281958017207,62.032055016783033,76.5],[25.822361154184676,62.046184494885352,76.5],[25.780561448131976,62.053837962190755,76.5],[25.790569828454437,62.071205445691533,76.5],[25.799106388141269,62.0950489399892,76.5],[25.8049936706839,62.119775526668263,76.5],[25.807348583700957,62.13949792318607,76.5],[25.817651328150561,62.156865406686848,76.5],[25.838256817049768,62.170111792407766,76.5],[25.853858115787745,62.184241270510086,97.9914],[25.848853925626514,62.204552395282178,94.0121],[25.865632680873006,62.211322770206209,76.5],[25.877995974212553,62.221036786401555,96.3286],[25.890359267552071,62.225157884181385,122.6272],[25.906843658671448,62.214855139731782,86.2788],[25.892125452314872,62.170111792407766,133.9338],[25.889770539297814,62.157454134941105,140.8661],[25.889181811043557,62.148623211127159,110.5],[25.8877099904079,62.145385205728729,127.6399],[25.888887446916414,62.143030292711671,125.8774],[25.896540914221845,62.135671189533383,117.5283],[25.906549294544334,62.130666999372124,107.3914],[25.935985707257487,62.123896624448093,130.4877],[25.947171544088491,62.122719167939579,112.6772],[25.964833391716382,62.117126249524063,116.6673],[25.989854342522591,62.0950489399892,151.8059],[26.005750005387682,62.094754575862083,130.9827],[25.979257233945845,62.115948793015548,126.8441],[25.946877179961348,62.131550091753525,99.6526],[25.928037875824941,62.150683760017074,80.0],[25.940989897418717,62.181003265111656,80.0],[25.953647554885379,62.19807638448529,80.0],[25.955708103775322,62.208379128934894,80.0],[25.952764462504007,62.216915688621725,80.0],[25.950703913614063,62.2289846178341,80.0],[25.949820821232663,62.253711204513166,80.0],[25.947465908215634,62.265485769598428,95.715],[25.943933538690032,62.273139236903859,80.0],[25.964539027589268,62.277554698810832,80.0],[25.995741625065222,62.2743166934124,80.0],[26.053731358110156,62.25989285118294,110.354],[25.980729054581502,62.306402383269727,80.0],[25.958063016792352,62.314644578829416,80.0],[25.964244663462125,62.327890964550363,80.0],[25.958651745046637,62.335544431855766,91.0099],[25.948937728851291,62.342903535034054,115.667],[25.943933538690032,62.355561192500716,80.0],[25.947760272342748,62.36763012171312,80.0],[25.957474288538094,62.379404686798381,94.9869],[25.97807977743733,62.396477806172044,119.0511],[25.975430500293129,62.383525784578239,96.2881],[25.983378331725675,62.377932866162723,89.8818],[26.02900477143109,62.375283589018551,118.1764],[26.037541331117922,62.371751219492978,111.0039],[26.068449564466732,62.3414317143984,115.6585],[26.082284678441937,62.324358595024762,96.224],[26.083167770823337,62.310523481049586,98.2075],[26.060501733034187,62.307579839778271,79.5],[26.077574852407821,62.299337644218582,113.702],[26.105245080358202,62.295216546438724,83.5],[26.119080194333378,62.288446171514721,99.4453],[26.094647971781455,62.273139236903859,156.5181],[26.156170074351991,62.265485769598428,83.5],[26.177364291505455,62.266663226106971,83.5],[26.197381052150405,62.274905421666659,83.5],[26.204740155328693,62.28491380198912,99.0196],[26.199735965167463,62.290506720404636,91.7663],[26.184134666429486,62.286679986751921,83.5],[26.172065737217082,62.287563079133321,83.5],[26.159996808004678,62.30169255723564,83.5],[26.151460248317875,62.320237497244932,83.5],[26.142334960376786,62.334955703601509,83.5],[26.119374558460521,62.350262638212371,83.5],[26.06491719494116,62.372928676001493,103.4802],[26.039896244134979,62.39029615950227,83.5],[26.058735548271386,62.395594713790643,83.5],[26.074631211136506,62.390001795375127,97.9317],[26.089349417493082,62.381170871561181,92.7304],[26.105245080358202,62.376755409654209,92.1993],[26.14851660704656,62.372928676001493,102.5753],[26.171477008962825,62.36763012171312,114.5338],[26.19944160104032,62.351734458848028,181.7424],[26.291577572832551,62.313761486448044,91.4048],[26.30070286077364,62.307579839778271,95.9473],[26.307767599824786,62.307579839778271,86.5],[26.3115943334775,62.327007872168963,102.4179],[26.306295779189128,62.344964083924,86.5],[26.305118322680613,62.361742839170489,109.7344],[26.321013985545704,62.376755409654209,90.3956],[26.3124774258589,62.394122893154986,90.6946],[26.29893667601084,62.40942982776582,86.5],[26.281274828382948,62.419732572215423,86.5],[26.232704747406217,62.430918409046427,98.4356],[26.232999111533331,62.447402800165804,86.5],[26.252427143924024,62.478311033514643,86.5],[26.244479312491478,62.488025049709989,86.5],[26.227700557244987,62.503920712575081,86.5],[26.214159807396925,62.521876924330115,89.7446],[26.214748535651182,62.537478223068092,91.7386],[26.223873823592271,62.542188049102208,96.7556],[26.231527290897674,62.538066951322349,104.906],[26.239475122330248,62.531002212271204,107.1475],[26.249189138525594,62.527469842745631,111.1159],[26.260374975356598,62.529530391635546,94.1147],[26.273326996950374,62.53482894592392,114.7626],[26.285395926162778,62.541304956720808,105.2899],[26.293932485849609,62.547192239263438,96.7626],[26.308650692206186,62.565442815145616,92.1941],[26.319247800782932,62.583399026900651,107.7025],[26.332494186503851,62.597234140875827,104.7223],[26.355454588420116,62.6025326951642,113.54],[26.38341918049764,62.598117233257227,153.6334],[26.465841136094497,62.568386456416931,113.5188],[26.557388379632442,62.561027353238643,108.6568],[26.565041846937874,62.557789347840185,155.1057],[26.570046037099104,62.551018972916154,137.7754],[26.576816412023135,62.544248597992123,126.9438],[26.588002248854139,62.541010592593693,111.1218],[26.593300803142512,62.537183858940978,107.2094],[26.595361352032427,62.51569527766037,94.0],[26.601837362829315,62.505686897337881,113.4824],[26.593006439015369,62.488613777964247,117.0654],[26.586824792345624,62.484198316057274,123.9304],[26.574461499006077,62.478311033514643,120.9862],[26.542081445021608,62.473306843353384,145.1579],[26.528540695173547,62.468302653192154,115.2597],[26.533544885334777,62.459177365251065,137.6922],[26.516471765961143,62.451523897945663,105.0],[26.502047923731681,62.452701354454177,116.1653],[26.489684630392162,62.460060457632466,122.0488],[26.479381885942558,62.47212938684487,157.6794],[26.463780587204582,62.454761903344092,116.5007],[26.482914255468131,62.440926789368916,123.2969],[26.51205630405417,62.429152224283655,135.7817],[26.526774510410746,62.417672023325508,121.2105],[26.513822488816942,62.407958007130162,115.6803],[26.486446624993704,62.416200202689851,118.9359],[26.437876544016973,62.444753523021632,97.5],[26.425513250677454,62.439160604606116,101.5714],[26.412266864956536,62.4371000557162,105.4651],[26.38341918049764,62.437394419843343,121.8641],[26.38341918049764,62.43121277317357,118.8282],[26.3934275608201,62.424148034122396,123.7036],[26.431106169092971,62.403836909350332,102.6804],[26.411383772575135,62.398243990934816,97.5],[26.391367011930186,62.394711621409243,97.5],[26.375765713192209,62.3867637899767,132.221],[26.369584066522435,62.366158301077462,102.7298],[26.366051696996863,62.363803388060404,104.0542],[26.358692593818574,62.3552668283736,106.1656],[26.3542771319116,62.346141540432512,115.1456],[26.38341918049764,62.324652959151905,158.9029],[26.43346108211,62.30493056263407,116.8016],[26.452594750373578,62.301103828981383,114.1521],[26.458482032916208,62.314644578829416,97.5],[26.452300386246435,62.32583041566042,97.5],[26.441408913542574,62.328185328677478,106.1494],[26.428751256075913,62.328774056931735,97.5],[26.417565419244909,62.334955703601509,97.5],[26.415504870354965,62.3414317143984,97.5],[26.417565419244909,62.357327377263516,97.5],[26.417565419244909,62.362331567424746,97.5],[26.427279435440255,62.375577953145694,97.5],[26.441408913542574,62.383525784578239,101.2404],[26.452006022119292,62.391179251883671,127.1843],[26.451417293865035,62.403836909350332,130.3213],[26.487035353247961,62.3970665344263,122.0323],[26.530601244063462,62.382348328069725,120.9306],[26.56386439042933,62.381759599815439,105.0],[26.567691124082046,62.417672023325508,122.6471],[26.594478259651027,62.426502947139454,135.554],[26.623031579982808,62.43121277317357,135.8788],[26.615083748550262,62.441515517623174,105.0],[26.604486639973516,62.447697164292947,105.0],[26.597716265049485,62.453584446835578,105.0],[26.601837362829315,62.464770283666581,105.0],[26.611845743151804,62.470068837954955,114.3505],[26.656883454602934,62.478311033514643,102.9606],[26.646875074280473,62.482726495421616,96.5],[26.638632878720784,62.490085598599904,114.4091],[26.632451232051011,62.498327794159593,114.9541],[26.629213226652581,62.505686897337881,96.5],[26.629213226652581,62.513046000516169,137.2267],[26.655705998094419,62.515989641787485,113.7553],[26.666303106671165,62.520993831948715,94.0],[26.673956573976596,62.538655679576635,101.9635],[26.690735329223088,62.545720418627781,94.0],[26.698094432401376,62.554256978314612,102.4782],[26.686319867316115,62.553079521806069,94.0],[26.678077671756427,62.554551342441727,94.0],[26.675134030485111,62.559555532602985,94.0],[26.677488943502169,62.568386456416931,110.2884],[26.655411633967276,62.573390646578162,94.0],[26.645403253644815,62.577217380230877,94.0],[26.635689237449469,62.582221570392107,94.0],[26.663948193654107,62.606359428816916,100.5155],[26.679255128264941,62.612835439613804,98.1777],[26.694562062875804,62.606065064689773,115.6358],[26.70928026923238,62.594584863731654,136.8041],[26.726942116860272,62.58575393991768,145.5518],[26.7669756381502,62.574568103086705,94.0],[26.739011046072676,62.561027353238643,137.8587],[26.756967257827711,62.543954233865009,139.9644],[26.736067404801361,62.509807995117711,137.4617],[26.683670590171943,62.451818262072777,121.2062],[26.711046453995181,62.451523897945663,106.0],[26.771685464184287,62.493617968125477,99.6231],[26.8078922518215,62.499505250668108,101.9865],[26.802004969278869,62.485081408438674,160.2599],[26.804359882295927,62.473601207480527,160.5614],[26.81377953436413,62.464475919539439,131.6571],[26.829086468974964,62.459177365251065,114.3791],[26.849986322001314,62.457705544615408,147.8138],[26.864998892485033,62.459471729378208,153.4772],[26.877950914078838,62.458294272869693,132.9786],[26.906798598537733,62.439749332860373,134.2548],[26.923871717911368,62.434156414444885,122.0822],[26.941239201412145,62.433862050317742,110.0],[26.955368679514464,62.441221153496031,110.0],[26.955663043641579,62.452701354454177,123.668],[26.942711022047803,62.464181555412324,143.5968],[26.925049174419911,62.473601207480527,112.9061],[26.911508424571849,62.478311033514643,126.9081],[26.930053364581141,62.489791234472762,110.5],[26.937706831886572,62.492734875744077,121.9859],[26.9306420928354,62.493617968125477,116.8794],[26.91827879949588,62.49803343003245,129.2309],[26.911508424571849,62.499505250668108,122.8091],[26.915923886478822,62.515106549406084,128.0917],[26.901205680122246,62.509807995117711,110.5],[26.880011462968753,62.49479542463402,116.2849],[26.866176348993577,62.482137767167359,119.5583],[26.856756696925345,62.4771335770061,107.5],[26.846748316602884,62.480077218277415,107.5],[26.838506121043196,62.487436321455704,129.6352],[26.835268115644737,62.496267245269678,160.9769],[26.840272305805968,62.503331984320823,136.7234],[26.876773457570295,62.520110739567343,109.126],[26.861760887086575,62.524820565601431,115.9578],[26.848514501365656,62.524231837347173,119.313],[26.822021729923819,62.520110739567343,124.7015],[26.8087753442029,62.520405103694458,135.182],[26.797589507371896,62.522171288457258,156.7045],[26.79376277371918,62.526292386237088,112.2822],[26.801121876897469,62.533651489415377,132.7255],[26.795528958481952,62.563087902128558,94.0],[26.823199186432333,62.584576483409165,126.6332],[26.861466522959461,62.59752850500297,132.3325],[26.8897254791641,62.6025326951642,121.6859],[26.8897254791641,62.609303070088231,112.0848],[26.869119990264892,62.612246711359546,94.0],[26.851752506764115,62.620783271046349,99.2109],[26.83968357755171,62.634618385021554,94.0],[26.835268115644737,62.654046417412246,98.303],[26.844982131840084,62.659639335827734,102.4087],[26.867353805502091,62.653457689157989,113.8681],[26.97921217381213,62.599294689765742,175.512],[27.0227780646276,62.585165211663423,128.6504],[27.054275026230698,62.588403217061881,103.4584],[27.031314624314433,62.606065064689773,103.265],[27.00599930938111,62.618722722156434,105.7769],[26.97921217381213,62.626670553589008,108.9975],[26.951836309988892,62.629319830733181,97.5],[26.960961597929952,62.645509857725415,97.5],[26.965965788091211,62.650808412013788,105.2975],[26.957134864277236,62.660522428209134,97.5],[26.946537755700518,62.667881531387422,97.5],[26.924460446165625,62.678184275837026,97.5],[26.953308130624549,62.6843659225068,103.6315],[27.022189336373344,62.661405520590534,105.9675],[27.054275026230698,62.657284422810676,110.5378],[27.054275026230698,62.664054797734707,104.1524],[27.03013716780589,62.669647716150223,97.5],[27.008648586525283,62.679361732345569,97.5],[26.965965788091211,62.705560139660292,97.5],[26.912980245207507,62.729697998085072,97.5],[26.897084582342387,62.739117650153304,97.5],[26.887076202019927,62.75118657936568,97.5],[26.877067821697437,62.780917356206004,97.5],[26.869119990264892,62.794458106054037,97.5],[26.854107419781172,62.804466486376526,97.5],[26.836445572153252,62.810942497173414,97.5],[26.821727365796676,62.819479056860246,97.5],[26.81466262674553,62.835374719725337,97.5],[26.93917865252223,62.784449725731577,109.9236],[26.978623445557872,62.77473570953623,110.0],[26.993341651914449,62.77385261715483,120.5814],[27.008059858271025,62.777679350807546,108.5342],[27.022189336373344,62.785038453985834,97.5],[27.027193526534575,62.793575013672665,97.5],[27.0133584125594,62.801228480978068,97.5],[27.017479510339228,62.809176312410642,97.5],[27.019834423356286,62.815946687334673,97.5],[27.020717515737687,62.829193073055592,97.5],[27.025721705898917,62.839201453378053,97.5],[27.019834423356286,62.846854920683484,97.5],[27.007471130016768,62.852153474971857,97.5],[26.993341651914449,62.85568584449743,97.5],[27.020423151610572,62.854508387988915,97.5],[27.064283406553187,62.834197263216822,114.3869],[27.099607101808971,62.826838160038534,157.8145],[27.121978775470978,62.817124143843188,128.5554],[27.133164612301982,62.81476923082613,134.0798],[27.1464109980229,62.816241051461787,120.3476],[27.170254492320566,62.821833969877304,109.834],[27.184678334550028,62.822128334004418,111.6871],[27.129926606903553,62.835374719725337,97.339],[27.131692791666325,62.838907089250938,97.4963],[27.131987155793468,62.839790181632338,97.4931],[27.132575884047725,62.839790181632338,97.5351],[27.136108253573298,62.84155636639511,104.3824],[27.111970395148518,62.851270382590457,102.4625],[26.924460446165625,62.876880061650922,112.3349],[26.9306420928354,62.865988588947033,108.2696],[26.941239201412145,62.858629485768745,104.6025],[26.965965788091211,62.8489154695734,101.0318],[26.965965788091211,62.84155636639511,97.5],[26.943005386174917,62.846854920683484,97.5],[26.890314207418356,62.870109686726892,100.9174],[26.869119990264892,62.883650436574953,97.5],[26.876773457570295,62.8898320832447,111.2558],[26.857345425179602,62.90013482769433,97.5],[26.86058343057806,62.915147398178021,97.5],[26.877067821697437,62.928099419771826,101.0],[26.897084582342387,62.9316317892974,109.7347],[26.90238313663076,62.927510691517568,108.1019],[26.914746429970279,62.910731936271048,108.1641],[26.924460446165625,62.90425592547416,106.8107],[26.936529375378029,62.9019010124571,107.427],[26.950070125226091,62.9027841048385,113.5144],[26.962727782692752,62.906022110236961,111.397],[26.973030527142356,62.911026300398191,100.5],[26.948009576336176,62.919562860084994,100.5],[26.920339348385795,62.936341615331514,109.0178],[26.906798598537733,62.952237278196634,100.5],[26.924460446165625,62.958713288993522,105.8945],[26.92151680489431,62.962834386773352,107.6635],[26.919456256004395,62.966366756298953,110.268],[26.916806978860222,62.969899125824526,100.5],[26.911508424571849,62.973137131222984,100.5],[26.911508424571849,62.979318777892729,100.5],[26.951247581734606,62.968721669315983,118.6406],[27.026310434153203,62.921329044847795,114.3215],[27.061339765281872,62.924861414373368,104.0],[27.037496270984207,62.935164158823,109.4159],[26.991575467151648,62.972842767095841,104.9095],[26.965965788091211,62.98608915281676,104.0],[26.98509945635476,62.992859527740791,113.7726],[26.993341651914449,62.993448255995048,115.607],[26.967437608726868,62.999629902664822,109.5135],[26.955074315387321,63.005517185207452,109.9671],[26.951836309988892,63.014053744894284,104.0],[26.958901049040037,63.020235391564029,104.0],[26.970675614125298,63.021412848072572,113.3768],[26.983627635719102,63.019941027436914,118.144],[26.992752923660191,63.017291750292713,112.3785],[27.028370983043118,63.002279179808994,113.9039],[27.044855374162495,63.003456636317537,118.367],[27.054275026230698,63.020235391564029,114.7484],[26.997168385567164,63.034953597920634,118.8494],[26.965965788091211,63.037602875064806,104.0],[26.937706831886572,63.033187413157833,104.0],[26.919456256004395,63.019941027436914,115.1769],[26.908859147427648,63.00198481568188,100.5],[26.89649585408813,62.98608915281676,100.5],[26.872946723917579,62.979318777892729,100.5],[26.857639789306745,62.977846957257071,108.7935],[26.835856843898995,62.972254038841584,106.3587],[26.821433001669561,62.973137131222984,109.4727],[26.800827512770326,62.979907506146986,104.9884],[26.780516387998262,62.989915886469475,114.7733],[26.75107997528508,63.009049554733025,104.6807],[26.739011046072676,63.014053744894284,106.2838],[26.72841393749593,63.0152312014028,116.6707],[26.703981714944007,63.012287560131483,127.9556],[26.691029693350231,63.014053744894284,130.1765],[26.703687350816892,62.995803169012106,97.5],[26.725470296224614,62.98520606043536,97.5],[26.773746013074231,62.969310397570268,103.2624],[26.796117686736238,62.957535832484979,110.56],[26.81466262674553,62.94517253914546,109.4465],[26.832324474373422,62.924567050246253,97.5],[26.842038490568768,62.917796675322222,97.5],[26.814956990872645,62.918974131830737,97.5],[26.78787549117655,62.926921963263311,97.5],[26.739011046072676,62.951354185815234,103.3326],[26.708102812723865,62.972842767095841,103.7508],[26.690735329223088,62.982262419164044,116.3896],[26.670718568578138,62.98608915281676,102.0698],[26.698977524782777,62.960773837883437,151.2167],[26.732829399402931,62.938402164221429,97.5],[26.70839717685098,62.92515577850051,119.0763],[26.703981714944007,62.907493930872619,124.6837],[26.717522464792069,62.891892632134642,105.8054],[26.745781420996707,62.883650436574953,113.6977],[26.739894138454076,62.869815322599749,102.2636],[26.741365959089734,62.858040757514487,129.0655],[26.747841969886622,62.847738013064884,121.8249],[26.756378529573453,62.838318360996681,124.9476],[26.756967257827711,62.833902899089679,98.5106],[26.752551795920738,62.821833969877304,97.5],[26.753140524174995,62.81476923082613,104.6581],[26.758439078463368,62.811825589554815,107.0924],[26.77610092609126,62.806527035266441,111.4421],[26.780516387998262,62.801228480978068,107.4612],[26.777867110854061,62.787393367002892,97.5],[26.766386909895942,62.788276459384292,97.5],[26.752551795920738,62.796224290816838,97.5],[26.720760470190527,62.823305790512961,97.5],[26.708691540978123,62.829193073055592,103.6949],[26.675134030485111,62.841262002267996,97.5],[26.659532731747134,62.849504197827656,97.5],[26.648052530788988,62.862161855294318,97.5],[26.6433427047549,62.880412431176495,97.5],[26.63745542221227,62.888654626736184,97.5],[26.623914672364208,62.89748555055013,97.5],[26.530012515809204,62.941934533747,130.3294],[26.494100092299135,62.954003462959406,155.3696],[26.451417293865035,62.958713288993522,205.3137],[26.462603130696039,62.944878175018317,180.9693],[26.483502983722389,62.9342810664416,179.7348],[26.526774510410746,62.917796675322222,131.1211],[26.582114966311508,62.882178615939296,132.5527],[26.607724645371945,62.873642056252464,105.8399],[26.613023199660319,62.865399860692776,110.5647],[26.615083748550262,62.855097116243172,108.6535],[26.615378112677377,62.845383100047826,131.5469],[26.621265395220007,62.836257812106737,106.5495],[26.635100509195212,62.832136714326907,118.6426],[26.650113079678931,62.829781801309849,129.2478],[26.670424204450995,62.822422698131561,109.5692],[26.698977524782777,62.818595964478845,105.6047],[26.704864807325407,62.811531225427672,97.5],[26.700449345418434,62.802700301613726,97.5],[26.689852236841688,62.800051024469553,109.8158],[26.663948193654107,62.801228480978068,105.8121],[26.663948193654107,62.794458106054037,117.6435],[26.692501513985889,62.782094812714519,125.9157],[26.729591394004473,62.741766927297476,102.5341],[26.749608154649422,62.73293600348353,102.2551],[26.779927659743976,62.729403633957958,105.4737],[26.816428811508302,62.720278346016869,103.0074],[26.851163778509857,62.70703196029595,105.9271],[26.876773457570295,62.692019389812231,106.1397],[26.857639789306745,62.682894101871142,97.5],[26.82967519722925,62.674357542184339,101.6676],[26.804359882295927,62.66346606948045,95.0],[26.79376277371918,62.647276042488215,95.8858],[26.798178235626153,62.637856390420012,102.043],[26.817311903889703,62.621960727554892,106.9119],[26.821433001669561,62.615484716758004,137.7767],[26.816428811508302,62.604298879927,122.811],[26.8052429746773,62.59841159738437,107.0728],[26.79199658895638,62.598117233257227,94.0],[26.780516387998262,62.6025326951642,94.0],[26.79376277371918,62.609303070088231,116.1221],[26.768741822912972,62.616662173266519,94.0],[26.709868997486637,62.621960727554892,108.9692],[26.68749732382463,62.633146564385896,94.0],[26.678077671756427,62.640211303437042,94.0],[26.666303106671165,62.645804221852558,103.3714],[26.653939813331618,62.649630955505273,94.0],[26.631568139669611,62.653163325030846,100.4364],[26.624209036491322,62.658167515192076,94.0],[26.617733025694434,62.66434916186185,94.0],[26.609196466007603,62.670825172658738,94.0],[26.561509477412272,62.68937011266803,94.0],[26.53707725486035,62.703499590770349,94.0],[26.526774510410746,62.722338894906784,94.0],[26.520887227868116,62.7364683730091,94.0],[26.506463385638654,62.74883166634865,94.0],[26.47202278276427,62.7670822422308,94.0],[26.480264978323959,62.780622992078861,107.5434],[26.467312956730154,62.796518654943981,94.0],[26.444941283068147,62.809470676537757,94.0],[26.414327413846451,62.817124143843188,94.0],[26.406968310668162,62.823011426385818,94.0],[26.396371202091416,62.835374719725337,94.0],[26.38665718589607,62.839790181632338,94.0],[26.377237533827866,62.842733822903654,94.0],[26.373999528429408,62.8489154695734,94.0],[26.38341918049764,62.863339311802861,106.4208],[26.370467158903836,62.868049137836977,121.6667],[26.347801121114685,62.885122257210611,94.0],[26.335437827775166,62.8898320832447,94.0],[26.314243610621673,62.891303903880356,100.7356],[26.3107112410961,62.886594077846269,111.4248],[26.321013985545704,62.869520958472634,123.9224],[26.325429447452677,62.863928040057118,118.7719],[26.338970197300739,62.855980208624572,114.7112],[26.34161947444494,62.852447839099,109.2637],[26.340442017936397,62.844500007666426,116.3597],[26.338381469046482,62.84155636639511,128.5869],[26.337792740792224,62.839790181632338,147.1966],[26.34161947444494,62.835374719725337,137.979],[26.355454588420116,62.824188882894333,105.0918],[26.38341918049764,62.8106481330463,94.0],[26.396371202091416,62.801228480978068,94.0],[26.386362821768955,62.794458106054037,94.0],[26.379298082717781,62.785332818112977,117.8279],[26.377826262082124,62.7773849866804,117.9254],[26.399314843362731,62.768554062866457,112.9989],[26.424041430041797,62.744710568568792,98.0],[26.437876544016973,62.739117650153304,111.0769],[26.45023983735652,62.735879644754846,111.4727],[26.460836945933266,62.727343085068014,110.679],[26.49704373357045,62.688192656159515,138.1584],[26.557388379632442,62.636678933911469,119.8538],[26.5606263850309,62.629908558987438,108.4256],[26.554444738361127,62.616367809139376,94.0],[26.541198352640208,62.606948157071173,94.0],[26.522947776758031,62.612541075486689,94.0],[26.508523934528597,62.622255091682007,97.8113],[26.497632461824708,62.624904368826208,94.0],[26.465841136094497,62.623138184063407,94.0],[26.448473652593719,62.624021276444807,94.0],[26.435815995127058,62.626670553589008,94.0],[26.410795044320878,62.636678933911469,94.0],[26.41344432146505,62.640800031691327,94.0],[26.417565419244909,62.650808412013788,94.0],[26.401669756379789,62.655812602175018,94.0],[26.382830452243354,62.658756243446362,94.0],[26.363991148106948,62.657578786937819,96.8835],[26.348684213496085,62.650808412013788,94.0],[26.337792740792224,62.638445118674269,126.308],[26.343974387461969,62.631969107877353,111.1001],[26.375765713192209,62.623138184063407,94.0],[26.357809501437174,62.614012896122347,103.2405],[26.316598523638731,62.605181972308372,93.5],[26.277742458857347,62.580455385629335,94.9379],[26.260080611229455,62.585165211663423,89.0],[26.241535671220163,62.594290499604512,89.0],[26.21798654104964,62.595762320240169,114.597],[26.21798654104964,62.588403217061881,89.0],[26.226817464863586,62.58663703229908,124.1761],[26.23623711693179,62.582810298646365,141.0208],[26.243596220110078,62.57662865197662,110.9404],[26.246245497254279,62.568386456416931,103.0937],[26.240358214711648,62.559555532602985,123.3641],[26.2297611061349,62.5607329891115,89.0],[26.20032469342172,62.571330097688246,102.2424],[26.19620359564189,62.57662865197662,106.0018],[26.19119940548066,62.578689200866535,130.3424],[26.180602296903913,62.571624461815361,97.8303],[26.178836112141113,62.56573717927273,86.5],[26.181485389285314,62.557200619585927,95.9096],[26.190905041353517,62.541010592593693,86.5],[26.149988427682217,62.547192239263438,149.5256],[26.161762992767478,62.531296576398347,115.9956],[26.17618683499694,62.516872734168885,86.5],[26.180896661031028,62.505686897337881,141.4916],[26.163529177530279,62.499505250668108,98.6546],[26.172065737217082,62.489496870345647,112.7048],[26.182368481666686,62.480077218277415,152.1356],[26.186783943573658,62.471835022717727,147.611],[26.177364291505455,62.464770283666581,151.2948],[26.20032469342172,62.445930979530146,127.258],[26.207095068345751,62.429740952537912,100.2323],[26.20032469342172,62.412373469037135,86.5],[26.184134666429486,62.39029615950227,95.7138],[26.204151427074436,62.379404686798381,86.5],[26.21121616612561,62.376755409654209,86.5],[26.187667035955059,62.376166681399951,102.6174],[26.111132362900833,62.392062344265042,88.954],[26.094647971781455,62.400304539824731,93.6936],[26.089643781620225,62.40942982776582,83.5],[26.077280488280678,62.414728382054193,83.5],[26.063739738432645,62.418849479834051,83.5],[26.053731358110156,62.423853669995282,83.5],[26.051670809220241,62.43209586555497,83.5],[26.056086271127214,62.440338061114659,83.5],[26.055791907000071,62.448874620801462,83.5],[26.039896244134979,62.459177365251065,83.5],[26.06491719494116,62.4694801097007,88.979],[26.114076004172148,62.463592827158038,149.3425],[26.142334960376786,62.47212938684487,183.8108],[26.131149123545782,62.480077218277415,99.0],[26.108188721629517,62.520110739567343,111.2333],[26.115842188934948,62.520110739567343,99.0],[26.109366178138032,62.531296576398347,99.0],[26.097591613052771,62.543954233865009,121.7424],[26.086405776221767,62.548958424026239,104.8436],[26.081695950187651,62.537478223068092,99.0],[26.081107221933394,62.522760016711516,132.3496],[26.077869216534964,62.511574179880512,99.0],[26.069627020975275,62.505098169083624,129.9737],[26.053731358110156,62.505686897337881,111.1103],[26.06491719494116,62.5198163754402,102.3268],[26.060796097161329,62.529530391635546,105.5138],[26.048138439694668,62.530707848144061,112.3103],[26.033125869210949,62.520110739567343,110.5176],[26.027238586668318,62.507158717973539,103.2504],[26.02812167904969,62.495384152888278,100.5786],[26.034892053973721,62.485375772565789,92.0036],[26.046960983186125,62.478311033514643,84.5],[26.026355494286918,62.471246294463469,86.0167],[26.006633097769082,62.461237914141009,101.3043],[25.996624717446622,62.446225343657289,84.0],[26.005750005387682,62.423853669995282,98.3033],[26.006927461896225,62.411490376655735,110.3908],[25.981612146962902,62.414728382054193,83.5],[25.971898130767556,62.417672023325508,83.5],[25.964833391716382,62.423559305868139,102.6666],[25.947171544088491,62.448285892547204,83.5],[25.927449147570684,62.462121006522381,105.4496],[25.87770161008541,62.484787044311531,106.791],[25.855035572296288,62.499505250668108,110.5881],[25.822361154184676,62.532474032906862,106.1878],[25.801166937031184,62.547780967517696,111.7859],[25.750830671291681,62.562793538001415,167.846],[25.741999747477706,62.579866657375049,91.5],[25.751419399545938,62.590758130078939,97.7151],[25.780561448131976,62.582221570392107,113.7553],[25.79086419258158,62.572801918323904,98.0],[25.798812024014126,62.563676630382815,128.0716],[25.809409132590872,62.558378076094442,134.0756],[25.828248436727307,62.561027353238643,120.4288],[25.844732827846684,62.568680820544046,103.5397],[25.842966643083884,62.574862467213819,98.0],[25.790569828454437,62.611363618978146,98.0],[25.786743094801722,62.619311450410692,98.0],[25.791452920835837,62.636090205657212,127.9607],[25.803521850048242,62.641094395818442,179.334],[25.818828784659075,62.641388759945585,168.3574],[25.834724447524195,62.6434493088355,213.0807],[25.845321556100942,62.648159134869616,123.3976],[25.864160860237348,62.658756243446362,152.2633],[25.876229789449752,62.664054797734707,136.8887],[25.8877099904079,62.666998439006022,116.8711],[25.903605653273019,62.668764623768823,130.3094],[25.917735131375338,62.667587167260308,111.156],[25.924211142172226,62.660522428209134,119.9825],[25.932453337731914,62.654929509793647,121.0182],[25.988676886014048,62.650808412013788,161.2052],[26.002806364116367,62.647276042488215,131.916],[26.014286565074514,62.639033846928527,130.4655],[26.024294945397003,62.629614194860324,130.8187],[26.033125869210949,62.623138184063407,134.7258],[26.052848265728755,62.618133993902177,137.0015],[26.108188721629517,62.623138184063407,106.3139],[26.035186418100864,62.6537520532851,98.0],[25.994858532683821,62.682599737744027,98.0],[25.981906511090017,62.68937011266803,98.0],[25.9713094025133,62.692019389812231,98.0],[25.962478478699353,62.695257395210689,98.0],[25.960123565682295,62.703793954897492,98.0],[25.960123565682295,62.714685427601353,119.0042],[25.958063016792352,62.725576900305242,101.9327],[25.97807977743733,62.718217797126954,188.1175],[26.017230206345829,62.687309563778115,129.5493],[26.039896244134979,62.678184275837026,128.4941],[26.039896244134979,62.6843659225068,114.9654],[26.027238586668318,62.697317944100604,141.107],[26.012814744438856,62.7373514653905,98.0],[25.995447260938079,62.745888025077335,98.0],[25.988971250141191,62.756485133654053,98.0],[25.998390902209394,62.779739899697461,110.0479],[26.015464021583028,62.803583393995126,119.2326],[26.033125869210949,62.81476923082613,103.0752],[26.077574852407821,62.800639752723811,134.5279],[26.094647971781455,62.79975666034241,125.4986],[26.077869216534964,62.817712872097445,104.5296],[26.04578352667761,62.840378909886596,98.0],[26.039896244134979,62.8489154695734,98.0],[26.044606070169067,62.8627505835486,98.0],[26.060501733034187,62.86069003465866,114.4531],[26.229466742007759,62.780328627951718,115.5137],[26.269205899170544,62.750303486984308,184.5826],[26.293343757595323,62.714685427601353,110.5],[26.309533784587586,62.699378492990519,145.9563],[26.324546355071305,62.701733406007577,109.5],[26.345151843970513,62.729109269830815,98.0],[26.359870050327089,62.736174008881989,98.0],[26.373116436048008,62.729403633957958,112.4775],[26.385185365260412,62.718217797126954,142.4319],[26.396371202091416,62.712330514584323,172.9857],[26.415799234482108,62.718512161254068,171.1048],[26.412266864956536,62.73205291110213,106.7951],[26.397548658599959,62.74794857396725,98.0],[26.245362404872878,62.856274572751687,98.0],[26.224756915973643,62.864811132438518,98.0],[26.19944160104032,62.868637866091234,98.0],[26.173831921979883,62.869520958472634,98.0],[26.159996808004678,62.871875871489664,98.0],[26.154698253716333,62.87835188228658,98.0],[26.151165884190732,62.887182806100526,110.0575],[26.142334960376786,62.896896822295872,123.4451],[26.076397395899306,62.94016834898423,98.0],[26.022234396507059,62.954592191213663,98.0],[25.995741625065222,62.966661120426068,98.0],[25.97807977743733,62.98608915281676,98.0],[25.974253043784614,63.008460826478768,98.0],[25.98808815775979,63.014053744894284,98.0],[26.011048559676055,63.009049554733025,98.0],[26.033125869210949,62.999924266791965,134.5622],[26.089055053365968,62.969310397570268,112.5633],[26.117902737824863,62.963128750900495,108.4932],[26.149988427682217,62.973137131222984,101.4515],[25.94540535932569,63.058502728091156,98.0],[25.9286266040792,63.07057165730356,98.0],[25.922739321536568,63.080285673498906,106.523],[25.926860419316398,63.092060238584168,137.0256],[25.938340620274545,63.109722086212059,124.3329],[25.924799870426483,63.115903732881833,109.9579],[25.911553484705564,63.116786825263233,100.6968],[25.89948455549316,63.11560936875469,98.0],[25.889770539297814,63.11649246113609,98.0],[25.839728637685425,63.141807776069413,103.4898],[25.835607539905595,63.145340145594986,104.9821],[25.829720257362965,63.146223237976386,108.4599],[25.814118958624988,63.143279596705071,110.1889],[25.798223295759868,63.136803585908183,120.9037],[25.788214915437379,63.130916303365552,133.4638],[25.780561448131976,63.123262836060121,143.0817],[25.804404942429642,63.11649246113609,117.7198],[25.827070980218764,63.105600988432229,122.9846],[25.847087740863714,63.091765874457025,138.7009],[25.863277767855976,63.075575847464791,108.8891],[25.828837164981564,63.071749113812075,160.8756],[25.778206535114919,63.088822233185709,98.0],[25.666642530932023,63.141807776069413,110.8172],[25.656634150609534,63.143279596705071,119.4718],[25.647508862668445,63.146517602103529,102.6711],[25.635439933456041,63.161530172587248,98.0],[25.625725917260695,63.164768177985678,98.0],[25.604826064234373,63.180958204977941,98.0],[25.601293694708772,63.184784938630628,98.0],[25.604826064234373,63.193910226571717,121.8239],[25.614245716302577,63.201563693877148,115.0],[25.636028661710327,63.212160802453894,115.0],[25.625431553133581,63.241597215167047,142.1611],[25.618072449955292,63.253960508506594,138.2705],[25.609830254395604,63.229528285954643,142.7849],[25.574506559139792,63.184784938630628,98.0],[25.562731994054531,63.191260949427544,98.0],[25.550368700715012,63.195970775461632,98.0],[25.537711043248351,63.196853867843032,137.1358],[25.526230842290204,63.191555313554659,127.0971],[25.537711043248351,63.1824300256136,111.6463],[25.529468847688662,63.146223237976386,110.6202],[25.532412488959977,63.123262836060121,122.2028],[25.517399918476258,63.119436102407406,117.3291],[25.499443706721223,63.118258645898891,100.0],[25.484725500364647,63.122085379551606,112.5446],[25.472656571152243,63.146811966230644,100.0],[25.459115821304181,63.1509330640105,104.3719],[25.443514522566204,63.148872515120587,112.5107],[25.4305625009724,63.143279596705071,126.9743],[25.439099060659231,63.1397472271795,107.4093],[25.445869435583262,63.135920493526783,115.0797],[25.451756718125893,63.130621939238409,129.5234],[25.45734963654138,63.123262836060121,118.3427],[25.446752527964662,63.12738393383998,116.0999],[25.436155419387916,63.129444482729895,113.5413],[25.425852674938312,63.128267026221351,100.0],[25.416138658742966,63.123262836060121,133.5185],[25.435861055260773,63.113254455737632,140.8689],[25.461176370194096,63.084406771278736,171.5507],[25.492084603542935,63.059091456345413,134.402],[25.503859168628196,63.039663423954721,111.2349],[25.504447896882454,63.022001576326829,106.5],[25.484725500364647,63.014053744894284,106.5],[25.457644000668523,63.017586114419856,138.7015],[25.376105137453067,63.040840880463264,106.5],[25.351672914901116,63.040840880463264,132.6333],[25.347257452994143,63.032009956649318,111.0111],[25.34460817584997,63.018763570928371,107.4138],[25.327535056476336,63.006694641715995,139.7749],[25.357560197443746,62.990504614723733,131.9883],[25.434683598752258,62.984322968053988,114.184],[25.464708739719697,62.973137131222984,116.0588],[25.471184750516585,62.964894935663295,110.2644],[25.481193130839046,62.948410544543918,117.7119],[25.488257869890219,62.94517253914546,112.044],[25.500915527356881,62.949293636925319,132.5307],[25.511218271806484,62.958124560739265,107.1223],[25.522992836891746,62.965483663917553,113.5084],[25.540360320392523,62.965778028044667,127.6167],[25.532412488959977,62.970782218205926,106.5],[25.523875929273146,62.978730049638472,118.3651],[25.519460467366173,62.98785533757956,106.5],[25.522698472764631,62.996686261393506,106.5],[25.529174483561519,63.00610591346171,106.5],[25.530057575942919,63.0152312014028,106.5],[25.529468847688662,63.024062125216744,117.9679],[25.532412488959977,63.033187413157833,106.5],[25.562143265800273,63.057325271582641,100.0],[25.564203814690188,63.06468437476093,100.0],[25.540360320392523,63.095886972236883,100.0],[25.540360320392523,63.102362983033771,100.0],[25.562731994054531,63.0970644287454,120.5805],[25.622193547735122,63.061152005235328,175.6039],[25.646920134414188,63.051732353167125,165.7604],[25.674001634110311,63.044961978243094,153.6909],[25.690780389356803,63.04790561951441,136.6289],[25.684304378559915,63.067922380159359,98.0],[25.703732410950607,63.067039287777988,121.2667],[25.718744981434327,63.064390010633787,126.0897],[25.745237752876164,63.054970358565583,130.3707],[25.788509279564522,63.024650853471,136.3447],[25.800872572904041,63.020235391564029,118.0],[25.831192077998622,63.014936837275656,165.0029],[25.865043952618748,63.001690451554737,121.839],[25.880645251356725,62.98608915281676,98.0],[25.855035572296288,62.973137131222984,113.7921],[25.872403055797037,62.959596381374922,115.1487],[25.944227902817175,62.930748696916,106.4215],[25.982495239344303,62.907788294999733,98.0],[25.992209255539649,62.896896822295872,98.0],[25.962772842826467,62.9036671972199,98.0],[25.889770539297814,62.896896822295872,98.0],[25.896246550094702,62.893070088643157,98.0],[25.897424006603245,62.890126447371841,98.0],[25.896540914221845,62.883650436574953,108.4764],[25.83178080625288,62.910437572143934,128.3501],[25.807348583700957,62.911026300398191,131.0],[25.827954072600164,62.8915982680075,119.289],[25.856507392931945,62.879529338795095,101.475],[25.917146403121052,62.863339311802861,125.6742],[25.906843658671448,62.845971828302083,98.0],[25.887415626280756,62.840084545759453,98.0],[25.842083550702483,62.84155636639511,140.8307],[25.850620110389315,62.83066489369125,110.6958],[25.851503202770687,62.8200677851145,111.942],[25.851208838643572,62.808293220029242,98.0],[25.855035572296288,62.794458106054037,128.7916],[25.842377914829626,62.799462296215296,98.0],[25.826776616091649,62.802111573359468,98.0],[25.812058409735045,62.801228480978068,98.0],[25.800578208776926,62.794458106054037,139.0137],[25.797340203378468,62.789159551765664,128.6487],[25.79410219798001,62.780034263824604,132.7339],[25.794690926234296,62.770908975883515,98.0],[25.803816214175356,62.7670822422308,109.7014],[25.828542800854422,62.765610421595142,118.4169],[25.838256817049768,62.768259698739342,111.013],[25.842083550702483,62.777090622553288,98.0],[25.849737018007914,62.77885680731606,119.5654],[25.896540914221845,62.7670822422308,143.4313],[25.909198571688506,62.768259698739342,161.5402],[25.917735131375338,62.771497704137772,132.9819],[25.924211142172226,62.770908975883515,148.9301],[25.930098424714856,62.759723139052511,123.8453],[25.931275881223371,62.749714758730022,115.5474],[25.9286266040792,62.738234557771904,98.0],[25.922444957409425,62.729109269830815,98.0],[25.913908397722622,62.725576900305242,116.1812],[25.910376028197021,62.721161438398269,121.2911],[25.910081664069907,62.711741786330037,98.0],[25.908315479307106,62.702322134261834,98.0],[25.900073283747417,62.698201036482004,98.0],[25.888298718662156,62.700261585371919,98.0],[25.867398865635806,62.71026996569438,98.0],[25.855035572296288,62.712330514584323,131.3828],[25.868870686271464,62.705560139660292,125.2644],[25.868870686271464,62.698201036482004,98.0],[25.833841355142795,62.702616498388977,98.0],[25.81500205100636,62.722044530779669,98.0],[25.8041105783025,62.743238747933134,102.5978],[25.793807833852895,62.753247128255623,101.5127],[25.772613616699402,62.741766927297476,107.3721],[25.782621997021892,62.715568519982753,146.371],[25.814118958624988,62.670825172658738,98.0],[25.799400752268383,62.6528689609037,142.6866],[25.768492518919572,62.639916939309927,98.0],[25.735229372553704,62.631969107877353,98.0],[25.711385878256038,62.629319830733181,113.3115],[25.650452503939761,62.63932821105567,109.637],[25.618366814082407,62.640800031691327,147.8192],[25.588930401369254,62.629319830733181,147.847],[25.608652797887061,62.623138184063407,107.1893],[25.608652797887061,62.615484716758004,106.3847],[25.592462770894826,62.608125613579688,109.0268],[25.584220575335138,62.603121423418457,122.2725],[25.580688205809565,62.599294689765742,113.9233],[25.584220575335138,62.587814488807624,119.1226],[25.592462770894826,62.587814488807624,98.9771],[25.602471151217316,62.592818678968854,110.8627],[25.611890803285519,62.595762320240169,120.6332],[25.633968112820384,62.592818678968854,120.8324],[25.674884726491712,62.578689200866535,107.7657],[25.697550764280834,62.574568103086705,94.8422],[25.684893106814172,62.558378076094442,104.8764],[25.678122731890141,62.541599320847951,144.1767],[25.682832557924257,62.526292386237088,121.9434],[25.704321139204865,62.513046000516169,115.2611],[25.710502785874638,62.52393747322003,97.2941],[25.711091514128896,62.53482894592392,100.3801],[25.706676052221923,62.545131690373523,93.0],[25.697550764280834,62.554256978314612,106.5753],[25.746120845257565,62.548369695771981,173.0566],[25.787920551310265,62.533062761161119,126.7056],[25.863277767855976,62.485964500820046,110.5989],[25.855035572296288,62.478311033514643,128.3806],[25.859451034203261,62.477722305260357,120.3927],[25.861511583093176,62.477722305260357,122.4983],[25.862394675474576,62.476544848751843,130.6569],[25.863277767855976,62.47212938684487,146.3204],[25.803816214175356,62.455350631598378,135.9087],[25.786743094801722,62.444753523021632,147.5806],[25.850914474516429,62.417377659198365,145.8268],[25.863277767855976,62.417672023325508,155.88],[25.875641061195495,62.423559305868139,139.2407],[25.870342506907122,62.43121277317357,106.6274],[25.85768484944046,62.440043696987516,112.6734],[25.848853925626514,62.451818262072777,105.0],[25.886532533899356,62.451818262072777,145.8649],[25.89771837073036,62.450346441437119,191.3633],[25.902722560891618,62.446814071911547,157.2405],[25.905371838035791,62.442104245877431,146.9592],[25.943933538690032,62.410607284274363,98.3713],[25.922150593282311,62.392945436646443,131.266],[25.917735131375338,62.382642692196839,101.3617],[25.924211142172226,62.369690670603035,93.2869],[25.909787299942764,62.359093562026317,81.0],[25.912436577086964,62.345552812178255,114.4159],[25.924211142172226,62.332012062330193,80.0],[25.938340620274545,62.321414953753447,91.2662],[25.882411436119526,62.332600790584451,115.9209],[25.854152479914887,62.332012062330193,111.3206],[25.842083550702483,62.317882584227874,151.4866],[25.852975023406344,62.309640388668186,161.8987],[25.917146403121052,62.286679986751921,80.0],[25.874169240559837,62.254594296894567,154.3706],[25.826776616091649,62.241053547046505,110.0362],[25.724926628104072,62.239581726410847,117.702],[25.724926628104072,62.231928259105416,107.3689],[25.748475758274623,62.226335340689928,125.084],[25.766431970029657,62.218387509257383,89.9269],[25.760544687487027,62.206612944172093,84.0385],[25.754363040817253,62.203374938773663,93.0634],[25.687542383958373,62.204552395282178,206.2943],[25.683715650305658,62.200431297502348,182.2074],[25.68548183506843,62.191306009561259,168.1708],[25.692840938246718,62.182180721620171,184.9565],[25.712857698891696,62.175115982569025,162.5788],[25.721982986832757,62.168639971772109,177.1245],[25.729342090011045,62.161869596848078,140.1186],[25.73228573128236,62.157454134941105,157.9591],[25.703438046823464,62.130961363499267,76.5],[25.641915944252958,62.125662809210894,90.0],[25.575095287394049,62.127723358100809,90.0],[25.532412488959977,62.122719167939579,90.0],[25.522404108637488,62.142147200330271,90.0],[25.521521016256088,62.152449944779875,90.0],[25.526230842290204,62.163635781610878,100.0408],[25.513573184823542,62.161575232720963,107.7274],[25.490907147034392,62.153038673034132,114.8447],[25.47824948956773,62.150095031762817,114.8446],[25.467652380991012,62.17217234129771,158.1708],[25.446752527964662,62.168051243517851,138.9776],[25.436155419387916,62.153333037161275,128.7294],[25.45734963654138,62.143324656838786,107.4893],[25.455877815905723,62.112416423489975,155.338],[25.49002405465302,62.098286945387656,195.7315],[25.57774456453825,62.094754575862083,164.2157],[25.585398031843681,62.098286945387656,146.9252],[25.5977613251832,62.113005151744233,90.0],[25.605120428361488,62.116537521269805,90.0],[25.619838634718064,62.115654428888405,90.0],[25.629552650913411,62.113005151744233,90.0],[25.64956941155836,62.102408043167486,85.8392],[25.669880536330453,62.095343304116341,94.2376],[25.676945275381627,62.090633478082225,124.0868],[25.666936895059138,62.08857292919231,154.1726],[25.643093400761472,62.088867293319424,111.5092],[25.632201928057611,62.086806744429509,136.6831],[25.622193547735122,62.081213826014022,154.4477],[25.630730107421954,62.0662012555303,126.0],[25.643093400761472,62.0558985110807,189.7878],[25.66046088426225,62.049716864410925,175.45],[25.710208421747495,62.045301402503952,105.3884],[25.724337899849814,62.041474668851237,166.6297],[25.73228573128236,62.034115565672948,137.9746],[25.730519546519588,62.022929728841945,143.8072],[25.721099894451356,62.017042446299314,99.1087],[25.709325329366095,62.013510076773741,116.348],[25.6804776449072,62.000263691052794,97.9669],[25.655456694101019,61.999380598671422,76.5],[25.512395728315028,62.012921348519455,156.4625],[25.527408298798719,62.004384788832652,142.1381],[25.559493988656072,61.992610223747391,117.5261],[25.574506559139792,61.98495675644196,141.285],[25.559788352783215,61.9696498218311,76.5],[25.548013787697954,61.970238550085384,76.5],[25.53594485848555,61.976714560882272,76.5],[25.519166103239058,61.978775109772187,121.8621],[25.509452087043712,61.973476555483813,123.147],[25.503270440373939,61.964351267542753,146.1247],[25.497971886085566,61.953754158966007,142.1203],[25.491495875288678,61.94404014277066,135.8065],[25.499738070848366,61.93903595260943,128.1562],[25.508568994662312,61.93726976784663,170.3514],[25.517694282603372,61.93903595260943,164.8031],[25.526230842290204,61.94404014277066,106.0952],[25.532412488959977,61.937858496100887,134.9315],[25.517988646730515,61.929321936414084,185.6906],[25.502092983865396,61.925495202761368,191.5991],[25.48914096227162,61.919019191964452,136.8666],[25.485314228618904,61.903123529099361,76.5],[25.425263946684055,61.926967023397026,94.7246],[25.406130278420477,61.9304993929226,76.5],[25.293388817729067,61.937858496100887,158.8945],[25.307518295831386,61.925789566888483,147.6752],[25.321647773933705,61.920785376727252,151.1962],[25.355499648553831,61.916664278947422,104.5013],[25.376105137453067,61.910482632277649,104.5528],[25.382581148249955,61.904006621480761,115.7734],[25.374633316817409,61.8990024313195,102.6476],[25.277198790736804,61.889288415124156,93.993],[25.237459633574048,61.878396942420295,105.1971],[25.211555590386439,61.862206915428061,98.2718],[25.230689258650017,61.856908361139688,93.8529],[25.247468013896508,61.862501279555175,103.1197],[25.263069312634485,61.871626567496264,84.4299],[25.28014243200812,61.87633639353038,98.9035],[25.36874603427475,61.87633639353038,138.2858],[25.435272327006516,61.883695496708668,119.8427],[25.449990533363092,61.883106768454411,109.8025],[25.465003103846811,61.870743475114864,128.1031],[25.460882006066981,61.858380181775345,131.6708],[25.436744147642173,61.83541977985908,172.8677],[25.402597908894904,61.776546954432746,76.5],[25.386702246029785,61.772131492525773,76.5],[25.367568577766235,61.769776579508715,91.6391],[25.351672914901116,61.763006204584684,76.5],[25.338132165053054,61.760356927440483,76.5],[25.288384627567808,61.762417476330427,92.5797],[25.273077692956974,61.766538574110257,84.4936],[25.271605872321317,61.771542764271487,76.5],[25.273960785338375,61.788027155390864,76.5],[25.273077692956974,61.793031345552095,76.5],[25.266307318032943,61.797446807459096,76.5],[25.245701829133736,61.807455187781557,106.4782],[25.238637090082563,61.800684812857526,76.5],[25.228334345632959,61.803922818255984,76.5],[25.170050248460882,61.807455187781557,85.7863],[25.170050248460882,61.800684812857526,111.8249],[25.19507119926709,61.790087704280779,125.6781],[25.233632899921332,61.762123112203284,115.2817],[25.251883475803481,61.752114731880795,108.125],[25.243346916116678,61.731803607108731,97.2794],[25.238637090082563,61.725621960438957,80.2076],[25.250706019294967,61.719145949642069,106.145],[25.258948214854655,61.724444503930442,93.0329],[25.268367866922858,61.7335697918715,76.5],[25.283380437406578,61.738573982032761,123.8297],[25.323413958696477,61.734747248380046,76.5],[25.361681295223605,61.725621960438957,122.5505],[25.361681295223605,61.717968493133526,76.5],[25.344313811722827,61.710609389955238,114.5926],[25.344902539977085,61.702661558522692,113.107],[25.357560197443746,61.695596819471518,117.1125],[25.376105137453067,61.690886993437431,89.4075],[25.376105137453067,61.683233526132,76.5],[25.367862941893378,61.6823504337506,76.5],[25.348140545375543,61.677051879462226,121.5421],[25.423497761921254,61.677051879462226,85.0658],[25.435272327006516,61.672930781682396,80.6309],[25.445869435583262,61.662628037232793,101.3399],[25.455289087651465,61.6508534721475,98.4211],[25.464708739719697,61.6423169124607,119.2252],[25.434094870498,61.613174863874661,76.5],[25.426735767319713,61.608759401967689,88.1404],[25.397888082860788,61.60463830418783,76.5],[25.380814963487154,61.600222842280857,76.5],[25.368451670147635,61.595218652119627,97.85],[25.379343142851496,61.591391918466911,121.718],[25.3914120720639,61.589037005449853,133.169],[25.403481001276305,61.588153913068453,98.9672],[25.416138658742966,61.589037005449853,76.5],[25.406130278420477,61.572258250203362,76.5],[25.3914120720639,61.561955505753758,91.5338],[25.374044588563123,61.558128772101043,87.7296],[25.355499648553831,61.561072413372358,76.5],[25.3104619371027,61.582855358780108,76.5],[25.286618442805036,61.588448277195596,76.5],[25.25924257898177,61.582266630525822,120.0359],[25.25924257898177,61.57461316322042,141.8842],[25.268367866922858,61.573141342584762,115.4674],[25.271605872321317,61.571080793694819,136.3707],[25.273960785338375,61.567254060042131,126.5643],[25.279848067881005,61.561072413372358,95.2221],[25.253649660566282,61.541350016854523,111.8011],[25.24010891071822,61.538406375583207,76.5],[25.179469900529085,61.545765478761496,86.9],[25.160924960519793,61.545765478761496,79.3453],[25.1432631128919,61.539878196218865,98.1726],[25.157686955121363,61.526926174625089,98.5838],[25.175054438622112,61.515740337794085,108.3795],[25.19330501450429,61.5083812346158,102.3784],[25.211555590386439,61.505731957471596,114.4325],[25.211555590386439,61.498961582547565,76.5],[25.193893742758547,61.493368664132078,84.151],[25.17740935163917,61.4854208326995,129.2471],[25.193010650377147,61.485715196826646,123.5305],[25.212144318640725,61.483654647936731,154.1481],[25.224507611980243,61.477178637139815,140.6659],[25.217737237056213,61.464815343800296,76.5],[25.204785215462408,61.461577338401838,76.5],[25.149444759561675,61.464815343800296,116.5629],[25.149444759561675,61.458044968876266,124.4255],[25.273077692956974,61.416245262823566,158.5017],[25.307518295831386,61.399172143449931,106.6333],[25.295155002491839,61.395934138051473,109.5647],[25.261597491998828,61.395934138051473,102.1744],[25.231866715158532,61.38916376312747,140.4958],[25.268367866922858,61.380627203440639,89.8286],[25.279848067881005,61.375623013279409,78.8587],[25.259536943108913,61.371207551372436,79.5425],[25.238637090082563,61.369147002482492,91.2717],[25.261303127871713,61.3506020624732,80.9057],[25.297215551381754,61.346775328820485,114.9235],[25.321059045679419,61.338533133260825,107.8136],[25.3069295675771,61.307330535784843,118.2384],[25.334894159654624,61.313217818327473,95.2493],[25.360798202842204,61.327936024684078,76.5],[25.38552478952127,61.337650040879424,110.7957],[25.409368283818935,61.328230388811193,109.5622],[25.397004990479388,61.3088023564205,82.2603],[25.38464169713987,61.284075769741463,76.5],[25.381698055868554,61.2593491830624,107.7488],[25.395238805716616,61.239038058290305,102.5865],[25.408190827310392,61.236388781146132,128.2227],[25.429090680336742,61.236683145273247,102.5808],[25.448518712727434,61.240804243053105,76.5],[25.45734963654138,61.249046438612794,76.5],[25.453522902888693,61.258466090681,83.0769],[25.436744147642173,61.269651927512,89.4875],[25.4305625009724,61.279954671961605,76.5],[25.457644000668523,61.289668688156951,129.2251],[25.470596022262328,61.291729237046866,95.9677],[25.485314228618904,61.287313775139893,76.5],[25.482959315601846,61.273773025291831,82.203],[25.491201511161535,61.269063199257744,89.1751],[25.503859168628196,61.267297014494943,101.8365],[25.5159280978406,61.262587188460827,76.5],[25.518871739111916,61.253461900519767,76.5],[25.512984456569285,61.244630976705821,130.7798],[25.498854978466966,61.23197331923916,94.8076],[25.49002405465302,61.209601645577152,87.9171],[25.492084603542935,61.193411618584889,119.0377],[25.506214081645254,61.183108874135286,141.1416],[25.532412488959977,61.1775159557198,95.2012],[25.532412488959977,61.169862488414367,80.5],[25.485314228618904,61.168685031905824,80.5],[25.435272327006516,61.160442836346164,102.7478],[25.394944441589473,61.139837347446928,115.7102],[25.376105137453067,61.101275646792686,92.4926],[25.382581148249955,61.101275646792686,91.8507],[25.396121898098016,61.100392554411286,89.8623],[25.402597908894904,61.101275646792686,85.1876],[25.38052059936004,61.09156163059734,82.7871],[25.31782104028099,61.083025070910509,86.0472],[25.3069295675771,61.067718136299675,136.4477],[25.327240692349193,61.058592848358586,149.833],[25.366979849511978,61.06477449502836,94.513],[25.40554155016622,61.066246315664017,100.2507],[25.423203397794111,61.043285913747752,89.2085],[25.429679408591028,61.040047908349294,103.9949],[25.444103250820461,61.040047908349294,130.8545],[25.458232728922781,61.04564082676481,84.4445],[25.464708739719697,61.060064668994244,80.5],[25.458821457177066,61.068012500426818,80.5],[25.446752527964662,61.075077239477963,80.5],[25.437627240023573,61.082436342656251,80.5],[25.440276517167746,61.0912672664702,80.5],[25.467063652736726,61.099803826157029,87.5876],[25.49502824481425,61.088617989326025,156.8157],[25.522404108637488,61.070956141698133,99.7607],[25.546541967062296,61.060064668994244,97.89],[25.539771592138266,61.050056288671783,87.0798],[25.532118124832834,61.041814093112094,92.4197],[25.512395728315028,61.026507158501232,88.4221],[25.522404108637488,61.020031147704344,93.9065],[25.533295581341378,61.015615685797371,157.7605],[25.544775782299496,61.013260772780313,186.5739],[25.557139075639043,61.012377680398913,153.2536],[25.568913640724304,61.009139675000483,164.6384],[25.583926211208023,60.995010196898164,161.3153],[25.591874042640569,60.991772191499706,128.7819],[25.614834444556834,60.990889099118306,84.8105],[25.62366536837078,60.992949648008221,80.5],[25.629258286786296,60.999425658805137,80.5],[25.630730107421954,61.010317131509,80.5],[25.626903373769238,61.018853691195829,80.5],[25.619249906463807,61.024446609611317,80.5],[25.608652797887061,61.026507158501232,80.5],[25.617483721701035,61.047407011527582,86.8883],[25.622193547735122,61.0538830223245,105.7811],[25.613951352175434,61.0633026743927,80.5],[25.607475341378546,61.083025070910509,83.8318],[25.601293694708772,61.088029261071767,100.7857],[25.592462770894826,61.087734896944625,102.5795],[25.586281124225053,61.082436342656251,109.3347],[25.582160026445223,61.073016690588048,80.5],[25.580688205809565,61.060064668994244,80.5],[25.574506559139792,61.060064668994244,87.9029],[25.565675635325846,61.074488511223706,80.5],[25.544187054045238,61.090384174088825,80.5],[25.498854978466966,61.114816396640748,85.2322],[25.538005407375465,61.136010613794213,89.7187],[25.550074336587869,61.1460189941167,80.5],[25.552134885477784,61.151611912532189,80.5],[25.552134885477784,61.166035754761651,103.4528],[25.553312341986327,61.169862488414367,95.0846],[25.684893106814172,61.186641243660858,76.5],[25.724926628104072,61.21107346621281,76.5],[25.696962036026576,61.219610025899613,90.0803],[25.658105971245192,61.222848031298071,76.5],[25.62366536837078,61.231384590984874,76.5],[25.608652797887061,61.256111177663939,76.5],[25.609535890268461,61.266119557986428,90.7168],[25.613362623921176,61.275539210054632,80.0341],[25.62366536837078,61.28289831323292,86.4173],[25.643387764888615,61.287313775139893,97.6031],[25.66458198204208,61.286136318631378,100.9142],[25.784976910038949,61.249929530994166,76.5],[25.794396562107153,61.242276063688763,82.3432],[25.760250323359884,61.2157832922469,87.3513],[25.762605236376942,61.21107346621281,76.5],[25.770553067809487,61.212250922721324,76.5],[25.794396562107153,61.2184325693911,85.1053],[25.805582398938157,61.2166663846283,104.5794],[25.809997860845129,61.213722743356982,111.5745],[25.813530230370702,61.209601645577152,76.5],[25.840611730066826,61.188407428423659,96.5793],[25.848853925626514,61.183697602389543,90.521],[25.853269387533487,61.183991966516686,97.886],[25.859451034203261,61.186346879533744,92.8009],[25.867104501508692,61.187229971915144,102.2981],[25.876229789449752,61.183697602389543,84.8556],[25.846499012609456,61.156616102693448,85.02],[25.834724447524195,61.149551363642274,122.1409],[25.845321556100942,61.139542983319814,76.5],[25.857390485313346,61.141897896336843,104.2192],[25.870342506907122,61.151317548405075,121.0821],[25.883000164373783,61.163092113490336,135.7683],[25.910376028197021,61.203419998907378,98.8265],[25.917146403121052,61.21107346621281,76.5],[25.935985707257487,61.202831270653121,76.5],[25.953941919012522,61.181342689372485,78.4252],[25.9704263101319,61.172806129685682,76.5],[25.985438880615618,61.204303091288779,76.5],[26.035775146355121,61.17839904810117,100.4377],[26.050198988584583,61.166624483015909,125.1274],[26.058441184144272,61.161620292854678,113.9783],[26.080224129551993,61.15426118967639,94.6931],[26.087877596857425,61.149551363642274,120.8129],[26.090526874001625,61.143664081099644,92.4815],[26.09258742289154,61.127768418234524,100.2745],[26.094647971781455,61.122175499819036,106.6855],[26.130560395291525,61.104808016318259,76.5],[26.153226433080647,61.096860184885713,102.115],[26.163529177530279,61.097743277267114,98.2459],[26.159113715623306,61.079198337257822,98.7936],[26.147927878792302,61.061242125502787,91.1504],[26.094647971781455,61.005607305474882,97.8627],[26.081695950187651,60.998542566423737,73.5],[26.02311748888846,60.9779370775245,88.9671],[26.00898801078614,60.964396327676468,94.6756],[26.015758385710171,60.947911936557091,80.7819],[26.032831505083806,60.942613382268718,80.6736],[26.040779336516351,60.957331588625294,79.8158],[26.047255347313268,60.976759621015987,89.2565],[26.060501733034187,60.985590544829932,77.1799],[26.07080447748379,60.9779370775245,85.9235],[26.080812857806279,60.943496474650118,85.1239],[26.087877596857425,60.930544453056314,113.1821],[26.101712710832629,60.94614575179429,111.4999],[26.120552014969036,60.977053985143129,89.6748],[26.129677302910125,60.991772191499706,105.2876],[26.144101145139587,61.0085509467462,100.8936],[26.204445791201579,61.040342272476437,73.5],[26.193848682624832,61.044463370256267,102.5448],[26.183251574048086,61.044169006129152,81.6834],[26.172948829598482,61.040047908349294,80.4606],[26.163529177530279,61.032688805171006,94.8271],[26.160879900386078,61.045935190891925,77.3518],[26.16941646007291,61.057709755977186,73.5],[26.21121616612561,61.088617989326025,96.9946],[26.230349834389159,61.0912672664702,76.5],[26.273326996950374,61.088029261071767,92.6287],[26.2262287366093,61.106279836953917,98.2517],[26.210627437871324,61.120114950929121,109.836],[26.21798654104964,61.1365993420485,100.0619],[26.206506340091494,61.141897896336843,98.7235],[26.195614867387633,61.140131711574071,119.939],[26.185606487065144,61.1330669725229,100.532],[26.177364291505455,61.122175499819036,118.0599],[26.168827731818652,61.140131711574071,94.5492],[26.167355911182995,61.14925699951516,112.3206],[26.174126286106997,61.156616102693448,94.3793],[26.190905041353517,61.169862488414367,99.1572],[26.19620359564189,61.166035754761651,97.3624],[26.206506340091494,61.160442836346164,80.5949],[26.21121616612561,61.155733010312048,94.9355],[26.210627437871324,61.17427795032134,76.5],[26.184723394683743,61.208129824941494,76.5],[26.190905041353517,61.224614216060843,76.5],[26.190905041353517,61.23197331923916,76.5],[26.17029955245431,61.231678955112017,76.5],[26.144101145139587,61.234916960510475,76.5],[26.120552014969036,61.241687335434477,76.5],[26.108188721629517,61.252578808138367,94.7111],[26.129677302910125,61.25876045480814,108.5041],[26.138213862596956,61.26288155258797,99.0867],[26.1461616940295,61.269357563384858,112.5746],[26.160291172131821,61.285547590377121,108.9913],[26.169122095945767,61.289079959902693,99.9733],[26.184134666429486,61.287313775139893,85.4622],[26.182074117539571,61.282603949105805,88.6582],[26.179130476268256,61.2705350198934,90.9028],[26.177364291505455,61.265530829732143,106.9982],[26.192082497862032,61.268180106876343,100.8848],[26.207978160727151,61.275539210054632,91.9464],[26.220635818193813,61.27877721545309,95.6459],[26.225640008355043,61.269357563384858,101.3409],[26.223873823592271,61.243159156070163,94.0988],[26.229172377880644,61.230207134476359,106.0522],[26.245656768999989,61.224614216060843,122.0024],[26.255959513449625,61.229029677967816,85.5],[26.266850986153486,61.239038058290305,96.7022],[26.275681909967432,61.250518259248452,99.1737],[26.280391736001548,61.2593491830624,91.5867],[26.276859366475975,61.25787736242674,99.2228],[26.271855176314716,61.264059009096485,103.0487],[26.267734078534886,61.273184297037574,109.7675],[26.265967893772086,61.279954671961605,111.0895],[26.269205899170544,61.27966030783449,101.1712],[26.286573382671321,61.300854524987955,94.3794],[26.277153730603089,61.29967706847944,84.9838],[26.260669339483712,61.294672878318181,104.2105],[26.25301587217831,61.293495421809666,83.0],[26.246539861381393,61.295850334826724,100.0888],[26.245362404872878,61.30556435102207,83.0],[26.23888639407599,61.307330535784843,83.0],[26.224756915973643,61.30291507387787,108.8815],[26.212982350888382,61.297322155462382,93.7246],[26.202385242311664,61.296439063080982,97.9073],[26.190905041353517,61.307330535784843,76.5],[26.215631628032583,61.328230388811193,110.3265],[26.225640008355043,61.334412035480966,120.8713],[26.271266448060459,61.344126051676312,121.6982],[26.283335377272863,61.3514851548546,129.6346],[26.291283208705408,61.361787899304204,126.7227],[26.30305777379067,61.38239338820344,122.4342],[26.311005605223244,61.3924017685259,94.5],[26.347801121114685,61.421249452984796,94.5],[26.356043316674374,61.430669105053028,100.8983],[26.327784360469735,61.428019827908827,128.1953],[26.30482395855347,61.414184713933651,144.7885]]]}
,"properties": {"featurecla": "Lake","scalerank": 3,"name": "Pijnne","name_abb": "Pijnne","name_alt": null,"note": null,"delta": null,"dam_name": null,"year": -99,"admin": null,"min_zoom": 3.0,"min_label": 4.0,"area_km2": 4189.488,"hist_schema_id": "Elevation0-9000","hist_area_km2": {"75": 1474.752,"100": 1834.508,"125": 640.025,"150": 173.462,"175": 54.732,"200": 11.059,"225": 0.95}}}