{"type":"Feature","properties":{"featurecla":"Lake","scalerank":5,"name":"Pyhjrvi","name_abb":"Pyhjrvi","name_alt":null,"note":null,"delta":null,"dam_name":null,"year":-99,"admin":null,"min_zoom":4.7,"min_label":6.0},
"geometry":{"type": "Polygon","coordinates": [[[23.541333533041353,61.453629506969293,76.0],[23.565765755593276,61.466875892690211,76.0],[23.590492342272341,61.472174446978585,76.0],[23.682039585810287,61.473940631741385,79.8885],[23.710004177887811,61.479239186029758,76.0],[23.731787123295561,61.491308115242134,84.2639],[23.747682786160652,61.507203778107254,95.0],[23.766227726169944,61.521038892082458,95.0],[23.79595850301024,61.526926174625089,95.0],[23.811559801748217,61.535168370184778,95.0],[23.806261247459872,61.554007674321184,95.0],[23.791543041103267,61.574907527347534,95.0],[23.778885383636606,61.589037005449853,95.0],[23.801551421425756,61.601694662916515,95.0],[23.813620350638161,61.606698853077773,95.0],[23.826572372231936,61.608759401967689,95.0],[23.819213269053648,61.620239602925807,95.0],[23.806555611586987,61.620828331180093,100.0322],[23.793014861738925,61.614941048637462,112.261],[23.782123389035064,61.605227032442116,118.555],[23.773292465221118,61.601105934662257,95.0],[23.76505026966143,61.605815760696373,95.0],[23.750920791559111,61.622594515942865,95.0],[23.789188128086209,61.631719803883954,95.0],[23.893393029090845,61.638490178807984,94.5],[23.936664555779203,61.656740754690134,116.4557],[23.914587246244309,61.6508534721475,124.3136],[23.868960806538894,61.651442200401789,124.1462],[23.82863292112188,61.6405507276979,114.6975],[23.802140149680014,61.636723994045184,105.8692],[23.776236106492433,61.635840901663784,95.0],[23.760929171881571,61.639373271189385,95.0],[23.752686976321883,61.644083097223472,95.0],[23.731492759168418,61.6508534721475,95.0],[23.723544927735873,61.656740754690134,95.0],[23.7182463734475,61.666749135012623,95.0],[23.724722384244387,61.667043499139766,95.0],[23.735613856948248,61.663805493741307,95.0],[23.744739144889337,61.663511129614164,95.0],[23.758574258864542,61.672047689300996,95.0],[23.768877003314145,61.682056069623457,95.0],[23.772115008712575,61.69324190645446,95.0],[23.764461541407172,61.70501647153975,95.0],[23.771231916331203,61.712081210590895,95.0],[23.778885383636606,61.717968493133526,95.0],[23.774469921729633,61.719734677896327,95.0],[23.764461541407172,61.725621960438957,95.0],[23.819213269053648,61.725621960438957,98.1815],[23.819213269053648,61.732392335362988,103.2791],[23.804200698569929,61.736513433142818,95.0],[23.772998101093975,61.740340166795534,108.0432],[23.757691166483141,61.74593308521105,95.0],[23.74915460679631,61.754469644897853,112.004],[23.745327873143594,61.7633005687118,95.0],[23.740912411236621,61.770365307762972,95.0],[23.730609666787018,61.773308949034288,115.6612],[23.744444780762223,61.7780187750684,139.8275],[23.758574258864542,61.78773279126375,98.3493],[23.782123389035064,61.811281921434272,95.0],[23.796841595391641,61.820995937629618,95.0],[23.837169480808683,61.829238133189307,95.0],[23.85453696430946,61.83541977985908,95.0],[23.881029735751298,61.851609806851314,95.0],[23.888094474802472,61.852198535105572,107.8676],[23.898985947506333,61.848077437325742,129.3435],[23.906639414811764,61.848960529707114,95.0],[23.912821061481537,61.853081627486972,102.9276],[23.919297072278425,61.8589689100296,112.4476],[23.936664555779203,61.868388562097806,139.4247],[23.951677126262894,61.871920931623407,95.0],[23.963451691348183,61.878396942420295,95.0],[23.970810794526471,61.896941882429587,95.0],[23.964040419602441,61.900179887828045,95.0],[23.957564408805524,61.90224043671796,95.0],[23.950499669754379,61.903123529099361,95.0],[23.943434930703205,61.903123529099361,102.0496],[23.959624957695468,61.904300985607875,95.0],[23.98817827802722,61.913720637676079,95.0],[24.00495703327374,61.916664278947422,119.096],[24.080608613946566,61.909893904023392,95.0],[24.044401826309382,61.92225719736291,95.0],[24.028506163444263,61.931088121176856,95.0],[24.019086511376059,61.94404014277066,109.3341],[24.107984477769833,61.958463985000094,95.0],[24.180692417171343,61.954048523093121,124.4623],[24.19717680829072,61.958463985000094,118.6392],[24.186579699713974,61.961996354525695,95.0],[24.181575509552744,61.96817800119544,95.0],[24.179514960662829,61.974654011992357,95.0],[24.176865683518628,61.978775109772187,123.9036],[24.167151667323282,61.9817187510435,106.0443],[24.160381292399251,61.981424386916387,95.0],[24.154199645729506,61.979658202153587,95.0],[24.145663086042674,61.978775109772187,95.0],[24.125940689524839,61.979363838026444,95.0],[24.105335200625632,61.982307479297759,95.0],[24.092383179031856,61.990844038984591,111.2253],[24.094149363794628,62.00673970184971,108.3151],[24.078842429183794,62.007328430103968,151.5028],[24.067950956479905,62.015570625663656,123.5098],[24.065007315208589,62.02763955487606,152.5143],[24.072955146641164,62.040297212342722,108.3742],[24.088262081251997,62.040591576469836,95.0],[24.172155857484512,62.015276261536513,168.4439],[24.235738508944962,62.0114495278838,113.1442],[24.253694720699997,62.006445337722568,127.5898],[24.268707291183716,61.997908778035736,131.3364],[24.278421307379062,61.98495675644196,167.3131],[24.29578879087984,61.995848229145821,121.6414],[24.310506997236416,62.002029875815595,126.9087],[24.32669702422865,62.002912968196995,102.8588],[24.348185605509258,61.999380598671422,101.8694],[24.3902796756891,61.984662392314817,135.7791],[24.412945713478223,61.980246930407844,137.5503],[24.430607561106143,61.98495675644196,104.4159],[24.422954093800712,61.991138403111734,122.3063],[24.41441753411388,61.995553865018707,111.5964],[24.405586610299935,61.998203142162879,108.3689],[24.395872594104588,61.999380598671422,111.437],[24.430901925233258,62.009388978993883,95.0],[24.480355098591389,62.0123326202652,95.0],[24.528630815440977,62.008505886612483,106.7577],[24.560422141171188,61.999380598671422,128.007],[24.547470119577412,61.993787680255906,140.7901],[24.541582837034781,61.992021495493105,116.2965],[24.532457549093692,61.992315859620248,116.5641],[24.532457549093692,61.98495675644196,110.5],[24.573374162764992,61.98495675644196,109.6509],[24.582793814833195,61.9826018434249,105.5205],[24.586031820231653,61.976714560882272,113.8371],[24.588092369121568,61.969944185958241,112.7514],[24.594568379918485,61.96493999579701,121.8458],[24.6366624500983,61.957286528491579,120.0081],[24.649614471692104,61.951399245948949,113.1801],[24.711136574262611,61.897530610683845,144.9676],[24.731742063161818,61.889288415124156,141.4716],[24.739101166340134,61.894881333539672,142.9789],[24.738218073958734,61.906655898624933,130.7914],[24.729681514271903,61.918724827837337,114.4462],[24.714080215533926,61.924023382125711,119.9825],[24.699950737431607,61.925495202761368,116.1976],[24.690531085363403,61.9304993929226,127.09],[24.685526895202145,61.9399190449908,121.1789],[24.683760710439373,61.954931615474521,99.0],[24.670808688845568,61.974654011992357,99.0],[24.640489183751015,61.98907785422179,103.4775],[24.580144537689023,62.00673970184971,121.4826],[24.592507831028541,62.01086079962954,121.7406],[24.616940053580464,62.014393169155113,126.3834],[24.628714618665754,62.019691723443486,119.2471],[24.635190629462642,62.027050826621775,108.4375],[24.649614471692104,62.053837962190755,105.0],[24.640194819623872,62.075915271725648,105.0],[24.649320107564961,62.086512380302395,105.0],[24.668159411701396,62.09357711935354,105.0],[24.686998715837802,62.105646048565944,109.1617],[24.697007096160291,62.107412233328745,122.7266],[24.725560416492073,62.101524950786086,119.2634],[24.731742063161818,62.105646048565944,117.9938],[24.727620965381988,62.115948793015548,107.3669],[24.7176125850595,62.119186798414006,118.4306],[24.704954927592837,62.120952983176778,105.0],[24.693769090761833,62.126251537465151,105.0],[24.68434943869363,62.15539358605119,105.0],[24.715257672042469,62.175115982569025,105.0],[24.757057378095141,62.193660922578317,105.0],[24.780017780011434,62.218387509257383,142.7625],[24.738512438085849,62.218387509257383,131.426],[24.742927899992821,62.208379128934894,140.3139],[24.745282813009879,62.204552395282178,138.6519],[24.723499867602129,62.201903118138006,150.8625],[24.702305650448665,62.191011645434116,105.0],[24.681994525676572,62.183652542255828,105.0],[24.662860857413023,62.191011645434116,109.6959],[24.65844539550605,62.206907308299236,105.0],[24.669336868209911,62.222802971164356,115.4934],[24.685526895202145,62.23810990577519,118.7358],[24.697595824414549,62.252533748004652,105.0],[24.690236721236261,62.25989285118294,105.0],[24.697890188541692,62.27578851404806,115.1631],[24.690531085363403,62.277554698810832,105.0],[24.662860857413023,62.266663226106971,105.0],[24.629892075174268,62.261070307691455,138.8285],[24.594568379918485,62.25989285118294,141.6736],[24.601044390715373,62.249884470860451,140.3338],[24.610169678656462,62.245469008953478,131.0],[24.61841187421615,62.24075918291939,166.5033],[24.621944243741723,62.2289846178341,130.2006],[24.621061151360323,62.219270601638755,115.0403],[24.614879504690549,62.191011645434116,116.7723],[24.608109129766518,62.19719329210389,131.4981],[24.587503640867311,62.211617134333352,170.331],[24.5939796516642,62.1889510965442,131.0364],[24.594568379918485,62.184241270510086,126.3797],[24.590152918011484,62.181003265111656,113.6624],[24.57661216816345,62.174821618441882,133.1641],[24.573962891019249,62.170700520662052,141.8258],[24.58073326594328,62.151566852398474,128.7942],[24.594274015791342,62.140969743821728,117.2204],[24.611641499292119,62.133316276516325,111.3333],[24.628714618665754,62.122719167939579,107.0602],[24.60075002658823,62.094754575862083,115.0112],[24.608109129766518,62.08857292919231,105.0],[24.60075002658823,62.081213826014022,105.0],[24.608109129766518,62.075032179344248,105.0],[24.587503640867311,62.067967440293074,115.9776],[24.573079798637849,62.078564548869821,140.5978],[24.560127777044073,62.0941658476078,119.9641],[24.534223733856464,62.105940412693059,124.1522],[24.505081685270454,62.12948954286361,107.1898],[24.493307120185165,62.133021912389182,105.0],[24.457394696675124,62.135671189533383,105.0],[24.448269408734035,62.13949792318607,105.0],[24.437672300157288,62.145679569855844,105.0],[24.427663919834828,62.149211939381416,105.0],[24.411473892842565,62.143030292711671,115.509],[24.401465512520105,62.144502113347329,141.8348],[24.391751496324758,62.148623211127159,163.1638],[24.384981121400727,62.153921765415532,118.2115],[24.364081268374377,62.165990694627936,105.0],[24.332584306771281,62.175115982569025,139.1053],[24.30079298104107,62.179237080348855,131.2581],[24.278421307379062,62.17805962384034,124.0],[24.301970437549585,62.162163960975221,130.7402],[24.3885134909263,62.12948954286361,145.722],[24.368791094408493,62.118598070159749,129.6671],[24.361137627103062,62.116537521269805,107.8114],[24.391457132197615,62.103879863803144,104.0],[24.411768256969708,62.100053130150428,125.5132],[24.417655539512339,62.095343304116341,141.2202],[24.422365365546455,62.090633478082225,117.3441],[24.426486463326285,62.08857292919231,113.8892],[24.445031403335577,62.092988391099283,120.8903],[24.459160881437896,62.101819314913229,117.5754],[24.475056544303015,62.109178418091517,105.0],[24.498311310346423,62.109178418091517,124.1763],[24.529808271949491,62.091222206336482,179.2153],[24.565131967205303,62.037647935198521,111.8026],[24.594568379918485,62.026462098367517,109.5535],[24.573079798637849,62.019102995189229,105.813],[24.474173451921615,62.019102995189229,108.3463],[24.456511604293723,62.021163544079144,97.0],[24.416183718876681,62.034115565672948,124.3133],[24.392340224579016,62.036764842817121,106.6921],[24.363198175992977,62.0217522723334,95.0],[24.340532138203827,62.019691723443486,105.4014],[24.337882861059654,62.023224092969087,108.2002],[24.334644855661196,62.030288832020233,104.7303],[24.330523757881366,62.037059206944264,95.0],[24.323753382957335,62.040297212342722,110.369],[24.299615524532527,62.040002848215579,95.0],[24.288724051828666,62.042063397105494,95.0],[24.278421307379062,62.04765631552101,120.743],[24.300498616913927,62.060313972987672,116.1391],[24.309035176600759,62.06855616854736,104.0],[24.312567546126331,62.077975820615563,106.8955],[24.318749192796105,62.087984200938052,119.5863],[24.332289942644167,62.092105298717883,104.0],[24.347302513127858,62.09446021173494,104.0],[24.35760525757749,62.098581309514771,120.7046],[24.353484159797631,62.105057320311687,104.0],[24.318749192796105,62.119186798414006,104.0],[24.306385899456558,62.122719167939579,139.5161],[24.291373328972838,62.123013532066722,150.6503],[24.277243850870519,62.120658619049664,116.5944],[24.272828388963546,62.115654428888405,161.0888],[24.286074774684494,62.109178418091517,144.4425],[24.257815818479827,62.062374521877587,122.0112],[24.237504693707763,62.042357761232637,95.0],[24.214249927664355,62.034115565672948,103.4677],[24.199237357180635,62.037059206944264,95.0],[24.167151667323282,62.05089432091944,95.0],[24.149195455568247,62.053837962190755,102.2155],[24.115932309202378,62.0558985110807,95.0],[24.101802831100059,62.060313972987672,126.7294],[24.087378988870597,62.068261804420217,144.3956],[24.087378988870597,62.075032179344248,125.4849],[24.104157744117117,62.080330733632621,95.0],[24.128295602541897,62.09357711935354,113.7343],[24.150961640331047,62.10947278221866,104.822],[24.163030569543452,62.122719167939579,127.5834],[24.140953260008558,62.121247347303921,143.9516],[24.116521037456636,62.116537521269805,95.0],[24.095032456176028,62.116537521269805,104.6705],[24.080608613946566,62.12948954286361,107.0579],[24.106807021261289,62.136554281914755,95.0],[24.167446031450424,62.140381015567471,119.6075],[24.190406433366689,62.150095031762817,131.8224],[24.203652819087608,62.169228700026395,144.1591],[24.185990971459717,62.17128924891631,136.7545],[24.135360341593071,62.157454134941105,113.9466],[24.115932309202378,62.1480344828729,105.046],[24.106807021261289,62.144502113347329,105.7658],[24.094149363794628,62.143324656838786,164.0654],[24.077076244420994,62.1480344828729,113.2113],[24.069717141242705,62.147445754618644,95.0],[24.065596043462847,62.134788097151983,95.0],[24.062358038064417,62.131550091753525,95.0],[24.058236940284559,62.130078271117867,95.0],[24.053232750123328,62.12948954286361,95.0],[24.034393445986893,62.1350824612791,95.0],[24.019086511376059,62.1480344828729,95.0],[24.007017582163655,62.163635781610878,127.1274],[23.998775386603967,62.17805962384034,155.9168],[23.987883913900106,62.172761069551967,160.0805],[23.983468451993133,62.164518873992279,140.9733],[23.981407903103189,62.155982314305447,150.3511],[23.977581169450502,62.150095031762817,124.9611],[23.964040419602441,62.143030292711671,95.0],[23.954620767534209,62.141264107948871,95.0],[23.950205305627236,62.146562662237244,102.0194],[23.948144756737321,62.153921765415532,110.9954],[23.938725104669118,62.164224509865136,109.6431],[23.936664555779203,62.174232890187625,110.3268],[23.938725104669118,62.182180721620171,96.6898],[23.944023658957491,62.190422917179859,95.0],[23.956975680551267,62.204552395282178,95.5],[23.975520620560559,62.195132743213975,140.3427],[23.992888104061336,62.200136933375205,170.5388],[24.007606310417913,62.213972047350381,106.5332],[24.019086511376059,62.231928259105416,95.5],[23.9740487999249,62.241053547046505,119.0425],[23.95815313705981,62.238404269902333,101.5587],[23.950205305627236,62.218387509257383,123.122],[23.929011088473771,62.224274791800013,133.9494],[23.909877420210194,62.224569155927128,129.5656],[23.904284501794706,62.2186818733845,153.9188],[23.922829441803998,62.204552395282178,131.5212],[23.907522507193164,62.19218910194266,124.8106],[23.905167594176106,62.179531444476,122.5431],[23.911937969100137,62.167756879390737,126.0],[23.922829441803998,62.157454134941105,116.7532],[23.908994327828822,62.144796477474443,125.6217],[23.892804300836559,62.135671189533383,97.29],[23.87455372495441,62.133021912389182,99.6568],[23.830987834138909,62.145973933982987,104.7237],[23.813914714765275,62.144796477474443,108.4714],[23.803023242061414,62.1480344828729,95.0],[23.799490872535841,62.167168151136451,95.0],[23.795664138883126,62.17541034669614,131.2007],[23.786538850942037,62.180120172730255,155.8485],[23.775353014111033,62.181003265111656,152.0],[23.764461541407172,62.17805962384034,159.6955],[23.7591629871188,62.170994884789167,145.4121],[23.756513709974598,62.161280868593821,135.0881],[23.756219345847484,62.152744308907018,95.0],[23.757691166483141,62.150095031762817,95.0],[23.739146226473849,62.143324656838786,108.1152],[23.717068916938956,62.144207749220186,144.9857],[23.696169063912606,62.151566852398474,95.0],[23.68321704231883,62.163635781610878,107.5401],[23.696757792166892,62.169228700026395,110.7594],[23.699407069311064,62.175115982569025,99.987],[23.694108515022691,62.18129762923877,123.9162],[23.682922678191687,62.187479275908544,118.1242],[23.671736841360683,62.197782020358147,112.1203],[23.672619933742084,62.208084764807751,95.0],[23.68233394993743,62.216032596240325,113.1584],[23.697052156294006,62.218387509257383,97.4255],[23.710004177887811,62.225746612435671,105.3887],[23.684688862954488,62.234577536249617,148.1573],[23.665260830563795,62.231339530851159,126.2753],[23.62140057562118,62.211617134333352,134.5064],[23.634352597214956,62.193955286705432,182.7981],[23.649953895952933,62.177470895586055,161.4307],[23.658490455639765,62.162752689229478,141.3595],[23.649070803571561,62.150095031762817,106.1439],[23.649070803571561,62.143324656838786,100.1175],[23.663789009928138,62.144207749220186,100.7879],[23.678212852157571,62.143030292711671,100.698],[23.691753602005633,62.1386148308047,132.9596],[23.70323380296378,62.12948954286361,98.5658],[23.692931058514176,62.125368445083751,99.9723],[23.652603173097134,62.122719167939579,129.0525],[23.649070803571561,62.119481162541121,113.2431],[23.657018635004107,62.112416423489975,115.4898],[23.670559384852169,62.1053516844388,128.7133],[23.682922678191687,62.102408043167486,125.2432],[23.737380041711049,62.102408043167486,135.6103],[23.75003769917771,62.099170037769056,144.1477],[23.771526280458318,62.08945602157371,112.5494],[23.785067030306379,62.08857292919231,96.0],[23.796547231264526,62.103291135548886,109.2452],[23.880146643369898,62.09181093459074,116.0559],[23.908111235447421,62.100936222531828,95.0],[23.907522507193164,62.100641858404714,95.0],[23.939902561177632,62.092988391099283,131.7953],[23.953737675152837,62.091516570463625,135.5948],[23.963746055475298,62.094754575862083,141.8781],[23.950205305627236,62.109178418091517,120.53],[23.971988251034986,62.102996771421743,95.0],[23.999364114858224,62.086512380302395,137.2325],[24.020263967884574,62.066495619657417,122.0],[24.022324516774518,62.05089432091944,118.5],[24.016731598359,62.047067587266753,140.1424],[24.011138679943514,62.045007038376809,139.963],[24.007017582163655,62.04176903297838,117.9378],[24.00495703327374,62.034115565672948,151.4113],[24.007017582163655,62.027050826621775,162.556],[24.021441424393117,62.02587337011326,125.6311],[24.025268158045833,62.019691723443486,119.167],[24.025268158045833,62.007328430103968,110.3228],[24.021441424393117,61.997908778035736,113.6609],[24.013199228833429,61.992610223747391,136.0582],[23.998775386603967,61.992315859620248,119.1416],[24.072955146641164,61.9714160065939,141.965],[24.054115842504729,61.964645631669867,138.7877],[24.030861076461321,61.96317381103421,139.3513],[23.984351544374533,61.96493999579701,146.388],[23.970222066272186,61.960524533890037,155.41],[23.959624957695468,61.950221789440405,147.7777],[23.951382762135779,61.938447224355144,126.9845],[23.943434930703205,61.9304993929226,127.3674],[23.926361811329571,61.922551561490053,121.5753],[23.909288691955936,61.918430463710195,108.531],[23.835108931918768,61.91725300720168,157.7012],[23.83187092652031,61.911660088786164,164.9544],[23.847177861131172,61.896941882429587,155.9062],[23.853948236055203,61.89635315417533,159.8327],[23.863073523996263,61.8981193389381,127.8045],[23.871021355428837,61.896647518302444,139.3326],[23.874259360827267,61.886344773852841,148.7972],[23.873081904318752,61.878985670674552,171.8326],[23.869255170666037,61.875158937021837,153.8373],[23.863956616377664,61.871626567496264,146.5524],[23.85777496970789,61.865739284953634,95.0],[23.8427623992242,61.856908361139688,95.0],[23.825100551596279,61.857791453521088,95.0],[23.749448970923453,61.883106768454411,95.0],[23.72737166138856,61.8878165944885,115.2216],[23.703528167090894,61.889288415124156,99.5],[23.699112705183921,61.891054599886957,111.3489],[23.685277591208745,61.89959115957376,102.0377],[23.675857939140542,61.903123529099361,109.97],[23.646421526427361,61.90135734433656,163.3282],[23.6355300537235,61.903123529099361,160.7599],[23.647598982935904,61.886639137979984,154.0632],[23.667027015326568,61.88045749131021,168.4285],[23.689398688988575,61.878102578293152,150.5385],[23.710004177887811,61.873098388131922,117.8744],[23.742089867745165,61.857791453521088,163.0874],[23.75415879695754,61.848960529707114,147.8249],[23.764461541407172,61.83541977985908,129.0322],[23.711181634396326,61.836597236367595,101.9845],[23.690576145497118,61.83277050271488,114.9504],[23.669676292470768,61.820995937629618,103.5],[23.669676292470768,61.814814290959845,115.4741],[23.704705623599438,61.8068664595273,103.5],[23.710004177887811,61.803922818255984,116.9515],[23.710592906142068,61.788615883645122,134.8314],[23.709121085506411,61.782434236975377,126.1854],[23.703528167090894,61.780079323958319,151.5887],[23.682922678191687,61.77684131855986,121.7554],[23.672619933742084,61.769187851254429,132.8868],[23.664377738182395,61.760062563313369,136.5787],[23.649070803571561,61.752114731880795,124.8593],[23.677035395649057,61.747993634100965,147.8352],[23.692931058514176,61.7344528842529,136.9306],[23.692047966132776,61.717968493133526,112.2206],[23.669676292470768,61.70501647153975,95.0],[23.6364131461049,61.702072830268435,95.0],[23.571064309881649,61.708548841065323,113.5104],[23.539272984151438,61.70501647153975,116.6458],[23.566060119720419,61.694419362963,147.2984],[23.624344216892496,61.6814673413692,117.5004],[23.649070803571561,61.670870232792453,97.521],[23.640828608011873,61.666749135012623,101.1985],[23.633175140706442,61.663805493741307,125.8461],[23.624932945146753,61.662922401359907,131.5164],[23.614335836570007,61.663511129614164,128.3691],[23.614335836570007,61.656740754690134,122.8604],[23.626110401655268,61.655857662308762,112.3703],[23.637001874359157,61.653208385164561,105.1433],[23.647010254681618,61.648792923257588,99.3048],[23.656135542622707,61.6423169124607,95.0],[23.631114591816527,61.638195814680842,95.0],[23.576657228297165,61.657329482944419,101.5429],[23.556346103525073,61.653208385164561,130.923],[23.558406652414988,61.636723994045184,130.2713],[23.586665608619626,61.623771972451408,140.6654],[23.641711700393245,61.608759401967689,104.4608],[23.634352597214956,61.606404488950631,99.8138],[23.614335836570007,61.595218652119627,115.0002],[23.631703320070784,61.587859548941339,138.6681],[23.635235689596357,61.574024434966134,126.6122],[23.634941325469242,61.556656951465385,120.8842],[23.641711700393245,61.539878196218865,118.2017],[23.656135542622707,61.533990913676234,102.42],[23.705883080107952,61.520744527955316,95.0],[23.716774552811842,61.516329066048343,95.0],[23.70823799312501,61.493957392386335,76.0],[23.688221232480061,61.490130658733619,76.0],[23.64230042864753,61.498961582547565,103.8689],[23.600206358467688,61.495429213021993,140.7526],[23.559878473050645,61.4854208326995,76.5],[23.54192226129561,61.4768842730127,76.0],[23.446253919977835,61.414479078060793,76.0],[23.433007534256916,61.410357980280935,76.0],[23.394151469475531,61.416833991077823,76.0],[23.375312165339096,61.416539626950708,88.1143],[23.367364333906551,61.406531246628219,85.4376],[23.36559814914375,61.390635583763128,116.3631],[23.35971086660112,61.3829821164577,84.848],[23.347053209134458,61.379155382804981,76.0],[23.326447720235251,61.375623013279409,102.814],[23.349408122151516,61.368852638355378,82.9087],[23.376489621847611,61.369735730736778,76.0],[23.401804936780934,61.376211741533666,82.9759],[23.418878056154597,61.385925757729012,80.3156],[23.458617213317353,61.372679372008093,90.4959],[23.475984696818131,61.360316078668546,84.4336],[23.463621403478584,61.348247149456142,92.3866],[23.471274870784015,61.337944405006539,76.0],[23.5118971203282,61.307330535784843,76.0],[23.5083647508026,61.30379816625927,94.2377],[23.501594375878568,61.296439063080982,104.8818],[23.497767642225881,61.293495421809666,84.2831],[23.5118971203282,61.292906693555409,94.9812],[23.538684255897181,61.288196867521293,76.0],[23.553108098126614,61.287313775139893,81.1356],[23.544571538439811,61.2984996119709,76.0],[23.539567348278581,61.303209438005013,76.0],[23.53191388097315,61.307330535784843,76.0],[23.652603173097134,61.300854524987955,88.388],[23.668498835962225,61.297027791335239,84.8259],[23.686160683590145,61.286725046885635,95.7846],[23.694697243276948,61.273184297037574,78.8758],[23.68321704231883,61.2593491830624,83.6921],[23.694402879149834,61.249340802739908,78.8787],[23.70323380296378,61.239038058290305,84.9994],[23.7182463734475,61.246985889722851,76.5],[23.727960389642845,61.255816813536825,82.8248],[23.732375851549818,61.266413922113543,82.0039],[23.730609666787018,61.279954671961605,79.7335],[23.72501674837153,61.285841954504235,85.338],[23.7155970963033,61.290551780538351,87.9716],[23.706766172489353,61.293201057682523,81.1903],[23.70323380296378,61.293495421809666,81.406],[23.703528167090894,61.29967706847944,76.0],[23.706177444235095,61.305858715149185,76.0],[23.708826721379268,61.311157269437558,76.0],[23.710004177887811,61.314100910708873,76.0],[23.714125275667641,61.3123347259461,76.0],[23.720601286464557,61.314984003090274,87.3246],[23.725311112498645,61.320871285632904,76.0],[23.723544927735873,61.328230388811193,76.0],[23.717952009320356,61.329407845319736,76.0],[23.6764466673948,61.328230388811193,76.0],[23.666732651199453,61.326758568175535,76.0],[23.657018635004107,61.32646420404842,76.0],[23.64230042864753,61.331468394209651,76.0],[23.625227309273896,61.334117671353823,76.0],[23.584605059729711,61.332351486591051,76.0],[23.569592489245991,61.337944405006539,79.7568],[23.555168647016558,61.350896426600343,76.0],[23.539272984151438,61.361787899304204,76.0],[23.50012255524291,61.3820990240763,76.0],[23.49011417492045,61.397994686941416,76.0],[23.501594375878568,61.420071996476281,85.0189],[23.541333533041353,61.453629506969293,76.0]]]}}