{"type":"Feature","properties":{"featurecla":"Lake","scalerank":9,"name":"null519","name_abb":null,"name_alt":null,"note":"_untitled_224","delta":null,"dam_name":null,"year":-99,"admin":null,"min_zoom":7.0,"min_label":8.0},
"geometry":{"type": "Polygon","coordinates": [[[25.123835080501209,61.394462317415815,122.016],[24.991665587419106,61.402704512975504,112.3954],[24.917780191509053,61.427725463781712,162.1343],[24.881279039744726,61.447742224426662,114.8817],[24.861262279099776,61.472174446978585,106.5],[24.874214300693552,61.472468811105728,106.5],[24.909243631822221,61.464815343800296,119.1221],[24.900118343881132,61.476295544758443,106.5],[24.895997246101302,61.480711006665416,106.5],[24.888638142923014,61.4854208326995,106.5],[24.921901289288883,61.49189684349642,119.4074],[24.954870071527637,61.490425022860762,143.6143],[25.019041451242344,61.472174446978585,136.8006],[25.047300407446983,61.459811153639066,123.9604],[25.059958064913644,61.458044968876266,120.4691],[25.071732629998905,61.459222425384809,121.2036],[25.104701412237659,61.468053349198755,123.6735],[25.115298520814406,61.472174446978585,115.7575],[25.1023464992206,61.482182827301074,118.2789],[25.059958064913644,61.505731957471596,113.7167],[25.047594771574097,61.506026321598739,129.915],[25.015509081716772,61.513385424777027,130.4122],[25.003734516631482,61.511030511759969,113.8048],[24.984600848367933,61.501316495564623,113.9596],[24.974592468045444,61.498961582547565,113.3886],[24.918957648017567,61.49601794127625,118.4766],[24.890404327685786,61.497489761911908,119.0723],[24.868327018150922,61.505731957471596,114.6503],[24.888638142923014,61.513385424777027,106.5],[24.863617192116806,61.520155799701058,127.1873],[24.835358235912167,61.516329066048343,153.4394],[24.80974855685173,61.505437593344453,117.4169],[24.793558529859467,61.491602479369277,139.2789],[24.788259975571123,61.466875892690211,147.8479],[24.807688007961787,61.455690055859208,120.0806],[24.868327018150922,61.444209854901089,120.21],[24.909243631822221,61.423898730129,129.9516],[24.914247821983452,61.418011447586366,121.7727],[24.911009816585022,61.408886159645277,126.196],[24.916014006746252,61.402704512975504,124.7284],[24.921606925161768,61.400349599958474,120.6907],[24.937208223899745,61.397994686941416,125.1476],[24.94338987056949,61.395934138051473,136.6992],[24.962817902960182,61.379744111059239,125.1096],[24.978713565825302,61.36237662755849,121.3721],[24.997552869961737,61.3514851548546,120.7429],[25.025811826166375,61.355017524380173,108.0],[25.030227288073348,61.375623013279409,118.752],[25.077031184287279,61.38239338820344,127.11],[25.162985509409737,61.3829821164577,103.4804],[25.123835080501209,61.394462317415815,122.016]]]}}