{"type":"Feature","properties":{"id":54202.0,"name":null,"lge_id":null,"pfafstette":6413.0,"lke_type":"N","altitude":0,"objectid":29534,"scalerank":12,"featurecla":"Lake","note":"_untitled_29534","funkyname":0,"min_zoom":7.0,"min_label":8.0},
"geometry":{"type": "Polygon","coordinates": [[[25.344004753521233,62.673712469525327,108.5],[25.344004753521233,62.673712469525327,108.5],[25.337901237896233,62.667608953900327,112.0033],[25.332408073833733,62.656988836712827,108.5],[25.366465691021233,62.637823797650327,108.5],[25.409922722271233,62.637213446087827,108.5],[25.431529167583733,62.651739813275327,108.5],[25.418467644146233,62.664252020306577,124.0424],[25.392832878521233,62.667853094525327,123.8052],[25.372569206646233,62.673041082806577,148.9831],[25.353037956646233,62.680060125775327,134.3763],[25.331187370708733,62.687628485150327,129.1013],[25.317149284771233,62.683722235150327,131.79],[25.325938347271233,62.679754949994077,114.9592],[25.344004753521233,62.673712469525327,108.5]]]}}