{"type":"Feature","properties":{"featurecla":"Lake","scalerank":5,"name":"null340","name_abb":null,"name_alt":null,"note":"_untitled_21","delta":null,"dam_name":null,"year":-99,"admin":null,"min_zoom":4.7,"min_label":6.0},
"geometry":{"type": "Polygon","coordinates": [[[26.555622194869642,61.629364890866896,109.2529],[26.555622194869642,61.637312722299441,91.5],[26.567102395827789,61.648204195003331,91.5],[26.574461499006077,61.663511129614164,111.5644],[26.567985488209189,61.672930781682396,91.5],[26.540020896131665,61.697068640107176,91.5],[26.518237950723943,61.729448694091673,103.9476],[26.482619891340988,61.745638721083907,91.5],[26.441703277669689,61.74917109060948,111.2847],[26.410795044320878,61.732392335362988,95.5],[26.462014402441781,61.711198118209495,91.5],[26.466135500221611,61.708548841065323,99.5807],[26.466135500221611,61.702072830268435,91.5],[26.463191858950296,61.695302455344404,91.5],[26.458482032916208,61.690886993437431,91.5],[26.450828565610777,61.689709536928888,104.7687],[26.444352554813889,61.692064449945946,91.5],[26.437876544016973,61.697657368361433,114.1822],[26.439054000525516,61.699423553124234,110.8869],[26.427573799567369,61.714730487735096,96.8265],[26.420803424643339,61.718262857260669,99.1465],[26.411383772575135,61.719145949642069,103.2416],[26.393133196692958,61.717968493133526,91.5],[26.380181175099182,61.722089590913384,91.5],[26.370467158903836,61.73003742234593,147.9638],[26.358986957945689,61.7353359766343,130.8705],[26.34161947444494,61.732392335362988,117.2819],[26.358986957945689,61.717085400752126,124.5299],[26.371938979539493,61.699717917251377,117.5137],[26.373410800175151,61.686471531530458,149.6864],[26.356043316674374,61.683233526132,133.4952],[26.325429447452677,61.690592629310288,109.6466],[26.300408496646497,61.703544650904092,91.5],[26.280686100128662,61.7223839550405,91.5],[26.265967893772086,61.74593308521105,91.5],[26.285690290289921,61.752114731880795,91.5],[26.293932485849609,61.752114731880795,113.8008],[26.281863556637205,61.77007094363583,91.5],[26.23888639407599,61.814814290959845,106.5728],[26.25890315472094,61.822173394138133,91.5],[26.251249687415509,61.836302872240452,107.0373],[26.230349834389159,61.849843622088514,97.2846],[26.21121616612561,61.855730904631145,106.3172],[26.200913421675978,61.850137986215657,114.6747],[26.188844492463602,61.836302872240452,96.1423],[26.181191025158171,61.820407209375361,113.1142],[26.184134666429486,61.807455187781557,109.1463],[26.158230623241906,61.744461264575392,104.6445],[26.1461616940295,61.742400715685449,101.235],[26.135858949579898,61.745344356956764,110.4538],[26.088171960984567,61.74593308521105,91.0],[26.073159390500848,61.749465454736622,91.0],[26.063739738432645,61.757413286169168,91.0],[26.056380635254328,61.766538574110257,91.0],[26.046960983186125,61.773308949034288,96.0319],[25.976607956801672,61.788910247772264,91.0],[25.964244663462125,61.79685807920481,91.0],[25.958946109173752,61.809810100798614,95.8353],[25.947171544088491,61.815697383341245,103.3641],[25.935691343130344,61.81363683445133,109.807],[25.930098424714856,61.803922818255984,125.7757],[25.932453337731914,61.794797530314895,99.325],[25.936574435511744,61.789204611899407,111.1545],[25.937163163766,61.783317329356777,114.1059],[25.930098424714856,61.773308949034288,123.3691],[25.951881370122607,61.774192041415688,102.5893],[25.968954489496241,61.771248400144373,119.6391],[25.978668505691587,61.763889296966084,115.9061],[25.97807977743733,61.752114731880795,113.9273],[25.972192494894671,61.745049992829649,125.8049],[25.956296832029579,61.7326866994901,116.696],[25.950703913614063,61.725621960438957,120.8177],[25.949820821232663,61.719145949642069,109.8519],[25.951881370122607,61.703839015031207,108.4757],[25.950703913614063,61.697657368361433,115.4534],[25.939812440910202,61.684410982640514,132.0911],[25.930981517096257,61.681172977242085,91.0],[25.919795680265253,61.682939162004857,101.6167],[25.903605653273019,61.683233526132,127.8195],[25.898012734857502,61.679995520733542,128.0585],[25.890653631679214,61.667043499139766,92.2388],[25.883000164373783,61.663511129614164,93.5203],[25.876229789449752,61.665866042631222,101.9239],[25.868870686271464,61.671164596919596,106.0301],[25.860039762457518,61.676463151207969,111.4174],[25.848853925626514,61.677051879462226,104.7515],[25.85680175705906,61.662628037232793,107.0967],[25.862100311347433,61.655857662308762,111.8125],[25.868870686271464,61.6499703797661,109.8242],[25.877112881831152,61.644966189604872,99.6066],[25.883294528500926,61.643494368969215,102.641],[25.889476175170671,61.643494368969215,102.5258],[25.896540914221845,61.6423169124607,99.2552],[25.913614033595479,61.637312722299441,125.7301],[25.922444957409425,61.633780352773869,116.2567],[25.9295096964606,61.626715613722723,103.9509],[25.940989897418717,61.612291771493261,129.0829],[25.952470098376864,61.612880499747519,150.184],[25.969837581877641,61.621122695307207,114.8808],[25.985438880615618,61.624949428959923,91.0],[25.992209255539649,61.612291771493261,91.0],[25.995741625065222,61.602577755297915,109.0774],[26.003395092370653,61.594041195611112,111.2291],[26.010165467294655,61.583444087034366,107.4479],[26.0122260161846,61.567842788296389,98.8802],[26.013992200947371,61.567548424169246,97.7621],[26.017230206345829,61.567254060042131,96.8891],[26.017818934600086,61.565487875279331,98.5577],[26.0122260161846,61.561072413372358,113.2723],[26.02812167904969,61.556068223211128,97.1026],[26.058146820017129,61.542527473363066,112.3139],[26.074336847009363,61.539878196218865,97.9221],[26.120846379096179,61.538406375583207,97.2731],[26.143512416885329,61.534285277803377,121.6004],[26.163529177530279,61.526926174625089,108.7599],[26.166472818801594,61.530458544150662,91.0],[26.168239003564366,61.533107821294834,91.0],[26.16941646007291,61.535757098439035,91.0],[26.17029955245431,61.539878196218865,91.0],[26.1452786016481,61.552535853685526,91.0],[26.150282791809332,61.577556804491735,91.0],[26.172360101344225,61.606110124823488,91.0],[26.197675416277548,61.628776162612638,95.3238],[26.180602296903913,61.636723994045184,91.0],[26.163529177530279,61.6423169124607,91.0],[26.175598106742655,61.663511129614164,112.1057],[26.159996808004678,61.678818064225027,98.5406],[26.132326580054325,61.679406792479284,117.12],[26.108188721629517,61.656740754690134,113.2998],[26.112309819409347,61.653502749291704,112.5121],[26.117314009570606,61.647026738494787,91.0],[26.122023835604693,61.6423169124607,91.0],[26.077869216534964,61.651442200401789,110.8022],[26.067272107958217,61.656740754690134,113.279],[26.057558091762871,61.665866042631222,104.7835],[26.057263727635728,61.66822095564828,115.1199],[26.061973553669844,61.670281504538195,91.0],[26.067272107958217,61.677051879462226,91.0],[26.07168756986519,61.686765895657572,110.6213],[26.079929765424879,61.700306645505634,91.0],[26.081695950187651,61.70501647153975,91.0],[26.077869216534964,61.709726297573837,91.0],[26.070215749229533,61.713553031226553,95.7873],[26.065505923195417,61.719145949642069,91.0],[26.07080447748379,61.728859965837415,97.0645],[26.090526874001625,61.7335697918715,117.5633],[26.121729471477579,61.73092051472733,137.8713],[26.150577155936475,61.723561411549042,121.3317],[26.163529177530279,61.714730487735096,152.4717],[26.166767182928709,61.706488292175408,136.1843],[26.173831921979883,61.708548841065323,124.1228],[26.180896661031028,61.717379764879269,93.0],[26.185900851192287,61.737985253778476,91.5],[26.19031631309926,61.746227449338164,127.1277],[26.19708668802329,61.753586552516452,104.2795],[26.204445791201579,61.759768199186226,103.6438],[26.23800330169459,61.712669938845153,119.3782],[26.260963703610855,61.692064449945946,138.5093],[26.287162110925578,61.683233526132,142.858],[26.305118322680613,61.6805842489878,116.7225],[26.318953436655789,61.673519509936654,113.2618],[26.34161947444494,61.656740754690134,142.825],[26.368995338268178,61.644966189604872,107.8568],[26.403730305269704,61.636135265790926,100.0007],[26.401669756379789,61.631719803883954,111.062],[26.398726115108474,61.620239602925807,99.2516],[26.396371202091416,61.615529776891719,102.8551],[26.407851403049563,61.616118505145977,113.6273],[26.424041430041797,61.614941048637462,91.5],[26.438465272271259,61.611408679111861,103.7046],[26.444646918941004,61.605227032442116,103.6144],[26.45023983735652,61.596101744501027,120.5612],[26.462603130696039,61.600811570535114,109.7142],[26.485563532612304,61.615529776891719,91.5],[26.499693010714623,61.614057956256062,91.5],[26.530012515809204,61.603755211806458,91.5],[26.543553265657266,61.6014002987894,91.5],[26.551501097089812,61.604343940060716,91.5],[26.581231873930108,61.622594515942865,149.8304],[26.555622194869642,61.629364890866896,109.2529]]]}}