{"type":"Feature","properties":{"featurecla":"Lake","scalerank":5,"name":"null336","name_abb":null,"name_alt":null,"note":"_untitled_25","delta":null,"dam_name":null,"year":-99,"admin":null,"min_zoom":4.7,"min_label":6.0},
"geometry":{"type": "Polygon","coordinates": [[[27.054275026230698,61.677051879462226,93.5],[27.030725896060176,61.712964302972296,110.3983],[27.023955521136145,61.717968493133526,91.5],[26.951836309988892,61.717968493133526,105.7783],[26.944771570937718,61.714730487735096,112.4363],[26.942711022047803,61.709431933446723,108.2579],[26.940061744903602,61.706488292175408,108.6953],[26.9315251852168,61.711198118209495,91.5],[26.928875908072598,61.715319215989354,91.5],[26.925049174419911,61.729743058218787,91.5],[26.924460446165625,61.7353359766343,91.5],[26.91827879949588,61.746521813465307,109.7159],[26.890019843291242,61.745638721083907,91.5],[26.883543832494325,61.75594146553351,102.3175],[26.90061695186796,61.81451992683273,95.9828],[26.901794408376503,61.843367611291626,91.5],[26.880011462968753,61.855730904631145,91.5],[26.862643979467975,61.86044073066526,116.9086],[26.852046870891257,61.870154746860607,91.5],[26.852929963272629,61.87957439892881,103.6596],[26.869119990264892,61.883106768454411,119.8484],[26.877067821697437,61.878985670674552,110.6865],[26.897673310596645,61.86044073066526,104.8079],[26.911508424571849,61.855730904631145,101.5933],[26.907092962664876,61.869860382733464,112.8421],[26.895907125833872,61.88546168147144,96.7927],[26.881777647731553,61.89959115957376,91.5],[26.83291320262768,61.936386675465229,108.0965],[26.784931849905234,61.96493999579701,109.8976],[26.761971447988941,61.9731821913567,110.1336],[26.745781420996707,61.9714160065939,103.8974],[26.741954687343991,61.95816962087298,104.4003],[26.765798181641657,61.931676849431113,110.2163],[26.7669756381502,61.916664278947422,91.5],[26.727530845114558,61.937858496100887,98.7172],[26.715461915902154,61.947866876423376,92.0],[26.699860617164177,61.965528724051268,99.4485],[26.690440965095945,61.973476555483813,92.0],[26.677488943502169,61.978775109772187,92.0],[26.6824931336634,61.986428577077618,92.0],[26.681021313027742,61.995553865018707,114.3864],[26.673956573976596,62.00497351708691,113.9792],[26.663948193654107,62.012921348519455,132.6799],[26.653939813331618,62.015864989790771,100.9283],[26.62244285172855,62.012921348519455,104.7379],[26.60478100410063,62.019691723443486,115.3717],[26.593300803142512,62.034704293927206,92.0],[26.579465689167307,62.048833772029525,103.1559],[26.55385601010687,62.053837962190755,132.9087],[26.565336211064988,62.045595766631067,107.1808],[26.568868580590589,62.037059206944264,114.164],[26.570046037099104,62.028522647257432,117.1862],[26.574461499006077,62.019691723443486,119.9906],[26.584469879328566,62.011155163756683,102.98],[26.605369732354916,61.99996932692568,114.0132],[26.615378112677377,61.992315859620248,121.7597],[26.660710188255649,61.942862686262117,105.5724],[26.677488943502169,61.9304993929226,120.1537],[26.704570443198264,61.918430463710195,125.6774],[26.736067404801361,61.909010811641991,114.5635],[26.767270002277314,61.903417893226475,124.1263],[26.79376277371918,61.903123529099361,100.339],[26.803476789914527,61.914898094184622,108.909],[26.811718985474215,61.91636991482028,104.5961],[26.821433001669561,61.903123529099361,101.3717],[26.822021729923819,61.892526420522614,91.5],[26.809952800711415,61.883989860835783,136.7393],[26.81466262674553,61.87633639353038,101.6111],[26.793174045464923,61.854259083995487,125.0602],[26.782576936888177,61.848960529707114,91.5],[26.773746013074231,61.855730904631145,116.0106],[26.757850350209111,61.849254893834257,91.5],[26.744015236233935,61.854259083995487,117.7687],[26.739894138454076,61.865150556699376,104.6656],[26.753140524174995,61.87633639353038,91.5],[26.730768850512987,61.888110958615641,91.5],[26.714578823520753,61.8913489640141,103.5787],[26.670718568578138,61.889288415124156,98.6062],[26.670718568578138,61.883106768454411,101.3699],[26.678372035883569,61.882223676073011,106.0203],[26.698094432401376,61.87633639353038,117.6606],[26.660415824128535,61.858380181775345,91.5],[26.618910482202949,61.876042029403237,91.5],[26.595066987905284,61.907244626879191,91.5],[26.609196466007603,61.9304993929226,91.5],[26.577699504404535,61.946983784041976,96.7493],[26.552384189471212,61.950810517694691,126.4876],[26.526185782156489,61.944334506897775,127.5409],[26.49203954340922,61.9304993929226,130.0607],[26.547085635182839,61.934620490702429,128.4188],[26.560920749158015,61.9304993929226,128.157],[26.550618004708411,61.913131909421821,121.8095],[26.51293939643557,61.883106768454411,91.5],[26.500281738968908,61.883989860835783,91.5],[26.471728418637127,61.893998241158272,126.4168],[26.458482032916208,61.896941882429587,120.3344],[26.466135500221611,61.881046219564467,106.0],[26.4770269729255,61.865444920826491,128.9665],[26.4787931576883,61.853081627486972,128.7427],[26.458776397043323,61.848371801452856,128.4294],[26.406085218286762,61.851609806851314,91.5],[26.356043316674374,61.862206915428061,102.5769],[26.37164461541235,61.876630757657495,91.5],[26.390189555421642,61.889288415124156,106.5905],[26.383713544624754,61.90224043671796,108.1856],[26.384596637006155,61.91636991482028,91.5],[26.390483919548785,61.929910664668341,91.5],[26.399903571616989,61.9408021373722,96.5279],[26.41344432146505,61.94816124055049,106.2455],[26.42845689194877,61.951104881821806,91.5],[26.465841136094497,61.951399245948949,124.4343],[26.451417293865035,61.962879446907095,91.5],[26.441703277669689,61.968472365322583,91.5],[26.431106169092971,61.9714160065939,91.5],[26.435521630999943,61.987017305331875,116.494],[26.405496490032505,61.987311669459018,101.7007],[26.371055887158093,61.977892017390786,119.1385],[26.34161947444494,61.937858496100887,112.8588],[26.34574057222477,61.918430463710195,105.7613],[26.346034936351913,61.90636153449779,108.011],[26.340442017936397,61.89635315417533,103.374],[26.328078724596878,61.883106768454411,95.4035],[26.312183061731758,61.870154746860607,94.0],[26.300997224900755,61.868388562097806,100.3043],[26.287750839179836,61.872509659877664,102.2879],[26.265967893772086,61.87633639353038,102.5819],[26.270088991551944,61.856025268758287,96.4652],[26.287750839179836,61.8460168884358,98.8945],[26.3098281487147,61.842484518910226,101.988],[26.328078724596878,61.841601426528825,111.9804],[26.351922218894543,61.845722524308684,91.5],[26.364285512234062,61.845428160181541,135.3517],[26.369584066522435,61.838363421130396,154.6341],[26.417565419244909,61.820995937629618,148.5175],[26.408734495430963,61.805394638891642,105.899],[26.403730305269704,61.800684812857526,118.7264],[26.426690707185969,61.79273698142498,106.7354],[26.487918445629361,61.786260970628092,126.8715],[26.51293939643557,61.786849698882349,131.091],[26.49203954340922,61.807455187781557,91.5],[26.513822488816942,61.802450997620326,91.5],[26.533544885334777,61.792442617297837,124.0412],[26.549734912327011,61.779490595704061,133.3389],[26.560920749158015,61.766538574110257,110.4741],[26.559154564395243,61.764478025220342,104.5078],[26.555916558996785,61.758590742677711,114.4854],[26.55385601010687,61.75182036775368,121.9009],[26.55385601010687,61.74593308521105,108.85],[26.557682743759585,61.741223259176934,104.8632],[26.560920749158015,61.740045802668419,105.5539],[26.565041846937874,61.739457074414133,110.3997],[26.570929129480504,61.7353359766343,113.3147],[26.584175515201423,61.731509242981588,110.1324],[26.5997768139394,61.732392335362988,115.6838],[26.610373922516146,61.730331786473073,99.4286],[26.609196466007603,61.717968493133526,104.7209],[26.636572329830869,61.712081210590895,119.3332],[26.650701807933189,61.707077020429665,102.0036],[26.656883454602934,61.701484102014149,96.6322],[26.65835527523862,61.68912080867463,121.5364],[26.66247637301845,61.684705346767657,123.9018],[26.668658019688223,61.682939162004857,126.6827],[26.677488943502169,61.677051879462226,122.9431],[26.713990095266496,61.647026738494787,109.1039],[26.734301220038589,61.634074716901011,113.2838],[26.775806561964146,61.62141705943435,98.2471],[26.775512197837003,61.604049575933573,122.8054],[26.7669756381502,61.583149722907223,111.0342],[26.77021364354863,61.564310418770788,108.9457],[26.780810752125376,61.558128772101043,122.1448],[26.796412050863353,61.553418946066927,129.3464],[26.811718985474215,61.553418946066927,123.0613],[26.821433001669561,61.561072413372358,105.2851],[26.818194996271103,61.565487875279331,110.0845],[26.801121876897469,61.595218652119627,102.8992],[26.818489360398246,61.591391918466911,116.9656],[26.824376642940877,61.582266630525822,106.0061],[26.827320284212192,61.571375157821961,115.1617],[26.835268115644737,61.561072413372358,117.726],[26.85557924041683,61.55371331019407,107.0564],[26.877067821697437,61.55459640257547,110.1083],[26.897084582342387,61.561955505753758,111.9136],[26.911508424571849,61.57461316322042,110.5025],[26.898262038850902,61.574907527347534,91.5],[26.885310017257126,61.577262440364592,91.5],[26.873535452171865,61.581972266398708,112.4069],[26.862938343595118,61.589037005449853,91.5],[26.874124180426122,61.587859548941339,107.4355],[26.884426924875726,61.588448277195596,104.1398],[26.894435305198215,61.590803190212654,95.0103],[26.903560593139275,61.595218652119627,99.4633],[26.8914916639269,61.5978679292638,91.5],[26.882660740112925,61.602872119425058,91.5],[26.88060019122301,61.6090537660948,91.5],[26.8897254791641,61.615529776891719,112.0682],[26.8897254791641,61.622594515942865,91.5],[26.882072011858668,61.623183244197122,91.5],[26.878245278205952,61.624949428959923,91.5],[26.87471290868038,61.626715613722723,91.5],[26.869119990264892,61.628776162612638,91.5],[26.877656549951695,61.641728184206443,91.5],[26.874418544553265,61.655268934054476,114.3559],[26.863527071849376,61.665866042631222,105.3765],[26.8488088654928,61.670870232792453,91.5],[26.824082278813734,61.66733786326688,114.608],[26.825848463576534,61.655563298181619,120.8013],[26.8488088654928,61.628776162612638,91.5],[26.8070091594401,61.636723994045184,91.5],[26.748725062268022,61.658506939452934,91.5],[26.697800068274262,61.687943352166116,91.5],[26.677488943502169,61.717968493133526,106.7858],[26.68926350858743,61.712081210590895,91.5],[26.699860617164177,61.711492482336638,118.1037],[26.709868997486637,61.712669938845153,103.3397],[26.718994285427726,61.711198118209495,91.5],[26.73018012225873,61.704427743285464,114.3888],[26.748725062268022,61.68912080867463,184.8499],[26.759322170844769,61.683233526132,134.3524],[26.788169855303664,61.676168787080826,117.5195],[26.803771154041641,61.6805842489878,120.1509],[26.807597887694357,61.695008091217261,91.5],[26.801121876897469,61.717968493133526,91.5],[26.817311903889703,61.719440313769184,102.3942],[26.831441381992022,61.717968493133526,130.8522],[26.838506121043196,61.711198118209495,108.5015],[26.835268115644737,61.697657368361433,100.0136],[26.851458142636972,61.69324190645446,121.4662],[26.8897254791641,61.670870232792453,114.2865],[26.910330968063306,61.665866042631222,111.2666],[26.97921217381213,61.663511129614164,98.894],[26.97921217381213,61.670870232792453,98.8075],[26.973030527142356,61.672930781682396,91.5],[26.958901049040037,61.683233526132,110.3442],[26.966260152218325,61.690886993437431,122.8826],[26.975679804286557,61.697951732488576,107.7121],[26.98598254873616,61.702955922649807,95.5],[26.996579657312907,61.70501647153975,91.5],[27.009237314779568,61.702661558522692,136.5441],[27.011592227796598,61.696479911852919,114.2464],[27.007176765889625,61.680289884860684,112.6105],[27.01012040716094,61.66733786326688,118.7912],[27.018656966847772,61.656152026435876,118.7947],[27.031314624314433,61.649381651511845,112.844],[27.047504651306667,61.6499703797661,100.3254],[27.047504651306667,61.656740754690134,111.4111],[27.04191173289118,61.659978760088592,106.3734],[27.038968091619864,61.66321676548705,94.0],[27.036907542729921,61.666749135012623,94.0],[27.033963901458606,61.670870232792453,102.0754],[27.040145548128379,61.671458961046739,94.0],[27.054275026230698,61.677051879462226,93.5]]]}}