{"type": "Feature","bbox": [23.730609666787018,60.151656972665933,24.072955146641164,60.323859987037935],"geometry": {"type": "Polygon","coordinates": [[[23.984351544374533,60.21730017301627,70.7786],[24.032627261224121,60.245264765093793,31.0],[24.058236940284559,60.254390053034882,47.1599],[24.067362228225647,60.260571699704627,51.0734],[24.072955146641164,60.272640628917031,45.6982],[24.053232750123328,60.306492503537186,45.2129],[24.035276538368294,60.323859987037935,61.5448],[24.00495703327374,60.319444525130962,31.0],[23.977581169450502,60.306198139410043,59.2945],[23.96727842500087,60.2964841232147,65.4009],[23.981113538976075,60.291185568926323,33.0],[23.995831745332652,60.2964841232147,33.0],[24.010844315816371,60.304431954647242,83.5979],[24.025268158045833,60.306492503537186,91.538],[24.032332897096978,60.301488313375927,56.8556],[24.053232750123328,60.272640628917031,69.8883],[24.038808907893866,60.262926612721685,31.0],[24.028211799317148,60.266458982247258,50.7686],[24.018203418994659,60.276467362569747,80.2298],[24.00495703327374,60.286181378765093,33.0],[23.959624957695468,60.2676364387558,58.5709],[23.860718610979205,60.252623868272082,60.7378],[23.813031622383875,60.23820002604262,31.0],[23.814209078892418,60.244676036839536,77.7163],[23.816269627782333,60.248797134619366,31.0],[23.817152720163733,60.252918232399225,31.0],[23.813031622383875,60.258805514941855,31.0],[23.856303149072232,60.2676364387558,77.8843],[23.875731181462925,60.275289906061232,46.7604],[23.895159213853617,60.286181378765093,31.0],[23.815680899528076,60.278233547332547,49.5205],[23.79595850301024,60.269108259391459,41.0775],[23.778885383636606,60.257628058433312,52.5031],[23.740912411236621,60.23820002604262,33.1373],[23.730609666787018,60.224659276194586,64.9087],[23.750920791559111,60.224659276194586,53.2366],[23.747977150287795,60.21994945016047,31.0],[23.745622237270737,60.2146508958721,39.5099],[23.742384231872279,60.209352341583724,58.615],[23.737380041711049,60.204348151422494,76.1115],[23.742384231872279,60.201110146024035,31.5],[23.752392612194768,60.19316231459149,32.6455],[23.757691166483141,60.190513037447289,33.9614],[23.745622237270737,60.185508847286059,46.3381],[23.740323682982364,60.186097575540316,70.7938],[23.730609666787018,60.190513037447289,38.969],[23.759751715373056,60.1710850050566,65.0206],[23.772998101093975,60.166963907276767,66.7654],[23.792720497611811,60.170201912675225,55.3153],[23.826572372231936,60.186391939667459,65.856],[23.843645491605571,60.189629945065917,65.8478],[23.867783350030379,60.183742662523258,34.9562],[23.863956616377664,60.175794831090712,54.1204],[23.858069333835033,60.169613184420939,52.524],[23.850121502402487,60.165197722513966,44.7704],[23.840407486207141,60.162548445369794,37.1539],[23.867783350030379,60.151656972665933,44.2516],[23.885445197658271,60.158427347589935,47.046],[23.885739561785414,60.175794831090712,37.7888],[23.860718610979205,60.196694684117062,56.2533],[23.871904447810209,60.20317069491395,45.3132],[23.884267741149756,60.204936879676751,47.2111],[23.896925398616418,60.202581966659693,31.0],[23.909288691955936,60.196694684117062,37.6787],[23.907228143066021,60.187275032048859,31.0],[23.923123805931141,60.183448298396144,31.0],[23.963746055475298,60.183742662523258,37.337],[23.954620767534209,60.198460868879863,33.8515],[23.95727004467841,60.206703064439552,31.0],[23.984351544374533,60.21730017301627,70.7786]]]}
,"properties": {"featurecla": "Lake","scalerank": 9,"name": "null521","name_abb": null,"name_alt": null,"note": "_untitled_222","delta": null,"dam_name": null,"year": -99,"admin": null,"min_zoom": 7.0,"min_label": 8.0,"area_km2": 145.7253,"hist_schema_id": "Elevation0-9000","hist_area_km2": {"25": 77.9299,"50": 48.3376,"75": 17.4203,"100": 2.0165,"125": 0.021}}}