{"type": "Feature","bbox": [23.4258,63.1186,25.0302,63.8752],"geometry": {"type": "MultiPolygon","coordinates": [[[[24.1678,63.1475,151.2308],[24.1777,63.1472,155.1848],[24.1783,63.1517,155.143],[24.1684,63.152,148.4571],[24.1678,63.1475,151.2308]]],
[[[24.0438,63.259,130.7286],[24.0637,63.2585,129.5861],[24.0631,63.254,126.4168],[24.073,63.2537,127.7948],[24.0724,63.2492,132.3903],[24.0923,63.2487,144.3489],[24.0917,63.2442,135.5952],[24.1116,63.2436,132.4554],[24.111,63.2391,136.2561],[24.1209,63.2388,140.4191],[24.1203,63.2344,144.5768],[24.1302,63.2341,137.5647],[24.1296,63.2296,144.1578],[24.1395,63.2293,148.8962],[24.1389,63.2248,148.3717],[24.1489,63.2246,152.4219],[24.1482,63.2201,155.9361],[24.1582,63.2198,155.176],[24.1575,63.2153,152.002],[24.1675,63.215,152.2801],[24.1668,63.2105,149.7358],[24.1768,63.2102,166.6671],[24.1761,63.2058,174.808],[24.1861,63.2055,161.9566],[24.1854,63.201,162.0247],[24.1954,63.2007,159.1804],[24.1947,63.1962,160.1477],[24.2046,63.1959,159.8568],[24.2034,63.187,158.0208],[24.2133,63.1867,161.5051],[24.2126,63.1822,167.1852],[24.2226,63.1819,165.654],[24.2219,63.1774,166.8231],[24.2318,63.1771,181.0353],[24.2312,63.1727,166.5554],[24.2213,63.173,165.5814],[24.2206,63.1685,162.5107],[24.2008,63.169,158.2766],[24.2001,63.1646,159.8072],[24.1902,63.1648,166.4886],[24.1889,63.1559,160.6065],[24.179,63.1562,159.2142],[24.1783,63.1517,155.143],[24.1982,63.1511,162.4362],[24.1988,63.1556,163.4129],[24.2087,63.1553,172.231],[24.2081,63.1508,166.2382],[24.218,63.1505,168.7227],[24.2174,63.1461,170.4196],[24.2273,63.1458,176.2608],[24.2267,63.1413,170.356],[24.2366,63.141,169.2296],[24.2359,63.1365,170.5041],[24.2458,63.1362,173.0678],[24.2452,63.1317,173.7302],[24.265,63.1311,172.6449],[24.2657,63.1356,175.0387],[24.2855,63.1351,173.3401],[24.2862,63.1395,172.1034],[24.3159,63.1386,173.6218],[24.3152,63.1342,181.281],[24.3252,63.1339,176.571],[24.3245,63.1294,183.658],[24.3443,63.1288,173.8608],[24.3436,63.1243,172.6564],[24.3536,63.124,171.6789],[24.3529,63.1195,170.606],[24.3826,63.1186,172.6132],[24.3833,63.1231,175.3024],[24.3932,63.1228,177.2063],[24.3939,63.1273,179.1674],[24.4137,63.1267,181.0076],[24.4144,63.1312,180.4841],[24.4342,63.1306,181.4191],[24.4349,63.1351,179.0268],[24.4448,63.1348,175.7121],[24.4455,63.1392,181.0036],[24.4653,63.1386,179.4653],[24.466,63.1431,177.5154],[24.4858,63.1425,172.8435],[24.4865,63.147,174.8913],[24.4964,63.1467,171.3116],[24.4971,63.1511,173.0786],[24.517,63.1505,163.6898],[24.5177,63.155,154.699],[24.5276,63.1547,153.8272],[24.5283,63.1592,158.6484],[24.5382,63.1589,159.7461],[24.5375,63.1544,161.0856],[24.597,63.1525,195.15],[24.5963,63.148,194.3023],[24.6756,63.1455,198.9761],[24.6749,63.141,194.1584],[24.7443,63.1388,198.4721],[24.7436,63.1343,206.2856],[24.7634,63.1336,204.7478],[24.7641,63.1381,199.8128],[24.7542,63.1384,203.471],[24.755,63.1429,202.5947],[24.7351,63.1436,199.4501],[24.7439,63.1973,199.9007],[24.7538,63.197,196.7871],[24.7567,63.2149,196.2901],[24.7667,63.2146,207.5923],[24.7689,63.2281,192.3489],[24.7589,63.2284,196.536],[24.7633,63.2552,180.3612],[24.7534,63.2556,190.3302],[24.7549,63.2645,182.3823],[24.7648,63.2642,185.6088],[24.7655,63.2687,192.4265],[24.7755,63.2684,192.5608],[24.7762,63.2729,175.6866],[24.7962,63.2722,179.1183],[24.7969,63.2767,174.8077],[24.8069,63.2763,174.1325],[24.8084,63.2853,183.468],[24.7984,63.2856,181.1536],[24.8006,63.2991,165.4106],[24.7906,63.2994,167.2348],[24.7944,63.3218,165.7495],[24.7844,63.3221,161.1588],[24.7874,63.3401,165.7055],[24.7774,63.3404,168.1494],[24.7811,63.3628,172.4491],[24.7911,63.3624,178.7122],[24.7925,63.3714,175.8218],[24.8025,63.3711,176.171],[24.8033,63.3756,168.0548],[24.8133,63.3752,173.4374],[24.8148,63.3842,169.2866],[24.8248,63.3839,173.8486],[24.8255,63.3884,176.312],[24.8355,63.388,172.9549],[24.837,63.397,173.1939],[24.847,63.3967,180.2575],[24.8478,63.4011,168.7328],[24.8578,63.4008,167.9813],[24.8593,63.4098,175.9678],[24.8693,63.4094,169.9265],[24.87,63.4139,172.4375],[24.88,63.4136,167.3106],[24.8816,63.4225,164.0673],[24.8916,63.4222,165.0798],[24.8923,63.4267,171.6982],[24.9023,63.4263,176.2095],[24.9031,63.4308,173.5567],[24.9131,63.4305,172.1323],[24.9139,63.435,160.9605],[24.9339,63.4343,161.3355],[24.9347,63.4388,161.4611],[24.9547,63.4381,164.522],[24.9555,63.4426,162.6877],[24.9655,63.4422,164.9822],[24.9662,63.4467,160.4495],[24.9863,63.446,169.4826],[24.987,63.4505,171.8829],[25.0071,63.4498,176.9358],[25.0079,63.4543,175.5761],[25.0279,63.4536,173.378],[25.0302,63.467,175.1569],[25.0202,63.4674,180.0115],[25.021,63.4719,182.4337],[25.011,63.4722,171.4277],[25.0118,63.4767,174.9408],[25.0017,63.477,170.69],[25.0025,63.4815,172.8692],[24.9925,63.4819,172.859],[24.9933,63.4863,171.4941],[24.9832,63.4867,169.2638],[24.984,63.4912,168.6428],[24.974,63.4915,164.9704],[24.9748,63.496,164.3446],[24.9647,63.4963,162.2395],[24.9655,63.5008,160.912],[24.9555,63.5011,163.6674],[24.9562,63.5056,162.8363],[24.9462,63.506,163.527],[24.947,63.5104,161.7532],[24.9369,63.5108,165.672],[24.9377,63.5153,151.356],[24.9277,63.5156,154.4896],[24.9284,63.5201,152.2171],[24.9184,63.5204,155.2478],[24.9192,63.5249,150.7431],[24.9091,63.5252,164.997],[24.9099,63.5297,144.0426],[24.8998,63.53,147.1134],[24.9014,63.539,143.1816],[24.8913,63.5393,141.5841],[24.8921,63.5438,138.4214],[24.882,63.5442,137.5887],[24.8828,63.5486,134.0106],[24.8727,63.549,136.6462],[24.8743,63.5579,130.3506],[24.8642,63.5583,132.9534],[24.865,63.5627,129.6382],[24.8549,63.5631,132.9092],[24.8557,63.5676,130.8059],[24.8456,63.5679,131.7068],[24.8464,63.5724,128.586],[24.8363,63.5727,135.7297],[24.8378,63.5817,131.9114],[24.8278,63.582,131.2466],[24.8285,63.5865,130.0399],[24.8185,63.5868,130.938],[24.8192,63.5913,128.1653],[24.7991,63.5919,130.8595],[24.7998,63.5964,134.0069],[24.7898,63.5968,137.2704],[24.7905,63.6012,133.7353],[24.7704,63.6019,137.5137],[24.7711,63.6064,144.8935],[24.761,63.6067,138.38],[24.7618,63.6112,144.158],[24.7416,63.6118,150.4607],[24.7424,63.6163,138.1476],[24.7323,63.6166,148.896],[24.733,63.6211,143.8568],[24.7129,63.6217,150.9972],[24.7136,63.6262,150.5684],[24.6935,63.6269,150.2078],[24.6942,63.6314,149.7445],[24.674,63.632,158.6641],[24.6748,63.6365,152.1857],[24.6546,63.6371,143.196],[24.6553,63.6416,143.1841],[24.6452,63.6419,149.7783],[24.646,63.6464,141.2421],[24.6258,63.647,135.2012],[24.6265,63.6515,136.0746],[24.6164,63.6518,135.5564],[24.6172,63.6563,136.2712],[24.6071,63.6567,132.8851],[24.6078,63.6611,132.1586],[24.5977,63.6614,131.6077],[24.5991,63.6704,132.1568],[24.589,63.6707,129.9659],[24.5898,63.6752,137.9465],[24.5797,63.6755,129.4704],[24.5804,63.68,129.3611],[24.5703,63.6803,129.2969],[24.5717,63.6893,129.497],[24.5616,63.6896,131.9363],[24.5623,63.6941,129.0925],[24.5522,63.6944,128.2521],[24.5537,63.7033,127.1461],[24.5435,63.7037,128.5312],[24.545,63.7126,127.4559],[24.5349,63.7129,127.5408],[24.5363,63.7219,127.6815],[24.5262,63.7222,127.073],[24.5276,63.7312,129.9073],[24.5175,63.7315,129.9216],[24.5189,63.7404,126.6193],[24.5088,63.7407,126.7296],[24.5102,63.7497,134.2339],[24.5001,63.75,126.5983],[24.5022,63.7635,122.276],[24.4921,63.7638,124.9343],[24.4935,63.7727,127.365],[24.4833,63.773,117.673],[24.4848,63.782,137.3614],[24.4746,63.7823,119.0284],[24.476,63.7913,133.3532],[24.4659,63.7916,129.5125],[24.4673,63.8005,138.6503],[24.4572,63.8009,130.3477],[24.4586,63.8098,128.2093],[24.4484,63.8101,125.6374],[24.4505,63.8236,118.7733],[24.4404,63.8239,118.6673],[24.4418,63.8328,118.3028],[24.4316,63.8331,111.0589],[24.4323,63.8376,111.7541],[24.4222,63.8379,111.3867],[24.4229,63.8424,113.5526],[24.3924,63.8433,116.6942],[24.3931,63.8478,117.6634],[24.3524,63.849,115.9585],[24.3531,63.8535,116.7914],[24.3226,63.8544,115.0874],[24.3233,63.8589,109.3689],[24.2826,63.86,109.4012],[24.2833,63.8645,99.9655],[24.2731,63.8648,104.4366],[24.2738,63.8693,106.9372],[24.2637,63.8696,104.0076],[24.2643,63.8741,99.1547],[24.2236,63.8752,98.6679],[24.223,63.8708,102.2418],[24.2026,63.8713,102.6152],[24.202,63.8669,98.6305],[24.1714,63.8677,105.4914],[24.1708,63.8632,99.8855],[24.1403,63.8641,84.454],[24.1409,63.8686,81.5063],[24.1002,63.8697,82.1719],[24.0989,63.8607,78.0723],[24.0888,63.861,83.766],[24.0881,63.8565,85.9238],[24.0779,63.8568,88.7388],[24.0773,63.8523,103.0863],[24.0671,63.8526,98.0594],[24.0658,63.8436,104.369],[24.0557,63.8439,96.3979],[24.055,63.8394,98.8887],[24.0449,63.8397,95.4499],[24.0442,63.8352,91.3201],[24.0341,63.8355,90.5191],[24.0328,63.8265,95.342],[24.0226,63.8268,91.6076],[24.022,63.8223,93.9666],[24.0118,63.8226,92.6688],[24.0112,63.8181,93.7748],[24.001,63.8184,100.6926],[23.9998,63.8094,98.7193],[23.9896,63.8097,98.3268],[23.989,63.8052,101.9233],[23.9789,63.8055,105.4757],[23.9782,63.801,104.4648],[23.9681,63.8013,105.4668],[23.9668,63.7923,122.467],[23.9567,63.7926,111.8246],[23.9561,63.7881,114.2933],[23.9459,63.7883,114.1152],[23.9453,63.7839,104.6148],[23.9351,63.7841,94.215],[23.9345,63.7797,98.7719],[23.9447,63.7794,101.8297],[23.944,63.7749,98.6823],[23.9542,63.7746,101.1918],[23.9536,63.7701,105.5275],[23.9637,63.7699,99.9826],[23.9631,63.7654,111.9575],[23.9732,63.7651,106.3264],[23.9726,63.7606,101.7372],[23.9827,63.7604,109.6334],[23.9821,63.7559,103.4843],[23.9922,63.7556,103.9778],[23.9916,63.7511,106.6901],[24.0017,63.7508,106.8119],[24.0011,63.7463,117.5953],[24.0112,63.7461,115.896],[24.0106,63.7416,110.9375],[24.0207,63.7413,109.8645],[24.0201,63.7368,112.73779999999999],[24.0302,63.7366,120.2838],[24.0296,63.7321,122.7665],[24.0397,63.7318,128.3275],[24.0391,63.7273,122.029],[24.0593,63.7268,119.5336],[24.0587,63.7223,120.7133],[24.0688,63.722,127.5779],[24.0682,63.7175,130.4071],[24.0783,63.7172,122.1292],[24.0776,63.7127,123.784],[24.0877,63.7125,120.6972],[24.0871,63.708,121.9571],[24.0972,63.7077,121.233],[24.0966,63.7032,127.4811],[24.1067,63.7029,122.2353],[24.106,63.6985,126.7453],[24.1162,63.6982,125.4095],[24.1155,63.6937,124.6132],[24.1256,63.6934,125.0865],[24.125,63.6889,126.5217],[24.1351,63.6886,123.1386],[24.1344,63.6842,127.5681],[24.1445,63.6839,123.7153],[24.1439,63.6794,126.8035],[24.154,63.6791,126.7672],[24.1533,63.6746,126.2152],[24.1735,63.674,133.4868],[24.1729,63.6696,129.6048],[24.183,63.6693,138.7982],[24.1823,63.6648,140.1205],[24.1924,63.6645,134.2412],[24.1918,63.66,135.5172],[24.212,63.6595,131.4453],[24.2113,63.655,132.5281],[24.2214,63.6547,133.2215],[24.2207,63.6502,136.5724],[24.2308,63.6499,135.8341],[24.2302,63.6454,140.9956],[24.2201,63.6457,134.7835],[24.2194,63.6412,136.823],[24.2093,63.6415,134.4744],[24.2087,63.637,136.1569],[24.2187,63.6367,141.976],[24.2181,63.6323,151.3969],[24.2383,63.6317,153.6229],[24.2376,63.6272,154.8713],[24.2477,63.6269,153.2722],[24.247,63.6224,155.8658],[24.2571,63.6221,145.7878],[24.2564,63.6176,143.0202],[24.2665,63.6174,140.6583],[24.2659,63.6129,137.4695],[24.2759,63.6126,137.9781],[24.2753,63.6081,138.9078],[24.2652,63.6084,137.5391],[24.2638,63.5994,136.6883],[24.2538,63.5997,136.4711],[24.2531,63.5952,136.5767],[24.2632,63.5949,138.1662],[24.2625,63.5905,136.4994],[24.2927,63.5896,143.812],[24.2934,63.5941,133.9697],[24.3135,63.5935,132.8912],[24.3142,63.598,128.0181],[24.3243,63.5977,128.5827],[24.325,63.6021,130.0719],[24.3351,63.6018,129.4878],[24.3344,63.5974,129.3516],[24.3444,63.5971,129.2045],[24.3438,63.5926,129.1437],[24.3538,63.5923,128.4226],[24.3532,63.5878,129.8922],[24.3632,63.5875,127.7078],[24.3625,63.583,128.7897],[24.3827,63.5824,129.6848],[24.382,63.5779,129.0633],[24.3921,63.5776,129.7779],[24.3914,63.5732,130.2062],[24.4014,63.5728,130.8414],[24.4007,63.5684,132.7733],[24.4108,63.5681,133.0345],[24.4101,63.5636,140.1876],[24.4202,63.5633,134.1665],[24.4195,63.5588,143.4393],[24.4296,63.5585,136.6742],[24.4302,63.563,135.8041],[24.4403,63.5627,135.7283],[24.4396,63.5582,138.8741],[24.4497,63.5579,136.4481],[24.449,63.5534,141.3471],[24.459,63.5531,139.5351],[24.4583,63.5486,142.0311],[24.4784,63.548,147.3725],[24.4777,63.5435,148.5864],[24.4878,63.5432,151.0282],[24.4857,63.5298,154.4503],[24.4757,63.5301,152.6853],[24.475,63.5256,155.2191],[24.4649,63.5259,153.2683],[24.4642,63.5214,157.3447],[24.4542,63.5217,150.8864],[24.4528,63.5128,155.3962],[24.4427,63.5131,150.4394],[24.4434,63.5176,151.2858],[24.4334,63.5179,153.0719],[24.4341,63.5223,154.2793],[24.424,63.5226,153.406],[24.4247,63.5271,147.2823],[24.4147,63.5274,146.397],[24.4153,63.5319,141.9324],[24.4053,63.5322,143.8809],[24.4046,63.5277,144.2124],[24.3946,63.528,142.6754],[24.3939,63.5236,145.4478],[24.3838,63.5238,140.2708],[24.3831,63.5194,140.0914],[24.3731,63.5197,139.639],[24.3724,63.5152,138.9826],[24.3624,63.5155,137.914],[24.3617,63.511,141.6636],[24.3517,63.5113,138.9179],[24.3503,63.5023,136.7769],[24.3403,63.5026,139.676],[24.3396,63.4982,142.685],[24.3195,63.4987,135.1719],[24.3202,63.5032,134.0626],[24.3001,63.5038,139.1898],[24.3007,63.5083,134.1479],[24.2907,63.5086,135.4988],[24.2914,63.5131,149.1996],[24.2713,63.5137,137.5374],[24.272,63.5181,138.8496],[24.2619,63.5184,141.3672],[24.2626,63.5229,139.1019],[24.2425,63.5235,133.4716],[24.2431,63.528,132.9657],[24.2331,63.5283,132.4178],[24.2337,63.5328,132.4635],[24.2237,63.5331,132.6008],[24.2243,63.5375,132.4799],[24.2042,63.5381,132.7544],[24.2049,63.5426,142.853],[24.1948,63.5429,133.7431],[24.1955,63.5474,139.9654],[24.1754,63.5479,133.5494],[24.176,63.5524,135.4058],[24.166,63.5527,139.6805],[24.1666,63.5572,137.5162],[24.1465,63.5578,132.3381],[24.1472,63.5622,133.6048],[24.1572,63.562,135.8853],[24.1585,63.5709,139.7874],[24.1686,63.5706,138.7501],[24.1692,63.5751,142.305],[24.1793,63.5748,139.0412],[24.1806,63.5838,142.7244],[24.1705,63.5841,145.1226],[24.1712,63.5886,147.7185],[24.1611,63.5889,150.1237],[24.1618,63.5933,151.3691],[24.1517,63.5936,141.8441],[24.1523,63.5981,146.4382],[24.1423,63.5984,137.8209],[24.1436,63.6074,131.4828],[24.1537,63.6071,137.588],[24.1562,63.625,123.9942],[24.1462,63.6253,120.762],[24.1468,63.6298,122.1991],[24.1367,63.6301,125.2534],[24.1374,63.6346,123.9255],[24.1273,63.6348,135.0074],[24.1279,63.6393,117.0435],[24.1481,63.6388,118.5319],[24.1475,63.6343,118.5324],[24.1576,63.634,122.7117],[24.1602,63.6519,122.3403],[24.1501,63.6522,117.8097],[24.1507,63.6567,128.1696],[24.1406,63.657,118.0629],[24.1413,63.6614,118.7941],[24.1312,63.6617,120.8341],[24.1318,63.6662,124.7603],[24.1217,63.6665,119.3301],[24.1224,63.671,117.4503],[24.0719,63.6724,124.1898],[24.0712,63.6679,113.5741],[24.0409,63.6687,116.6953],[24.0403,63.6643,116.1572],[24.0201,63.6648,121.5602],[24.0213,63.6738,121.653],[24.0112,63.674,117.4814],[24.0119,63.6785,120.1987],[23.9916,63.6791,124.4152],[23.991,63.6746,117.5166],[23.9809,63.6749,113.8038],[23.9815,63.6794,115.6363],[23.9714,63.6796,113.8809],[23.9727,63.6886,126.0083],[23.9626,63.6889,114.373],[23.9644,63.7023,100.6215],[23.9746,63.702,111.2414],[23.9752,63.7065,109.5808],[23.9853,63.7063,117.167],[23.9866,63.7152,107.5305],[23.9764,63.7155,105.1526],[23.9771,63.72,108.5892],[23.9669,63.7203,102.3291],[23.9676,63.7248,111.8485],[23.9574,63.725,104.1514],[23.9581,63.7295,107.8694],[23.9783,63.729,103.2076],[23.9802,63.7424,106.5695],[23.9701,63.7427,110.2711],[23.9707,63.7472,105.6027],[23.9606,63.7474,106.8178],[23.9612,63.7519,114.6555],[23.9511,63.7522,106.6938],[23.9517,63.7567,107.4049],[23.9416,63.757,109.0667],[23.9403,63.748,111.927],[23.9302,63.7483,109.8838],[23.9296,63.7438,107.3233],[23.9194,63.744,107.2189],[23.9188,63.7396,106.8652],[23.9087,63.7398,109.2359],[23.9081,63.7353,95.0],[23.8777,63.7361,94.1718],[23.8783,63.7406,95.0698],[23.8682,63.7409,91.2505],[23.8688,63.7454,92.3066],[23.8586,63.7456,91.2715],[23.8592,63.7501,88.7052],[23.839,63.7506,89.3121],[23.8384,63.7462,96.6012],[23.8283,63.7464,86.5705],[23.8276,63.7419,87.8934],[23.8175,63.7422,82.8464],[23.8169,63.7377,92.8814],[23.8068,63.738,93.5237],[23.8062,63.7335,80.5474],[23.7859,63.734,85.531],[23.7865,63.7385,80.2448],[23.7764,63.7388,82.4427],[23.777,63.7433,75.5618],[23.7567,63.7438,70.942],[23.7573,63.7482,74.3403],[23.7472,63.7485,81.5461],[23.7466,63.744,68.1596],[23.7263,63.7445,56.0492],[23.7252,63.7356,64.2059],[23.715,63.7358,60.129],[23.7144,63.7313,66.5232],[23.7347,63.7308,65.403],[23.7341,63.7263,76.9091],[23.7442,63.7261,65.6467],[23.7419,63.7081,71.8031],[23.7318,63.7084,73.4063],[23.7312,63.7039,76.046],[23.7514,63.7034,83.8331],[23.752,63.7079,77.0642],[23.7621,63.7076,80.2712],[23.7627,63.7121,90.2324],[23.7829,63.7116,81.8805],[23.7835,63.7161,75.678],[23.7937,63.7158,80.5122],[23.7943,63.7203,73.2255],[23.8347,63.7193,81.8313],[23.8342,63.7148,83.5114],[23.8443,63.7145,86.7998],[23.8437,63.71,87.2834],[23.8538,63.7098,92.219],[23.8532,63.7053,94.5735],[23.8633,63.705,94.354],[23.8621,63.696,95.4586],[23.8722,63.6958,104.2003],[23.8716,63.6913,97.6777],[23.8817,63.691,98.685],[23.8805,63.682,105.7903],[23.8906,63.6818,103.0667],[23.89,63.6773,103.924],[23.9001,63.677,102.1646],[23.8988,63.6681,105.0654],[23.9089,63.6678,105.6631],[23.9065,63.6499,101.9579],[23.8964,63.6501,103.0389],[23.8952,63.6412,102.4525],[23.8851,63.6414,106.5629],[23.8857,63.6459,103.2232],[23.8655,63.6464,105.301],[23.8661,63.6509,106.0648],[23.8358,63.6517,85.8796],[23.8364,63.6562,96.158],[23.796,63.6572,96.0997],[23.7966,63.6617,87.4152],[23.7764,63.6623,96.4711],[23.777,63.6667,89.7839],[23.7568,63.6673,87.8675],[23.7574,63.6717,90.8743],[23.7372,63.6722,85.9669],[23.7366,63.6678,84.8794],[23.7265,63.668,72.2608],[23.7259,63.6635,72.5],[23.7158,63.6638,83.5973],[23.7152,63.6593,77.9157],[23.6849,63.6601,79.549],[23.6855,63.6646,66.0877],[23.6653,63.6651,65.756],[23.6658,63.6695,66.0558],[23.6456,63.67,69.2152],[23.6451,63.6656,61.0697],[23.635,63.6658,59.1062],[23.6338,63.6568,66.7936],[23.6237,63.6571,61.1847],[23.6231,63.6526,54.6544],[23.613,63.6528,65.4186],[23.6125,63.6483,49.5],[23.6024,63.6486,56.2088],[23.6018,63.6441,58.604],[23.5816,63.6446,48.5416],[23.5811,63.6401,71.5327],[23.5609,63.6406,45.9268],[23.5603,63.6361,43.5683],[23.5502,63.6364,50.8564],[23.5497,63.6319,46.3943],[23.5295,63.6324,69.476],[23.53,63.6369,43.5],[23.5199,63.6371,60.8625],[23.5205,63.6416,43.5],[23.5104,63.6418,52.9832],[23.512,63.6553,47.1243],[23.5019,63.6555,43.5],[23.5036,63.669,51.4558],[23.4935,63.6692,45.8954],[23.4929,63.6647,44.8214],[23.4828,63.665,55.4541],[23.4823,63.6605,47.7502],[23.4722,63.6607,43.5],[23.4716,63.6562,53.1541],[23.4817,63.656,43.486],[23.4801,63.6425,57.2308],[23.4902,63.6423,57.1345],[23.4896,63.6378,44.0],[23.4795,63.6381,48.6685],[23.479,63.6336,56.1235],[23.4689,63.6338,53.5578],[23.4683,63.6293,60.4604],[23.4583,63.6296,51.4259],[23.4577,63.6251,54.736],[23.4678,63.6248,50.4283],[23.4662,63.6114,50.5268],[23.4561,63.6116,58.3526],[23.4566,63.6161,53.2623],[23.4264,63.6168,57.0187],[23.4258,63.6123,58.8967],[23.4359,63.6121,55.6958],[23.4354,63.6076,55.6064],[23.4455,63.6074,56.9437],[23.4449,63.6029,56.1182],[23.4651,63.6024,66.4939],[23.4646,63.5979,59.7253],[23.4746,63.5977,61.3899],[23.4741,63.5932,54.6928],[23.4842,63.5929,56.9001],[23.4836,63.5885,52.0114],[23.5038,63.588,61.4884],[23.5043,63.5925,63.5365],[23.5245,63.592,51.3351],[23.525,63.5965,48.4703],[23.5452,63.596,49.3923],[23.5458,63.6005,53.2845],[23.5659,63.6,56.2242],[23.5637,63.582,69.2115],[23.5738,63.5818,63.6111],[23.5715,63.5639,61.0485],[23.5816,63.5636,61.3824],[23.5799,63.5502,60.7672],[23.6,63.5497,58.0221],[23.5995,63.5452,64.7987],[23.6196,63.5447,66.7127],[23.619,63.5402,57.0794],[23.6291,63.5399,71.1372],[23.6285,63.5355,59.7022],[23.6486,63.535,74.7975],[23.6481,63.5305,73.3162],[23.6581,63.5302,78.4648],[23.6541,63.4988,87.3945],[23.6642,63.4986,94.7807],[23.6568,63.4403,85.5407],[23.6668,63.44,90.3431],[23.6651,63.4266,73.7982],[23.6751,63.4263,73.7738],[23.674,63.4173,67.1725],[23.684,63.4171,73.6029],[23.6828,63.4081,74.2419],[23.6929,63.4079,69.3239],[23.6917,63.3989,79.8559],[23.7017,63.3986,76.4849],[23.7006,63.3897,83.8621],[23.7106,63.3894,89.8693],[23.7094,63.3804,81.6526],[23.6994,63.3807,86.0752],[23.6988,63.3762,91.076],[23.7088,63.3759,88.2394],[23.7077,63.367,79.6728],[23.7177,63.3667,85.9058],[23.7165,63.3577,83.2585],[23.7265,63.3575,84.8652],[23.7254,63.3485,85.8931],[23.7354,63.3483,96.7722],[23.7342,63.3393,95.7843],[23.7442,63.339,91.0405],[23.7436,63.3345,93.296],[23.7536,63.3343,92.8177],[23.7524,63.3253,105.7782],[23.7624,63.3251,97.2357],[23.7613,63.3161,103.2034],[23.7713,63.3158,94.5728],[23.7707,63.3114,106.915],[23.7806,63.3111,100.7576],[23.7801,63.3066,96.9296],[23.8,63.3061,89.1265],[23.7994,63.3016,92.5612],[23.8094,63.3013,94.1831],[23.8088,63.2969,95.9312],[23.8188,63.2966,94.7137],[23.8182,63.2921,99.9733],[23.8382,63.2916,93.4524],[23.8376,63.2871,93.4685],[23.8475,63.2868,99.9949],[23.8469,63.2824,95.793],[23.8569,63.2821,99.1134],[23.8563,63.2776,98.4196],[23.9958,63.2738,122.0],[23.9952,63.2694,122.0],[24.0251,63.2685,136.6446],[24.0245,63.2641,122.0],[24.0444,63.2635,143.4797],[24.0438,63.259,130.7286]]]]}
,"properties": {"GID_3": "FIN.5.2.1_1","GID_0": "FIN","country": "Finland","GID_1": "FIN.5_1","province": "WesternFinland","NL_NAME_1": "NA","GID_2": "FIN.5.2_1","county": "CentralOstrobothnia","NL_NAME_2": "NA","city": "Kaustinen","VARNAME_3": "NA","NL_NAME_3": "NA","TYPE_3": "Seutukunta|Ekonomiskregion","ENGTYPE_3": "Sub-Region","CC_3": "NA","HASC_3": "FI.LS.KN","name": "Kaustinen.city","area_km2": 3421.659,"hist_schema_id": "Elevation0-9000","hist_area_km2": {"50": 67.328,"75": 214.312,"100": 630.25,"125": 858.891,"150": 773.523,"175": 752.862,"200": 123.327,"225": 1.167}}}