{"type": "Feature","bbox": [28.6345,62.3352,30.6857,63.105],"geometry": {"type": "MultiPolygon","coordinates": [[[[29.6118,62.9733,86.5],[29.6104,62.9688,86.5],[29.6006,62.9695,86.5],[29.6021,62.9739,86.5],[29.5825,62.9752,86.5],[29.584,62.9797,86.5],[29.5644,62.981,86.5],[29.5658,62.9854,86.5],[29.5561,62.9861,86.5],[29.5575,62.9905,86.5],[29.5477,62.9912,86.5],[29.5492,62.9956,86.5],[29.5394,62.9963,86.5],[29.5409,63.0007,86.5],[29.5311,63.0013,86.5],[29.534,63.0102,86.5],[29.5242,63.0109,86.5],[29.5271,63.0198,86.5],[29.5173,63.0204,86.5],[29.5216,63.0337,86.5],[29.5118,63.0344,86.5],[29.5162,63.0477,86.5],[29.5064,63.0484,86.5],[29.5093,63.0572,92.5289],[29.4995,63.0579,88.2916],[29.5009,63.0623,97.6347],[29.4911,63.063,97.0056],[29.4926,63.0674,93.0217],[29.4827,63.0681,102.1705],[29.4842,63.0725,93.5551],[29.4744,63.0732,106.3082],[29.4758,63.0776,97.5933],[29.4562,63.0789,106.3438],[29.4576,63.0833,101.371],[29.4478,63.084,113.3813],[29.4493,63.0884,119.7774],[29.4394,63.0891,121.8274],[29.4409,63.0935,130.354],[29.4311,63.0942,127.5363],[29.4325,63.0986,133.4693],[29.4227,63.0992,134.7033],[29.4241,63.1037,143.9869],[29.4045,63.105,149.3909],[29.403,63.1005,156.792],[29.3932,63.1012,216.7169],[29.3918,63.0967,233.5923],[29.4016,63.0961,175.971],[29.3973,63.0828,181.863],[29.4071,63.0821,178.1754],[29.4028,63.0688,182.6154],[29.393,63.0694,173.2959],[29.3915,63.065,172.2632],[29.3817,63.0656,159.1596],[29.3803,63.0612,154.8215],[29.3704,63.0618,155.3006],[29.369,63.0574,165.0108],[29.3592,63.058,160.2417],[29.3578,63.0536,153.7484],[29.3381,63.0549,155.0263],[29.3367,63.0504,146.183],[29.3073,63.0523,136.9615],[29.3059,63.0479,128.0388],[29.2764,63.0498,134.5284],[29.275,63.0453,140.5432],[29.2456,63.0472,145.3329],[29.2442,63.0428,148.7609],[29.2245,63.044,147.5902],[29.2203,63.0307,134.5011],[29.1909,63.0326,142.2314],[29.1895,63.0281,145.76],[29.1503,63.0306,151.6958],[29.1419,63.004,144.1731],[29.1321,63.0046,147.2069],[29.1265,62.9868,158.8449],[29.1069,62.988,166.6877],[29.1055,62.9836,168.425],[29.0663,62.9861,241.8757],[29.065,62.9816,224.536],[29.0552,62.9823,212.2021],[29.0538,62.9778,226.1587],[29.044,62.9784,201.9914],[29.0426,62.974,196.7575],[29.0328,62.9746,213.6289],[29.0315,62.9701,186.8624],[29.0119,62.9714,164.6399],[29.0105,62.9669,172.6087],[29.0007,62.9676,166.9151],[28.9993,62.9631,154.0653],[28.9895,62.9637,133.9424],[28.9882,62.9593,143.362],[28.9784,62.9599,146.0172],[28.977,62.9554,138.4511],[28.9672,62.9561,149.2898],[28.9645,62.9472,157.7714],[28.9743,62.9465,153.9279],[28.9729,62.9421,161.5373],[28.9827,62.9415,148.9375],[28.9813,62.937,151.8783],[28.9911,62.9364,147.1801],[28.9897,62.932,152.5471],[28.9995,62.931399999999996,143.5798],[28.9982,62.9269,144.5876],[28.9884,62.9275,145.0738],[28.987,62.9231,159.9058],[28.9577,62.9249,154.762],[28.959,62.9294,152.1617],[28.9493,62.93,152.8319],[28.9506,62.9344,148.2348],[28.9408,62.935,164.9373],[28.9422,62.9395,149.5999],[28.9324,62.9401,173.2771],[28.9297,62.9312,185.6864],[28.9395,62.9306,168.3245],[28.9354,62.9173,130.6114],[28.9452,62.9166,134.2094],[28.9438,62.9122,136.2225],[28.9536,62.9116,137.6677],[28.9522,62.9071,140.0295],[28.9718,62.9059,117.4676],[28.9704,62.9015,116.0],[28.9802,62.9009,122.0816],[28.9788,62.8964,131.7972],[28.9984,62.8952,116.0],[28.9943,62.8818,150.8604],[29.004,62.8812,144.2836],[29.0027,62.8768,153.9827],[29.0222,62.8755,125.6562],[29.0208,62.8711,135.5416],[29.0403,62.8699,113.8154],[29.039,62.8654,123.6943],[29.0487,62.8648,114.721],[29.0474,62.8604,122.1238],[29.0669,62.8591,109.5416],[29.0655,62.8547,116.4115],[29.085,62.8534,113.7181],[29.0836,62.849,114.3039],[29.1031,62.8478,110.6385],[29.1017,62.8433,112.7787],[29.092,62.8439,112.2044],[29.0906,62.8395,117.2566],[29.0809,62.8401,114.6249],[29.0795,62.8357,113.5783],[29.0697,62.8363,114.8588],[29.0684,62.8318,113.0293],[29.0489,62.8331,119.0055],[29.0475,62.8286,122.6574],[29.0378,62.8292,122.0828],[29.0364,62.8248,119.44],[29.0267,62.8254,119.7143],[29.0253,62.8209,118.4427],[29.0155,62.8216,118.2188],[29.0142,62.8171,105.8239],[29.0044,62.8177,108.0861],[29.0031,62.8133,107.0411],[28.9933,62.8139,107.5],[28.992,62.8095,107.5],[28.9822,62.8101,121.3923],[28.9809,62.8056,136.3971],[28.9711,62.8062,133.9851],[28.9684,62.7973,141.4584],[28.9587,62.798,128.8772],[28.9519,62.7757,130.9333],[28.9422,62.7763,130.7309],[28.9408,62.7719,118.0],[28.9311,62.7725,118.0],[28.9325,62.7769,132.5754],[28.9227,62.7775,128.8309],[28.9241,62.782,158.9712],[28.9046,62.7832,149.7566],[28.906,62.7877,144.1866],[28.8962,62.7883,141.0006],[28.8989,62.7972,126.0],[28.8794,62.7984,134.8006],[28.8808,62.8028,144.2605],[28.8516,62.8046,134.2574],[28.8529,62.8091,125.9324],[28.8432,62.8097,127.1093],[28.8445,62.8141,113.2881],[28.8347,62.8147,113.9405],[28.8361,62.8192,117.6424],[28.8263,62.8198,114.4555],[28.8277,62.8242,99.5],[28.8179,62.8248,99.5],[28.8193,62.8293,99.5],[28.7803,62.8317,109.7498],[28.7789,62.8272,111.6142],[28.7692,62.8278,99.5],[28.7665,62.8189,99.5],[28.7568,62.8195,99.5],[28.7555,62.8151,99.5],[28.7457,62.8157,99.5],[28.7431,62.8068,99.5],[28.7528,62.8062,99.5],[28.7488,62.7928,99.5],[28.7391,62.7934,99.5],[28.7365,62.7845,99.5],[28.7267,62.7851,99.5],[28.7228,62.7718,99.5],[28.6741,62.7747,99.5],[28.6728,62.7703,99.5],[28.6631,62.7709,99.5],[28.6617,62.7664,99.5],[28.652,62.767,99.5],[28.6494,62.7581,99.5],[28.6397,62.7587,99.5],[28.6345,62.7409,99.5],[28.6442,62.7403,99.5],[28.6416,62.7314,99.5],[28.6513,62.7308,99.5],[28.6487,62.7219,99.5],[28.6584,62.7214,99.5],[28.6571,62.7169,99.5],[28.6668,62.7163,99.5],[28.6655,62.7119,99.5],[28.6849,62.7107,99.5],[28.6836,62.7062,99.5],[28.6933,62.7056,106.6964],[28.692,62.7012,99.5],[28.7017,62.7006,99.5],[28.7004,62.6961,99.5],[28.7101,62.6955,99.5],[28.7088,62.6911,99.5],[28.6991,62.6917,99.5],[28.6978,62.6872,99.5],[28.6881,62.6878,99.5],[28.6855,62.6789,112.3778],[28.6758,62.6795,99.5],[28.6745,62.6751,99.5],[28.6648,62.6757,99.5],[28.6583,62.6534,99.5],[28.6777,62.6522,99.5],[28.6764,62.6478,99.5],[28.7926,62.6406,99.5],[28.7913,62.6362,99.5],[28.8107,62.635,99.5],[28.8094,62.6306,99.5],[28.8191,62.6299,99.5],[28.8177,62.6255,99.5],[28.8274,62.6249,99.5],[28.8261,62.6204,99.5],[28.8358,62.6198,99.5],[28.8344,62.6154,99.5],[28.8441,62.6148,99.5],[28.8428,62.6103,99.5],[28.8525,62.6097,99.5],[28.8511,62.6053,99.5],[28.8608,62.6047,99.5],[28.8595,62.6002,99.5],[28.8788,62.599,99.5],[28.8775,62.5946,99.5],[28.8969,62.5934,99.5],[28.8955,62.5889,99.5],[28.9149,62.5877,99.5],[28.9135,62.5833,99.5],[28.9328,62.582,99.5],[28.9315,62.5776,99.5],[28.9508,62.5764,99.5],[28.9468,62.563,99.5],[28.9565,62.5624,99.5],[28.9551,62.558,99.5],[28.9745,62.5568,101.554],[28.9731,62.5523,99.5],[28.9828,62.5517,102.2396],[28.9814,62.5473,99.5],[29.0007,62.546,99.5],[28.9994,62.5416,99.5],[29.0091,62.541,110.7185],[29.0077,62.5365,99.5],[29.027,62.5353,99.5],[29.0257,62.5308,99.5],[29.0353,62.5302,99.5],[29.0339,62.5258,119.304],[29.0436,62.5252,114.9843],[29.0422,62.5207,127.5817],[29.0326,62.5213,125.193],[29.0313,62.5169,109.3513],[29.012,62.5181,111.1227],[29.0106,62.5137,106.4073],[29.0203,62.5131,115.1796],[29.0189,62.5086,119.9355],[29.0382,62.5074,119.2207],[29.0368,62.5029,132.8929],[29.0561,62.5017,111.5],[29.0548,62.4972,111.5],[29.0837,62.4954,111.5],[29.0823,62.491,111.5],[29.092,62.4903,111.5],[29.0933,62.4948,111.5],[29.1126,62.4935,111.5],[29.1112,62.4891,111.5],[29.1209,62.4885,111.5],[29.1195,62.484,117.2989],[29.1099,62.4846,111.5],[29.1031,62.4624,111.5],[29.0935,62.463,111.5],[29.0813,62.423,110.5],[29.0909,62.4224,110.5],[29.0895,62.418,110.5],[29.1087,62.4167,110.5],[29.102,62.3945,131.3836],[29.1212,62.3932,114.6567],[29.1198,62.3888,112.5983],[29.1678,62.3857,111.1991],[29.1706,62.3946,105.0],[29.161,62.3952,109.7523],[29.1637,62.4041,117.1039],[29.1733,62.4035,117.9073],[29.1746,62.4079,106.3603],[29.1842,62.4073,107.1009],[29.1829,62.4028,104.597],[29.2021,62.4016,95.4325],[29.2035,62.406,111.0481],[29.2131,62.4054,119.8992],[29.2158,62.4143,73.5],[29.2254,62.4137,73.5],[29.2268,62.4181,73.5],[29.246,62.4169,73.5],[29.2446,62.4124,73.5],[29.2638,62.4112,73.5],[29.2625,62.4067,73.5],[29.2721,62.4061,73.5],[29.2707,62.4016,73.5],[29.2803,62.401,73.5],[29.2789,62.3966,73.5],[29.2885,62.3959,73.5],[29.2871,62.3915,73.5],[29.2967,62.3909,73.5],[29.2953,62.3864,73.5],[29.3145,62.3851,73.5],[29.3159,62.3896,73.5],[29.3447,62.3877,73.5],[29.3461,62.3921,73.5],[29.3845,62.3895,73.5],[29.3859,62.394,73.5],[29.4243,62.3915,73.5],[29.4257,62.3959,73.5],[29.4545,62.394,73.5],[29.4559,62.3984,73.5],[29.4943,62.3958,73.5],[29.4957,62.4003,73.5],[29.5245,62.3983,73.5],[29.5259,62.4028,73.5],[29.5355,62.4021,73.5],[29.5369,62.4066,73.5],[29.5465,62.4059,73.5],[29.5451,62.4015,73.5],[29.5643,62.4002,73.5],[29.5629,62.3957,73.5],[29.5725,62.3951,73.5],[29.571,62.3906,73.5],[29.5902,62.3893,73.5],[29.5888,62.3849,73.5],[29.5984,62.3842,73.5],[29.597,62.3798,73.5],[29.6065,62.3791,73.5],[29.6051,62.3747,73.5],[29.6243,62.3734,73.5],[29.6229,62.3689,73.5],[29.6324,62.3683,73.5],[29.631,62.3638,73.5],[29.6598,62.3619,73.5],[29.6626,62.3707,73.5],[29.6722,62.3701,73.5],[29.6737,62.3745,73.5],[29.6833,62.3739,73.5],[29.6847,62.3783,73.5],[29.6943,62.3777,73.5],[29.6971,62.3865,73.5],[29.7067,62.3859,73.5],[29.7082,62.3903,73.5],[29.7274,62.389,73.5],[29.7288,62.3934,73.5],[29.748,62.3921,73.5],[29.7494,62.3965,73.5],[29.7686,62.3952,73.5],[29.7701,62.3997,73.5],[29.7605,62.4003,73.5],[29.7706,62.431399999999996,73.5],[29.761,62.432,73.5],[29.7698,62.4587,73.5],[29.7794,62.458,73.5],[29.7765,62.4491,73.5],[29.7861,62.4485,73.5],[29.7846,62.444,73.5],[29.7942,62.4434,73.5],[29.7928,62.4389,73.5],[29.8024,62.4383,73.5],[29.7995,62.4294,73.5],[29.8091,62.4287,73.5],[29.8076,62.4243,73.5],[29.8172,62.4236,73.5],[29.8143,62.4147,73.5],[29.8239,62.4141,73.5],[29.8224,62.4096,73.5],[29.832,62.409,73.5],[29.8305,62.4045,73.5],[29.8401,62.4039,73.5],[29.8372,62.395,85.0956],[29.8468,62.3943,81.6326],[29.8453,62.3899,99.7359],[29.8549,62.3892,88.5745],[29.8535,62.3848,82.7359],[29.8631,62.3841,89.7169],[29.8616,62.3797,80.6247],[29.8808,62.3783,78.528],[29.8793,62.3739,88.059],[29.9559,62.3685,76.0],[29.9574,62.3729,76.0],[29.967,62.3722,81.6683],[29.9699,62.3811,83.8644],[29.9891,62.3797,77.4455],[29.9906,62.3842,84.1985],[30.0098,62.3828,127.3637],[30.0112,62.3872,98.9984],[30.04,62.3852,118.0074],[30.0415,62.3896,86.0238],[30.0511,62.389,84.5515],[30.0526,62.3934,87.8766],[30.0621,62.3927,91.3],[30.0636,62.3971,84.2433],[30.0924,62.3951,87.9446],[30.0909,62.3907,89.2126],[30.1388,62.3872,118.3513],[30.1403,62.3916,97.7793],[30.1499,62.3909,97.7271],[30.1514,62.3954,102.3719],[30.161,62.3947,100.4347],[30.1625,62.3991,109.1872],[30.1912,62.397,97.992],[30.1897,62.3926,95.0],[30.1993,62.3919,97.9348],[30.2054,62.4097,127.0143],[30.215,62.409,114.6869],[30.2165,62.4134,103.0],[30.2356,62.412,128.97],[30.2372,62.4164,126.8017],[30.2468,62.4157,113.3835],[30.2452,62.4113,112.317],[30.2548,62.4106,109.8842],[30.2502,62.3973,110.6052],[30.2598,62.3966,114.428],[30.2568,62.3877,107.5372],[30.2664,62.387,110.886],[30.2618,62.3737,111.1597],[30.2714,62.373,109.6763],[30.2683,62.3642,104.3138],[30.2779,62.3635,101.746],[30.2748,62.3546,101.1552],[30.2844,62.3539,107.2455],[30.2829,62.3495,108.729],[30.2924,62.3488,110.4806],[30.294,62.3532,103.2579],[30.3035,62.3525,100.2741],[30.3051,62.3569,106.5156],[30.3242,62.3555,111.7571],[30.3257,62.36,119.7664],[30.3353,62.3593,130.1023],[30.3368,62.3637,118.4116],[30.3464,62.363,127.3189],[30.3449,62.3586,120.9746],[30.3831,62.3557,98.4121],[30.3816,62.3513,101.6672],[30.3911,62.3506,100.7671],[30.3896,62.3462,103.2544],[30.3992,62.3455,109.315],[30.3976,62.341,109.1277],[30.4072,62.3403,102.7345],[30.4056,62.3359,107.0846],[30.4152,62.3352,111.3335],[30.4168,62.3396,109.5669],[30.4263,62.3389,107.0489],[30.4279,62.3433,101.4239],[30.447,62.3419,98.8477],[30.4485,62.3464,92.327],[30.4676,62.3449,92.9308],[30.4692,62.3494,93.5093],[30.4979,62.3472,107.071],[30.4994,62.3517,122.9854],[30.509,62.3509,141.6496],[30.5106,62.3554,163.7523],[30.5392,62.3532,122.5795],[30.5408,62.3576,125.1531],[30.5599,62.3562,120.8446],[30.5646,62.3695,126.8625],[30.5933,62.3673,124.1033],[30.5918,62.3629,112.4714],[30.6109,62.3615,129.0462],[30.6093,62.357,122.7442],[30.6189,62.3563,147.5884],[30.6173,62.3519,119.7188],[30.6269,62.3512,149.4511],[30.646,62.3497,161.9073],[30.6475,62.3541,151.8143],[30.6667,62.3527,164.3417],[30.6698,62.3615,143.0247],[30.6794,62.3608,144.1642],[30.6857,62.3785,111.062],[30.6762,62.3793,112.7883],[30.6809,62.3925,118.7345],[30.6618,62.394,116.183],[30.6634,62.3984,115.1316],[30.6538,62.3992,119.0798],[30.6554,62.4036,116.2257],[30.6458,62.4043,123.9007],[30.6474,62.4087,113.647],[30.6378,62.4095,123.8839],[30.6394,62.4139,116.1246],[30.6202,62.4153,121.9669],[30.6218,62.4198,123.595],[30.6122,62.4205,121.4265],[30.6138,62.4249,108.0],[30.6042,62.4256,108.0],[30.6058,62.4301,108.0],[30.5866,62.4315,112.3248],[30.5882,62.4359,108.0],[30.5786,62.4367,116.0302],[30.5818,62.4455,117.7793],[30.5722,62.4462,122.2522],[30.5738,62.4507,108.0],[30.5642,62.4514,108.0],[30.5673,62.4602,108.0],[30.5481,62.4617,117.8631],[30.5497,62.4661,108.0],[30.4537,62.4733,196.4306],[30.4553,62.4777,208.7863],[30.4457,62.4784,208.5934],[30.4488,62.4873,184.0793],[30.4392,62.488,177.753],[30.4423,62.4968,138.6474],[30.4327,62.4975,126.3047],[30.4342,62.502,130.51],[30.4246,62.5027,125.733],[30.4262,62.5071,122.4836],[30.4166,62.5078,122.2676],[30.4197,62.5167,122.396],[30.4101,62.5174,118.6963],[30.4116,62.5218,115.0028],[30.402,62.5225,115.5331],[30.4051,62.5314,117.8653],[30.3955,62.5321,117.191],[30.397,62.5365,135.7679],[30.4067,62.5358,119.9091],[30.4082,62.5403,120.3141],[30.3986,62.541,139.1817],[30.4002,62.5454,129.2082],[30.3905,62.5461,150.09],[30.3921,62.5505,154.0197],[30.4017,62.5498,129.1619],[30.4033,62.5543,129.3535],[30.4225,62.5528,127.9848],[30.4241,62.5573,137.2479],[30.4337,62.5566,117.3565],[30.4353,62.561,129.4867],[30.4449,62.5603,114.9355],[30.4464,62.5647,122.0373],[30.4561,62.564,122.7699],[30.4576,62.5684,131.4377],[30.4673,62.5677,126.2145],[30.472,62.581,139.2874],[30.4816,62.5803,124.3382],[30.4879,62.598,129.2129],[30.5168,62.5959,134.3835],[30.5184,62.6003,152.7721],[30.528,62.5996,163.2992],[30.5296,62.604,135.0],[30.5392,62.6033,143.0959],[30.5424,62.6122,144.9896],[30.5521,62.6115,160.9863],[30.5552,62.6203,158.3451],[30.5745,62.618899999999996,148.5861],[30.5729,62.6144,146.6976],[30.5826,62.6137,156.7127],[30.5857,62.6226,163.9725],[30.5954,62.6218,175.6008],[30.6017,62.6396,162.5379],[30.5921,62.6403,160.3995],[30.6,62.6624,166.3483],[30.5904,62.6632,151.7557],[30.5952,62.6764,170.0947],[30.5855,62.6772,164.5972],[30.5887,62.686,166.4585],[30.5597,62.6882,182.3553],[30.5581,62.6838,164.2601],[30.5484,62.6845,174.0194],[30.55,62.6889,165.9916],[30.521,62.6911,152.8072],[30.5226,62.6955,151.0065],[30.5129,62.6962,153.6184],[30.5193,62.7139,162.4673],[30.5289,62.7132,162.0917],[30.5337,62.7265,152.2711],[30.5434,62.7258,129.9747],[30.5497,62.7435,168.0586],[30.5594,62.7428,174.5107],[30.561,62.7472,171.8458],[30.5513,62.7479,158.5367],[30.5625,62.7789,166.784],[30.5528,62.7797,168.5811],[30.556,62.7885,154.4939],[30.5462,62.7892,157.7457],[30.5494,62.7981,154.495],[30.5397,62.7988,157.8942],[30.5413,62.8032,153.3221],[30.5316,62.804,145.8741],[30.5332,62.8084,151.6387],[30.5235,62.8091,142.0],[30.5299,62.8268,162.0195],[30.5201,62.8275,146.4353],[30.5217,62.832,155.3714],[30.5023,62.8334,156.1327],[30.5039,62.8378,171.5235],[30.4942,62.8386,154.0217],[30.4958,62.843,132.5212],[30.4763,62.8444,146.6863],[30.4811,62.8577,154.0664],[30.4714,62.8584,142.5767],[30.4761,62.8717,186.0496],[30.4664,62.8724,168.9949],[30.4727,62.8901,172.1851],[30.463,62.8909,174.7107],[30.4662,62.8997,167.5],[30.4564,62.9004,167.5],[30.458,62.9049,181.7122],[30.4483,62.9056,185.2004],[30.4515,62.9144,195.202],[30.4417,62.9151,186.1066],[30.4433,62.9196,177.8138],[30.4335,62.9203,180.7697],[30.4399,62.938,188.4302],[30.4301,62.9387,189.9345],[30.4333,62.9476,186.8446],[30.4236,62.9483,195.6572],[30.4251,62.9527,198.7412],[30.4154,62.9534,190.95],[30.417,62.9579,197.1622],[30.4072,62.9586,192.1094],[30.4088,62.963,189.6227],[30.399,62.9637,199.7461],[30.4006,62.9682,197.7381],[30.3909,62.9689,206.7077],[30.3924,62.9733,177.0972],[30.3827,62.974,183.1934],[30.3842,62.9784,180.7731],[30.3745,62.9791,144.5],[30.3761,62.9836,189.9377],[30.3663,62.9843,171.0404],[30.3694,62.9931,209.3125],[30.3597,62.9939,198.0317],[30.3628,63.0027,235.1761],[30.3433,63.0041,192.8109],[30.3448,63.0086,221.5798],[30.3351,63.0093,190.5012],[30.3367,63.0137,201.9253],[30.3269,63.0144,185.2536],[30.3284,63.0188,204.1083],[30.2991,63.021,214.7633],[30.3007,63.0254,233.0925],[30.2811,63.0268,185.2842],[30.2827,63.0312,189.7495],[30.2729,63.0319,220.0385],[30.2745,63.0364,192.1816],[30.2647,63.0371,213.2226],[30.2662,63.0415,188.833],[30.2075,63.0457,161.2266],[30.2059,63.0412,144.9395],[30.1765,63.0433,133.907],[30.175,63.0389,120.4371],[30.1652,63.0396,111.2211],[30.1637,63.0351,104.4015],[30.1539,63.0358,111.3624],[30.1523,63.0314,117.2697],[30.1229,63.0335,108.5511],[30.1245,63.0379,110.7063],[30.0657,63.042,104.1516],[30.0673,63.0465,117.3811],[30.0281,63.0492,92.5],[30.0235,63.0359,92.5],[29.9941,63.038,92.5],[29.9956,63.0424,92.5],[29.976,63.0438,92.5],[29.9745,63.0393,92.5],[29.9647,63.04,92.5],[29.9571,63.0178,174.5186],[29.9473,63.0185,245.9091],[29.9488,63.0229,191.525],[29.9391,63.0236,228.0697],[29.9406,63.0281,176.133],[29.921,63.0294,195.4156],[29.9225,63.0338,208.8402],[29.9127,63.0345,185.0508],[29.9142,63.039,214.013],[29.9044,63.0396,194.6775],[29.9074,63.0485,142.2445],[29.8878,63.0499,214.865],[29.8893,63.0543,218.0519],[29.8796,63.055,203.409],[29.8811,63.0594,160.4117],[29.8713,63.0601,200.9485],[29.8728,63.0645,167.3026],[29.863,63.0652,154.84],[29.8615,63.0607,145.501],[29.8516,63.0614,129.7178],[29.8501,63.057,113.6722],[29.8403,63.0577,115.7562],[29.8373,63.0488,149.2674],[29.8275,63.0494,167.9116],[29.826,63.045,275.9935],[29.8064,63.0464,232.4955],[29.8079,63.0508,245.743],[29.7883,63.0521,249.1229],[29.7868,63.0477,244.5596],[29.7966,63.047,242.2175],[29.7936,63.0382,240.9003],[29.7838,63.0388,235.8278],[29.7809,63.0299,200.9285],[29.7711,63.0306,192.928],[29.7681,63.0217,161.9819],[29.7583,63.0224,148.601],[29.7553,63.0135,141.6834],[29.7455,63.0142,154.1878],[29.7425,63.0053,138.7033],[29.7327,63.006,141.3067],[29.7313,63.0015,136.2173],[29.7117,63.0028,134.9796],[29.7102,62.9984,128.4633],[29.7004,62.9991,132.9738],[29.6989,62.9946,131.4529],[29.6794,62.996,122.3001],[29.6779,62.9915,121.1501],[29.6583,62.9928,115.8706],[29.6569,62.9884,112.3131],[29.6471,62.9891,111.3556],[29.6456,62.9846,108.3857],[29.626,62.9859,100.1655],[29.6231,62.9771,99.458],[29.6133,62.9777,96.7452],[29.6118,62.9733,86.5]],
[[29.7712,62.4631,73.5],[29.7698,62.4587,73.5],[29.7602,62.4594,73.5],[29.7616,62.4638,73.5],[29.7712,62.4631,73.5]]]]}
,"properties": {"GID_3": "FIN.1.1.2_1","GID_0": "FIN","country": "Finland","GID_1": "FIN.1_1","province": "EasternFinland","NL_NAME_1": "NA","GID_2": "FIN.1.1_1","county": "NorthKarelia","NL_NAME_2": "NA","city": "Joensuu","VARNAME_3": "NA","NL_NAME_3": "NA","TYPE_3": "Seutukunta|Ekonomiskregion","ENGTYPE_3": "Sub-Region","CC_3": "NA","HASC_3": "FI.IS.JO","name": "Joensuu.city","area_km2": 5777.459,"hist_schema_id": "Elevation0-9000","hist_area_km2": {"50": 0.048,"75": 1330.969,"100": 1834.456,"125": 1428.519,"150": 739.727,"175": 305.049,"200": 104.137,"225": 26.864,"250": 6.179,"275": 1.164,"300": 0.298}}}