{"type":"Feature","properties":{"id":19310.0,"name":"Irnijärvi","lge_id":null,"pfafstette":977.0,"lke_type":"N","altitude":0,"objectid":13353,"scalerank":12,"featurecla":"Lake","note":null,"funkyname":0,"min_zoom":7.0,"min_label":8.0},
"geometry":{"type": "Polygon","coordinates": [[[29.127818230083733,65.666022039837827,242.0453],[29.127818230083733,65.666022039837827,242.0453],[29.155161980083733,65.662054754681577,236.0],[29.184092644146233,65.670538641400327,236.0],[29.192515495708733,65.684820867962827,236.0],[29.231089714458733,65.686651922650327,236.0],[29.268199089458733,65.683294989056577,236.0],[29.277354362896233,65.692755438275327,237.3716],[29.251475456646233,65.703680731244077,243.895],[29.202891472271233,65.707953192181577,240.4696],[29.167613151958733,65.698492742962827,248.431],[29.139659050396233,65.691534735150327,241.6497],[29.120860222271233,65.690619207806577,261.5557],[29.122569206646233,65.679083563275327,236.0],[29.127818230083733,65.666022039837827,242.0453]]]}}