{"type":"Feature","properties":{"featurecla":"Lake","scalerank":7,"name":"null371","name_abb":null,"name_alt":null,"note":"_untitled_131","delta":null,"dam_name":null,"year":-99,"admin":null,"min_zoom":5.7,"min_label":6.7},
"geometry":{"type": "Polygon","coordinates": [[[26.954191223005921,61.139542983319814,99.4019],[26.942711022047803,61.153966825549247,80.5755],[26.921222440767195,61.1460189941167,74.5],[26.904149321393561,61.140131711574071,74.5],[26.881188919477268,61.142780988718243,74.5],[26.842038490568768,61.155733010312048,83.8575],[26.8461595883486,61.157204830947705,74.5],[26.8488088654928,61.158676651583363,74.5],[26.854990512162573,61.163092113490336,80.5],[26.832324474373422,61.166918847143052,96.7748],[26.818489360398246,61.177221591592655,89.8326],[26.816428811508302,61.192528526203489,99.8575],[26.829086468974964,61.21107346621281,80.5],[26.821433001669561,61.21107346621281,74.5],[26.829969561356364,61.230207134476359,131.5709],[26.817017539762588,61.234622596383332,74.5],[26.796117686736238,61.225791672569386,99.8823],[26.780516387998262,61.204303091288779,97.1349],[26.770508007675772,61.222848031298071,119.9814],[26.784637485778092,61.252873172265481,112.1879],[26.8087753442029,61.28289831323292,97.0585],[26.829086468974964,61.300854524987955,123.3985],[26.809952800711415,61.320282557378647,101.5179],[26.757555986081968,61.343242959294912,77.5],[26.735773040674246,61.358255529778631,77.5],[26.722232290826184,61.3829821164577,77.5],[26.677488943502169,61.38916376312747,77.5],[26.661593280637049,61.3950510456701,77.5],[26.623031579982808,61.416245262823566,105.2561],[26.655705998094419,61.427136735527455,77.5],[26.911508424571849,61.410357980280935,106.6262],[26.900028223613702,61.396228502178616,108.3597],[26.903560593139275,61.387691942491813,114.0024],[26.9315251852168,61.369147002482492,92.0929],[26.931819549343913,61.3915186761445,81.0],[26.94418284268346,61.400938328212732,138.3995],[26.963905239201267,61.40329324122979,114.5435],[26.98598254873616,61.402704512975504,120.2533],[26.804359882295927,61.4342014745786,92.0579],[26.767270002277314,61.44921404506232,80.0],[26.745781420996707,61.451274593952235,80.0],[26.744015236233935,61.44921404506232,103.7663],[26.726647752733157,61.439794392994116,95.9125],[26.700449345418434,61.432140925688685,92.8699],[26.691324057477345,61.432140925688685,77.5],[26.683670590171943,61.4368507517228,77.5],[26.681610041282,61.45009713744372,104.3566],[26.690146600968831,61.464815343800296,92.8146],[26.727825209241672,61.501316495564623,132.3919],[26.729885758131587,61.510441783505712,114.2838],[26.727530845114558,61.520744527955316,78.5],[26.725470296224614,61.53693455494755,78.5],[26.729885758131587,61.561955505753758,91.6215],[26.72841393749593,61.574318799093277,115.0498],[26.718994285427726,61.589037005449853,134.7312],[26.706925356215322,61.597573565136685,124.4187],[26.656883454602934,61.615529776891719,96.5292],[26.672484753340939,61.618767782290149,87.0],[26.707514084469608,61.619356510544435,88.0],[26.725470296224614,61.622594515942865,110.0809],[26.692795878113003,61.629070526739781,123.167],[26.665420014289765,61.648792923257588,87.0],[26.615378112677377,61.697657368361433,110.5917],[26.612140107278947,61.679406792479284,126.3999],[26.62568085712698,61.654091477545961,94.037],[26.615378112677377,61.6423169124607,111.9446],[26.635394873322326,61.630542347375439,87.0],[26.6433427047549,61.628776162612638,87.0],[26.643048340627757,61.613763592128919,91.1105],[26.658649639365734,61.596101744501027,100.4364],[26.681021313027742,61.581089174017308,99.4912],[26.701332437799834,61.57461316322042,98.6131],[26.707514084469608,61.569608973059161,94.4959],[26.703981714944007,61.557540043846785,98.7801],[26.691029693350231,61.53369654954912,100.3433],[26.68749732382463,61.499550310801823,108.6881],[26.683670590171943,61.491602479369277,102.4666],[26.672484753340939,61.486892653335161,77.5],[26.663065101272707,61.489836294606476,77.5],[26.653939813331618,61.495723577149136,90.8664],[26.642753976500614,61.498961582547565,97.3121],[26.635394873322326,61.495429213021993,108.3471],[26.638632878720784,61.486892653335161,106.271],[26.64569761777193,61.4768842730127,106.0111],[26.649524351424645,61.468642077453012,99.1577],[26.6424596123735,61.440383121248374,81.0],[26.624797764745608,61.431552197434428,115.292],[26.602720455210715,61.426548007273169,115.8694],[26.581231873930108,61.410357980280935,96.6646],[26.586530428218481,61.406825610755362,87.9388],[26.589474069489796,61.403881969484047,87.7934],[26.595066987905284,61.395934138051473,80.5],[26.601248634575057,61.390341219635985,140.734],[26.670718568578138,61.36561463295692,118.7047],[26.681610041282,61.356783709142974,116.1114],[26.685731139061858,61.348541513583285,97.8489],[26.688086052078916,61.3402993180236,104.8751],[26.694562062875804,61.331468394209651,87.5997],[26.702509894308349,61.329996573573993,77.5],[26.739011046072676,61.334412035480966,106.454],[26.784931849905234,61.312629090073216,94.392],[26.781988208633919,61.276127938308889,77.5],[26.747253241632365,61.243453520197278,115.7969],[26.698094432401376,61.23197331923916,83.6892],[26.718994285427726,61.2593491830624,101.2773],[26.718994285427726,61.265530829732143,96.169],[26.670718568578138,61.265530829732143,74.5],[26.660121460001392,61.262587188460827,87.323],[26.654822905713019,61.256405541791082,74.5],[26.652173628568846,61.249635166867051,101.3645],[26.649524351424645,61.245808433214336,74.5],[26.632745596178154,61.243747884324421,92.6858],[26.597716265049485,61.251695715756966,104.9769],[26.574461499006077,61.252578808138367,128.1907],[26.574461499006077,61.245808433214336,103.9192],[26.588296612981281,61.241687335434477,97.917],[26.593006439015369,61.233150775747674,104.2001],[26.595361352032427,61.222259303043813,80.1147],[26.601837362829315,61.21107346621281,106.2654],[26.617144297440177,61.199004537000405,115.9956],[26.633628688559554,61.191939797949232,97.4915],[26.670718568578138,61.183697602389543,118.9358],[26.670718568578138,61.1775159557198,108.6549],[26.644520161263415,61.1766328633384,74.5],[26.635689237449469,61.1775159557198,96.137],[26.635689237449469,61.169862488414367,97.8022],[26.670718568578138,61.160442836346164,97.7792],[26.704864807325407,61.1460189941167,111.4995],[26.711046453995181,61.137188070302756,76.8507],[26.713107002885096,61.123058592200437,101.3808],[26.711635182249438,61.094210907741513,72.0],[26.722821019080442,61.09156163059734,112.6781],[26.771391100057173,61.086851804563224,86.6947],[26.787286762922264,61.088029261071767,86.0068],[26.798766963880411,61.097154549012828,80.3987],[26.799650056261811,61.108634749970975,74.5],[26.793174045464923,61.121292407437636,74.5],[26.784048757523834,61.132772608395783,74.5],[26.778161474981204,61.143075352845386,74.5],[26.77197982831143,61.160442836346164,74.5],[26.769919279421515,61.1766328633384,74.5],[26.77698401847266,61.183697602389543,89.879],[26.787286762922264,61.17839904810117,112.152],[26.81466262674553,61.142780988718243,74.5],[26.838211756916053,61.120998043310493,106.3274],[26.852341235018372,61.11246148362369,85.0017],[26.869119990264892,61.108634749970975,87.9829],[26.885898745511383,61.113050211877948,90.2372],[26.905915506156333,61.122469863946179,78.1485],[26.925637902674168,61.129240238870182,104.1038],[26.954191223005921,61.123352956327551,85.7716],[26.954191223005921,61.139542983319814,99.4019]]]}}