{"type": "Feature","bbox": [24.7368,65.6986,27.4751,67.185],"geometry": {"type": "MultiPolygon","coordinates": [[[[27.2611,66.1949,217.1927],[27.2636,66.2039,201.2809],[27.2747,66.2034,240.4995],[27.276,66.2078,222.222],[27.287,66.2073,208.5816],[27.2896,66.2163,175.1015],[27.3006,66.2158,183.1087],[27.3032,66.2247,167.0745],[27.3142,66.2242,172.1317],[27.3168,66.2331,176.7059],[27.3279,66.2326,126.3823],[27.3292,66.2371,124.583],[27.3181,66.2376,168.1765],[27.3194,66.2421,123.2436],[27.3083,66.2426,154.5962],[27.3096,66.247,135.5339],[27.2875,66.248,126.2879],[27.2888,66.2525,193.4952],[27.2666,66.2535,123.7264],[27.2743,66.2803,180.0419],[27.2632,66.2808,188.2495],[27.2658,66.2897,204.3519],[27.2547,66.2902,225.7956],[27.2573,66.2992,207.1202],[27.2462,66.2997,219.3749],[27.2474,66.3041,210.9761],[27.2363,66.3046,214.8669],[27.2427,66.327,258.2723],[27.2538,66.3265,260.8153],[27.2551,66.3309,254.9308],[27.244,66.3314,264.0947],[27.2453,66.3359,265.9054],[27.2231,66.3369,256.6926],[27.2244,66.3414,258.0261],[27.2021,66.3424,202.446],[27.2034,66.3468,198.1995],[27.1812,66.3478,190.9852],[27.1825,66.3523,225.5254],[27.1602,66.3533,125.0],[27.1615,66.3578,125.0],[27.1504,66.3583,143.9046],[27.1516,66.3627,143.7069],[27.1405,66.3632,157.7368],[27.1418,66.3677,166.9254],[27.1307,66.3682,175.4772],[27.1319,66.3726,178.7018],[27.1208,66.3731,188.539],[27.1221,66.3776,187.778],[27.1109,66.3781,204.5327],[27.1122,66.3826,195.4925],[27.1011,66.3831,218.8076],[27.1023,66.3875,205.694],[27.0912,66.388,248.2829],[27.0924,66.3925,232.4084],[27.0813,66.393,254.2744],[27.0826,66.3974,227.0317],[27.0714,66.3979,264.0837],[27.0727,66.4024,219.4877],[27.0616,66.4029,228.3874],[27.0628,66.4074,240.901],[27.0517,66.4078,243.7305],[27.0529,66.4123,225.6855],[27.0418,66.4128,216.1362],[27.043,66.4173,201.1503],[27.0207,66.4182,194.7819],[27.022,66.4227,218.3604],[27.0108,66.4232,222.4867],[27.0121,66.4277,233.956],[27.0009,66.4281,228.6335],[27.0022,66.4326,221.5275],[26.991,66.4331,216.1623],[26.9922,66.4376,210.8266],[26.9811,66.4381,221.3948],[26.9823,66.4425,209.8078],[26.9712,66.443,204.6076],[26.9724,66.4475,208.1297],[26.9613,66.448,207.1609],[26.9625,66.4524,217.7629],[26.9513,66.4529,203.2442],[26.9526,66.4574,209.0682],[26.9414,66.4579,203.0807],[26.9426,66.4623,208.8042],[26.9315,66.4628,201.7046],[26.9327,66.4673,202.4196],[26.9215,66.4678,206.6052],[26.9228,66.4722,194.6067],[26.9116,66.4727,196.2904],[26.9128,66.4772,193.8117],[26.9016,66.4777,188.9018],[26.9029,66.4821,178.6767],[26.8917,66.4826,179.9871],[26.8929,66.4871,189.5589],[26.8817,66.4875,180.6342],[26.883,66.492,192.9899],[26.8718,66.4925,193.0772],[26.873,66.497,196.5383],[26.8618,66.4974,194.8251],[26.863,66.5019,184.0199],[26.8518,66.5024,187.4507],[26.8531,66.5068,191.3513],[26.8307,66.5078,200.4365],[26.8319,66.5123,191.1555],[26.8207,66.5127,198.3705],[26.8219,66.5172,190.8309],[26.8107,66.5177,199.0852],[26.8119,66.5221,199.675],[26.8008,66.5226,196.4859],[26.802,66.5271,199.046],[26.7908,66.5275,189.9182],[26.792,66.532,222.6898],[26.7808,66.5325,220.2996],[26.782,66.537,248.3405],[26.7708,66.5374,241.5154],[26.772,66.5419,219.1813],[26.7608,66.5424,204.7686],[26.762,66.5468,192.2894],[26.7508,66.5473,187.6118],[26.752,66.5518,187.1758],[26.7408,66.5523,182.6568],[26.742,66.5567,182.9927],[26.7308,66.5572,182.5379],[26.732,66.5617,183.799],[26.7208,66.5621,178.4569],[26.722,66.5666,174.6118],[26.7107,66.567,176.4413],[26.7119,66.5715,170.6651],[26.7007,66.572,169.7014],[26.7175,66.6346,190.4926],[26.7063,66.6351,182.7036],[26.7111,66.653,182.9671],[26.6998,66.6534,179.455],[26.7058,66.6758,176.0116],[26.6946,66.6762,180.0354],[26.697,66.6852,174.6691],[26.6857,66.6857,180.8858],[26.6881,66.6946,176.1848],[26.6768,66.6951,185.1941],[26.678,66.6995,174.1906],[26.6668,66.7,212.539],[26.6692,66.709,175.6379],[26.6917,66.708,198.9922],[26.6941,66.717,190.8659],[26.6828,66.7174,183.4932],[26.6877,66.7353,198.8867],[26.6764,66.7358,202.5706],[26.6824,66.7582,186.7891],[26.6711,66.7586,188.9186],[26.6759,66.7765,190.1525],[26.6646,66.777,187.4704],[26.6706,66.7993,204.7649],[26.6593,66.7998,215.903],[26.6653,66.8222,193.4575],[26.654,66.8226,199.222],[26.6552,66.8271,197.8029],[26.6438,66.8276,196.8233],[26.645,66.832,200.3497],[26.6337,66.8325,202.5082],[26.6349,66.837,210.0089],[26.6122,66.8379,247.2073],[26.6134,66.8424,252.5633],[26.6021,66.8428,280.4598],[26.6045,66.8518,242.0479],[26.5931,66.8522,256.7893],[26.5943,66.8567,251.4201],[26.583,66.8571,270.7675],[26.5853,66.8661,242.9197],[26.574,66.8665,243.5376],[26.5752,66.871,222.8436],[26.5638,66.8715,220.1874],[26.5662,66.8804,293.0509],[26.5548,66.8809,279.2419],[26.556,66.8854,292.6095],[26.5447,66.8858,281.542],[26.5458,66.8903,242.6587],[26.5345,66.8907,238.1844],[26.5368,66.8997,259.5825],[26.5255,66.9001,246.9798],[26.5267,66.9046,249.6967],[26.5153,66.9051,239.7296],[26.5165,66.9095,229.0715],[26.5051,66.91,267.4951],[26.5063,66.9145,247.7352],[26.4949,66.9149,211.7736],[26.4973,66.9239,186.4778],[26.4859,66.9243,203.8366],[26.487,66.9288,190.6102],[26.4757,66.9292,196.9546],[26.478,66.9382,196.6243],[26.5008,66.9373,228.9771],[26.5032,66.9462,252.2262],[26.3892,66.9507,172.8785],[26.3904,66.9551,172.7139],[26.3676,66.956,181.1702],[26.3687,66.9605,180.4312],[26.3573,66.961,176.1339],[26.3585,66.9654,177.7375],[26.3471,66.9659,175.5055],[26.3482,66.9703,179.3116],[26.3368,66.9708,177.0754],[26.338,66.9753,181.0436],[26.3266,66.9757,185.2915],[26.3277,66.9802,194.5563],[26.3163,66.9806,200.2932],[26.3175,66.9851,208.4601],[26.3061,66.9855,199.2552],[26.3072,66.99,218.404],[26.2958,66.9904,209.8277],[26.2969,66.9949,222.1207],[26.2855,66.9954,211.1593],[26.2867,66.9998,218.4399],[26.2753,67.0003,217.5183],[26.2764,67.0047,214.3373],[26.2535,67.0056,200.3774],[26.2547,67.0101,223.7509],[26.2433,67.0105,202.524],[26.2444,67.015,206.7665],[26.2215,67.0159,200.5169],[26.2227,67.0203,199.2006],[26.2112,67.0208,200.8765],[26.2124,67.0252,199.0689],[26.1895,67.0261,210.183],[26.1906,67.0306,212.2628],[26.1792,67.031,213.1098],[26.1803,67.0355,210.3786],[26.1574,67.0363,276.7982],[26.1586,67.0408,254.0213],[26.1471,67.0412,241.7011],[26.1483,67.0457,255.706],[26.1254,67.0465,273.847],[26.1265,67.051,309.043],[26.115,67.0515,323.3833],[26.1162,67.0559,316.4247],[26.0933,67.0568,233.7704],[26.0944,67.0613,232.1299],[26.0829,67.0617,225.7767],[26.084,67.0661,230.1524],[26.0611,67.067,227.0254],[26.0622,67.0715,218.3133],[26.0508,67.0719,240.2955],[26.0519,67.0764,214.6649],[26.029,67.0772,209.107],[26.0301,67.0817,209.9435],[26.0186,67.0821,212.7316],[26.0197,67.0866,215.2081],[25.9968,67.0874,207.6326],[25.9979,67.0919,217.4053],[25.9864,67.0923,215.3999],[25.9875,67.0968,221.7897],[25.9646,67.0976,225.7519],[25.9656,67.1021,244.19],[25.9542,67.1025,242.1475],[25.9553,67.107,242.655],[25.9323,67.1078,209.2262],[25.9334,67.1123,214.8279],[25.9219,67.1127,229.1255],[25.923,67.1172,226.4164],[25.8885,67.1184,208.2344],[25.8896,67.1229,217.1303],[25.6829,67.1301,203.1705],[25.6839,67.1346,195.2881],[25.6724,67.135,179.6503],[25.6641,67.0991,218.494],[25.6411,67.0999,198.397],[25.6422,67.1044,208.1849],[25.6192,67.1051,189.8029],[25.6213,67.1141,183.2446],[25.6098,67.1145,203.7369],[25.6149,67.1369,184.7802],[25.4884,67.1411,263.2707],[25.4895,67.1456,277.9702],[25.2594,67.1531,171.11],[25.2603,67.1575,178.1867],[25.0761,67.1633,172.6328],[25.077,67.1677,177.3503],[24.9849,67.1705,173.4617],[24.9867,67.1795,174.516],[24.9637,67.1802,188.4729],[24.9646,67.1847,173.1592],[24.9531,67.185,172.316],[24.9522,67.1805,178.9083],[24.9406,67.1809,166.848],[24.9397,67.1764,156.1303],[24.9167,67.1771,162.8857],[24.9158,67.1726,158.6099],[24.9042,67.1729,164.6949],[24.9051,67.1774,168.9294],[24.859,67.1787,146.1364],[24.8581,67.1743,148.8615],[24.8466,67.1746,157.3983],[24.8457,67.1701,160.5304],[24.8227,67.1708,195.7262],[24.8218,67.1663,186.4997],[24.7988,67.167,172.1559],[24.7979,67.1625,169.7787],[24.7864,67.1628,188.3207],[24.7855,67.1583,173.5356],[24.7624,67.159,171.6657],[24.7616,67.1545,171.8977],[24.7501,67.1548,172.0204],[24.7492,67.1503,192.2935],[24.7377,67.1507,273.8896],[24.7368,67.1462,232.7808],[24.7483,67.1459,207.7929],[24.7448,67.1279,192.8515],[24.7563,67.1276,199.5114],[24.7537,67.1141,204.4331],[24.7652,67.1138,212.4151],[24.7626,67.1003,246.2036],[24.7741,67.1,232.4024],[24.7714,67.0865,192.9204],[24.7829,67.0862,202.0323],[24.7803,67.0728,165.4209],[24.7918,67.0724,228.5475],[24.7891,67.059,156.0625],[24.8006,67.0586,162.1871],[24.798,67.0452,162.5701],[24.8095,67.0448,148.1046],[24.8068,67.0314,166.4474],[24.8183,67.031,150.9383],[24.8156,67.0176,150.459],[24.8271,67.0172,148.6213],[24.8244,67.0038,164.5219],[24.8359,67.0035,147.772],[24.8332,66.99,153.6206],[24.8447,66.9897,142.571],[24.842,66.9762,143.7465],[24.8535,66.9759,140.4743],[24.8508,66.9624,139.9767],[24.8622,66.9621,125.504],[24.8596,66.9486,143.2249],[24.871,66.9483,143.3882],[24.8683,66.9348,201.5147],[24.8797,66.9345,144.5565],[24.8771,66.921,178.585],[24.8885,66.9207,124.257],[24.8858,66.9072,152.8384],[24.8972,66.9069,173.1097],[24.8946,66.8934,168.8935],[24.9059,66.8931,174.1228],[24.9033,66.8797,167.2835],[24.9147,66.8793,156.9325],[24.912,66.8658,133.2256],[24.9234,66.8655,135.8107],[24.9207,66.8521,192.9554],[24.9321,66.8517,225.7608],[24.9294,66.8383,250.8698],[24.9408,66.8379,272.163],[24.9381,66.8245,260.3395],[24.9494,66.8241,218.4765],[24.9467,66.8107,212.9918],[24.9581,66.8103,189.728],[24.9554,66.7969,179.5316],[24.9668,66.7965,177.186],[24.9641,66.7831,160.875],[24.9754,66.7827,171.0035],[24.9727,66.7693,177.9861],[24.9841,66.7689,212.9764],[24.9823,66.76,201.2789],[24.9936,66.7596,258.7084],[24.99,66.7417,172.9336],[25.0013,66.7413,182.9357],[24.9968,66.7189,156.9135],[25.0081,66.7186,129.1998],[25.0036,66.6961,150.3421],[25.0149,66.6958,158.6343],[25.0095,66.6689,154.3386],[25.0208,66.6685,172.9961],[25.0154,66.6416,139.5219],[25.0267,66.6413,131.624],[25.0213,66.6144,206.6858],[25.0325,66.614,209.3032],[25.0262,66.5826,144.929],[25.0375,66.5823,147.0014],[25.0321,66.5554,180.4162],[25.0433,66.5551,157.6977],[25.0379,66.5281,170.5569],[25.0491,66.5278,166.9652],[25.0428,66.4964,180.0823],[25.0541,66.4961,187.549],[25.0487,66.4691,181.1302],[25.0375,66.4695,176.9481],[25.0357,66.4605,187.323],[25.0245,66.4609,188.8629],[25.0236,66.4564,184.7919],[25.0124,66.4567,187.5222],[25.0106,66.4478,176.656],[24.9994,66.4481,174.5414],[24.9976,66.4392,166.274],[24.9864,66.4395,161.9066],[24.9847,66.4305,150.5933],[24.9735,66.4309,156.3509],[24.9726,66.4264,151.6701],[24.9614,66.4267,177.8396],[24.9597,66.4178,158.0804],[24.9485,66.4181,162.9889],[24.9467,66.4091,159.5612],[24.9356,66.4095,157.9183],[24.9347,66.405,175.3643],[24.9235,66.4053,184.1707],[24.9218,66.3964,156.9314],[24.9106,66.3967,157.0604],[24.9089,66.3877,164.2039],[24.8977,66.3881,148.2153],[24.8968,66.3836,145.4742],[24.8857,66.3839,149.1556],[24.8839,66.375,142.8099],[24.8728,66.3753,143.1635],[24.8719,66.3708,142.7619],[24.8608,66.3711,145.3319],[24.859,66.3622,139.845],[24.8479,66.3625,135.4502],[24.847,66.358,132.8984],[24.8359,66.3584,130.5264],[24.8342,66.3494,131.887],[24.823,66.3497,130.1938],[24.8221,66.3453,137.4289],[24.811,66.3456,139.8753],[24.8093,66.3366,134.3826],[24.8205,66.3363,131.0629],[24.8196,66.3318,127.2572],[24.8419,66.3311,130.6116],[24.841,66.3266,132.5222],[24.8633,66.326,128.2057],[24.8624,66.3215,125.7898],[24.8847,66.3208,122.2678],[24.8839,66.3163,119.5949],[24.9061,66.3157,113.526],[24.9052,66.3112,110.6613],[24.9275,66.3105,106.5702],[24.9266,66.306,103.7111],[24.9489,66.3053,90.6838],[24.948,66.3008,91.0849],[24.9703,66.3001,92.1507],[24.9694,66.2957,87.7449],[25.0028,66.2946,79.9117],[25.0019,66.2902,77.8362],[25.0241,66.2895,77.4823],[25.0232,66.285,77.8393],[25.0455,66.2843,96.9133],[25.0446,66.2798,100.4921],[25.0668,66.2791,174.8559],[25.0659,66.2746,187.3594],[25.0881,66.2739,222.1242],[25.0873,66.2694,234.07],[25.1095,66.2687,157.3115],[25.1086,66.2643,111.4777],[25.1308,66.2635,89.9963],[25.1299,66.2591,89.8429],[25.1521,66.2584,95.241],[25.1512,66.2539,108.44],[25.1734,66.2532,92.5524],[25.1725,66.2487,94.7774],[25.1947,66.248,82.2585],[25.1938,66.2435,85.3332],[25.216,66.2428,76.8122],[25.215,66.2383,74.0014],[25.2372,66.2376,65.6136],[25.2363,66.2331,66.2874],[25.2585,66.2324,60.1156],[25.2576,66.2279,63.3704],[25.2798,66.2271,62.0186],[25.2788,66.2227,61.2096],[25.301,66.2219,60.4755],[25.3001,66.2175,61.4115],[25.3223,66.2167,53.1258],[25.3213,66.2122,61.2525],[25.4764,66.207,113.5664],[25.4774,66.2115,120.5284],[25.5771,66.2081,97.2081],[25.5781,66.2125,100.0882],[25.6667,66.2094,121.6833],[25.6677,66.2139,120.7369],[25.7564,66.2108,114.0971],[25.7574,66.2152,110.3382],[25.7906,66.2141,115.0997],[25.7896,66.2096,110.2985],[25.8117,66.2088,112.4113],[25.8107,66.2043,111.8465],[25.8439,66.2031,118.7665],[25.8429,66.1986,112.4873],[25.8761,66.1974,113.784],[25.8751,66.1929,125.0816],[25.9083,66.1917,117.7867],[25.9072,66.1872,118.5985],[25.9404,66.186,133.8767],[25.9394,66.1815,128.1883],[25.9615,66.1807,137.7826],[25.9604,66.1762,133.0635],[25.9936,66.175,186.4953],[25.9926,66.1705,182.4589],[26.0257,66.1693,217.8972],[26.0247,66.1648,228.8467],[26.0578,66.1635,201.5914],[26.0568,66.1591,200.8023],[26.0789,66.1582,192.5056],[26.0757,66.1448,217.815],[26.0646,66.1452,187.9297],[26.0636,66.1407,176.6452],[26.0415,66.1416,218.2939],[26.0404,66.1371,191.1936],[26.0183,66.1379,179.4162],[26.0173,66.1335,164.6323],[26.0063,66.1339,172.966],[26.0052,66.1294,169.9804],[25.9831,66.1302,159.1477],[25.9821,66.1257,160.1652],[25.96,66.1266,147.9329],[25.959,66.1221,149.6584],[25.9369,66.1229,148.0157],[25.9359,66.1184,145.7583],[25.9248,66.1188,148.52],[25.9238,66.1144,145.1779],[25.9017,66.1152,148.2518],[25.9007,66.1107,148.7237],[25.8786,66.1115,151.904],[25.8776,66.107,149.2799],[25.8555,66.1078,150.4227],[25.8545,66.1034,149.0643],[25.8435,66.1038,154.0008],[25.8425,66.0993,147.7124],[25.8204,66.1001,148.9026],[25.8194,66.0956,145.1104],[25.7973,66.0964,142.8293],[25.7963,66.0919,140.8554],[25.7743,66.0927,147.7865],[25.7712,66.0793,145.0766],[25.7823,66.0789,140.2787],[25.7803,66.07,142.2198],[25.7913,66.0695,141.6612],[25.7892,66.0606,139.6629],[25.8003,66.0602,141.0054],[25.7992,66.0557,139.3697],[25.8102,66.0553,139.7825],[25.8082,66.0464,141.361],[25.8192,66.046,147.4982],[25.8172,66.037,143.6156],[25.8282,66.0366,164.1688],[25.8262,66.0276,155.0646],[25.8372,66.0272,167.4653],[25.8361,66.0228,167.3602],[25.8471,66.0224,162.7675],[25.8441,66.0089,167.5119],[25.8331,66.0093,171.4874],[25.8301,65.9959,142.0292],[25.8191,65.9963,150.3322],[25.817,65.9873,143.9107],[25.8061,65.9877,139.2825],[25.8041,65.9788,124.9821],[25.7931,65.9792,122.0215],[25.79,65.9658,120.905],[25.7791,65.9661,130.6221],[25.7771,65.9572,122.872],[25.7661,65.9576,119.5532],[25.7641,65.9486,126.9501],[25.7531,65.949,121.6294],[25.7501,65.9356,116.34],[25.7392,65.936,117.259],[25.7372,65.927,115.5622],[25.7262,65.9274,117.6734],[25.7242,65.9185,120.4462],[25.7133,65.9189,122.7375],[25.7113,65.9099,117.3358],[25.7004,65.9103,117.5006],[25.6974,65.8969,117.6516],[25.6865,65.8973,117.9534],[25.6845,65.8883,114.1216],[25.6954,65.8879,117.1023],[25.6944,65.8834,110.4209],[25.7054,65.883,110.151],[25.7044,65.8786,109.8996],[25.7153,65.8782,110.8562],[25.7144,65.8737,110.9754],[25.7253,65.8733,108.1618],[25.7243,65.8688,109.8294],[25.7461,65.868,111.338],[25.7452,65.8635,109.534],[25.7561,65.8632,108.035],[25.7551,65.8587,108.3909],[25.766,65.8583,109.8364],[25.765,65.8538,109.0783],[25.7759,65.8534,111.5093],[25.7749,65.8489,107.829],[25.7859,65.8485,110.2804],[25.7849,65.844,114.8448],[25.7958,65.8437,116.81],[25.7948,65.8392,116.5392],[25.8057,65.8388,124.8466],[25.8047,65.8343,115.2716],[25.8156,65.8339,127.2549],[25.8146,65.8294,122.091],[25.8255,65.829,129.252],[25.8245,65.8245,126.5438],[25.8354,65.8241,131.6752],[25.8344,65.8197,130.9005],[25.8453,65.8193,133.2831],[25.8443,65.8148,129.9045],[25.8552,65.8144,134.6382],[25.8542,65.8099,132.5334],[25.876,65.8091,128.2145],[25.875,65.8046,138.3442],[25.8859,65.8042,126.5664],[25.8849,65.7997,124.1461],[25.8958,65.7993,122.5251],[25.8948,65.7949,120.6284],[25.9057,65.7944,123.3344],[25.9047,65.79,118.1594],[25.9156,65.7896,117.7092],[25.9146,65.7851,119.5106],[25.9254,65.7847,116.2702],[25.9244,65.7802,114.2179],[25.9353,65.7798,115.5771],[25.9343,65.7753,119.7719],[25.956,65.7745,127.465],[25.9571,65.779,120.9041],[25.9789,65.7782,115.6608],[25.9799,65.7826,115.0479],[25.9908,65.7822,115.1479],[25.9918,65.7867,118.3198],[26.0136,65.7859,127.1436],[26.0146,65.7903,126.4921],[26.0255,65.7899,133.9127],[26.0266,65.7944,135.7291],[26.0483,65.7936,131.3701],[26.0494,65.798,131.4482],[26.0603,65.7976,122.0669],[26.0613,65.8021,121.4218],[26.0831,65.8013,124.2783],[26.0842,65.8057,129.7141],[26.0951,65.8053,128.1013],[26.0961,65.8098,130.5712],[26.1179,65.809,132.6033],[26.119,65.8134,129.514],[26.1299,65.813,124.4569],[26.1309,65.8175,125.4745],[26.1527,65.8166,125.9697],[26.1538,65.8211,129.1713],[26.1647,65.8207,123.6341],[26.1562,65.7849,131.2651],[26.1671,65.7845,127.8317],[26.1554,65.7352,145.6447],[26.1663,65.7348,134.6498],[26.1642,65.7259,133.5272],[26.262,65.722,134.1368],[26.2609,65.7175,133.3241],[26.4346,65.7105,135.0764],[26.4357,65.715,135.8949],[26.5877,65.7088,140.012],[26.5888,65.7132,131.3721],[26.8166,65.7035,149.5967],[26.8154,65.6991,168.524],[26.8263,65.6986,187.4609],[26.8275,65.7031,154.8621],[26.8492,65.7021,177.7885],[26.8503,65.7066,160.302],[26.872,65.7057,165.781],[26.8732,65.7101,170.905],[26.884,65.7096,159.2381],[26.8852,65.7141,158.2084],[26.9069,65.7132,146.0609],[26.9081,65.7176,148.6091],[26.9298,65.7167,143.3572],[26.931,65.7211,142.8443],[26.9527,65.7202,143.5888],[26.9539,65.7247,143.4245],[26.9756,65.7237,150.947],[26.9768,65.7282,145.6929],[26.9876,65.7277,146.9069],[26.9888,65.7321,145.0229],[27.0105,65.7312,144.627],[27.0118,65.7357,143.1152],[27.0335,65.7347,144.4758],[27.0347,65.7392,144.1458],[27.0455,65.7387,146.2509],[27.0443,65.7342,150.347],[27.066,65.7332,147.576],[27.0648,65.7288,149.1943],[27.0757,65.7283,149.4716],[27.0769,65.7327,149.8202],[27.0877,65.7323,166.3203],[27.0889,65.7367,166.6594],[27.0998,65.7362,182.5174],[27.1022,65.7452,164.3359],[27.1131,65.7447,161.3893],[27.1168,65.7581,184.3565],[27.1276,65.7576,173.5336],[27.1301,65.7665,178.6124],[27.1409,65.766,188.8067],[27.1434,65.775,179.3239],[27.1543,65.7745,172.8385],[27.1567,65.7834,160.4883],[27.1676,65.7829,161.8217],[27.1701,65.7919,164.8543],[27.181,65.7914,166.6894],[27.1834,65.8003,171.3767],[27.1943,65.7998,169.3277],[27.1968,65.8088,173.7948],[27.2077,65.8083,168.4029],[27.2102,65.8172,169.5383],[27.2211,65.8167,164.2196],[27.2235,65.8256,162.9516],[27.2344,65.8251,162.7515],[27.2369,65.8341,163.2948],[27.2478,65.8336,170.1917],[27.2503,65.8425,164.0896],[27.2612,65.842,169.8894],[27.2637,65.8509,168.9825],[27.2746,65.8504,170.5331],[27.2771,65.8594,170.3067],[27.288,65.8589,180.8367],[27.2906,65.8678,172.1474],[27.3015,65.8673,179.2824],[27.304,65.8762,178.6079],[27.3149,65.8757,178.6545],[27.3174,65.8847,182.6292],[27.3283,65.8841,181.8962],[27.3309,65.8931,186.4898],[27.3418,65.8926,195.4239],[27.3443,65.9015,204.687],[27.3553,65.901,209.6598],[27.3578,65.9099,208.8851],[27.3687,65.9094,210.3302],[27.3713,65.9184,219.0939],[27.3822,65.9178,212.8156],[27.3848,65.9268,219.6942],[27.3957,65.9263,205.5178],[27.3982,65.9352,209.7285],[27.4092,65.9347,202.9585],[27.4118,65.9436,201.6539],[27.4227,65.9431,199.77],[27.4253,65.952,202.2297],[27.4362,65.9515,206.9523],[27.4388,65.9604,205.5632],[27.4497,65.96,223.1596],[27.4523,65.9689,238.5224],[27.4633,65.9684,242.9629],[27.4671,65.9818,228.2327],[27.4562,65.9823,228.2299],[27.4705,66.0314,236.9812],[27.4595,66.0319,221.1101],[27.4751,66.0855,232.5244],[27.4641,66.086,234.024],[27.4694,66.1039,247.5621],[27.4584,66.1044,262.7727],[27.4597,66.1088,278.8019],[27.4266,66.1104,223.5969],[27.4279,66.1149,223.1472],[27.3949,66.1164,226.5159],[27.3962,66.1208,238.905],[27.3632,66.1224,233.351],[27.3645,66.1268,237.4929],[27.3314,66.1284,249.1116],[27.3327,66.1328,236.7947],[27.3107,66.1338,219.8237],[27.3119,66.1383,211.2699],[27.2789,66.1398,195.1918],[27.2802,66.1443,199.161],[27.2691,66.1448,198.4022],[27.2742,66.1627,217.6526],[27.2632,66.1631,224.5698],[27.2683,66.181,253.4196],[27.2573,66.1815,245.9329],[27.2611,66.1949,217.1927]]]]}
,"properties": {"GID_3": "FIN.2.1.4_1","GID_0": "FIN","country": "Finland","GID_1": "FIN.2_1","province": "Lapland","NL_NAME_1": "NA","GID_2": "FIN.2.1_1","county": "Lapland","NL_NAME_2": "NA","city": "Rovaniemi","VARNAME_3": "NA","NL_NAME_3": "NA","TYPE_3": "Seutukunta|Ekonomiskregion","ENGTYPE_3": "Sub-Region","CC_3": "NA","HASC_3": "FI.LP.RV","name": "Rovaniemi.city","area_km2": 11629.159,"hist_schema_id": "Elevation0-9000","hist_area_km2": {"50": 42.756,"75": 312.159,"100": 752.575,"125": 1692.003,"150": 2722.012,"175": 2805.894,"200": 2012.811,"225": 769.048,"250": 319.923,"275": 125.607,"300": 53.079,"325": 18.269,"350": 3.023}}}