{"type":"Feature","properties":{"GID_3":"FIN.5.4.3_1","GID_0":"FIN","country":"Finland","GID_1":"FIN.5_1","province":"WesternFinland","NL_NAME_1":"NA","GID_2":"FIN.5.4_1","county":"Ostrobothnia","NL_NAME_2":"NA","city":"SouthEasternBothnia","VARNAME_3":"NA","NL_NAME_3":"NA","TYPE_3":"Seutukunta|Ekonomiskregion","ENGTYPE_3":"Sub-Region","CC_3":"NA","HASC_3":"NA","name":"South_Eastern_Bothnia.city"},
"geometry":{"type": "MultiPolygon","coordinates": [[[[21.3,61.9708,1.3807],[21.3042,61.9688,1.1459],[21.3078,61.9724,1.7012],[21.2943,61.9724,0.2659],[21.2958,61.9708,0.0],[21.3,61.9708,1.3807]]],
[[[21.2974,61.9776,0.7426],[21.2974,61.9786,1.2066],[21.2943,61.9786,11.9211],[21.2943,61.9776,7.1762],[21.2974,61.9776,0.7426]]],
[[[21.2911,62.0766,2.3528],[21.2901,62.0734,0.8102],[21.2995,62.0734,0.0],[21.2964,62.0755,1.5953],[21.2973,62.0787,0.0],[21.2943,62.0797,2.4166],[21.2953,62.0828,0.6765],[21.2938,62.0854,10.3976],[21.2953,62.0891,3.675],[21.2938,62.0896,6.1831],[21.288,62.0849,0.0],[21.2859,62.0807,0.0],[21.2911,62.0766,2.3528]]],
[[[21.2917,62.1104,1.4223],[21.288,62.1099,0.0],[21.288,62.1068,0.0],[21.2911,62.1068,0.0],[21.2932,62.1089,0.0],[21.2917,62.1104,1.4223]]],
[[[21.2998,62.123,0.0],[21.2984,62.1234,5.8389],[21.2995,62.1266,0.0],[21.2943,62.1297,3.7205],[21.2953,62.1328,7.2405],[21.288,62.1328,0.0],[21.2891,62.1297,5.0736],[21.288,62.1276,0.0],[21.2953,62.1266,3.4744],[21.2922,62.1214,0.0],[21.2974,62.1182,10.4546],[21.2964,62.113,0.0],[21.3,62.1104,0.0],[21.312,62.1078,11.0605],[21.312,62.1047,10.6933],[21.3068,62.0964,0.0],[21.3141,62.0964,0.0],[21.3182,62.1005,0.0],[21.3151,62.1036,11.1886],[21.3182,62.1078,0.0],[21.3141,62.1099,7.5663],[21.312,62.1141,9.8338],[21.3026,62.1172,1.8173],[21.3005,62.1193,9.5735],[21.3016,62.1224,0.0],[21.2998,62.123,0.0]]],
[[[21.3099,62.1276,0.0],[21.3083,62.1292,3.2642],[21.3068,62.1286,0.8259],[21.3068,62.1276,0.7871],[21.3099,62.1276,0.0]]],
[[[21.3396,62.1479,6.6373],[21.338,62.1464,5.5637],[21.3401,62.1443,1.2393],[21.3432,62.1443,0.0],[21.3411,62.1474,6.7406],[21.3396,62.1479,6.6373]]],
[[[21.3807,62.2339,0.0],[21.3755,62.2328,0.0],[21.3771,62.2292,0.0],[21.3833,62.2292,0.3662],[21.388,62.2255,0.0],[21.3953,62.2245,4.5322],[21.3922,62.2182,0.0],[21.3937,62.2167,3.5377],[21.3995,62.2172,0.0],[21.4068,62.2266,9.0176],[21.4141,62.2245,3.2511],[21.413,62.2214,6.1787],[21.4141,62.2193,3.1637],[21.4089,62.2182,3.3804],[21.412,62.2151,7.6107],[21.4078,62.2109,6.0857],[21.3984,62.2099,0.0],[21.3964,62.2047,0.0],[21.4021,62.2021,0.0],[21.4104,62.2021,0.8483],[21.4141,62.2047,0.2326],[21.4151,62.2078,0.0],[21.4188,62.2083,0.2487],[21.4203,62.2068,8.6088],[21.4125,62.2,3.4935],[21.3896,62.2,5.8701],[21.3854,62.1979,15.1372],[21.3776,62.1974,1.7926],[21.3734,62.1932,0.0],[21.3766,62.1901,7.727],[21.3724,62.1839,0.0],[21.3688,62.1813,6.0549],[21.3609,62.1807,9.5848],[21.3589,62.1786,9.5734],[21.362,62.1755,4.0527],[21.3583,62.1708,0.0],[21.3599,62.1682,5.0901],[21.3589,62.1651,0.0],[21.362,62.163,6.4268],[21.3589,62.1589,4.5846],[21.362,62.1568,3.6649],[21.3568,62.1547,0.0],[21.3641,62.1495,5.0412],[21.363,62.1443,3.6366],[21.3646,62.1417,0.0],[21.363,62.138,0.0],[21.3641,62.1359,0.0],[21.3583,62.1375,3.8289],[21.3458,62.1375,3.1208],[21.3297,62.1422,13.1623],[21.337,62.1526,0.0],[21.3339,62.1547,0.3354],[21.3349,62.1578,2.923],[21.3312,62.1604,6.5055],[21.3234,62.1599,4.3287],[21.3245,62.1547,8.4263],[21.3208,62.1521,0.0],[21.313,62.1516,5.2771],[21.3089,62.1453,2.0784],[21.3104,62.1437,0.0],[21.3161,62.1432,11.0154],[21.3182,62.1411,4.5412],[21.3151,62.1339,0.0],[21.3182,62.1318,11.6256],[21.313,62.1255,0.0],[21.3161,62.1245,4.4335],[21.3151,62.1214,0.0],[21.3182,62.1203,1.222],[21.3229,62.1146,6.911],[21.3214,62.1109,4.4193],[21.3245,62.1057,8.5538],[21.3229,62.1021,0.0],[21.325,62.0979,8.3562],[21.3214,62.0922,0.0],[21.3245,62.0911,10.0215],[21.3234,62.088,10.0528],[21.325,62.0854,9.8745],[21.3193,62.0786,0.0],[21.3224,62.0766,4.72],[21.3193,62.0703,0.0],[21.3203,62.0672,0.0],[21.3109,62.0703,6.6772],[21.312,62.0672,4.8506],[21.3109,62.063,0.0],[21.3161,62.0547,3.145],[21.3089,62.0432,0.0],[21.3099,62.038,11.0984],[21.3005,62.037,0.0],[21.3016,62.0339,12.4987],[21.2958,62.025,0.0],[21.3016,62.0193,13.361],[21.2974,62.0151,12.9804],[21.2922,62.0141,0.5675],[21.2953,62.0109,9.507],[21.2922,62.0068,0.0],[21.2953,62.0047,4.7553],[21.287,61.9943,5.3063],[21.2818,61.9922,7.1733],[21.2896,61.9875,0.0],[21.3,61.9917,5.0181],[21.3063,61.9917,0.2971],[21.3188,61.9958,0.5589],[21.325,62.0,0.0],[21.337,61.9974,0.0],[21.3271,61.9896,0.0],[21.3188,61.9896,12.8605],[21.3146,61.9917,0.0],[21.3109,61.9891,3.6582],[21.3146,61.9854,0.0],[21.3245,61.9849,1.6497],[21.3214,61.9776,0.0],[21.3266,61.9745,9.7972],[21.3214,61.9724,2.9955],[21.3182,61.9672,3.7064],[21.313,61.9651,0.0],[21.3224,61.9641,0.0],[21.3214,61.9589,2.8624],[21.325,61.9562,0.0],[21.3307,61.9557,0.0],[21.3297,61.9536,0.0],[21.3307,61.9523,0.0],[21.3328,61.9555,13.1102],[21.3372,61.9532,0.0],[21.3374,61.9565,0.0],[21.3565,61.9563,6.7044],[21.3567,61.9608,13.5085],[21.3662,61.9607,7.0933],[21.3664,61.9652,17.3437],[21.376,61.9651,9.3557],[21.3764,61.974,7.1611],[21.3859,61.9739,11.5288],[21.3863,61.9829,14.7138],[21.3959,61.9828,10.2371],[21.3961,61.9873,14.9986],[21.4056,61.9872,19.7799],[21.4061,61.9962,15.8286],[21.4156,61.9961,18.5693],[21.416,62.0051,15.8121],[21.4256,62.005,23.1877],[21.4258,62.0095,20.5799],[21.4354,62.0094,14.6327],[21.4356,62.0139,15.4719],[21.4643,62.0136,24.148],[21.4645,62.0181,27.3586],[21.4932,62.0178,31.0233],[21.4935,62.0223,31.3929],[21.5222,62.022,31.283],[21.5224,62.0265,37.7073],[21.5415,62.0262,47.2305],[21.5413,62.0218,38.9959],[21.6465,62.0206,71.3206],[21.647,62.0295,74.5498],[21.6375,62.0297,75.914],[21.6379,62.0386,78.4908],[21.6284,62.0387,77.6301],[21.6286,62.0432,68.7741],[21.6382,62.0431,75.8782],[21.6389,62.0566,72.5387],[21.6485,62.0565,71.2087],[21.6495,62.0744,75.2813],[21.6399,62.0746,69.1762],[21.6406,62.088,75.4143],[21.631,62.0881,76.9781],[21.632,62.1061,78.9326],[21.6416,62.106,64.3086],[21.6437,62.1464,78.1241],[21.663,62.1462,68.2976],[21.6627,62.1417,73.2063],[21.6819,62.1415,45.9385],[21.6817,62.137,56.4207],[21.6913,62.1369,60.6459],[21.692,62.1503,68.8183],[21.7017,62.1502,66.3175],[21.7029,62.1727,94.8899],[21.6933,62.1728,88.3164],[21.6935,62.1773,93.3865],[21.6839,62.1774,79.611],[21.6842,62.1819,81.4848],[21.6745,62.182,75.1717],[21.6753,62.1955,67.1583],[21.6849,62.1954,75.3598],[21.6852,62.1998,69.2174],[21.6948,62.1997,88.2733],[21.695,62.2042,73.7935],[21.7047,62.2041,87.0875],[21.7052,62.2131,70.2251],[21.7244,62.2128,80.2288],[21.7247,62.2173,78.7342],[21.7632,62.2169,66.8786],[21.7635,62.2214,50.0602],[21.7731,62.2212,53.277],[21.7734,62.2257,52.5308],[21.7637,62.2258,49.6302],[21.7643,62.2348,79.0845],[21.7546,62.2349,61.4562],[21.7551,62.243899999999996,65.5831],[21.7455,62.244,40.3979],[21.746,62.253,59.6681],[21.7171,62.2534,40.1969],[21.7174,62.2579,44.7013],[21.6788,62.2583,33.9651],[21.6823,62.3212,75.3235],[21.6726,62.3213,82.6536],[21.6729,62.3258,85.8353],[21.6632,62.3259,78.6476],[21.6637,62.3349,86.0897],[21.6733,62.3348,76.8358],[21.6736,62.3393,69.3082],[21.6929,62.339,63.7751],[21.6937,62.3525,65.7403],[21.684,62.3526,56.8997],[21.6843,62.3571,58.7838],[21.6746,62.3572,55.608],[21.6748,62.3617,58.843],[21.6555,62.362,44.5598],[21.6557,62.3665,41.7153],[21.6364,62.3667,54.4654],[21.6361,62.3622,47.7223],[21.5974,62.3626,52.7532],[21.5972,62.3581,49.4652],[21.5682,62.3585,27.4309],[21.5679,62.354,27.7853],[21.5583,62.3541,25.2987],[21.5592,62.372,31.1216],[21.5398,62.3722,44.3807],[21.54,62.3768,56.7036],[21.5304,62.3769,67.5334],[21.5308,62.3858,69.4615],[21.5405,62.3857,60.6281],[21.5407,62.3902,59.3313],[21.5504,62.3901,39.8908],[21.5532,62.444,50.2086],[21.5435,62.4441,33.4276],[21.5437,62.4486,47.6294],[21.5534,62.4485,46.2672],[21.5541,62.462,51.7724],[21.5638,62.4619,49.5721],[21.5648,62.4798,69.4102],[21.5745,62.4797,68.0078],[21.5752,62.4932,86.6581],[21.5849,62.4931,88.2615],[21.5859,62.5111,89.3638],[21.5956,62.5109,77.3568],[21.5965,62.5289,77.7154],[21.6063,62.5288,84.7611],[21.607,62.5423,86.4096],[21.6167,62.5421,85.8068],[21.6177,62.5601,85.833],[21.5982,62.5603,84.0346],[21.5999,62.5918,55.6661],[21.5902,62.5919,62.221],[21.5909,62.6054,43.4777],[21.6104,62.6051,46.0782],[21.6106,62.6096,48.6342],[21.6301,62.6094,47.6326],[21.6304,62.6139,47.669],[21.6402,62.6138,48.949],[21.6404,62.6183,54.0599],[21.6501,62.6182,61.4982],[21.6512,62.6361,51.1039],[21.6609,62.636,55.2227],[21.6612,62.6405,55.0718],[21.6709,62.6404,60.7135],[21.6712,62.6449,57.3588],[21.6809,62.6448,56.2174],[21.6812,62.6493,51.6707],[21.691,62.6492,50.6759],[21.6912,62.6536,54.9617],[21.701,62.6535,58.6767],[21.7013,62.658,53.2581],[21.711,62.6579,53.9707],[21.7113,62.6624,48.4263],[21.7211,62.6623,48.3739],[21.7213,62.6668,49.6658],[21.7311,62.6667,44.721],[21.7314,62.6711,43.9822],[21.7411,62.671,45.7244],[21.7414,62.6755,44.0912],[21.7512,62.6754,49.5923],[21.7514,62.6799,64.9619],[21.7612,62.6797,61.4828],[21.7615,62.6842,66.8359],[21.7713,62.6841,67.7751],[21.7715,62.6886,67.4891],[21.7813,62.6885,84.811],[21.7816,62.693,83.6476],[21.7914,62.6929,76.5605],[21.7916,62.6974,82.1683],[21.7819,62.6975,88.2337],[21.7821,62.702,81.3244],[21.7723,62.7021,76.0397],[21.7729,62.7111,76.4439],[21.7631,62.7112,73.8331],[21.7634,62.7157,77.7336],[21.7536,62.7158,78.3204],[21.7538,62.7203,58.5914],[21.744,62.7204,52.4564],[21.7451,62.7384,42.6316],[21.7353,62.7385,42.9286],[21.7363,62.7565,37.1391],[21.7265,62.7566,37.6388],[21.727,62.7656,48.0124],[21.7172,62.7657,38.6773],[21.717,62.7612,37.5015],[21.7072,62.7613,37.3879],[21.7064,62.7478,36.1592],[21.6966,62.748,36.4245],[21.6961,62.739,35.2277],[21.6667,62.7393,32.012],[21.6669,62.7438,32.3298],[21.6179,62.7444,43.1811],[21.6184,62.7533,47.9983],[21.5498,62.7541,33.0063],[21.55,62.7586,43.7894],[21.5402,62.7587,39.6203],[21.5404,62.7632,27.4218],[21.4718,62.7639,18.2107],[21.4716,62.7594,18.1817],[21.3833,62.7603,29.6683],[21.3831,62.7558,27.6822],[21.3733,62.7559,31.7363],[21.3731,62.7514,31.75],[21.3829,62.7513,29.8227],[21.3827,62.7468,38.0288],[21.3631,62.747,25.8393],[21.3629,62.7425,27.2937],[21.353,62.7426,29.6922],[21.3529,62.7381,28.9906],[21.3627,62.738,33.7544],[21.3624,62.7335,30.7573],[21.3722,62.7335,39.2739],[21.372,62.729,36.5436],[21.3818,62.7289,29.5062],[21.3816,62.7244,27.5753],[21.3718,62.7244,30.6099],[21.3716,62.72,25.1206],[21.3618,62.7201,30.6517],[21.3616,62.7156,28.2563],[21.3518,62.7157,22.4279],[21.352,62.7202,24.2952],[21.3422,62.7202,29.1769],[21.342,62.7158,17.3454],[21.3322,62.7159,17.2559],[21.331,62.6889,17.0647],[21.3212,62.689,17.3],[21.321,62.6845,24.9765],[21.3113,62.6846,21.2071],[21.3109,62.6756,22.8596],[21.3011,62.6757,25.6402],[21.3009,62.6712,20.4609],[21.2813,62.6714,20.9854],[21.2815,62.6759,25.308],[21.2718,62.676,22.9568],[21.2719,62.6805,19.9654],[21.2622,62.6805,22.8137],[21.2624,62.685,21.4987],[21.2526,62.6851,18.0844],[21.2524,62.6806,13.379],[21.2426,62.6807,7.8535],[21.2424,62.6762,8.3294],[21.2326,62.6763,8.3792],[21.2324,62.6718,11.5883],[21.2129,62.672,16.4529],[21.2134,62.6855,6.5949],[21.1841,62.6857,24.3739],[21.1843,62.6902,17.0411],[21.1451,62.6905,11.5107],[21.1449,62.686,9.061],[21.1249,62.6866,17.2687],[21.1308,62.693,6.5369],[21.1388,62.6956,19.4024],[21.1439,62.6992,13.5339],[21.1445,62.7042,0.0],[21.1396,62.7021,0.0],[21.138,62.7026,0.0],[21.1391,62.7057,0.0],[21.1375,62.7062,1.8392],[21.1328,62.7026,8.2967],[21.1276,62.7016,2.6612],[21.1245,62.6984,0.0],[21.1104,62.6937,3.8947],[21.1047,62.6943,0.0],[21.0953,62.7016,0.0],[21.0922,62.7016,3.0835],[21.0859,62.6953,0.0],[21.0818,62.6891,5.5248],[21.0818,62.6859,6.2349],[21.0854,62.6833,4.7121],[21.1021,62.6833,2.8791],[21.1036,62.6828,3.8601],[21.1036,62.6797,4.084],[21.1016,62.6776,4.9401],[21.0964,62.6766,0.0],[21.0911,62.6693,7.6042],[21.088,62.6693,0.0],[21.0812,62.6729,2.0693],[21.0771,62.6729,0.0],[21.0693,62.6703,0.0],[21.0651,62.6661,0.0],[21.0651,62.663,0.0],[21.0703,62.662,6.7904],[21.0714,62.6589,1.1382],[21.0771,62.6583,2.0294],[21.0812,62.6604,0.0],[21.087,62.6578,4.3607],[21.0839,62.6526,0.0],[21.087,62.6516,10.2808],[21.0859,62.6484,0.0],[21.087,62.6464,1.6669],[21.0839,62.6453,0.0],[21.0818,62.6422,0.0],[21.087,62.638,9.7168],[21.0818,62.6297,0.0],[21.0854,62.6271,4.4805],[21.0932,62.6286,0.6385],[21.0995,62.6234,9.1624],[21.0833,62.6229,6.8092],[21.0792,62.625,5.8904],[21.075,62.625,2.1119],[21.0688,62.6229,0.0],[21.0625,62.6271,0.0],[21.0589,62.6234,0.0],[21.062,62.6224,1.8972],[21.0609,62.6193,1.0689],[21.063,62.6172,1.8393],[21.0812,62.6146,0.0],[21.0828,62.6141,3.4189],[21.0818,62.6109,0.0],[21.1,62.6063,0.0],[21.1021,62.6083,0.0],[21.0984,62.6161,8.4068],[21.1078,62.6172,0.0],[21.1099,62.6203,0.0],[21.1068,62.6224,1.1384],[21.1109,62.6266,8.007],[21.1224,62.6297,0.0],[21.1208,62.6354,7.1159],[21.1255,62.6411,0.0],[21.1333,62.6417,0.0],[21.1375,62.6437,1.2179],[21.1391,62.6432,3.7117],[21.138,62.6401,0.0],[21.1411,62.6391,2.2548],[21.138,62.6349,0.0],[21.138,62.6318,0.0],[21.1453,62.6266,0.0],[21.1422,62.6203,0.0],[21.1443,62.6172,0.0],[21.1479,62.6167,2.781],[21.1521,62.6188,2.3109],[21.1667,62.6188,0.0],[21.1771,62.6229,0.0],[21.1917,62.6229,0.0],[21.1932,62.6214,0.0],[21.1875,62.6167,2.6655],[21.1688,62.6167,0.0],[21.1672,62.6151,3.3568],[21.1771,62.6083,1.1398],[21.1786,62.6089,0.5028],[21.1776,62.612,0.0],[21.1896,62.6146,0.6716],[21.1938,62.6125,1.0334],[21.2036,62.612,3.6411],[21.2083,62.6083,0.0],[21.2224,62.6078,0.0],[21.2146,62.6042,0.0],[21.2083,62.6042,0.0],[21.2005,62.6016,0.7543],[21.1984,62.5974,0.0],[21.1995,62.5943,0.0],[21.1901,62.5911,4.7089],[21.1786,62.5839,6.9876],[21.1693,62.5828,5.6749],[21.1724,62.5797,3.0786],[21.1682,62.5755,0.0],[21.1583,62.5771,6.7601],[21.1526,62.5724,2.5674],[21.1557,62.5703,2.5753],[21.1547,62.5672,0.0],[21.1578,62.5651,10.7776],[21.1526,62.5589,2.6299],[21.1583,62.5563,0.0],[21.1641,62.5557,0.0],[21.1661,62.5536,0.0],[21.1651,62.5505,0.0],[21.1693,62.5484,0.7343],[21.1813,62.5438,0.0],[21.1911,62.5432,0.0],[21.1891,62.5401,6.4095],[21.1813,62.5375,0.0],[21.1708,62.5438,2.3176],[21.1609,62.5443,3.1146],[21.162,62.5474,0.0],[21.1542,62.5521,5.7159],[21.1505,62.5484,2.439],[21.1536,62.5474,4.2905],[21.1526,62.5443,3.6435],[21.1547,62.5401,0.0],[21.1599,62.538,0.0],[21.1521,62.5354,5.0693],[21.1484,62.538,6.2198],[21.1453,62.5432,0.0],[21.138,62.5443,10.4596],[21.1391,62.5474,0.0],[21.137,62.5495,0.0],[21.1271,62.55,7.3288],[21.1229,62.5521,0.0],[21.1167,62.55,10.2074],[21.1125,62.5521,0.0],[21.1083,62.5521,0.2171],[21.1047,62.5495,0.0],[21.1078,62.5464,3.0699],[21.1036,62.5422,0.0],[21.1,62.5417,9.7609],[21.1,62.5396,11.1823],[21.0938,62.5354,0.0],[21.0818,62.5411,8.3348],[21.087,62.5422,0.0],[21.0839,62.5453,9.3559],[21.088,62.5516,5.553],[21.0932,62.5526,0.0],[21.0922,62.5557,4.4128],[21.0943,62.5599,0.0],[21.1036,62.5589,3.171],[21.1005,62.5609,9.7548],[21.1016,62.5641,0.0],[21.0922,62.5693,8.0824],[21.087,62.5745,0.0],[21.0797,62.5755,4.0888],[21.0729,62.5792,1.7632],[21.0646,62.5792,0.0],[21.0589,62.5745,2.2424],[21.062,62.5724,0.0],[21.0609,62.5693,5.3057],[21.0641,62.5672,2.3434],[21.0589,62.5661,2.375],[21.0568,62.563,2.781],[21.0688,62.5667,0.0],[21.0708,62.5646,9.6756],[21.0703,62.563,9.3793],[21.0651,62.562,0.0],[21.062,62.5589,11.6324],[21.0568,62.5578,2.3199],[21.0547,62.5557,0.0],[21.0557,62.5505,2.0645],[21.0542,62.5479,0.0],[21.0563,62.5438,0.0],[21.0547,62.5401,6.7181],[21.0646,62.5396,4.3418],[21.0661,62.5401,4.3418],[21.0651,62.5432,2.2111],[21.0708,62.5438,3.1461],[21.0766,62.5401,3.5364],[21.0651,62.5359,0.0],[21.0714,62.5318,6.9391],[21.0938,62.5313,0.0],[21.0979,62.5292,0.0],[21.1026,62.5328,9.6146],[21.1083,62.5333,2.5887],[21.112,62.5286,2.6599],[21.1109,62.5255,0.0],[21.1125,62.525,0.0],[21.1271,62.525,0.0],[21.1333,62.5292,0.0],[21.1437,62.5292,0.3898],[21.1479,62.5313,5.4983],[21.1536,62.5286,0.9445],[21.1464,62.5182,0.0],[21.1495,62.5151,9.1169],[21.1453,62.5109,1.9088],[21.1401,62.5099,7.1599],[21.1411,62.5047,6.4632],[21.1391,62.5026,1.8813],[21.1339,62.5016,0.0],[21.1339,62.4984,3.0192],[21.1391,62.4953,8.2113],[21.1349,62.4901,2.0281],[21.1292,62.4896,0.0],[21.1208,62.4938,1.3187],[21.1167,62.4938,0.0],[21.113,62.4901,0.8707],[21.1224,62.4849,6.7896],[21.1214,62.4818,0.0],[21.1328,62.4807,2.3295],[21.1276,62.4776,2.8268],[21.1349,62.4766,8.699],[21.1396,62.4729,0.191],[21.1479,62.4729,1.3481],[21.1521,62.4708,0.0],[21.1563,62.4708,0.0],[21.1609,62.4745,0.0],[21.1667,62.475,2.8616],[21.1724,62.4724,0.9982],[21.1682,62.4672,0.0],[21.1625,62.4688,2.8621],[21.1568,62.4641,0.0],[21.1599,62.462,4.4197],[21.1589,62.4589,0.0],[21.1604,62.4583,0.0],[21.1682,62.4609,0.0],[21.1729,62.4646,2.2018],[21.1932,62.4661,8.6384],[21.1932,62.463,13.1934],[21.1911,62.4609,7.2201],[21.1859,62.4599,0.0],[21.1839,62.4578,0.0],[21.1818,62.4526,0.0],[21.1849,62.4505,9.771],[21.1797,62.4495,0.0],[21.1849,62.4443,11.6046],[21.1797,62.4432,2.9634],[21.1755,62.4391,4.8273],[21.1672,62.4255,3.8569],[21.1771,62.425,3.9418],[21.1813,62.4271,15.8451],[21.1938,62.4271,0.0],[21.1964,62.4307,13.5257],[21.2224,62.4401,0.0],[21.2234,62.4432,9.6595],[21.2354,62.4458,0.0],[21.2375,62.4437,0.0],[21.2359,62.4401,0.0],[21.2417,62.4396,4.7346],[21.2432,62.438,0.4587],[21.2328,62.4234,5.2555],[21.2307,62.4214,4.7849],[21.2255,62.4203,0.0],[21.2286,62.4172,14.0856],[21.2234,62.4161,0.0],[21.2245,62.413,0.0],[21.2234,62.4109,12.5132],[21.2266,62.4099,0.0],[21.2255,62.4068,0.0],[21.2349,62.4036,0.0],[21.2339,62.3984,5.9224],[21.2359,62.3964,2.9195],[21.2432,62.3953,15.8558],[21.2505,62.3901,10.6748],[21.2667,62.3854,0.0],[21.2703,62.3891,0.0],[21.2646,62.3896,0.0],[21.263,62.3911,3.8713],[21.275,62.3917,6.5563],[21.2818,62.3974,0.0],[21.2896,62.4,0.0],[21.2953,62.3995,6.1843],[21.2911,62.3922,2.0521],[21.2859,62.3911,0.0],[21.2833,62.3875,0.0],[21.2859,62.3839,0.0],[21.2932,62.3828,0.0],[21.2953,62.3807,6.8993],[21.2943,62.3776,14.023],[21.3036,62.3786,0.0],[21.3026,62.3755,0.0],[21.3036,62.3714,0.0],[21.3016,62.3693,0.0],[21.2964,62.3682,0.0],[21.2943,62.3651,0.0],[21.3,62.3646,0.0],[21.3057,62.362,6.1471],[21.3047,62.3589,0.0],[21.3099,62.3557,16.8849],[21.3068,62.3505,4.6094],[21.3104,62.35,10.3747],[21.3104,62.3521,14.5187],[21.3151,62.3557,15.7067],[21.3245,62.3568,0.0],[21.3214,62.3599,14.8316],[21.3266,62.3651,0.0],[21.3276,62.3682,5.9266],[21.3479,62.375,3.0792],[21.362,62.3724,0.4207],[21.3641,62.3693,0.0],[21.3589,62.3682,0.0],[21.362,62.3651,17.7301],[21.3568,62.3578,0.0],[21.3583,62.3542,0.0],[21.3542,62.3479,0.0],[21.3557,62.3453,2.7543],[21.3547,62.3422,0.0],[21.3578,62.3401,7.0839],[21.3547,62.337,5.4656],[21.3557,62.3318,2.2154],[21.3536,62.3297,6.4538],[21.3484,62.3286,0.0],[21.3458,62.325,0.0],[21.3417,62.3271,0.0],[21.338,62.3266,3.6691],[21.3328,62.3193,0.0],[21.3271,62.3187,0.0],[21.3234,62.3214,0.0],[21.3214,62.3255,0.0],[21.3224,62.3286,3.1543],[21.3167,62.3312,13.466],[21.3125,62.3312,4.2297],[21.3068,62.3266,0.0],[21.3026,62.3193,0.0],[21.3057,62.3182,11.3441],[21.3047,62.3151,0.0],[21.3068,62.313,0.0],[21.3099,62.312,2.6348],[21.3089,62.3089,0.0],[21.3167,62.3042,2.68],[21.3266,62.3036,8.0792],[21.3255,62.3005,5.7278],[21.3333,62.2958,0.0],[21.3391,62.2964,0.0],[21.338,62.2995,0.0],[21.3391,62.3016,0.0],[21.3359,62.3026,4.8597],[21.338,62.3057,4.4919],[21.3458,62.3083,0.0],[21.3536,62.3036,0.0],[21.3526,62.3005,0.0],[21.3557,62.2943,12.8547],[21.3505,62.2932,0.0],[21.3396,62.2771,0.0],[21.3453,62.2714,21.2156],[21.3401,62.2703,15.02],[21.338,62.2682,0.0],[21.3391,62.263,0.0],[21.3312,62.2625,14.8025],[21.3234,62.2599,2.5104],[21.3286,62.2568,6.3932],[21.3234,62.2536,11.8509],[21.325,62.25,10.1674],[21.3234,62.2464,6.4992],[21.3375,62.2479,0.0],[21.3417,62.2458,0.0],[21.3521,62.2458,0.0],[21.3536,62.2474,0.0],[21.3505,62.2495,12.733],[21.3547,62.2536,6.427],[21.362,62.2536,4.6107],[21.3609,62.2505,9.5592],[21.3646,62.25,0.0],[21.3703,62.2568,0.0],[21.3688,62.2583,0.0],[21.363,62.2589,2.3023],[21.3609,62.2609,0.0],[21.3609,62.2641,6.6768],[21.3812,62.2646,3.5252],[21.3828,62.263,3.2272],[21.3797,62.2568,0.0],[21.3849,62.2464,0.0],[21.3797,62.2391,1.8761],[21.3828,62.237,2.0643],[21.3807,62.2339,0.0]]],
[[[21.2891,62.1422,1.0422],[21.2891,62.1432,0.0],[21.2859,62.1432,0.0],[21.2859,62.1422,0.0],[21.2891,62.1422,1.0422]]],
[[[21.2911,62.1526,7.4532],[21.2911,62.1536,7.022],[21.288,62.1536,0.0],[21.2896,62.1521,7.1013],[21.2911,62.1526,7.4532]]],
[[[21.2953,62.163,1.5053],[21.2922,62.1589,3.0874],[21.3042,62.1583,0.0],[21.3063,62.1604,0.0],[21.3,62.1688,0.2637],[21.2943,62.1682,0.0],[21.2953,62.163,1.5053]]],
[[[21.2979,62.3,5.9431],[21.3057,62.2984,0.0],[21.3047,62.3036,7.5439],[21.3057,62.3057,0.0],[21.2964,62.3036,5.3459],[21.2943,62.3016,5.3499],[21.2979,62.3,5.9431]]],
[[[21.3688,62.225,0.0],[21.3745,62.2255,4.3626],[21.3771,62.2271,0.0],[21.3771,62.2292,0.0],[21.3693,62.2307,10.5469],[21.3667,62.2271,0.0],[21.3688,62.225,0.0]]],
[[[21.3328,62.2818,0.0],[21.3312,62.2833,9.0439],[21.3297,62.2828,5.8314],[21.3297,62.2818,1.4732],[21.3328,62.2818,0.0]]],
[[[21.312,62.3339,13.4529],[21.312,62.3349,15.1525],[21.3089,62.3349,0.0],[21.3089,62.3339,0.0],[21.312,62.3339,13.4529]]],
[[[21.3121,62.3479,4.0474],[21.3141,62.3495,0.0],[21.3104,62.35,10.3747],[21.3104,62.3479,0.0],[21.3121,62.3479,4.0474]]],
[[[21.2646,62.0417,1.8828],[21.2609,62.038,0.0],[21.2641,62.038,3.5829],[21.2661,62.0401,0.0],[21.2646,62.0417,1.8828]]],
[[[21.2675,62.3101,9.2368],[21.2651,62.3099,9.0885],[21.2651,62.3089,4.853],[21.2682,62.3089,7.8491],[21.2675,62.3101,9.2368]]],
[[[21.1896,62.3375,0.0],[21.188,62.3339,1.8357],[21.1953,62.3339,5.6221],[21.1995,62.338,12.8605],[21.1964,62.3411,11.7916],[21.2016,62.3422,0.0],[21.2099,62.3536,5.6847],[21.2005,62.3536,5.7846],[21.1896,62.3375,0.0]]],
[[[21.2578,62.3651,0.0],[21.2578,62.3661,0.0],[21.2547,62.3661,10.1525],[21.2563,62.3646,6.1353],[21.2578,62.3651,0.0]]],
[[[21.2516,62.3828,10.022],[21.2495,62.3849,0.0],[21.2422,62.3859,10.059],[21.237,62.3932,0.0],[21.2255,62.3932,0.0],[21.2266,62.3901,8.8541],[21.2214,62.3891,0.0],[21.2245,62.3859,11.6713],[21.2172,62.3766,0.0],[21.2208,62.3688,11.7906],[21.2172,62.363,2.5697],[21.2203,62.3609,4.4075],[21.2151,62.3557,0.0],[21.2161,62.3505,1.5142],[21.2151,62.3484,0.0],[21.2208,62.3458,0.0],[21.225,62.3458,8.1526],[21.2318,62.3516,0.0],[21.2438,62.3542,2.2753],[21.2453,62.3526,9.8496],[21.2411,62.3464,9.8021],[21.2359,62.3453,11.0266],[21.2339,62.3422,0.0],[21.2396,62.3396,0.0],[21.2438,62.3396,0.0],[21.2474,62.3422,0.0],[21.2443,62.3443,7.9479],[21.2464,62.3474,0.0],[21.2557,62.3484,0.0],[21.2578,62.3516,0.0],[21.2484,62.3568,5.7631],[21.2521,62.3625,0.0],[21.2495,62.3661,0.0],[21.2464,62.3672,7.8552],[21.2516,62.3693,0.0],[21.2464,62.3745,12.3787],[21.2516,62.3797,0.0],[21.2516,62.3828,10.022]]],
[[[21.2104,62.4104,0.0],[21.2141,62.412,0.0],[21.2026,62.4193,13.6672],[21.2005,62.4214,0.0],[21.2016,62.4245,7.3917],[21.1922,62.4245,10.4238],[21.187,62.4172,7.9142],[21.1818,62.4151,7.9265],[21.1932,62.4141,2.7105],[21.1922,62.4109,3.075],[21.1953,62.4089,0.0],[21.1932,62.4068,0.0],[21.188,62.4057,2.1002],[21.1875,62.4042,0.0],[21.188,62.4026,0.0],[21.1932,62.4016,7.382],[21.1922,62.3984,3.1321],[21.1953,62.3964,0.0],[21.1911,62.3922,8.575],[21.1833,62.3917,0.0],[21.1776,62.3891,5.7582],[21.1724,62.3839,0.0],[21.1667,62.3854,3.7335],[21.1609,62.3849,0.0],[21.1589,62.3818,4.354],[21.1609,62.3776,0.4159],[21.1641,62.3776,0.0],[21.1688,62.3812,0.0],[21.1745,62.3807,8.6317],[21.1708,62.375,5.9882],[21.175,62.3708,0.2829],[21.1797,62.3745,7.3812],[21.1849,62.3755,0.0],[21.1818,62.3786,12.4295],[21.187,62.3797,9.6117],[21.1859,62.3828,11.6279],[21.1875,62.3833,11.4806],[21.1932,62.3807,5.0076],[21.1953,62.3776,12.2657],[21.1901,62.3766,0.0],[21.1932,62.3734,5.9648],[21.188,62.3682,9.1823],[21.1859,62.363,3.8176],[21.1974,62.363,4.2495],[21.1943,62.3682,0.0],[21.1974,62.3693,0.8997],[21.1964,62.3724,0.0],[21.1979,62.3729,0.0],[21.2036,62.3724,0.0],[21.2078,62.3703,6.4199],[21.2068,62.3672,0.0],[21.2099,62.3672,4.4437],[21.2141,62.3714,0.0],[21.2109,62.3745,6.9932],[21.2161,62.3818,0.0],[21.2141,62.3849,0.0],[21.2109,62.3859,10.6766],[21.2146,62.3917,0.0],[21.212,62.3974,4.4708],[21.2068,62.3985,0.0],[21.2083,62.4021,0.0],[21.2068,62.4057,0.0],[21.2104,62.4104,0.0]]],
[[[21.1667,62.3979,7.222],[21.163,62.3943,7.0229],[21.1661,62.3943,0.0],[21.1682,62.3964,0.0],[21.1667,62.3979,7.222]]],
[[[21.1807,62.3964,4.1268],[21.1807,62.3974,8.9462],[21.1776,62.3974,0.0],[21.1776,62.3964,0.0],[21.1807,62.3964,4.1268]]],
[[[21.1172,62.4328,5.6557],[21.1146,62.4292,6.4565],[21.1167,62.4271,0.0],[21.1208,62.4313,0.0],[21.1203,62.4328,0.0],[21.1172,62.4328,5.6557]]],
[[[21.1266,62.4339,0.0],[21.1266,62.4349,0.0],[21.1234,62.4349,0.7074],[21.125,62.4333,1.6969],[21.1266,62.4339,0.0]]],
[[[21.0654,62.5268,0.0],[21.063,62.5266,5.5738],[21.063,62.5255,5.4551],[21.0661,62.5255,2.9092],[21.0654,62.5268,0.0]]],
[[[21.062,62.5276,8.4013],[21.062,62.5286,6.111],[21.0589,62.5286,0.0],[21.0604,62.5271,8.4013],[21.062,62.5276,8.4013]]],
[[[21.1745,62.4516,2.8025],[21.1714,62.4516,0.0],[21.1714,62.4505,0.0],[21.1745,62.4505,3.8344],[21.1745,62.4516,2.8025]]],
[[[21.1693,62.6078,0.0],[21.1703,62.6099,0.0],[21.1604,62.6125,0.0],[21.1547,62.612,8.4408],[21.1526,62.6099,6.5504],[21.1625,62.6063,0.0],[21.1693,62.6078,0.0]]],
[[[21.1958,62.6104,3.1509],[21.1917,62.6104,4.6632999999999996],[21.1901,62.6089,1.7552],[21.1974,62.6089,1.6905],[21.1958,62.6104,3.1509]]],
[[[21.2771,62.3333,0.0],[21.2755,62.3318,0.0],[21.2786,62.3318,7.8124],[21.2786,62.3328,8.6274],[21.2771,62.3333,0.0]]],
[[[21.2901,62.3703,17.523],[21.288,62.3672,0.0],[21.2911,62.3672,10.1469],[21.2932,62.3693,0.0],[21.2901,62.3703,17.523]]],
[[[21.288,62.3745,9.9144],[21.2859,62.3714,3.1355],[21.2891,62.3714,9.5338],[21.2911,62.3734,1.7453],[21.288,62.3745,9.9144]]],
[[[21.1,62.5438,0.0],[21.0964,62.5432,0.0],[21.0964,62.5422,0.0],[21.1,62.5417,9.7609],[21.1,62.5438,0.0]]],
[[[21.1328,62.5578,9.52],[21.1297,62.5578,0.0],[21.1297,62.5568,0.0],[21.1313,62.5563,4.9672],[21.1328,62.5578,9.52]]],
[[[21.1578,62.5995,0.0],[21.1563,62.6,3.3797],[21.1547,62.5984,0.0],[21.1578,62.5984,0.0],[21.1578,62.5995,0.0]]],
[[[21.0771,62.6083,0.0],[21.0734,62.6078,9.6811],[21.0734,62.6068,7.9237],[21.0786,62.6068,0.0],[21.0771,62.6083,0.0]]],
[[[21.1224,62.612,0.0],[21.1109,62.6141,0.0],[21.113,62.6089,0.0],[21.125,62.6042,0.0],[21.1307,62.6047,0.0],[21.1224,62.612,0.0]]],
[[[21.1411,62.6141,0.0],[21.1396,62.6146,6.2213],[21.138,62.613,0.0],[21.1396,62.6125,2.8634],[21.1411,62.6141,0.0]]],
[[[21.0542,62.6271,0.0],[21.0505,62.6266,1.6132],[21.0505,62.6255,1.8776],[21.0557,62.6255,1.1929],[21.0542,62.6271,0.0]]]]}}