{"type":"Feature","properties":{"ISO3166-1-Alpha-3":"FIN","country":"Finland","fill":"#FF0","id":"3193","name":"Uusimaa"},
"geometry":{"type": "MultiPolygon","coordinates": [[[[22.95151,59.76683,0.0],[22.95021,59.77318,11.8281],[22.94532,59.77582,0.7488],[22.93694,59.77713,0.0],[22.93499,59.77037,0.0],[22.94093,59.76866,0.0],[22.94264,59.76736,0.0],[22.94459,59.76561,1.221],[22.94874,59.76406,0.0],[22.95151,59.76683,0.0]]],
[[[23.57439,59.83194,1.8368],[23.56951,59.83055,0.0],[23.56487,59.83133,0.0],[23.55331,59.82693,0.0],[23.56235,59.82136,4.0732],[23.56756,59.82323,2.4405],[23.5735,59.81887,5.7632],[23.57439,59.83194,1.8368]]],
[[[23.41122,59.86685,19.6383],[23.41603,59.8734,0.0],[23.42652,59.87779,18.0599],[23.42872,59.87934,15.5775],[23.43222,59.87975,15.5775],[23.4323,59.88125,13.0152],[23.42897,59.88361,0.0],[23.42278,59.88626,13.7969],[23.36809,59.88609,0.0],[23.36337,59.88414,4.3424],[23.36004,59.88101,5.5814],[23.36256,59.87796,0.0],[23.36801,59.87641,0.0],[23.37078,59.87385,0.0],[23.36915,59.87141,0.0],[23.36386,59.87084,0.0],[23.36118,59.86819,12.5364],[23.36761,59.86331,2.4105],[23.36907,59.86156,0.0],[23.41122,59.86685,19.6383]]],
[[[23.32716,59.8854,20.712],[23.3305,59.88813,3.6109],[23.32,59.89094,0.0],[23.31251,59.89309,5.9636],[23.29005,59.89297,1.4537],[23.28452,59.88935,1.8241],[23.29819,59.88378,17.6233],[23.31853,59.88243,5.5645],[23.32716,59.8854,20.712]]],
[[[23.12501,59.89757,12.6067],[23.12761,59.90347,15.3011],[23.12338,59.90656,0.0],[23.12298,59.9088,19.5296],[23.12542,59.91299,9.3766],[23.11329,59.91588,0.0],[23.10727,59.92178,11.7989],[23.10222,59.92101,3.6597],[23.10084,59.91547,0.0],[23.09881,59.91136,3.0661],[23.10092,59.9077,7.1364],[23.10507,59.90485,0.0],[23.10336,59.90156,3.2744],[23.11004,59.89639,0.0],[23.12501,59.89757,12.6067]]],
[[[23.92042,59.95942,17.7704],[23.9201,59.96776,8.4267],[23.92351,59.96931,10.0412],[23.91521,59.97346,13.0648],[23.89226,59.97651,15.096],[23.87029,59.97281,0.0],[23.85401,59.96288,1.272],[23.84742,59.95466,14.9547],[23.85043,59.95258,16.4333],[23.85621,59.95331,13.1145],[23.87078,59.94672,2.257],[23.88608,59.94798,9.8118],[23.89422,59.94969,0.0],[23.89568,59.95124,11.968],[23.89601,59.95429,3.2845],[23.9087,59.9538,16.2005],[23.92042,59.95942,17.7704]]],
[[[25.03712,60.13373,0.0],[25.0455,60.13687,5.4624],[25.06023,60.13756,13.8496],[25.06202,60.13886,15.5586],[25.06121,60.14216,0.0],[25.06463,60.1448,0.2997],[25.07163,60.14492,0.0],[25.07285,60.14826,-0.5],[25.06186,60.15408,0.0],[25.04615,60.15449,10.9731],[25.03289,60.14794,0.0],[25.02801,60.1409,0.0],[25.02849,60.13642,0.0],[25.03053,60.13316,0.0],[25.03712,60.13373,0.0]]],
[[[25.85206,60.19977,0.0],[25.86313,60.20425,0.0],[25.87623,60.21723,3.8746],[25.84059,60.21882,21.3518],[25.82203,60.21629,26.7212],[25.81422,60.20767,6.0418],[25.82065,60.19721,0.0],[25.83562,60.19603,0.0],[25.85206,60.19977,0.0]]],
[[[25.6338,60.21833,0.0],[25.64373,60.22809,7.0398],[25.65992,60.23444,10.1041],[25.67701,60.23835,4.5741],[25.68442,60.24518,0.0],[25.59832,60.29072,28.7657],[25.58172,60.29637,20.4481],[25.56446,60.27827,0.0],[25.57016,60.25804,0.0],[25.59205,60.24258,0.0],[25.62233,60.23835,0.0686],[25.60816,60.2224,3.6931],[25.60336,60.2154,0.0],[25.61158,60.21125,0.0],[25.636,60.20425,0.0],[25.6338,60.21833,0.0]]],
[[[26.23626,60.31875,0.0],[26.24122,60.32364,6.9254],[26.23715,60.33072,8.9341],[26.21892,60.3371,0.0],[26.20737,60.34488,0.0],[26.18474,60.34935,8.1754],[26.17351,60.34862,14.2109],[26.16774,60.3461,23.3825],[26.17034,60.34186,10.0721],[26.17848,60.33568,0.0],[26.19191,60.31916,0.0],[26.19744,60.31708,0.0],[26.22543,60.31757,2.7092],[26.23203,60.31631,0.0],[26.23626,60.31875,0.0]]],
[[[25.30443,60.76239,89.9071],[25.2789,60.77397,86.8323],[25.22681,60.80637,96.2298],[25.21524,60.81608,92.5292],[25.20966,60.82533,111.0024],[25.20707,60.82709,109.0266],[25.19374,60.83014,98.1294],[25.10889,60.81985,84.3383],[25.11622,60.8051,104.6827],[25.12759,60.79572,113.5819],[25.15023,60.78515,120.0999],[25.15695,60.77748,119.6068],[25.15622,60.77198,117.498],[25.13907,60.76663,80.4817],[25.12212,60.76399,86.0777],[25.09638,60.75655,81.9649],[25.07571,60.74363,84.8959],[25.06558,60.73371,120.3735],[25.0599,60.72089,139.5072],[25.06341,60.71645,95.7193],[25.09958,60.73118,98.0661],[25.12377,60.7342,89.642],[25.17307,60.72756,110.6953],[25.18237,60.72358,105.8531],[25.10382,60.70477,98.273],[25.09328,60.69826,119.7166],[25.10455,60.67139,104.7011],[25.10765,60.6665,110.4881],[25.09555,60.66374,113.0295],[25.02796,60.67836,91.7253],[24.99468,60.68002,91.5019],[24.96347,60.67671,87.1172],[24.91117,60.66493,128.0051],[24.75067,60.65444,136.7568],[24.61238,60.66051,120.7962],[24.59192,60.65495,131.5017],[24.57455,60.63645,113.3236],[24.56794,60.61757,95.1557],[24.5699,60.58953,122.3876],[24.56628,60.57821,96.2156],[24.52494,60.55853,105.8484],[24.46293,60.55289,119.7577],[24.41405,60.56344,115.5352],[24.40516,60.57718,131.719],[24.3972,60.59625,117.022],[24.3818,60.59899,133.4432],[24.34056,60.60183,137.0844],[24.30925,60.59403,114.9869],[24.30366,60.58178,106.0259],[24.30408,60.56827,114.5422],[24.28392,60.5654,93.8392],[24.2524,60.59713,102.3296],[24.23483,60.60746,126.6712],[24.19277,60.61979,133.4478],[23.94782,60.65268,139.9945],[23.89666,60.64875,107.5],[23.88095,60.63302,111.0],[23.88054,60.62038,149.8237],[23.89387,60.6117,135.8694],[23.90638,60.60883,127.8543],[23.91392,60.59749,134.0346],[23.90782,60.58777,126.9044],[23.89304,60.57088,135.0644],[23.87372,60.55938,122.1268],[23.86142,60.55633,89.0],[23.85553,60.5423,103.3757],[23.86204,60.52886,94.8138],[23.86503,60.51209,129.9093],[23.85129,60.5016,108.0787],[23.74422,60.48628,122.6145],[23.7191,60.476,120.7698],[23.69967,60.45192,120.7413],[23.77925,60.4497,91.2137],[23.7932,60.43406,117.0825],[23.79362,60.41853,109.6654],[23.78607,60.39259,85.748],[23.76489,60.37526,96.2131],[23.74618,60.37073,91.4512],[23.73295,60.34415,57.0],[23.72458,60.31919,87.5307],[23.68386,60.29637,97.0376],[23.64107,60.28304,58.5],[23.63022,60.27394,76.2443],[23.62557,60.2619,76.8711],[23.61823,60.26278,75.9117],[23.60727,60.26232,47.4942],[23.59239,60.25852,42.2453],[23.59962,60.25374,38.0426],[23.61192,60.2496,67.3112],[23.63197,60.23901,70.5972],[23.64603,60.22353,66.6436],[23.65078,60.21278,82.6634],[23.64169,60.19803,57.9985],[23.6297,60.19674,51.2583],[23.5741,60.20361,52.1331],[23.56304,60.20377,54.057],[23.54133,60.19953,45.1671],[23.48749,60.17431,78.8911],[23.4387,60.16356,52.3686],[23.39302,60.16005,58.2817],[23.35158,60.16253,52.0244],[23.33328,60.16548,54.7153],[23.31664,60.1724,35.1609],[23.32016,60.17907,28.5615],[23.32419,60.18516,29.1493],[23.31055,60.1864,62.3616],[23.29577,60.18155,30.9753],[23.19314,60.12326,61.3621],[23.11418,60.09473,58.5679],[23.0686,60.08936,51.0132],[23.0286,60.1015,7.1116],[23.02126,60.1068,0.0],[23.02125,60.1068,0.0],[23.01287,60.10175,0.0],[22.99724,60.08967,0.0],[22.99073,60.07734,18.8621],[22.99692,60.06208,0.0],[23.01336,60.05158,24.7889],[23.03549,60.04458,32.3663],[23.05942,60.03974,25.8759],[23.10621,60.03905,0.0],[23.20509,60.04971,34.8766],[23.25758,60.03974,49.9026],[23.24138,60.03311,45.0869],[23.21795,60.00837,6.092],[23.20362,59.9975,0.0],[23.12818,59.9831,2.5144],[23.11134,59.97427,40.8905],[23.11069,59.97028,42.6479],[23.1006,59.94042,10.802],[23.10369,59.92967,16.8907],[23.11069,59.92329,14.7786],[23.11785,59.92377,4.3106],[23.12094,59.93358,0.0],[23.13185,59.94294,0.0],[23.17123,59.93643,14.8319],[23.16814,59.94355,0.0],[23.17807,59.94892,24.9304],[23.18881,59.95018,0.0],[23.19972,59.94819,2.665],[23.20973,59.94355,3.4323],[23.20729,59.93976,1.6782],[23.20509,59.93317,13.7806],[23.20362,59.92988,23.6247],[23.2234,59.92988,12.1554],[23.24977,59.94847,1.9063],[23.31593,60.02241,28.0825],[23.33286,60.02985,34.8435],[23.32643,60.00934,38.141],[23.30909,59.97944,41.3572],[23.29371,59.95869,25.2585],[23.26889,59.93622,35.0735],[23.24708,59.92243,18.5072],[23.22242,59.91608,22.1418],[23.18922,59.91559,3.3501],[23.17709,59.91743,19.7857],[23.16586,59.91767,7.9367],[23.16114,59.91022,14.1041],[23.16814,59.8889,19.4512],[23.12745,59.88638,7.5575],[22.98658,59.85196,0.0],[22.94614,59.84797,7.9302],[22.93141,59.84284,3.408],[22.90602,59.81965,7.7964],[22.88819,59.81318,0.0],[22.90512,59.81122,0.0],[22.96485,59.8183,0.1402],[22.9839,59.82372,11.1589],[23.00685,59.82616,10.1744],[23.06813,59.82079,0.0],[23.08058,59.82685,0.0],[23.25131,59.84113,0.0],[23.25131,59.84797,1.6718],[23.23316,59.852,0.0],[23.22218,59.86782,18.2524],[23.22234,59.88622,16.0437],[23.23715,59.89802,18.2938],[23.32643,59.92304,0.0],[23.365,59.94538,34.2473],[23.39869,59.97427,10.0647],[23.40797,59.98041,0.0534],[23.43019,59.98867,0.0739],[23.43971,59.99445,17.574],[23.44606,60.00511,48.0613],[23.44939,60.01756,12.3953],[23.45379,60.02798,29.8474],[23.46388,60.03229,20.903199999999998],[23.47877,60.03612,0.0],[23.48569,60.04515,0.0],[23.49024,60.05549,14.6359],[23.4983,60.0633,15.7691],[23.50961,60.06745,3.8338],[23.54615,60.07392,51.0268],[23.53736,60.06306,34.148],[23.53435,60.0537,0.0],[23.53614,60.04499,0.0],[23.54274,60.03604,4.7343],[23.54086,60.02912,7.682],[23.52711,60.02383,32.1899],[23.4983,60.01927,5.287],[23.48357,60.0113,0.0],[23.4406,59.97183,5.9715],[23.42945,59.95661,0.0],[23.45297,59.95726,4.7422],[23.49545,59.96809,14.9532],[23.56186,59.97761,11.8771],[23.5735,59.97769,0.6545],[23.58383,59.97333,12.6109],[23.59449,59.96113,1.2839],[23.6076,59.95661,26.6792],[23.77125,59.96796,15.7631],[23.79949,59.95661,0.0],[23.87306,59.99307,14.1201],[23.94068,59.99934,0.0],[23.95533,60.00357,0.0],[23.97071,60.01179,0.0],[23.98194,60.02196,0.0],[23.99024,60.03156,19.8487],[24.00082,60.03828,2.0553],[24.01922,60.03974,0.0],[24.01922,60.03229,0.0],[24.00261,60.02098,0.0],[24.00961,60.01057,0.0],[24.02817,60.00934,0.0],[24.0464,60.02546,0.0],[24.05836,60.02041,7.0987],[24.06813,60.02058,11.6976],[24.10597,60.03193,23.2773],[24.11476,60.03229,19.1733],[24.13185,60.02798,0.0],[24.14772,60.02196,18.7342],[24.16424,60.01944,0.0],[24.18295,60.02546,0.0],[24.15797,60.03449,4.0815],[24.15846,60.04304,19.6469],[24.17652,60.04804,0.0],[24.20395,60.04658,0.0],[24.23902,60.03937,0.0],[24.25245,60.03974,0.0],[24.26108,60.04157,0.0],[24.29225,60.0528,0.0],[24.27858,60.06025,20.1553],[24.29591,60.07221,6.0471],[24.31967,60.07583,0.0],[24.36793,60.07392,0.0],[24.36085,60.0624,0.0],[24.35971,60.05199,0.0],[24.36036,60.04312,26.4831],[24.35768,60.03604,0.0],[24.34425,60.0268,27.1599],[24.33058,60.02167,0.0],[24.3191,60.01415,0.0],[24.31267,59.9975,0.0],[24.32976,60.00336,0.0],[24.35027,60.01655,0.0],[24.36769,60.02204,0.0],[24.37477,60.00495,3.4333],[24.42091,60.03547,17.0854],[24.44614,60.04751,12.932],[24.46412,60.04658,0.0],[24.45297,60.03775,26.0952],[24.42433,60.00507,0.0],[24.41627,59.99136,0.0],[24.44565,59.99225,18.4575],[24.46811,59.99641,11.972],[24.48764,60.0058,16.5037],[24.52703,60.03535,16.6728],[24.59449,60.06025,1.6465],[24.59449,60.06647,0.0],[24.57399,60.07392,15.7921],[24.59425,60.08495,9.9379],[24.60271,60.09178,0.4237],[24.60816,60.10122,-1.0],[24.54038,60.08755,30.4396],[24.54802,60.09968,31.9763],[24.56056,60.10456,29.0231],[24.57472,60.10773,5.5364],[24.58766,60.11481,19.6896],[24.59685,60.12726,0.5997],[24.59083,60.13223,3.4552],[24.57667,60.13524,35.7961],[24.56039,60.14216,39.012],[24.549,60.15278,6.2136],[24.55405,60.15595,4.984],[24.5691,60.154,39.5768],[24.63063,60.1363,0.0],[24.64226,60.1291,15.1339],[24.64617,60.12092,0.0],[24.64959,60.10956,0.0],[24.65642,60.10098,0.0],[24.67026,60.10122,23.7225],[24.67482,60.10554,11.712],[24.67115,60.11823,0.0],[24.67335,60.12543,16.9283],[24.6797,60.13011,21.9327],[24.68775,60.13251,32.6121],[24.72096,60.13841,0.0],[24.77263,60.14216,0.0],[24.7859,60.14623,0.0],[24.81251,60.15827,0.0],[24.82732,60.16267,0.0],[24.80681,60.19062,6.9679],[24.84246,60.19465,0.0],[24.86883,60.17975,0.0],[24.87094,60.16169,4.6443],[24.83416,60.15583,0.0],[24.84523,60.14374,0.0],[24.86573,60.14012,0.0],[24.95094,60.14346,0.0],[24.96119,60.15156,0.0],[24.98455,60.19945,0.0],[24.99879,60.21284,6.249],[25.01905,60.21109,0.0],[25.02589,60.19945,13.3173],[25.02149,60.18399,0.0],[25.01075,60.16987,0.0],[24.99789,60.16267,0.0],[25.01075,60.15135,0.0],[25.02931,60.14785,0.0],[25.04526,60.15681,0.0],[25.06105,60.15656,0.0],[25.06739,60.16267,16.9447],[25.04786,60.16889,24.3152],[25.0586,60.17731,4.9874],[25.10157,60.19062,0.0],[25.09897,60.18651,0.0],[25.09742,60.18342,0.0],[25.09474,60.17634,0.0],[25.11704,60.17573,0.0],[25.17701,60.18329,0.0],[25.19711,60.19062,0.0],[25.18141,60.20051,8.1169],[25.19467,60.20083,0.0],[25.20395,60.20425,24.1775],[25.19125,60.21235,1.8087],[25.15504,60.22378,16.1494],[25.15626,60.23216,5.4377],[25.17416,60.22541,4.0877],[25.1858,60.22313,6.0123],[25.19028,60.22777,0.0],[25.19093,60.22846,0.0],[25.19044,60.24006,3.0173],[25.19215,60.24384,11.9131],[25.19752,60.24518,10.001],[25.29054,60.24592,0.0],[25.3213,60.25141,0.0],[25.31951,60.25629,19.9317],[25.31617,60.26789,39.7075],[25.31381,60.27253,28.9904],[25.35092,60.26724,3.1839],[25.36345,60.26008,20.2675],[25.36166,60.24518,6.8732],[25.50278,60.24616,0.0],[25.51092,60.24921,0.0],[25.51686,60.25454,0.0],[25.52223,60.27139,0.0],[25.52882,60.27448,0.0],[25.5359,60.2757,0.0],[25.54038,60.27871,0.0],[25.5451,60.2923,0.0],[25.54656,60.30585,3.8022],[25.54127,60.31635,26.5128],[25.52613,60.32095,10.5337],[25.52613,60.32709,0.0],[25.60271,60.33857,0.0],[25.62916,60.3476,0.0],[25.64601,60.35635,0.0],[25.66863,60.36465,3.7062],[25.6902,60.36286,-0.0559],[25.70436,60.34138,-0.1276],[25.64967,60.34138,24.0956],[25.64967,60.33393,1.2767],[25.67058,60.32746,4.4476],[25.65854,60.32274,10.0938],[25.65089,60.31346,10.9294],[25.64967,60.29979,0.0],[25.65577,60.29304,0.0],[25.73552,60.24726,0.0],[25.76197,60.24038,0.0],[25.78053,60.24518,13.5801],[25.78053,60.25141,12.4344],[25.84889,60.26569,0.0],[25.78094,60.28266,4.5212],[25.74537,60.2958,-0.2582],[25.73902,60.31346,1.0011],[25.75375,60.32075,0.1757],[25.77036,60.31415,19.5198],[25.80055,60.29295,14.2512],[25.82032,60.28889,16.5971],[25.84148,60.28775,0.0],[25.86101,60.284,26.9989],[25.87623,60.27253,21.8384],[25.86883,60.26569,3.2037],[25.88266,60.25593,14.6026],[25.89487,60.24958,8.0144],[25.90935,60.24616,0.5014],[25.93019,60.24518,3.5995],[25.92123,60.26529,0.0],[25.89243,60.29157,0.0],[25.88307,60.30663,16.655],[25.88429,60.32001,0.0],[25.90724,60.34097,14.4754],[25.91725,60.36127,0.0],[25.8991,60.36725,32.2275],[25.8777,60.37792,3.0044],[25.84205,60.40217,26.8685],[25.8672,60.39704,0.0395],[25.88836,60.38915,0.0],[25.94776,60.35887,5.1298],[25.95655,60.35602,7.4727],[25.96803,60.35505,3.9746],[25.97731,60.35773,28.8432],[25.98487,60.3631,0.3611],[25.9935,60.36782,-0.1877],[26.00587,60.36811,8.6025],[25.99708,60.35493,21.804],[26.03883,60.32266,15.843],[26.04005,60.29979,0.0],[26.09132,60.30663,0.0],[26.09986,60.31208,0.0],[26.10646,60.32404,15.2762],[26.10816,60.33592,0.0],[26.10141,60.34138,4.7816],[26.08863,60.34394,2.6905],[26.0796,60.35041,0.0],[26.06056,60.36811,0.0],[26.0232,60.38068,22.2044],[26.01222,60.38858,9.4932],[26.00685,60.40054,21.6222],[26.01743,60.40168,12.5318],[26.03248,60.40062,0.0],[26.04005,60.40595,0.0],[26.03932,60.4145,0.3031],[26.03614,60.42475,0.0],[26.02898,60.43334,0.0],[26.00375,60.4405,0.0],[25.9826,60.45808,35.054],[25.97185,60.46491,0.0],[25.91725,60.47797,25.0942],[25.91725,60.48542,0.5163],[25.9463,60.4842,28.4736],[25.98097,60.47578,9.5608],[26.01368,60.46259,4.0357],[26.04916,60.43749,15.2012],[26.06219,60.43228,4.8772],[26.09457,60.42333,8.225],[26.13445,60.40282,15.1733],[26.14243,60.39598,0.0],[26.15073,60.3985,0.0],[26.17042,60.40965,3.8247],[26.17897,60.41063,0.0],[26.27345,60.40217,0.0],[26.24293,60.42426,36.9474],[26.22934,60.43842,7.8582],[26.23178,60.45063,6.0718],[26.24562,60.45087,0.0],[26.26254,60.44099,0.0],[26.27866,60.42914,0.0],[26.29021,60.42333,13.9712],[26.29916,60.41592,4.5189],[26.31023,60.3994,18.388],[26.32399,60.383,10.6508],[26.34205,60.37556,0.0],[26.34832,60.37873,2.9678],[26.34897,60.38581,0.0],[26.35141,60.39281,3.1321],[26.3628,60.39598,0.0],[26.37403,60.39643,0.0],[26.3812,60.39875,0.0],[26.38453,60.40485,0.0],[26.38331,60.41649,0.6929],[26.4026,60.40266,5.4715],[26.41285,60.39802,3.2141],[26.42416,60.39598,7.5817],[26.41635,60.41193,0.0],[26.42335,60.41633,2.1828],[26.45151,60.41649,5.6298],[26.4607,60.42088,0.0],[26.46941,60.42748,0.0],[26.48569,60.44379,0.0],[26.45623,60.47455,0.0],[26.46583,60.50812,10.0],[26.5533,60.59177,15.0],[26.54311,60.59553,26.0406],[26.50105,60.5994,15.4058],[26.47438,60.61496,19.7999],[26.45041,60.63472,18.4664],[26.4163,60.65129,25.7058],[26.34829,60.6711,38.7111],[26.32866,60.68787,31.279],[26.32907,60.70167,25.9765],[26.32793,60.71722,49.8711],[26.32018,60.72244,53.072],[26.30189,60.74407,30.9915],[26.28866,60.752,38.4628],[26.27078,60.75479,60.3328],[26.23574,60.75234,59.7493],[26.21549,60.75541,51.0076],[26.21828,60.74792,41.7527],[26.21859,60.7412,47.2752],[26.22086,60.73578,39.9499],[26.22489,60.7334,40.9181],[26.21456,60.71557,66.2807],[26.19544,60.70402,50.5617],[26.17332,60.69723,58.6693],[26.12609,60.69454,43.6888],[26.03369,60.70586,40.6549],[25.97622,60.70544,40.0982],[25.94821,60.70885,70.9936],[25.93333,60.71526,61.1052],[25.92372,60.72337,69.2224],[25.91132,60.73051,52.9791],[25.88827,60.73402,77.123],[25.61046,60.68844,53.0452],[25.5718,60.68932,66.7124],[25.52343,60.70441,72.8006],[25.52137,60.73154,73.8537],[25.5099,60.7581,84.4857],[25.49284,60.7797,86.6418],[25.47383,60.79205,136.7514],[25.44199,60.79257,87.4071],[25.3744,60.76368,75.1718],[25.32954,60.75727,93.713],[25.30443,60.76239,89.9071]]]]}}