{"type": "Feature","bbox": [22.535,61.5152,23.6179,62.3352],"geometry": {"type": "MultiPolygon","coordinates": [[[[23.4348,61.5654,142.0462],[23.4443,61.5651,135.4181],[23.4453,61.5741,159.3569],[23.4641,61.5736,166.6949],[23.4646,61.5781,167.0132],[23.4835,61.5776,168.6908],[23.484,61.5821,160.6804],[23.4934,61.5819,156.5316],[23.4959,61.6043,163.3747],[23.4865,61.6045,161.5741],[23.4885,61.6225,153.9665],[23.479,61.6227,161.0997],[23.4805,61.6362,145.4093],[23.49,61.6359,140.7811],[23.4935,61.6673,133.0635],[23.4841,61.6676,132.838],[23.4861,61.6855,137.6611],[23.4956,61.6853,138.0601],[23.4971,61.6987,130.4521],[23.5065,61.6985,111.5305],[23.5086,61.7164,118.4752],[23.518,61.7162,132.1803],[23.5196,61.7296,123.3101],[23.5385,61.7292,138.8886],[23.539,61.7336,132.4174],[23.5674,61.7329,128.0911],[23.5679,61.7374,143.6321],[23.5774,61.7372,142.9154],[23.5779,61.7416,137.1268],[23.5874,61.7414,132.2096],[23.5885,61.7504,130.0134],[23.6074,61.7499,143.6281],[23.6079,61.7544,128.133],[23.6174,61.7541,126.8878],[23.6179,61.7586,132.4948],[23.6084,61.7589,137.9495],[23.609,61.7633,139.5915],[23.59,61.7638,133.2558],[23.5895,61.7593,144.5118],[23.58,61.7596,148.1627],[23.5805,61.7641,149.379],[23.5711,61.7643,140.9233],[23.5752,61.8002,138.0034],[23.5657,61.8004,153.3009],[23.5662,61.8049,132.5379],[23.5567,61.8052,151.9995],[23.5573,61.8096,134.2872],[23.5668,61.8094,147.0198],[23.5673,61.8139,140.6564],[23.5863,61.8134,152.6263],[23.5868,61.8179,149.9727],[23.5963,61.8176,150.9463],[23.5994,61.8445,146.1596],[23.5899,61.8448,146.4183],[23.5915,61.8582,131.6775],[23.582,61.8585,141.3379],[23.5815,61.854,133.0099],[23.5149,61.8557,162.3643],[23.5154,61.8602,170.0381],[23.4964,61.8607,171.9753],[23.4969,61.8652,167.2303],[23.4779,61.8656,159.5494],[23.4784,61.8701,171.4591],[23.4689,61.8703,157.2703],[23.4694,61.8748,172.6289],[23.4504,61.8753,146.6145],[23.4544,61.9112,170.6919],[23.4449,61.9114,166.2583],[23.4454,61.9159,167.6175],[23.4263,61.9164,170.3558],[23.4268,61.9209,163.9897],[23.3982,61.9216,170.3138],[23.3987,61.926,173.437],[23.3797,61.9265,185.3339],[23.3802,61.931,179.4059],[23.3611,61.9314,172.1496],[23.3616,61.9359,201.6496],[23.3425,61.9364,162.6114],[23.343,61.9409,164.5855],[23.3335,61.9411,170.3706],[23.334,61.9456,165.4285],[23.3149,61.946,169.0889],[23.3154,61.9505,157.0761],[23.3058,61.9508,139.1087],[23.3078,61.9687,162.2493],[23.3173,61.9685,150.5],[23.3183,61.9775,156.0625],[23.3279,61.9772,173.2054],[23.3288,61.9862,154.2952],[23.3384,61.986,170.8019],[23.3398,61.9994,154.4487],[23.3494,61.9992,154.6297],[23.3504,62.0082,154.6506],[23.3599,62.0079,154.382],[23.3609,62.0169,154.7129],[23.3705,62.0167,154.7969],[23.373,62.0391,154.6735],[23.3634,62.0393,154.6999],[23.3669,62.0707,154.6995],[23.3573,62.071,154.6498],[23.3578,62.0755,154.4299],[23.329,62.0761,170.4769],[23.3295,62.0806,172.4699],[23.3008,62.0813,176.5495],[23.3018,62.0903,177.9554],[23.2922,62.0905,187.1475],[23.2941,62.1084,174.5421],[23.3037,62.1082,179.4426],[23.3047,62.1172,175.2902],[23.3143,62.117,187.4102],[23.3153,62.1259,194.8929],[23.3249,62.1257,176.8613],[23.3253,62.1302,169.7514],[23.3349,62.13,184.6901],[23.3359,62.1389,185.9865],[23.3455,62.1387,188.8748],[23.3465,62.1477,168.6267],[23.3561,62.1474,178.7287],[23.3571,62.1564,179.2662],[23.3667,62.1562,176.6553],[23.3672,62.1607,184.5495],[23.3768,62.1604,184.6198],[23.3773,62.1649,174.3689],[23.3965,62.1645,186.0897],[23.396,62.16,182.107],[23.4152,62.1595,200.3521],[23.4248,62.1593,193.269],[23.4253,62.1638,198.4603],[23.4157,62.164,197.8855],[23.4167,62.173,198.4297],[23.4071,62.1732,190.3879],[23.4086,62.1867,180.7958],[23.399,62.1869,187.4052],[23.4,62.1959,172.8688],[23.3904,62.1961,171.8316],[23.3914,62.2051,163.1968],[23.3818,62.2053,166.1431],[23.3833,62.2188,162.4272],[23.3737,62.219,160.7418],[23.3747,62.228,161.2978],[23.365,62.2282,158.3682],[23.3655,62.2327,159.2694],[23.3559,62.2329,160.1102],[23.3569,62.2419,160.7341],[23.3473,62.2421,159.115],[23.3478,62.2466,157.7563],[23.3381,62.2468,160.5302],[23.3386,62.2513,159.0223],[23.329,62.2515,156.8151],[23.33,62.2605,154.2422],[23.3203,62.2607,154.8138],[23.3209,62.2652,154.454],[23.3112,62.2654,151.1231],[23.3117,62.2699,149.5098],[23.3021,62.2701,152.9687],[23.303,62.2791,151.8296],[23.2934,62.2794,149.037],[23.2939,62.2838,153.6904],[23.2842,62.2841,145.0881],[23.2852,62.293,152.0782],[23.2756,62.2933,150.9854],[23.2761,62.2978,147.3171],[23.2664,62.298,147.282],[23.2669,62.3025,147.0462],[23.2572,62.3027,145.9311],[23.2582,62.3116,144.5341],[23.2486,62.3119,138.1924],[23.249,62.3164,136.0747],[23.2394,62.3166,135.4955],[23.2399,62.3211,139.7945],[23.2302,62.3213,135.5789],[23.2312,62.3303,140.9558],[23.2215,62.3305,135.6817],[23.222,62.335,133.1714],[23.2123,62.3352,140.655],[23.2119,62.3307,131.6929],[23.1925,62.3312,143.0398],[23.1921,62.3266,144.3369],[23.1728,62.3271,147.2408],[23.1723,62.3226,147.7439],[23.153,62.323,150.7472],[23.1525,62.3186,155.5441],[23.1332,62.319,152.7233],[23.1327,62.3145,174.759],[23.1134,62.3149,142.5391],[23.1129,62.3104,152.6306],[23.0936,62.3109,159.1031],[23.0932,62.306399999999996,153.6004],[23.0739,62.3068,184.7839],[23.0734,62.3023,170.6648],[23.0541,62.3027,155.7043],[23.0537,62.2982,158.2779],[23.0344,62.2986,171.406],[23.0339,62.2942,175.3932],[23.0146,62.2946,181.7283],[23.0142,62.2901,177.7035],[22.9949,62.2905,149.0491],[22.9944,62.286,151.7786],[22.9751,62.2864,147.3069],[22.9747,62.2819,150.5983],[22.9554,62.2823,155.5988],[22.955,62.2779,146.0],[22.9357,62.2783,154.1521],[22.9352,62.2738,153.3463],[22.9159,62.2742,156.083],[22.9155,62.2697,157.7219],[22.8384,62.2713,160.3306],[22.8342,62.2264,154.2593],[22.8438,62.2262,153.0],[22.84,62.1858,156.2579],[22.8496,62.1856,155.6532],[22.8492,62.1811,155.1243],[22.8588,62.1809,154.382],[22.8576,62.1674,156.0],[22.8479,62.1677,157.7898],[22.8475,62.1632,160.3197],[22.8091,62.1639,159.1032],[22.8087,62.1594,160.3788],[22.7895,62.1598,161.1101],[22.789,62.1553,154.2456],[22.7795,62.1555,154.722],[22.779,62.151,159.4593],[22.7694,62.1512,156.1502],[22.7662,62.1153,163.6835],[22.7758,62.1151,165.4917],[22.7729,62.0837,166.501],[22.7825,62.0835,162.1345],[22.7804,62.0611,162.0257],[22.7709,62.0613,164.2104],[22.7704,62.0568,152.7967],[22.7321,62.0575,147.7115],[22.7317,62.0531,150.797],[22.703,62.0536,141.5],[22.7026,62.0491,141.5],[22.6931,62.0493,155.2577],[22.6935,62.0538,144.591],[22.6743,62.0542,165.2949],[22.6739,62.0497,153.7178],[22.6548,62.05,152.5207],[22.6544,62.0456,153.5846],[22.6352,62.0459,151.2824],[22.6348,62.0414,157.8115],[22.6157,62.0418,148.9557],[22.6153,62.0373,148.6665],[22.6057,62.0375,148.6942],[22.6053,62.033,148.8407],[22.5958,62.0332,153.649],[22.5954,62.0287,149.49],[22.5858,62.0289,145.9289],[22.5851,62.0199,143.6903],[22.5755,62.0201,140.7627],[22.5751,62.0156,142.2052],[22.5656,62.0157,140.3091],[22.5648,62.0068,146.5457],[22.5553,62.0069,145.4657],[22.5549,62.0024,146.8284],[22.5453,62.0026,143.5341],[22.5449,61.9981,141.635],[22.5354,61.9983,146.5487],[22.535,61.9938,138.7212],[22.5541,61.9935,142.523],[22.5538,61.989,141.9898],[22.5633,61.9888,139.7273],[22.5629,61.9843,140.1685],[22.582,61.984,139.5466],[22.5817,61.9795,140.5551],[22.5912,61.9793,139.5082],[22.5908,61.9748,141.6838],[22.6099,61.9745,149.3749],[22.6096,61.97,149.3145],[22.6382,61.9694,147.4651],[22.6378,61.965,147.6412],[22.6569,61.9646,149.8833],[22.655,61.9422,140.5081],[22.6645,61.942,135.9329],[22.6637,61.933,135.1454],[22.6733,61.9328,141.9499],[22.6725,61.9238,131.091],[22.6915,61.9235,133.6577],[22.6912,61.919,128.3561],[22.7198,61.9184,128.6615],[22.7194,61.9139,134.9444],[22.7384,61.9136,129.7385],[22.7364,61.8911,122.9295],[22.7459,61.8909,137.6786],[22.7455,61.8865,125.8666],[22.7646,61.8861,141.6375],[22.7642,61.8816,141.9559],[22.7832,61.8812,154.9714],[22.7828,61.8767,144.6676],[22.7923,61.8765,153.3304],[22.7915,61.8676,135.9501],[22.763,61.8681,129.2461],[22.7626,61.8636,135.6181],[22.7435,61.864,124.7248],[22.7423,61.8506,121.2112],[22.7614,61.8502,132.1588],[22.7618,61.8547,130.339],[22.7713,61.8545,123.3974],[22.7709,61.85,122.2657],[22.7804,61.8498,131.1935],[22.7796,61.8408,126.8709],[22.7891,61.8406,128.3149],[22.7887,61.8361,129.0414],[22.7982,61.8359,123.8516],[22.7978,61.8315,121.2479],[22.8073,61.8313,135.9923],[22.8069,61.8268,131.2059],[22.8164,61.8266,136.2681],[22.816,61.8221,120.7429],[22.8255,61.8219,141.2657],[22.825,61.8174,118.0076],[22.8345,61.8172,120.1918],[22.8341,61.8127,118.1924],[22.8246,61.8129,138.0778],[22.8226,61.7905,134.8394],[22.8131,61.7907,121.9871],[22.8115,61.7727,129.978],[22.802,61.7729,130.3421],[22.8007,61.7595,145.0645],[22.7913,61.7597,142.8631],[22.7909,61.7552,150.6946],[22.7529,61.7559,134.1159],[22.7525,61.7514,125.6322],[22.7431,61.7516,125.7438],[22.7426,61.7471,126.7913],[22.7332,61.7473,127.4592],[22.7324,61.7383,124.1097],[22.6945,61.7391,106.9981],[22.6937,61.7301,121.4325],[22.6842,61.7303,119.3242],[22.683,61.7168,117.7665],[22.6925,61.7167,125.5129],[22.6917,61.7077,121.6404],[22.7012,61.7075,124.6454],[22.702,61.7165,123.2211],[22.7115,61.7163,119.1361],[22.7122,61.7253,114.7749],[22.7217,61.7251,125.5075],[22.7209,61.7161,122.8987],[22.7304,61.7159,118.0612],[22.73,61.7114,122.5007],[22.7395,61.7112,115.6054],[22.7391,61.7067,119.8412],[22.7485,61.7066,124.2675],[22.7477,61.6976,115.1845],[22.7667,61.6972,100.7887],[22.7663,61.6927,111.6587],[22.7852,61.6923,112.8398],[22.7848,61.6879,120.8741],[22.8037,61.6875,122.9658],[22.8033,61.683,109.4178],[22.8128,61.6828,132.1513],[22.8124,61.6783,133.9787],[22.8218,61.6781,125.6373],[22.8214,61.6736,135.8347],[22.8309,61.6734,125.6395],[22.8292,61.6555,117.7138],[22.8387,61.6553,124.1253],[22.8374,61.6418,103.5003],[22.8469,61.6416,110.8265],[22.8457,61.6282,93.3633],[22.8551,61.628,109.011],[22.8547,61.6235,98.6276],[22.8641,61.6233,99.9611],[22.8637,61.6188,101.3973],[22.8826,61.6184,113.4037],[22.8822,61.6139,116.886],[22.8916,61.6137,125.5872],[22.8912,61.6093,129.2409],[22.9006,61.6091,128.4681],[22.9002,61.6046,129.3661],[22.9096,61.6044,131.972],[22.9092,61.5999,132.7593],[22.9187,61.5997,125.7503],[22.9182,61.5952,134.8983],[22.9277,61.595,128.6972],[22.9272,61.5905,132.2425],[22.9367,61.5903,111.4412],[22.9363,61.5858,105.6574],[22.9457,61.5856,109.4731],[22.9461,61.5901,103.426],[22.9555,61.5899,106.8342],[22.956,61.5944,94.3346],[22.9654,61.5942,98.9151],[22.965,61.5897,100.2008],[22.9744,61.5895,113.9659],[22.974,61.585,96.7346],[22.9928,61.5846,106.0006],[22.9933,61.5891,120.5337],[23.0027,61.5889,102.3198],[23.0031,61.5934,120.7339],[23.0126,61.5932,102.7891],[23.013,61.5977,110.0543],[23.0224,61.5975,104.2841],[23.0229,61.602,95.9952],[23.0323,61.6017,92.2299],[23.0319,61.5973,87.975],[23.0507,61.5968,96.3203],[23.0503,61.5924,86.2247],[23.0691,61.5919,100.5542],[23.0687,61.5875,100.1361],[23.0781,61.5872,98.5775],[23.0772,61.5783,108.2959],[23.0678,61.5785,106.8029],[23.0669,61.5695,139.0247],[23.0575,61.5697,118.8534],[23.0566,61.5607,115.9715],[23.066,61.5605,115.3556],[23.0652,61.5516,128.6811],[23.0746,61.5513,120.7207],[23.0737,61.5424,122.853],[23.1961,61.5396,137.0093],[23.1956,61.5351,113.7145],[23.2144,61.5347,120.5482],[23.214,61.5302,112.1996],[23.2328,61.5298,88.8596],[23.2323,61.5253,84.3637],[23.2512,61.5248,78.2288],[23.2507,61.5203,83.9334],[23.2695,61.5199,63.504],[23.269,61.5154,81.7348],[23.2784,61.5152,94.3641],[23.2789,61.5197,95.9013],[23.3165,61.5188,83.2905],[23.317,61.5233,60.0],[23.3923,61.5214,109.8691],[23.3933,61.5304,109.7309],[23.4026,61.5302,114.2099],[23.4031,61.5346,121.2546],[23.4125,61.5344,107.544],[23.4135,61.5434,118.7121],[23.423,61.5432,118.2282],[23.4235,61.5476,124.653],[23.4329,61.5474,124.4912],[23.4348,61.5654,142.0462]]]]}
,"properties": {"GID_3": "FIN.5.6.2_1","GID_0": "FIN","country": "Finland","GID_1": "FIN.5_1","province": "WesternFinland","NL_NAME_1": "NA","GID_2": "FIN.5.6_1","county": "Pirkanmaa","NL_NAME_2": "NA","city": "NorthWesternPirkanm","VARNAME_3": "NA","NL_NAME_3": "NA","TYPE_3": "Seutukunta|Ekonomiskregion","ENGTYPE_3": "Sub-Region","CC_3": "NA","HASC_3": "NA","name": "North_Western_Pirkanm.city","area_km2": 2859.387,"hist_schema_id": "Elevation0-9000","hist_area_km2": {"50": 20.37,"75": 169.755,"100": 395.505,"125": 720.838,"150": 1129.805,"175": 405.969,"200": 17.146}}}