{"type":"Feature","properties":{"GID_3":"FIN.3.2.5_1","GID_0":"FIN","country":"Finland","GID_1":"FIN.3_1","province":"Oulu","NL_NAME_1":"NA","GID_2":"FIN.3.2_1","county":"NorthernOstrobothnia","NL_NAME_2":"NA","city":"Raahe","VARNAME_3":"NA","NL_NAME_3":"NA","TYPE_3":"Seutukunta|Ekonomiskregion","ENGTYPE_3":"Sub-Region","CC_3":"NA","HASC_3":"FI.OU.RA","name":"Raahe.city"},
"geometry":{"type": "MultiPolygon","coordinates": [[[[24.8734,64.3825,120.1567],[24.8742,64.387,117.769],[24.8949,64.3864,110.078],[24.8941,64.3819,108.5165],[24.9044,64.3815,108.8252],[24.9036,64.3771,107.6398],[24.914,64.3767,106.7898],[24.9132,64.3722,113.0329],[24.9235,64.3719,111.7228],[24.9227,64.3674,109.2631],[24.9434,64.3667,97.1023],[24.9426,64.3623,104.2307],[24.953,64.3619,96.3674],[24.9522,64.3574,102.9132],[24.9625,64.3571,97.1097],[24.9617,64.3526,102.5315],[24.9721,64.3523,91.1031],[24.9713,64.3478,100.4247],[25.0436,64.3454,94.707],[25.0428,64.3409,94.595],[25.1152,64.3385,103.6306],[25.1143,64.334,109.5335],[25.1247,64.3336,96.1246],[25.1238,64.3292,104.7837],[25.1445,64.3285,107.1398],[25.1437,64.324,105.5513],[25.2779,64.3193,110.4909],[25.2788,64.3238,110.7929],[25.2891,64.3234,114.3199],[25.2899,64.3279,111.1092],[25.3003,64.3276,111.9001],[25.3011,64.332,105.3304],[25.3114,64.3317,106.9399],[25.3123,64.3362,103.8459],[25.3226,64.3358,107.4673],[25.3235,64.3403,105.5942],[25.3338,64.3399,106.983],[25.3347,64.3444,109.1112],[25.345,64.344,108.1191],[25.3459,64.3485,105.798],[25.3562,64.3481,111.4319],[25.3571,64.3526,110.4613],[25.3674,64.3522,110.6601],[25.3683,64.3567,104.8536],[25.3786,64.3564,103.9835],[25.3795,64.3608,106.2658],[25.3898,64.3605,101.8743],[25.3907,64.3649,98.8314],[25.4011,64.3646,100.8228],[25.4019,64.369,100.2517],[25.4123,64.3687,98.8986],[25.4131,64.3732,96.4468],[25.4545,64.3717,93.8076],[25.4563,64.3806,87.942],[25.4459,64.381,88.8996],[25.4477,64.3899,92.1897],[25.4374,64.3903,85.3062],[25.44,64.4037,84.4956],[25.4296,64.4041,83.9694],[25.4314,64.4131,79.5122],[25.421,64.4134,81.5087],[25.4219,64.4179,80.3959],[25.453,64.4168,84.7007],[25.4539,64.4213,82.5587],[25.4643,64.4209,79.1917],[25.4651,64.4254,76.6588],[25.4859,64.4246,80.6134],[25.4867,64.4291,79.9268],[25.4764,64.4295,75.6618],[25.4781,64.4385,72.4957],[25.4678,64.4388,74.6014],[25.4696,64.4478,74.3025],[25.4592,64.4482,72.5551],[25.4601,64.4526,71.28],[25.4497,64.453,71.2967],[25.4559,64.4843,66.5115],[25.4663,64.484,70.6045],[25.469,64.4974,67.407],[25.4794,64.497,65.8042],[25.4803,64.5015,68.8444],[25.4699,64.5019,64.2297],[25.4708,64.5064,66.0026],[25.4604,64.5067,71.2558],[25.4613,64.5112,64.1154],[25.4405,64.512,67.3975],[25.4413,64.5164,64.027],[25.4309,64.5168,64.6842],[25.4318,64.5213,61.933],[25.411,64.522,65.9173],[25.4119,64.5265,70.1601],[25.3911,64.5273,68.0114],[25.392,64.5317,67.5611],[25.3816,64.5321,64.812],[25.3834,64.5411,56.3651],[25.4146,64.5399,55.2028],[25.4154,64.5444,59.6612],[25.3946,64.5452,56.1508],[25.3955,64.5496,54.4152],[25.3851,64.55,54.7437],[25.3877,64.5635,52.7585],[25.3982,64.5631,61.0216],[25.4008,64.5765,54.8318],[25.4112,64.5761,60.8908],[25.4139,64.5896,55.8717],[25.4243,64.5892,59.9771],[25.4279,64.6071,53.3532],[25.4383,64.6067,49.8825],[25.4392,64.6112,53.8182],[25.4496,64.6108,53.7264],[25.4505,64.6153,56.1232],[25.4609,64.615,56.1104],[25.4618,64.6194,57.8613],[25.4931,64.6183,49.4639],[25.4922,64.6138,51.931],[25.5027,64.6134,54.2942],[25.5045,64.6224,50.1185],[25.5149,64.622,50.8006],[25.5158,64.6265,55.6965],[25.5262,64.6261,53.283],[25.5271,64.6306,55.9872],[25.4958,64.6317,54.4753],[25.4967,64.6362,57.5773],[25.4758,64.637,50.3563],[25.4767,64.6414,58.2486],[25.4454,64.6426,52.857],[25.4463,64.647,49.9681],[25.415,64.6482,54.8015],[25.4158,64.6526,53.1182],[25.3949,64.6534,57.1368],[25.3958,64.6579,55.5893],[25.3645,64.659,57.7975],[25.3654,64.6635,56.535],[25.334,64.6646,62.8938],[25.3349,64.669,57.2973],[25.3244,64.6694,59.6269],[25.3262,64.6784,52.1705],[25.3157,64.6787,52.3999],[25.3166,64.6832,55.368],[25.3061,64.6836,58.488],[25.307,64.688,50.4544],[25.2965,64.6884,60.0673],[25.2974,64.6929,59.3604],[25.2869,64.6933,50.7953],[25.2878,64.6977,50.9674],[25.2564,64.6988,55.5882],[25.2572,64.7033,57.1365],[25.2363,64.704,59.9974],[25.2372,64.7085,61.1788],[25.2267,64.7088,64.2881],[25.2276,64.7133,60.6246],[25.2171,64.7137,63.6298],[25.2179,64.7182,56.2506],[25.2075,64.7185,63.7725],[25.2083,64.723,57.7134],[25.1874,64.7237,62.0121],[25.1882,64.7282,59.816],[25.1777,64.7286,58.8389],[25.1786,64.733,55.8742],[25.1576,64.7337,57.1812],[25.1585,64.7382,55.3955],[25.148,64.7386,54.0958],[25.1488,64.7431,63.28],[25.1279,64.7438,51.4552],[25.1287,64.7483,47.044],[25.1077,64.7489,49.0411],[25.1086,64.7534,49.9664],[25.0876,64.7541,41.8988],[25.0884,64.7586,42.5792],[25.0779,64.759,38.7738],[25.0788,64.7634,32.4965],[25.0578,64.7642,37.6441],[25.0586,64.7686,38.9076],[25.0376,64.7693,33.9599],[25.0384,64.7738,33.6427],[25.0175,64.7745,34.3438],[25.0183,64.779,34.8099],[25.0078,64.7793,34.7014],[25.0086,64.7838,41.0112],[24.9981,64.7841,34.6562],[24.9989,64.7886,38.2512],[24.9884,64.789,41.4907],[24.9892,64.7934,35.6496],[24.9787,64.7938,34.6875],[24.9804,64.8028,26.9776],[24.9699,64.8031,26.2897],[24.9707,64.8076,30.7409],[24.9602,64.8079,27.7246],[24.9634,64.8258,27.5957],[24.974,64.8255,23.5269],[24.9764,64.8389,22.4027],[24.987,64.8386,24.6255],[25.0007,64.9133,-0.0142],[24.9792,64.9063,0.6545],[24.9547,64.9057,-0.2497],[24.9526,64.9026,0.0],[24.9599,64.8974,-0.0022],[24.9589,64.8943,0.0],[24.962,64.8922,-0.1349],[24.9578,64.888,-0.255],[24.9354,64.8812,0.0637],[24.9208,64.8812,0.2938],[24.9125,64.8854,0.0],[24.9,64.8812,2.3436],[24.8937,64.8854,0.0],[24.8729,64.8854,0.3664],[24.8688,64.8833,0.9263],[24.8625,64.8854,0.0],[24.8583,64.8833,0.2549],[24.8521,64.8833,0.3858],[24.8479,64.8854,0.0],[24.8354,64.8854,0.3904],[24.8312,64.8875,0.0],[24.8229,64.8875,1.916],[24.8167,64.8896,0.0],[24.812,64.8839,0.1229],[24.7984,64.8807,0.0],[24.7917,64.875,0.6263],[24.7792,64.875,0.0],[24.775,64.8729,2.5141],[24.7708,64.875,0.0],[24.7458,64.875,0.2403],[24.7417,64.8729,0.9102],[24.7333,64.8729,0.2925],[24.7255,64.8703,0.0],[24.7193,64.8682,-0.0104],[24.7146,64.8646,0.0],[24.6922,64.862,0.0],[24.6901,64.8588,0.0],[24.6932,64.8568,0.0],[24.688,64.8547,0.0],[24.6932,64.8505,0.0],[24.6849,64.8422,0.366],[24.6714,64.8391,0.0],[24.6693,64.837,0.2309],[24.6724,64.8349,0.3096],[24.6714,64.8318,0.2567],[24.6724,64.8297,0.0],[24.6693,64.8234,0.0],[24.6729,64.8187,0.0],[24.6714,64.8161,0.0],[24.6724,64.813,0.0],[24.6661,64.8068,0.4638],[24.6583,64.8042,0.0],[24.6505,64.8047,1.8625],[24.6443,64.8089,5.29],[24.6474,64.813,0.0],[24.6464,64.8161,2.8243],[24.6474,64.8182,0.0],[24.6443,64.8203,1.3524],[24.6464,64.8224,0.704],[24.6536,64.8234,0.0],[24.6536,64.8266,0.0],[24.6495,64.8307,0.0],[24.6375,64.8313,0.0],[24.6333,64.8333,0.0],[24.6292,64.8313,0.0],[24.6229,64.8313,0.3369],[24.6188,64.8333,0.0],[24.6146,64.8333,0.0],[24.5958,64.8271,1.3012],[24.5896,64.8271,0.0],[24.5583,64.8187,1.6852],[24.5443,64.8182,0.0],[24.5422,64.8141,6.8458],[24.5432,64.8109,0.6556],[24.5422,64.8089,0.0],[24.5474,64.8057,1.0089],[24.5464,64.8026,0.0],[24.5563,64.8,0.0],[24.5661,64.7995,0.0],[24.5693,64.7943,0.0],[24.5786,64.787,0.2383],[24.5776,64.7839,0.0],[24.5807,64.7828,0.582],[24.5724,64.7735,0.0],[24.5646,64.7708,2.0301],[24.5547,64.7703,0.0],[24.5641,64.7641,0.0],[24.562,64.7609,0.0],[24.5562,64.7604,0.0],[24.5547,64.7589,0.0],[24.5641,64.7536,1.6352],[24.5609,64.7495,4.6605],[24.562,64.7464,0.0],[24.5609,64.7443,0.0],[24.5661,64.7411,0.0],[24.5651,64.738,0.0],[24.5682,64.7359,0.0],[24.5557,64.7234,0.0],[24.538,64.7182,0.493],[24.5349,64.7151,0.6912],[24.525,64.7146,0.0],[24.5208,64.7125,1.9773],[24.5104,64.7146,0.0],[24.5057,64.7109,12.8209],[24.5005,64.7099,0.0],[24.5021,64.7063,0.0],[24.5005,64.7026,3.5067],[24.5057,64.6995,10.8923],[24.5042,64.6979,15.2331],[24.4979,64.7,0.0],[24.4932,64.6964,7.8268],[24.4854,64.6958,11.6784],[24.4839,64.6964,8.4449],[24.4849,64.6995,4.5027],[24.4729,64.7,0.9666],[24.4682,64.6964,9.0219],[24.4557,64.6922,14.1459],[24.4479,64.6917,10.5974],[24.4443,64.6943,0.0],[24.4453,64.6995,16.504],[24.4318,64.6995,11.2832],[24.4328,64.6901,6.2098],[24.4276,64.688,0.0],[24.4333,64.6854,0.0],[24.4417,64.6917,1.8169],[24.4516,64.6891,1.2097],[24.4547,64.6859,7.5354],[24.4604,64.6854,0.0],[24.462,64.6839,0.0],[24.4578,64.6797,5.4306],[24.4526,64.6787,0.0],[24.4458,64.6729,7.3271],[24.4292,64.6729,7.7005],[24.425,64.6708,8.3747],[24.4151,64.6703,0.0],[24.4109,64.663,4.362],[24.4146,64.6604,2.8666],[24.4224,64.662,6.8026],[24.4193,64.6568,12.3929],[24.425,64.6542,8.0034],[24.4292,64.6542,8.2379],[24.4417,64.6583,8.406],[24.4453,64.6547,16.5319],[24.4401,64.6536,11.008],[24.4354,64.65,23.7352],[24.4276,64.6495,9.8295],[24.4214,64.6432,8.2985],[24.4229,64.6417,5.9863],[24.4286,64.6412,11.3096],[24.4276,64.638,13.636],[24.4286,64.6359,22.7832],[24.4234,64.6349,14.0185],[24.4214,64.6328,12.8122],[24.4224,64.6297,9.5148],[24.4167,64.6312,7.1313],[24.4089,64.6307,0.0],[24.4078,64.6276,15.184],[24.3943,64.6245,6.3277],[24.3786,64.6068,5.7182],[24.363,64.6057,0.0],[24.3651,64.6026,0.0],[24.3682,64.6016,0.0],[24.3672,64.5984,1.3517],[24.3745,64.5974,1.1811],[24.3724,64.5943,0.0],[24.3672,64.5922,0.7259],[24.3766,64.5891,1.015],[24.3755,64.5859,0.0],[24.3807,64.5828,0.0],[24.3786,64.5797,0.3603],[24.3708,64.5771,0.0],[24.3625,64.5771,0.0],[24.3589,64.5745,0.0],[24.3641,64.5693,2.7848],[24.3568,64.5651,7.996],[24.3641,64.5641,2.7683],[24.3703,64.5599,0.0],[24.375,64.5542,1.39],[24.3661,64.5443,0.0],[24.3547,64.5411,0.0],[24.3474,64.5339,0.0],[24.3396,64.5313,1.1461],[24.3354,64.5313,0.0],[24.3312,64.5292,4.4371],[24.3146,64.5292,0.0],[24.3042,64.525,0.0],[24.2896,64.525,1.7171],[24.2807,64.5307,0.0],[24.2734,64.5318,9.8342],[24.2766,64.5359,0.0],[24.275,64.5375,0.0],[24.2687,64.5375,1.0788],[24.2646,64.5354,3.185],[24.2464,64.5349,0.0],[24.2443,64.5318,0.5487],[24.2536,64.5286,2.9865],[24.2599,64.5245,0.8316],[24.2589,64.5214,0.0],[24.262,64.5203,0.0],[24.2609,64.5172,0.0],[24.2682,64.5162,3.8527],[24.2729,64.5125,0.0],[24.2786,64.512,0.6217],[24.2755,64.5068,0.0],[24.2776,64.5047,0.0],[24.2849,64.5036,0.3524],[24.2891,64.5005,0.0],[24.275,64.4979,1.1807],[24.2661,64.5036,0.7911],[24.2563,64.5062,2.9185],[24.2526,64.5036,3.3037],[24.2536,64.5005,0.4592],[24.2458,64.4979,5.0724],[24.2417,64.5,0.0],[24.2313,64.5,0.0],[24.2193,64.4891,2.2802],[24.2286,64.4828,-0.0797],[24.2276,64.4797,0.6724],[24.2286,64.4776,1.3223],[24.2208,64.475,0.1043],[24.2193,64.4766,0.0],[24.2224,64.4807,0.4579],[24.2167,64.4833,0.1029],[24.2083,64.4833,11.803],[24.2042,64.4854,0.7484],[24.1995,64.4818,0.0],[24.1943,64.4807,3.5355],[24.1995,64.4755,0.0],[24.1932,64.4693,5.2687],[24.1797,64.4661,1.0797],[24.1807,64.4609,0.4252],[24.1786,64.4589,0.1781],[24.1708,64.4563,0.1981],[24.1604,64.4563,4.7213],[24.1562,64.4583,0.0],[24.1375,64.4521,7.6523],[24.1333,64.4542,3.0488],[24.1318,64.4537,7.1814],[24.1328,64.4505,3.447],[24.1307,64.4484,3.3993],[24.1151,64.4474,1.3142],[24.1203,64.4422,0.3809],[24.1125,64.4396,0.5503],[24.1083,64.4417,0.0],[24.1021,64.4396,1.537],[24.0979,64.4417,0.0],[24.0818,64.4411,2.9896],[24.0833,64.4396,4.4191],[24.0891,64.4391,1.6733],[24.0911,64.4359,0.0],[24.088,64.4318,0.0],[24.0974,64.4286,1.232],[24.0995,64.4245,1.1038],[24.0932,64.4172,0.0],[24.0667,64.4104,9.6015],[24.0521,64.4104,5.6364],[24.0479,64.4125,0.3621],[24.0339,64.4141,0.9365],[24.0349,64.4109,3.5354],[24.0307,64.4047,0.0],[24.0286,64.4026,3.1003],[24.0234,64.4016,4.8423],[24.0161,64.3943,0.1178],[24.0063,64.3938,0.0],[23.9984,64.3912,0.0],[24.0016,64.3891,8.8571],[24.0005,64.3859,8.2492],[24.0016,64.3839,6.5731],[23.9974,64.3776,0.6892],[23.9912,64.3724,3.2449],[23.9977,64.3723,7.8894],[23.9971,64.3678,10.1998],[24.0281,64.3669,13.3067],[24.0275,64.3625,15.9162],[24.0482,64.3619,25.224],[24.0476,64.3574,24.5301],[24.0683,64.3569,31.3482],[24.0676,64.3524,29.4515],[24.0986,64.3515,30.1192],[24.098,64.3471,32.7784],[24.1187,64.3465,30.9406],[24.118,64.342,29.0172],[24.149,64.3411,24.6274],[24.1484,64.3367,32.8683],[24.1794,64.3358,23.7552],[24.1787,64.3313,25.1258],[24.2304,64.3299,35.2461],[24.2298,64.3254,35.2391],[24.2504,64.3248,37.8412],[24.2497,64.3203,40.5785],[24.2601,64.32,38.2126],[24.2594,64.3155,41.2591],[24.2697,64.3152,42.6163],[24.269,64.3108,47.2152],[24.2794,64.3105,35.4305],[24.2801,64.315,42.206],[24.2904,64.3147,30.9068],[24.2911,64.3192,36.129],[24.3014,64.3189,45.1048],[24.3021,64.3233,37.7535],[24.3125,64.323,35.9894],[24.3131,64.3275,42.9146],[24.3235,64.3272,38.2928],[24.3242,64.3317,38.3427],[24.3345,64.3314,36.0361],[24.3317,64.3135,34.5092],[24.3524,64.3129,42.0579],[24.3566,64.3398,36.6126],[24.3876,64.3389,61.1775],[24.3898,64.3523,40.3556],[24.4001,64.352,48.0399],[24.4008,64.3565,37.7513],[24.3905,64.3568,47.6599],[24.3912,64.3613,30.7452],[24.3808,64.3616,27.9783],[24.3816,64.3661,33.1638],[24.4126,64.3652,45.3667],[24.4133,64.3697,42.5637],[24.434,64.3691,53.5191],[24.4347,64.3735,44.0623],[24.4451,64.3733,47.8173],[24.4458,64.3777,40.9235],[24.4562,64.3774,43.2988],[24.4569,64.3819,40.7613],[24.4672,64.3816,42.5686],[24.468,64.3861,40.5219],[24.4887,64.3855,54.6354],[24.4843,64.3586,46.6372],[24.474,64.3589,52.9143],[24.4747,64.3634,40.6853],[24.454,64.364,47.078],[24.4511,64.346,49.7403],[24.4925,64.3448,56.6538],[24.4932,64.3493,55.4374],[24.5346,64.3481,49.0895],[24.5353,64.3525,54.345],[24.525,64.3528,48.6136],[24.5279,64.3708,59.1727],[24.5486,64.3702,63.2895],[24.5494,64.3746,64.9627],[24.5597,64.3743,70.7075],[24.559,64.3698,60.5646],[24.5693,64.3695,59.7127],[24.5686,64.365,72.1846],[24.5789,64.3647,73.6947],[24.5782,64.3603,59.405],[24.5885,64.3599,62.7293],[24.59,64.3689,73.8386],[24.5797,64.3692,66.7398],[24.5812,64.3782,75.3289],[24.6122,64.3772,85.5072],[24.613,64.3817,88.6689],[24.6233,64.3814,86.9515],[24.6226,64.3769,89.5156],[24.664,64.3756,90.265],[24.6632,64.3712,92.7654],[24.6839,64.3705,89.8808],[24.6847,64.375,94.462],[24.695,64.3747,93.5491],[24.6935,64.3657,90.3236],[24.6832,64.3661,84.6161],[24.6817,64.3571,90.67],[24.7023,64.3564,94.3437],[24.7031,64.3609,103.1214],[24.7238,64.3603,97.4387],[24.7246,64.3648,96.8139],[24.7349,64.3644,94.3961],[24.7365,64.3734,98.1163],[24.7779,64.3721,107.0988],[24.7786,64.3766,109.6118],[24.7993,64.3759,103.3599],[24.8009,64.3849,102.4956],[24.8112,64.3845,105.5989],[24.812,64.389,103.763],[24.8224,64.3887,112.3369],[24.8232,64.3932,106.4021],[24.8335,64.3928,105.9988],[24.832,64.3839,108.0004],[24.8734,64.3825,120.1567]]],
[[[24.3964,64.6734,3.0869],[24.3984,64.6713,5.7701],[24.4016,64.6713,7.5277],[24.4005,64.6745,10.636],[24.4036,64.6787,11.3425],[24.3984,64.6787,9.582],[24.3964,64.6766,7.9922],[24.3964,64.6734,3.0869]]],
[[[25.464,64.3668,93.0072],[25.4649,64.3713,94.8563],[25.4545,64.3717,93.8076],[25.4536,64.3672,93.4317],[25.464,64.3668,93.0072]]],
[[[24.4214,64.6797,0.0],[24.4286,64.6797,0.0],[24.4307,64.6828,1.8909],[24.4234,64.6828,6.9122],[24.4214,64.6797,0.0]]]]}}