{"type": "Feature","bbox": [29.13042521489038,65.884692712682323,29.98702482484353,66.012446743857453],"geometry": {"type": "Polygon","coordinates": [[[29.631432959268466,65.90529820158153,278.4597],[29.535470253823547,65.903826380945873,272.3449],[29.508094390000309,65.912068576505561,260.26],[29.535470253823547,65.921782592700907,263.1828],[29.631432959268466,65.912068576505561,252.9733],[29.723568931060669,65.917661494921049,253.1646],[29.766840457749026,65.90529820158153,252.948],[29.784207941249804,65.90353201681873,252.8735],[29.801575424750581,65.90441510920013,252.9945],[29.812761261581585,65.908536206979988,257.1549],[29.821886549522645,65.90941929936136,259.8665],[29.891650847652869,65.886753261572238,259.3169],[29.98702482484353,65.884692712682323,252.8662],[29.973484074995469,65.889696902843554,256.6812],[29.930801276561368,65.8967616418947,261.9774],[29.8948888530513,65.910302391742761,254.3067],[29.754771528536651,65.930907880642,265.239],[29.740053322180046,65.936500799057484,264.8937],[29.7338716755103,65.942976809854372,252.9792],[29.727690028840527,65.947392271761373,269.1391],[29.698842344381632,65.952985190176861,258.2426],[29.672055208812651,65.965348483516379,262.3392],[29.62348512783592,65.971530130186153,257.9997],[29.60346836719097,65.980949782254356,253.0991],[29.754771528536651,65.966525940024923,257.2259],[29.730633670111843,65.973590679076068,258.9641],[29.701785985652947,65.975062499711726,270.9101],[29.675881942465338,65.979183597491584,253.0121],[29.658808823091704,65.993901803848161,253.7353],[29.7747882891816,65.984187787652814,252.5012],[29.809523256183127,65.993901803848161,252.7362],[29.774199560927315,66.007736917823365,252.8533],[29.739464593925788,66.012446743857453,263.046],[29.589044524961508,66.005970733060565,260.027],[29.554015193832839,66.000083450517934,257.5309],[29.521635139848343,65.980949782254356,263.7265],[29.531643520170832,65.981832874635757,253.7179],[29.540180079857663,65.9803610540001,259.5651],[29.556370106849897,65.974179407330354,262.5157],[29.542240628747578,65.959755565100892,260.8607],[29.532232248425089,65.94621481525283,269.9634],[29.520163319212685,65.936500799057484,264.2163],[29.484250895702644,65.930613516514853,291.1331],[29.471004509981697,65.92531496222648,271.0366],[29.459524309023578,65.917661494921049,260.1801],[29.449810292828232,65.908536206979988,266.2881],[29.43038226043754,65.900882739674557,258.8635],[29.405950037885617,65.903826380945873,256.6073],[29.303216957516668,65.935912070803226,266.5003],[29.288204387032948,65.946803543507087,252.5991],[29.335302647374021,65.952985190176861,284.4383],[29.335302647374021,65.960638657482292,286.9611],[29.300273316245352,65.96711466827918,270.3686],[29.2255048279539,65.9709414019319,266.7285],[29.192536045715144,65.980949782254356,255.7736],[29.176934746977167,65.9830103311443,265.6381],[29.165160181891906,65.9812441463815,265.8333],[29.160155991730676,65.975945592093126,252.6032],[29.164865817764763,65.966525940024923,265.8075],[29.174579833960109,65.960049929228035,256.1592],[29.201955697783347,65.952102097795461,252.9807],[29.213730262868637,65.946803543507087,253.3066],[29.197834600003517,65.940916260964457,258.5724],[29.13042521489038,65.946803543507087,265.0876],[29.145143421246956,65.9394444403288,272.7697],[29.182233301265541,65.927669875243538,266.4654],[29.214613355250037,65.923548777463708,264.5771],[29.241694854946132,65.914129125395476,253.2085],[29.285555109888747,65.907653114598588,252.437],[29.349726489603455,65.8891081745893,252.5671],[29.383872728350724,65.884692712682323,266.5973],[29.572854497969274,65.8864588974451,252.9831],[29.631432959268466,65.898233462530357,264.8268],[29.631432959268466,65.90529820158153,278.4597]]]}
,"properties": {"featurecla": "Lake","scalerank": 9,"name": "null533","name_abb": null,"name_alt": null,"note": "_untitled_210","delta": null,"dam_name": null,"year": -99,"admin": null,"min_zoom": 7.0,"min_label": 8.0,"area_km2": 187.666,"hist_schema_id": "Elevation0-9000","hist_area_km2": {"250": 159.0269,"275": 28.0871,"300": 0.509,"325": 0.0431}}}