{"type": "Feature","id": 20508.0,"bbox": [28.616221550396233,65.456305242962827,28.816172722271233,65.493963934369077],"geometry": {"type": "Polygon","coordinates": [[[28.616221550396233,65.476080633587827,223.5],[28.616221550396233,65.476080633587827,223.5],[28.620860222271233,65.462042547650327,223.5],[28.643321159771233,65.456305242962827,223.5],[28.671153191021233,65.456305242962827,223.5],[28.685191276958733,65.460211492962827,235.1714],[28.698008659771233,65.461127020306577,223.5],[28.708628776958733,65.463568426556577,223.5],[28.723521355083733,65.470221258587827,223.5],[28.742686394146233,65.476324774212827,223.5],[28.778208855083733,65.477240301556577,223.5],[28.816172722271233,65.481817938275327,223.5],[28.796153191021233,65.489691473431577,229.9628],[28.769786003521233,65.490301824994077,251.2511],[28.732920769146233,65.493963934369077,231.7123],[28.673594597271233,65.489386297650327,226.7986],[28.634776237896233,65.483343817181577,239.9307],[28.616221550396233,65.476080633587827,223.5]]]}
,"properties": {"name": "Tyrjrvi","lge_id": null,"pfafstette": 943.0,"lke_type": "N","altitude": 224,"objectid": 12167,"scalerank": 12,"featurecla": "Lake","note": null,"funkyname": 0,"min_zoom": 7.0,"min_label": 8.0,"area_km2": 21.2085,"hist_schema_id": "Elevation0-9000","hist_area_km2": {"225": 19.02688,"250": 1.92655,"275": 0.25507}}}