{"type": "Feature","bbox": [20.5512,66.9393,26.0117,69.312],"geometry": {"type": "MultiPolygon","coordinates": [[[[24.7483,67.1459,207.7929],[24.7368,67.1462,232.7808],[24.7377,67.1507,273.8896],[24.7492,67.1503,192.2935],[24.7501,67.1548,172.0204],[24.7616,67.1545,171.8977],[24.7624,67.159,171.6657],[24.7855,67.1583,173.5356],[24.7864,67.1628,188.3207],[24.7979,67.1625,169.7787],[24.7988,67.167,172.1559],[24.8218,67.1663,186.4997],[24.8227,67.1708,195.7262],[24.8457,67.1701,160.5304],[24.8466,67.1746,157.3983],[24.8581,67.1743,148.8615],[24.859,67.1787,146.1364],[24.9051,67.1774,168.9294],[24.9042,67.1729,164.6949],[24.9158,67.1726,158.6099],[24.9167,67.1771,162.8857],[24.9397,67.1764,156.1303],[24.9406,67.1809,166.848],[24.9522,67.1805,178.9083],[24.9531,67.185,172.316],[24.9646,67.1847,173.1592],[24.9637,67.1802,188.4729],[24.9867,67.1795,174.516],[24.9849,67.1705,173.4617],[25.077,67.1677,177.3503],[25.0761,67.1633,172.6328],[25.2603,67.1575,178.1867],[25.2594,67.1531,171.11],[25.3514,67.1501,285.8279],[25.3534,67.1591,218.8517],[25.3649,67.1587,221.4106],[25.3688,67.1766,211.3307],[25.3804,67.1763,211.8341],[25.3843,67.1942,214.177],[25.3958,67.1938,217.7688],[25.3998,67.2118,224.3729],[25.4114,67.2114,216.8624],[25.4154,67.2293,209.9295],[25.4269,67.2289,194.9723],[25.4309,67.2469,190.2194],[25.4424,67.2465,195.6794],[25.4465,67.2644,201.0568],[25.458,67.2641,201.7458],[25.46,67.273,190.8294],[25.4485,67.2734,192.8639],[25.4495,67.2779,193.6893],[25.403199999999998,67.2794,198.581],[25.4052,67.2884,198.2445],[25.3937,67.2887,200.0924],[25.3946,67.2932,198.012],[25.3831,67.2936,204.25],[25.3841,67.2981,199.0284],[25.3957,67.2977,199.0606],[25.3976,67.3067,205.1612],[25.4092,67.3063,207.4546],[25.4122,67.3197,213.985],[25.4354,67.319,223.1869],[25.4344,67.3145,209.0013],[25.446,67.3141,217.5519],[25.444,67.3052,199.3606],[25.4555,67.3048,200.7149],[25.4545,67.3003,204.9386],[25.4661,67.2999,193.3663],[25.4671,67.3044,197.5731],[25.4903,67.3036,195.2288],[25.4913,67.3081,202.3333],[25.5029,67.3077,198.7831],[25.5049,67.3167,228.8467],[25.4933,67.3171,210.5082],[25.4943,67.3216,215.1448],[25.4827,67.322,211.6225],[25.4838,67.3264,202.8561],[25.4722,67.3268,210.5167],[25.4732,67.3313,205.356],[25.4616,67.3317,208.519],[25.4626,67.3362,209.1418],[25.4742,67.3358,208.1331],[25.4752,67.3403,205.3244],[25.4868,67.3399,196.3519],[25.4878,67.3444,196.2337],[25.511,67.3436,199.0638],[25.51,67.3391,196.805],[25.5216,67.3388,196.3643],[25.5206,67.3343,194.1],[25.5322,67.3339,195.1303],[25.5311,67.3294,193.6922],[25.5427,67.329,193.3125],[25.5417,67.3245,193.1043],[25.5533,67.3242,193.024],[25.5543,67.3286,193.2313],[25.5659,67.3282,192.4438],[25.5669,67.3327,193.8866],[25.5785,67.3323,195.1332],[25.5806,67.3413,198.492],[25.5922,67.3409,192.4998],[25.5932,67.3454,191.8769],[25.6048,67.345,192.6594],[25.6059,67.3495,192.718],[25.6174,67.3491,193.9642],[25.6206,67.3626,192.4692],[25.609,67.363,201.7404],[25.61,67.3674,192.1156],[25.5868,67.3682,199.7937],[25.5899,67.3817,207.0044],[25.6015,67.3813,195.53],[25.6026,67.3857,197.0331],[25.6142,67.3854,202.7677],[25.6131,67.3809,199.2454],[25.6248,67.3805,203.2522],[25.6227,67.3715,196.5958],[25.6343,67.3711,200.5331],[25.6332,67.3667,196.1996],[25.6448,67.3663,198.3255],[25.6469,67.3752,211.6362],[25.6585,67.3748,211.0681],[25.6596,67.3793,215.0769],[25.6712,67.3789,220.0288],[25.6733,67.3879,239.211],[25.6849,67.3875,221.568],[25.687,67.3965,222.7145],[25.6987,67.3961,210.944],[25.7008,67.405,210.231],[25.7124,67.4046,206.5449],[25.7134,67.4091,206.276],[25.7251,67.4087,205.4224],[25.7272,67.4177,204.6889],[25.7388,67.4173,205.5499],[25.741,67.4262,218.699],[25.7526,67.4258,218.0385],[25.7547,67.4348,234.074],[25.7664,67.4344,234.1096],[25.7675,67.4389,247.8263],[25.7558,67.4393,247.938],[25.7623,67.4662,265.0495],[25.7506,67.4666,307.3426],[25.756,67.489,223.8911],[25.7443,67.4894,221.957],[25.7508,67.5163,217.2334],[25.7391,67.5167,227.6614],[25.7509,67.566,204.0651],[25.7626,67.5656,213.1453],[25.7691,67.5925,229.3041],[25.7808,67.5921,236.5425],[25.7873,67.6189,247.2564],[25.7991,67.6186,251.8282],[25.8067,67.6499,304.1962],[25.8184,67.6495,311.7756],[25.825,67.6764,255.232],[25.8368,67.676,245.7427],[25.8434,67.7029,247.9836],[25.8551,67.7025,245.2381],[25.8618,67.7294,245.2715],[25.8736,67.729,234.5141],[25.8802,67.7559,314.8896],[25.892,67.7555,352.6748],[25.8998,67.7868,277.1357],[25.9116,67.7864,292.6765],[25.9184,67.8133,287.3802],[25.9302,67.8129,283.8891],[25.9369,67.8398,357.3041],[25.9488,67.8394,335.1958],[25.9556,67.8662,321.4718],[25.9674,67.8658,318.8049],[25.9742,67.8927,311.5051],[25.9861,67.8923,312.3052],[25.9941,67.9237,319.1879],[26.006,67.9233,332.4568],[26.0117,67.9457,334.3114],[25.9998,67.9461,328.0645],[26.0021,67.955,313.2693],[25.9902,67.9555,310.2464],[25.9936,67.9689,290.5943],[25.9817,67.9693,292.8784],[25.984,67.9783,287.2866],[25.9721,67.9787,293.8776],[25.9744,67.9877,286.6159],[25.9625,67.9881,290.6502],[25.9659,68.0015,293.3502],[25.954,68.0019,298.3007],[25.9563,68.0109,290.2508],[25.9444,68.0113,303.9821],[25.9478,68.0247,306.19],[25.9359,68.0252,290.7828],[25.9382,68.0341,264.0997],[25.9262,68.0345,249.452],[25.9285,68.0435,277.5576],[25.9166,68.0439,285.2207],[25.92,68.0574,277.8125],[25.908,68.0578,269.6816],[25.9103,68.0667,271.9051],[25.8984,68.0671,266.9809],[25.9018,68.0806,268.408],[25.8898,68.081,270.2269],[25.8921,68.09,272.3553],[25.8801,68.0904,277.6891],[25.8881,68.1217,271.4909],[25.9,68.1213,259.0255],[25.9114,68.1662,271.8912],[25.9234,68.1657,271.1215],[25.9337,68.2061,271.3593],[25.9457,68.2057,271.5479],[25.9573,68.2505,289.9424],[25.9693,68.2501,292.7162],[25.9763,68.277,312.0415],[25.928,68.2786,299.4037],[25.9292,68.2831,318.1141],[25.8086,68.2872,311.8892],[25.8097,68.2917,315.7392],[25.7012,68.2953,293.6084],[25.7023,68.2997,290.2843],[25.5815,68.3037,333.5294],[25.5826,68.3081,334.8946],[25.5102,68.3105,363.3719],[25.5112,68.3149,356.0829],[25.475,68.3161,315.7304],[25.4761,68.3206,318.6529],[25.4519,68.3213,296.9183],[25.453,68.3258,297.0134],[25.4167,68.327,294.0495],[25.4178,68.3314,295.0401],[25.3815,68.3326,297.2509],[25.3825,68.337,297.6339],[25.3462,68.3382,304.2686],[25.3473,68.3426,304.6169],[25.3231,68.3434,309.6117],[25.3241,68.3479,318.6069],[25.2878,68.349,345.6501],[25.2889,68.3535,362.14],[25.2526,68.3546,363.1591],[25.2536,68.359,335.6705],[25.2172,68.3602,330.4625],[25.2183,68.3646,317.9119],[25.194,68.3653,316.2126],[25.1951,68.3698,319.3322],[25.1587,68.3709,327.4531],[25.1597,68.3754,310.7981],[25.1234,68.3765,319.4259],[25.1244,68.381,316.7406],[25.088,68.382,316.4055],[25.089,68.3865,328.5369],[25.0648,68.3872,317.3995],[25.0658,68.3917,317.7343],[25.0294,68.3928,440.1878],[25.0313,68.4017,375.1724],[25.0192,68.4021,341.3489],[25.0212,68.4111,308.4306],[25.009,68.4114,324.3618],[25.012,68.4249,323.1542],[24.9998,68.4252,339.7886],[25.0027,68.4387,333.5278],[24.9906,68.439,334.9001],[24.9926,68.448,336.7209],[24.9804,68.4484,336.0751],[24.9833,68.4618,348.4266],[24.9712,68.4622,351.7521],[24.9741,68.4756,354.9347],[24.9619,68.476,368.9399],[24.9639,68.485,364.7626],[24.9517,68.4853,370.9266],[24.9546,68.4988,358.3702],[24.9424,68.4991,379.4007],[24.9453,68.5126,385.1248],[24.9331,68.5129,396.2228],[24.9351,68.5219,434.6874],[24.9229,68.5223,426.1594],[24.9258,68.5357,420.6112],[24.9136,68.5361,428.6677],[24.9165,68.5495,435.6157],[24.9043,68.5499,447.9538],[24.9052,68.5544,451.6836],[24.893,68.5547,443.7781],[24.894,68.5592,428.0472],[24.8573,68.5602,420.9944],[24.8592,68.5692,416.6869],[24.847,68.5695,443.6339],[24.8489,68.5785,411.9639],[24.8367,68.5788,406.3149],[24.8386,68.5878,412.2347],[24.8264,68.5882,422.2892],[24.8283,68.5972,448.8876],[24.816,68.5975,432.9262],[24.8179,68.6065,462.4196],[24.8057,68.6068,462.2125],[24.8085,68.6203,463.7836],[24.7963,68.6206,442.7121],[24.7982,68.6296,416.6801],[24.7859,68.6299,422.0557],[24.7878,68.6389,448.2789],[24.7633,68.6396,444.5705],[24.7642,68.6441,465.282],[24.7397,68.6447,454.3336],[24.7407,68.6492,466.4551],[24.7284,68.6495,466.7822],[24.7293,68.654,478.6878],[24.7048,68.6547,444.3962],[24.7057,68.6592,441.8086],[24.6812,68.6598,443.7035],[24.6821,68.6643,432.7781],[24.6698,68.6646,460.7995],[24.6707,68.6691,466.2991],[24.6462,68.6698,459.9382],[24.6471,68.6743,463.0152],[24.6225,68.6749,471.9975],[24.6234,68.6794,515.0132],[24.6112,68.6797,543.8445],[24.6121,68.6842,534.4789],[24.5629,68.6855,478.0077],[24.5638,68.69,470.6328],[24.5146,68.6912,497.9182],[24.5155,68.6957,490.5174],[24.4663,68.697,485.7306],[24.4672,68.7015,486.1322],[24.418,68.7027,510.7532],[24.4189,68.7072,542.0208],[24.3574,68.7087,500.7141],[24.3582,68.7132,517.8718],[24.309,68.7144,492.3941],[24.3099,68.7189,488.3199],[24.2729,68.7198,518.7593],[24.2738,68.7243,520.9939],[24.2491,68.7249,525.2648],[24.25,68.7294,520.2943],[24.2377,68.7297,520.5958],[24.2385,68.7342,523.8423],[24.2262,68.7345,520.4798],[24.227,68.739,520.9219],[24.2147,68.7393,513.673],[24.2155,68.7438,494.4451],[24.2032,68.7441,491.3459],[24.2041,68.7486,501.3169],[24.1671,68.7494,543.1388],[24.1679,68.7539,547.2471],[24.1556,68.7542,547.1865],[24.1622,68.7902,554.0282],[24.1498,68.7905,532.1158],[24.149,68.786,570.0256],[24.112,68.7868,493.39],[24.1111,68.7823,507.0219],[24.0864,68.7829,498.9732],[24.0856,68.7784,499.7907],[24.0733,68.7787,526.2216],[24.0741,68.7832,496.6354],[24.0617,68.7835,469.3679],[24.0626,68.788,464.7774],[24.0502,68.7882,461.5536],[24.0518,68.7972,462.7772],[24.0395,68.7975,454.7008],[24.0403,68.802,458.8328],[24.0279,68.8023,464.2035],[24.0287,68.8068,463.3223],[24.0163,68.8071,466.9698],[24.0171,68.8116,487.4424],[24.0048,68.8118,484.7618],[24.0064,68.8208,483.4392],[23.994,68.8211,485.6358],[23.9948,68.8256,497.4798],[23.97,68.8262,509.7459],[23.9708,68.8307,502.8751],[23.8966,68.8323,538.2209],[23.8974,68.8368,536.3382],[23.8602,68.8376,559.5446],[23.8594,68.8331,554.4095],[23.8471,68.8334,528.0889],[23.8463,68.8289,526.3563],[23.8215,68.8294,532.5735],[23.8208,68.8249,559.9033],[23.796,68.8254,561.0143],[23.7953,68.821,540.53],[23.7829,68.8212,567.6332],[23.7821,68.8167,570.1454],[23.7697,68.817,556.2866],[23.7652,68.79,462.8871],[23.7529,68.7903,485.6796],[23.7491,68.7678,470.3192],[23.7368,68.768,439.0074],[23.7331,68.7456,431.2194],[23.7208,68.7458,434.888],[23.7193,68.7368,438.0837],[23.7069,68.7371,436.055],[23.7047,68.7236,469.616],[23.6924,68.7239,464.6814],[23.6909,68.7149,494.7085],[23.6786,68.7151,501.937],[23.6772,68.7061,605.9448],[23.6525,68.7066,466.1241],[23.6518,68.7021,490.7934],[23.5903,68.7034,390.4972],[23.5895,68.6989,391.0492],[23.5403,68.6999,430.2877],[23.5396,68.6954,437.1291],[23.478,68.6966,478.6731],[23.4774,68.6921,481.502],[23.4404,68.6928,543.2947],[23.4398,68.6883,517.9201],[23.4151,68.6888,493.1313],[23.4145,68.6843,464.0351],[23.4022,68.6846,471.6602],[23.4015,68.6801,473.6044],[23.3769,68.6805,416.068],[23.3762,68.676,417.1746],[23.3639,68.6763,393.3571],[23.3633,68.6718,396.2098],[23.351,68.672,390.5837],[23.3503,68.6675,391.3599],[23.3257,68.668,390.951],[23.325,68.6635,385.6566],[23.3127,68.6637,389.598],[23.3121,68.6592,389.6261],[23.2875,68.6597,398.624],[23.2869,68.6552,411.8616],[23.2746,68.6554,407.152],[23.2739,68.6509,416.5294],[23.2616,68.6511,421.9031],[23.261,68.6466,436.9844],[23.2364,68.6471,462.0379],[23.2358,68.6426,479.8885],[23.2235,68.6428,461.1844],[23.2229,68.6383,470.0226],[23.1983,68.6387,423.0685],[23.1977,68.6343,420.1138],[23.1854,68.6345,416.2874],[23.1848,68.63,413.2708],[23.1602,68.6304,447.106],[23.1608,68.6349,446.5338],[23.1485,68.6351,439.3016],[23.1492,68.6396,448.0087],[23.1369,68.6399,440.5709],[23.1381,68.6488,474.6983],[23.1258,68.6491,453.6664],[23.1265,68.6536,463.3104],[23.1142,68.6538,471.74],[23.1148,68.6583,484.5179],[23.1025,68.6585,519.9611],[23.1031,68.663,519.1693],[23.0908,68.6632,519.725],[23.092,68.6722,491.3994],[23.0797,68.6724,471.8192],[23.0804,68.6769,469.6552],[23.0681,68.6771,482.7978],[23.0687,68.6816,481.8907],[23.0564,68.6818,484.4069],[23.057,68.6863,472.7489],[23.0446,68.6866,450.7781],[23.0453,68.6911,442.8337],[23.0206,68.6915,462.7276],[23.02,68.687,466.8903],[22.8354,68.69,524.9069],[22.8348,68.6855,534.9393],[22.7979,68.6861,545.234],[22.7985,68.6906,560.2258],[22.7738,68.691,497.8626],[22.7744,68.6955,506.6158],[22.7497,68.6959,525.4175],[22.7503,68.7004,519.4904],[22.7257,68.7008,519.8923],[22.7262,68.7053,515.5199],[22.7139,68.7055,503.064],[22.7144,68.71,497.2245],[22.6898,68.7103,517.1368],[22.6903,68.7148,519.8711],[22.6656,68.7152,511.9305],[22.6662,68.7197,506.4221],[22.6415,68.7201,544.5171],[22.642,68.7246,547.4612],[22.6174,68.7249,507.3158],[22.6179,68.7295,513.232],[22.5932,68.7298,535.5309],[22.5937,68.7343,514.1178],[22.5691,68.7347,551.9204],[22.5696,68.7392,531.3859],[22.5449,68.7395,629.3572],[22.5454,68.744,634.6755],[22.5207,68.7444,559.2258],[22.5202,68.7399,556.7226],[22.4955,68.7402,507.2234],[22.495,68.7357,495.4232],[22.4704,68.7361,467.0662],[22.4699,68.7316,465.5658],[22.4575,68.7317,463.2666],[22.457,68.7272,464.2765],[22.4324,68.7276,480.6995],[22.4319,68.7231,470.3172],[22.4072,68.7234,547.4531],[22.4067,68.7189,523.6049],[22.3697,68.7194,511.2432],[22.3726,68.7464,450.0045],[22.3602,68.7466,450.5992],[22.3635,68.7781,480.4965],[22.3512,68.7783,491.0353],[22.3544,68.8098,559.8828],[22.3421,68.8099,546.4083],[22.3439,68.8279,557.6458],[22.3315,68.8281,553.7775],[22.3325,68.8371,500.4983],[22.3201,68.8373,502.0503],[22.321,68.8463,463.8087],[22.3086,68.8464,452.3438],[22.3091,68.8509,442.0574],[22.2967,68.8511,437.9867],[22.2976,68.8601,439.1994],[22.2852,68.8603,438.0934],[22.2856,68.8648,441.4763],[22.2732,68.8649,440.1487],[22.2741,68.8739,447.4963],[22.2617,68.8741,458.0697],[22.2622,68.8786,454.0361],[22.2498,68.8787,459.1451],[22.2507,68.8877,446.8274],[22.2382,68.8879,449.5329],[22.2387,68.8924,449.538],[22.2263,68.8926,449.957],[22.2271,68.9016,451.8564],[22.2147,68.9017,452.78],[22.2156,68.9107,484.6047],[22.2032,68.9109,482.6602],[22.2036,68.9154,483.1896],[22.1912,68.9155,479.9678],[22.1929,68.9335,490.5839],[22.1805,68.9337,465.0471],[22.1827,68.9562,477.6848],[22.1702,68.9563,491.8851],[22.1711,68.9654,523.9467],[22.1586,68.9655,518.6743],[22.1591,68.97,512.2907],[22.1466,68.9702,503.6207],[22.1474,68.9792,493.1022],[22.135,68.9793,487.829],[22.1354,68.9838,484.1666],[22.1229,68.984,478.7684],[22.1238,68.993,513.2852],[22.1113,68.9931,502.5835],[22.1117,68.9976,515.8221],[22.0992,68.9978,504.6718],[22.1001,69.0068,518.7198],[22.0876,69.0069,505.5298],[22.0884,69.0159,522.0393],[22.0759,69.0161,516.8133],[22.0764,69.0206,524.7288],[22.0639,69.0207,509.9938],[22.0647,69.0297,518.3388],[22.0522,69.0299,523.2491],[22.0526,69.0344,527.1509],[22.0401,69.0345,522.5075],[22.0409,69.0435,536.0354],[22.0284,69.0437,538.1774],[22.0288,69.0482,552.1613],[22.0163,69.0483,566.996],[22.0171,69.0573,581.9859],[22.0046,69.0575,581.892],[22.005,69.062,580.7628],[21.9925,69.0621,529.3469],[21.9933,69.0711,544.0618],[21.9808,69.0712,509.186],[21.9812,69.0757,520.722],[21.9686,69.0759,540.2414],[21.9694,69.0849,533.1612],[21.9569,69.085,537.8456],[21.9573,69.0895,547.7474],[21.9447,69.0897,542.4377],[21.9455,69.0987,573.2578],[21.933,69.0988,568.4291],[21.9334,69.1033,572.2859],[21.9208,69.1034,562.1171],[21.9212,69.1079,577.0891],[21.9087,69.1081,568.6722],[21.9095,69.1171,600.5909],[21.8969,69.1172,595.9044],[21.8973,69.1217,609.4367],[21.8847,69.1218,612.6068],[21.8851,69.1264,627.1935],[21.8725,69.1265,641.8426],[21.8733,69.1355,659.5772],[21.8607,69.1356,720.6618],[21.8611,69.1401,719.6119],[21.8486,69.1403,831.623],[21.8489,69.1448,816.9593],[21.8364,69.1449,791.7307],[21.8371,69.1539,688.5536],[21.8245,69.154,688.3115],[21.8249,69.1585,699.5981],[21.8123,69.1587,689.0745],[21.8131,69.1677,700.8851],[21.8005,69.1678,696.0851],[21.8008,69.1723,700.1516],[21.7883,69.1724,703.4584],[21.789,69.1814,677.2772],[21.7764,69.1815,672.3198],[21.7768,69.186,681.0673],[21.7642,69.1862,708.4999],[21.7649,69.1952,736.7465],[21.7523,69.1953,742.7271],[21.7526,69.1998,761.0975],[21.74,69.1999,789.1418],[21.7407,69.2089,815.7387],[21.7281,69.2091,850.2076],[21.7285,69.2136,846.5384],[21.7159,69.2137,863.6526],[21.7166,69.2227,815.8248],[21.704,69.2228,774.8307],[21.7047,69.2318,745.5139],[21.692,69.2319,780.0779],[21.6927,69.2409,792.3289],[21.6801,69.2411,821.9437],[21.6804,69.2456,799.8463],[21.6678,69.2457,793.3778],[21.6685,69.2547,758.182],[21.6559,69.2548,782.7991],[21.6565,69.2638,759.8638],[21.6439,69.2639,766.5785],[21.6442,69.2684,758.2692],[21.6316,69.2685,785.3088],[21.6323,69.2775,825.2894],[21.5943,69.2779,823.9485],[21.5946,69.2824,852.7195],[21.544,69.2828,731.8106],[21.5444,69.2873,733.8489],[21.4937,69.2878,768.2079],[21.494,69.2923,774.6151],[21.4434,69.2927,830.6019],[21.4437,69.2972,826.0292],[21.3931,69.2976,945.6202],[21.3934,69.3021,909.471],[21.3427,69.3025,1166.5476],[21.343,69.307,1105.0581],[21.305,69.3073,1134.0852],[21.3053,69.3118,1147.0853],[21.2672,69.312,1306.4398],[21.267,69.3075,1303.5355],[21.2543,69.3076,1257.6381],[21.2541,69.3031,1118.6597],[21.2414,69.3032,1199.9213],[21.2411,69.2987,1039.7278],[21.2285,69.2988,1152.0135],[21.2282,69.2943,1091.3959],[21.2156,69.2943,1223.9855],[21.2153,69.2898,1263.3851],[21.19,69.29,1150.7333],[21.1898,69.2855,1125.254],[21.1771,69.2856,1095.8744],[21.1769,69.2811,1036.8333],[21.1642,69.2812,961.7778],[21.164,69.2767,934.2391],[21.1513,69.2767,918.5667],[21.1511,69.2722,880.6643],[21.1258,69.2724,891.3058],[21.1256,69.2679,941.1849],[21.1129,69.268,990.8972],[21.1127,69.2635,916.9417],[21.1001,69.2635,1023.1037],[21.0998,69.259,1067.7389],[21.0872,69.2591,1042.4114],[21.087,69.2546,1002.8107],[21.0743,69.2547,1024.9246],[21.0741,69.2502,1023.2961],[21.0615,69.2502,1033.1327],[21.061,69.2412,1024.8405],[21.0484,69.2413,1091.1934],[21.0482,69.2368,1115.8497],[21.0356,69.2369,1111.0873],[21.0353,69.2324,1149.5054],[21.0227,69.2324,1137.5645],[21.0225,69.2279,1116.4152],[21.0099,69.228,1097.6331],[21.0097,69.2235,1057.7665],[20.9971,69.2236,1045.8984],[20.9953,69.183,894.2192],[21.0078,69.183,953.2591],[21.0072,69.1694,1033.6797],[21.0198,69.1694,1019.3829],[21.0194,69.1604,1004.7874],[21.032,69.1603,1051.4921],[21.0314,69.1468,1081.1412],[21.0439,69.1467,1085.5966],[21.0435,69.1377,1106.8059],[21.0561,69.1376,1089.8979],[21.0552,69.1196,1022.7647],[21.0678,69.1195,991.2331],[21.0676,69.115,969.5274],[21.0801,69.1149,893.3623],[21.0799,69.1104,856.2541],[21.0925,69.1104,861.8699],[21.0922,69.1059,940.1539],[21.1048,69.1058,1034.6858],[21.1039,69.0878,818.0342],[21.0914,69.0878,792.4288],[21.0905,69.0698,696.2479],[21.0779,69.0699,731.4641],[21.0771,69.0519,706.0441],[21.0645,69.0519,679.5],[21.0639,69.0384,785.0769],[21.0389,69.0386,759.7165],[21.0391,69.0431,726.1335],[21.014,69.0432,676.8523],[21.0142,69.0477,663.5],[21.0017,69.0478,678.0771],[21.0019,69.0523,678.4123],[20.9769,69.0524,690.2997],[20.9771,69.057,696.2574],[20.9646,69.057,672.3357],[20.9648,69.0615,640.7517],[20.9397,69.0617,722.0352],[20.9399,69.0662,663.6799],[20.9274,69.0662,760.8344],[20.9275,69.0707,652.4761],[20.9025,69.0709,883.1971],[20.9027,69.0754,736.0942],[20.8901,69.0754,879.3511],[20.8903,69.0799,722.719],[20.8652,69.0801,809.8382],[20.8654,69.0846,717.8851],[20.8529,69.0846,815.5316],[20.853,69.0891,665.2923],[20.828,69.0892,894.881],[20.8281,69.0937,732.3169],[20.8156,69.0938,712.4633],[20.8157,69.0983,571.9984],[20.7906,69.0984,571.1913],[20.7908,69.1029,524.7098],[20.7783,69.103,550.8206],[20.7784,69.1075,518.8807],[20.7533,69.1076,524.7737],[20.7535,69.1121,520.4591],[20.7409,69.1121,540.984],[20.741,69.1167,549.9059],[20.7285,69.1167,560.2475],[20.7286,69.1212,584.3632],[20.7161,69.1213,624.0863],[20.7159,69.1168,577.1877],[20.7034,69.1168,633.7953],[20.7032,69.1123,625.9036],[20.6907,69.1124,569.9324],[20.6905,69.1078,597.0783],[20.678,69.1079,749.0586],[20.6778,69.1034,745.4625],[20.6653,69.1034,945.4185],[20.6652,69.0989,893.8363],[20.6526,69.099,834.8038],[20.6525,69.0945,776.0],[20.6399,69.0945,827.9564],[20.6398,69.09,874.7354],[20.6273,69.09,878.1827],[20.6271,69.0855,890.5649],[20.6146,69.0856,868.2986],[20.6145,69.0811,810.5477],[20.6019,69.0811,763.793],[20.6018,69.0766,737.399],[20.5893,69.0767,782.0168],[20.5891,69.0722,664.4579],[20.5766,69.0722,597.391],[20.5765,69.0677,531.3292],[20.564,69.0677,512.3624],[20.5638,69.0632,509.1411],[20.5513,69.0633,511.858],[20.5512,69.0588,490.0711],[20.5637,69.0587,498.6212],[20.5636,69.0542,493.8666],[20.5887,69.0541,488.6481],[20.5886,69.0496,489.2299],[20.6011,69.0496,477.8069],[20.601,69.0451,486.1434],[20.6135,69.045,478.2228],[20.6133,69.0405,529.1228],[20.6384,69.0405,494.7546],[20.6382,69.0359,585.6893],[20.7384,69.0356,473.0],[20.7382,69.0311,473.0],[20.7757,69.0309,473.0],[20.7756,69.0264,473.0],[20.8006,69.0263,473.0],[20.8004,69.0218,473.0],[20.8129,69.0217,473.0],[20.8126,69.0127,473.0],[20.8251,69.0127,473.0],[20.8249,69.0081,473.0],[20.8374,69.0081,473.0],[20.8371,68.9991,473.0],[20.8496,68.999,548.3323],[20.8493,68.99,478.4709],[20.8617,68.99,472.6457],[20.8616,68.9855,472.4336],[20.8865,68.9853,472.6045],[20.8864,68.9808,472.5514],[20.8988,68.9808,472.7975],[20.8987,68.9763,472.6152],[20.9111,68.9762,472.8021],[20.9108,68.9672,472.8265],[20.9233,68.9671,472.5158],[20.9223,68.9446,510.9288],[20.9099,68.9447,474.578],[20.9095,68.9357,472.9466],[20.8721,68.9358,495.2351],[20.8714,68.9178,459.3502],[20.8839,68.9178,460.8638],[20.8837,68.9133,460.2425],[20.8961,68.9132,463.4543],[20.8958,68.9042,460.3655],[20.9082,68.9041,478.7866],[20.9077,68.8906,458.0963],[20.9201,68.8905,459.2021],[20.9199,68.886,461.588],[20.9323,68.886,459.4669],[20.9327,68.895,460.0312],[20.9576,68.8949,458.5],[20.9574,68.8903,461.4103],[20.9823,68.8902,458.0],[20.9821,68.8857,459.7529],[20.9945,68.8856,459.521],[20.9943,68.8811,460.1455],[21.0191,68.881,460.8082],[21.0193,68.8855,458.0],[21.0442,68.8854,460.1127],[21.0438,68.8763,460.0693],[21.0562,68.8763,461.4758],[21.0558,68.8673,481.7611],[21.0806,68.8671,455.6365],[21.0804,68.8626,457.0832],[21.0928,68.8625,450.995],[21.0926,68.858,450.0095],[21.105,68.858,457.3532],[21.1048,68.8534,462.9623],[21.1296,68.8533,447.0],[21.1295,68.8488,447.0],[21.1418,68.8487,447.0],[21.1416,68.8442,447.491],[21.154,68.8441,449.3384],[21.1538,68.8396,447.7533],[21.1662,68.8395,455.1982],[21.1657,68.8305,454.0375],[21.1781,68.8305,445.0],[21.1779,68.826,445.0],[21.1903,68.8259,446.9962],[21.19,68.8214,446.6688],[21.2024,68.8213,445.5023],[21.2022,68.8168,454.9754],[21.2146,68.8167,441.0],[21.2143,68.8122,446.6745],[21.2267,68.8121,443.6609],[21.2265,68.8076,462.0183],[21.2512,68.8074,444.871],[21.251,68.8029,442.1076],[21.2634,68.8028,447.8838],[21.2629,68.7938,442.4168],[21.2752,68.7937,459.655],[21.2747,68.7847,447.5837],[21.2871,68.7846,456.8697],[21.2863,68.7711,439.0],[21.2987,68.771,467.129],[21.2984,68.7665,446.6331],[21.3108,68.7664,473.5141],[21.3105,68.7619,444.1324],[21.3229,68.7619,452.638],[21.3226,68.7573,443.8081],[21.3597,68.7571,493.9232],[21.36,68.7616,436.7517],[21.3723,68.7615,441.1366],[21.3721,68.757,537.7341],[21.3968,68.7568,414.3223],[21.3965,68.7523,423.06],[21.4089,68.7522,416.8462],[21.4074,68.7297,406.381],[21.4198,68.7296,416.3043],[21.4178,68.698,408.8442],[21.4301,68.6979,407.596],[21.4293,68.6844,433.0135],[21.4539,68.6842,411.8131],[21.4536,68.6797,423.4313],[21.466,68.6796,413.0705],[21.465699999999998,68.6751,433.8957],[21.4903,68.6749,414.7945],[21.49,68.6704,438.7689],[21.5885,68.6696,398.3773],[21.5881,68.6651,398.741],[21.6005,68.6649,398.5782],[21.6001,68.6605,399.0011],[21.6247,68.6602,400.5604],[21.6244,68.6557,397.4809],[21.6367,68.6556,400.4445],[21.6364,68.6511,405.0434],[21.6487,68.651,397.6391],[21.6484,68.6465,398.4809],[21.673,68.6463,401.6912],[21.6723,68.6373,396.7693],[21.6846,68.6371,398.7253],[21.6843,68.6326,399.8524],[21.6965,68.6325,396.7141],[21.6959,68.6235,403.3164],[21.7082,68.6234,397.1372],[21.7078,68.6189,393.5863],[21.7201,68.6188,399.547],[21.7198,68.6143,402.1761],[21.7075,68.6144,388.9847],[21.7055,68.5874,399.8045],[21.73,68.5871,389.3864],[21.7296,68.5826,391.2857],[21.7787,68.5821,389.5736],[21.7783,68.5776,399.6075],[21.8029,68.5774,395.9414],[21.8032,68.5819,393.8772],[21.84,68.5815,381.8152],[21.8403,68.586,379.783],[21.8526,68.5859,378.8572],[21.8522,68.5814,381.8035],[21.8768,68.5811,374.2893],[21.8764,68.5766,379.8076],[21.9009,68.5764,371.0801],[21.9005,68.5719,371.395],[21.9128,68.5717,369.4123],[21.9124,68.5672,369.2744],[21.9247,68.5671,369.752],[21.9243,68.5626,370.3479],[21.9365,68.5625,368.2169],[21.9362,68.558,369.8914],[21.9484,68.5578,369.6151],[21.948,68.5533,369.4916],[21.9603,68.5532,368.1211],[21.9599,68.5487,369.7353],[21.9721,68.5485,369.1689],[21.9717,68.544,368.8466],[21.984,68.5439,370.0946],[21.9836,68.5394,367.8161],[21.9958,68.5393,368.4802],[21.9946,68.5258,368.057],[22.0069,68.5256,368.0468],[22.0057,68.5121,367.4895],[22.0179,68.512,367.6564],[22.0167,68.4985,367.417],[22.0289,68.4983,387.5701],[22.0281,68.4893,363.1912],[22.0403,68.4892,384.3172],[22.0399,68.4847,366.8608],[22.0521,68.4845,368.0771],[22.0517,68.48,362.5939],[22.0639,68.4799,358.0544],[22.0635,68.4754,365.2834],[22.1367,68.4745,350.257],[22.1363,68.47,345.6238],[22.1485,68.4699,342.7111],[22.1481,68.4654,341.0883],[22.1847,68.4649,337.8072],[22.1851,68.4694,336.6745],[22.1973,68.4693,335.2028],[22.1977,68.4738,333.2338],[22.2221,68.4735,330.2051],[22.2217,68.469,335.3572],[22.2583,68.4685,332.4907],[22.2587,68.473,332.1644],[22.3075,68.4724,330.4413],[22.308,68.4769,331.5787],[22.3446,68.4764,331.178],[22.3441,68.4719,327.4011],[22.3685,68.4715,329.5463],[22.3653,68.44,331.2643],[22.3775,68.4399,329.5983],[22.3779,68.4444,328.9377],[22.3901,68.4442,330.1963],[22.3906,68.4487,326.3147],[22.4028,68.4485,328.9542],[22.403199999999998,68.453,324.1342],[22.4154,68.4529,325.1062],[22.4159,68.4574,323.7476],[22.4403,68.457,324.0007],[22.4398,68.4526,322.3167],[22.452,68.4524,320.3064],[22.4515,68.4479,323.1734],[22.4637,68.4477,322.9924],[22.4632,68.4432,320.6759],[22.4754,68.443,322.242],[22.4749,68.4385,320.9262],[22.4871,68.4384,324.6479],[22.4866,68.4339,320.4066],[22.5231,68.4333,323.3985],[22.5226,68.4288,324.1596],[22.547,68.4285,326.9265],[22.5465,68.424,328.1529],[22.583,68.4234,318.7429],[22.582,68.4144,334.9579],[22.6063,68.4141,324.3826],[22.6068,68.4186,328.337],[22.6312,68.4182,319.7238],[22.6317,68.4227,318.5089],[22.6439,68.4225,317.7607],[22.6444,68.427,313.8912],[22.6565,68.4269,324.0535],[22.655,68.4134,315.9643],[22.6671,68.4132,315.3194],[22.6666,68.4087,316.2414],[22.6788,68.4085,315.4975],[22.6782,68.404,312.5547],[22.7026,68.4036,319.0347],[22.7015,68.3946,319.3884],[22.7137,68.3944,308.6498],[22.7132,68.3899,308.3656],[22.7375,68.3895,307.9024],[22.7369,68.385,304.8486],[22.7491,68.3849,304.6376],[22.7485,68.3804,307.2643],[22.7971,68.3797,305.1461],[22.7977,68.3841,306.437],[22.8098,68.3839,306.813],[22.8341,68.3835,306.3387],[22.8336,68.379,304.3797],[22.8578,68.3786,310.5423],[22.855,68.3561,300.6705],[22.8672,68.3559,296.8528],[22.8666,68.3514,298.2434],[22.8788,68.3512,294.7039],[22.8782,68.3467,296.5604],[22.8903,68.3465,296.949],[22.8898,68.342,302.9565],[22.914,68.3416,296.7227],[22.9134,68.3371,296.8355],[22.9256,68.3369,297.8805],[22.9244,68.3279,302.7512],[22.9487,68.3275,300.4561],[22.9481,68.323,299.8302],[22.9844,68.3224,286.3923],[22.9838,68.3179,288.9991],[22.996,68.3177,284.3719],[22.9954,68.3132,291.0889],[23.0075,68.313,283.078],[23.0069,68.3085,294.8911],[23.0311,68.3081,275.0832],[23.0305,68.3036,283.7403],[23.0426,68.3034,279.4114],[23.042,68.2989,281.6684],[23.0783,68.2982,279.3661],[23.0771,68.2892,284.6843],[23.0892,68.289,274.9861],[23.0856,68.262,279.0515],[23.0977,68.2618,278.8218],[23.0971,68.2573,271.249],[23.1092,68.2571,273.573],[23.108,68.2481,273.232],[23.1201,68.2479,271.2831],[23.1195,68.2434,274.6679],[23.1557,68.2427,269.7287],[23.1551,68.2382,261.0717],[23.1671,68.238,281.8026],[23.161,68.193,263.1336],[23.1731,68.1928,265.7754],[23.1712,68.1793,339.0253],[23.1592,68.1796,306.5651],[23.1549,68.1481,272.0647],[23.1669,68.1479,280.9743],[23.1645,68.1299,257.1983],[23.1765,68.1297,260.385],[23.1759,68.1252,265.2032],[23.1999,68.1247,264.7621],[23.2005,68.1292,268.8181],[23.2125,68.129,261.8019],[23.2132,68.1335,259.0396],[23.2252,68.1333,259.6462],[23.2258,68.1378,256.2193],[23.2498,68.1373,288.1475],[23.2504,68.1418,297.7916],[23.2625,68.1416,288.771],[23.2631,68.1461,297.7023],[23.3112,68.1452,250.8932],[23.3105,68.1407,256.3312],[23.3226,68.1404,249.28],[23.3213,68.1314,244.7364],[23.3333,68.1312,246.6077],[23.3314,68.1177,244.5522],[23.3434,68.1175,256.3726],[23.3421,68.1085,250.7285],[23.3541,68.1083,254.9359],[23.3521,68.0948,244.1587],[23.3641,68.0945,249.23],[23.3622,68.081,243.9605],[23.3742,68.0808,247.6318],[23.3722,68.0673,244.1653],[23.3842,68.0671,250.6964],[23.3823,68.0536,247.1427],[23.3942,68.0534,264.7913],[23.3936,68.0489,261.4864],[23.4055,68.0486,266.243],[23.4042,68.0397,251.629],[23.4162,68.0394,250.7138],[23.4155,68.0349,250.1123],[23.4275,68.0347,249.6663],[23.4268,68.0302,249.4739],[23.4508,68.0297,251.0401],[23.4501,68.0252,245.7183],[23.474,68.0247,244.3569],[23.4733,68.0202,231.4098],[23.4853,68.02,231.3328],[23.484,68.011,237.7402],[23.5437,68.0098,233.0795],[23.543,68.0053,231.2364],[23.555,68.0051,233.0939],[23.5516,67.9826,231.1831],[23.5635,67.9823,232.6509],[23.5628,67.9778,230.6692],[23.5747,67.9776,231.1239],[23.5734,67.9686,233.3165],[23.5853,67.9684,232.9785],[23.5846,67.9639,235.7234],[23.6323,67.9629,234.1225],[23.6316,67.9584,231.5948],[23.6555,67.9578,230.8078],[23.6548,67.9534,234.1034],[23.6667,67.9531,238.5836],[23.6646,67.9396,228.6826],[23.6765,67.9394,236.1537],[23.6737,67.9214,255.0342],[23.6618,67.9216,245.2547],[23.6597,67.9082,234.5668],[23.6478,67.9084,231.4718],[23.6471,67.9039,230.8499],[23.6352,67.9042,232.3804],[23.6345,67.8997,233.0842],[23.6226,67.8999,242.6492],[23.6219,67.8954,250.731],[23.61,67.8957,228.3516],[23.6087,67.8867,228.6158],[23.5968,67.8869,215.5214],[23.5961,67.8825,207.6474],[23.5842,67.8827,205.8035],[23.5849,67.8872,207.5687],[23.5611,67.8877,206.5093],[23.5604,67.8832,210.6887],[23.5485,67.8835,238.7912],[23.5479,67.879,270.19],[23.536,67.8792,228.3035],[23.5347,67.8702,235.3573],[23.5228,67.8705,216.6593],[23.5214,67.8615,209.9183],[23.5096,67.8617,206.5006],[23.5056,67.8347,268.006],[23.4937,67.835,220.1277],[23.4877,67.7945,199.8563],[23.4996,67.7943,215.8148],[23.4982,67.7853,204.8699],[23.5101,67.785,216.7809],[23.5081,67.7716,213.6609],[23.4963,67.7718,201.2572],[23.4943,67.7583,194.9464],[23.5061,67.7581,211.6671],[23.5028,67.7356,224.0911],[23.491,67.7359,202.3833],[23.4896,67.7269,197.367],[23.489,67.7224,197.6107],[23.5008,67.7221,220.8005],[23.4955,67.6862,182.7215],[23.5073,67.6859,247.2463],[23.5027,67.6545,183.0748],[23.5144,67.6542,206.307],[23.5131,67.6452,198.7947],[23.5249,67.645,196.8831],[23.5242,67.6405,187.0307],[23.536,67.6403,194.9148],[23.5346,67.6313,187.4081],[23.5464,67.631,199.7528],[23.5451,67.622,192.7836],[23.5568,67.6218,177.3658],[23.5488,67.5679,190.7642],[23.5371,67.5681,197.0171],[23.5358,67.5591,208.2983],[23.524,67.5594,190.107],[23.5234,67.5549,199.136],[23.4765,67.5558,184.4894],[23.4745,67.5424,184.6173],[23.4862,67.5421,180.6216],[23.483,67.5197,189.0579],[23.4713,67.5199,184.0668],[23.4706,67.5154,189.1608],[23.4589,67.5156,181.9341],[23.4576,67.5067,186.9931],[23.4459,67.5069,183.2915],[23.4446,67.4979,187.8491],[23.4329,67.4981,186.9217],[23.4323,67.4936,177.7383],[23.4206,67.4939,177.5822],[23.4193,67.4849,184.9875],[23.4076,67.4851,177.8558],[23.4057,67.4716,161.8654],[23.4174,67.4714,175.8465],[23.4161,67.4624,161.5247],[23.4278,67.4622,163.762],[23.4265,67.4532,168.1069],[23.4499,67.4527,172.6005],[23.4492,67.4482,190.541],[23.4726,67.4477,208.5097],[23.4719,67.4433,230.4518],[23.5069,67.4425,165.2976],[23.5063,67.438,167.1613],[23.518,67.4378,163.6702],[23.5186,67.4423,162.8793],[23.5303,67.442,165.5297],[23.5309,67.4465,164.6651],[23.5426,67.4463,177.132],[23.5433,67.4508,170.9598],[23.5783,67.45,165.5197],[23.5776,67.4455,161.6258],[23.6243,67.4445,160.2653],[23.6236,67.4401,161.3979],[23.6586,67.4393,165.8702],[23.6579,67.4348,171.0395],[23.7395,67.433,167.2851],[23.7388,67.4285,167.2637],[23.7622,67.428,149.0102],[23.7615,67.4235,156.0716],[23.7731,67.4232,164.2772],[23.7696,67.4008,166.1553],[23.7579,67.401,162.317],[23.7559,67.3876,158.0755],[23.7442,67.3878,149.5831],[23.7428,67.3788,159.052],[23.7312,67.3791,147.7906],[23.7305,67.3746,146.7838],[23.7421,67.3744,155.9706],[23.7407,67.3654,146.9631],[23.7524,67.3651,157.7702],[23.7489,67.3426,153.1022],[23.7605,67.3424,150.4975],[23.7598,67.3379,151.7792],[23.783,67.3374,153.5246],[23.7795,67.3149,150.002],[23.7679,67.3152,148.1044],[23.7665,67.3062,151.9474],[23.7549,67.3064,149.4945],[23.7515,67.284,149.6953],[23.7399,67.2842,150.3207],[23.7378,67.2708,148.7802],[23.6799,67.272,150.8166],[23.6792,67.2676,161.0673],[23.656,67.2681,180.8269],[23.6554,67.2636,187.3701],[23.6206,67.2643,154.8308],[23.6199,67.2598,154.0286],[23.5968,67.2603,148.5727],[23.5961,67.2558,148.3319],[23.5845,67.2561,146.582],[23.5839,67.2516,147.1953],[23.5723,67.2519,142.4922],[23.5717,67.2474,147.8056],[23.5832,67.2471,152.6655],[23.5826,67.2426,150.9077],[23.571,67.2429,150.066],[23.5664,67.2114,148.4655],[23.5895,67.2109,134.0733],[23.5882,67.2019,132.1988],[23.5997,67.2017,144.6134],[23.5964,67.1792,149.6976],[23.5849,67.1795,146.366],[23.5835,67.1705,148.4283],[23.572,67.1707,150.5501],[23.5694,67.1528,148.2883],[23.5809,67.1525,131.4472],[23.5796,67.1435,152.6368],[23.5911,67.1433,122.7483],[23.5905,67.1388,143.9106],[23.602,67.1385,134.5291],[23.6013,67.134,138.8424],[23.6128,67.1338,145.6362],[23.6115,67.1248,145.5503],[23.623,67.1246,123.332],[23.6224,67.1201,118.3649],[23.6339,67.1198,142.0277],[23.6332,67.1153,123.2592],[23.6447,67.1151,144.4632],[23.6434,67.1061,138.5034],[23.6549,67.1058,118.7035],[23.6535,67.0968,130.8457],[23.665,67.0966,122.1501],[23.6644,67.0921,111.6396],[23.6759,67.0919,140.5892],[23.6732,67.0739,133.099],[23.6847,67.0736,138.6409],[23.682,67.0557,112.0619],[23.6934,67.0554,104.4218],[23.6921,67.0464,114.0195],[23.7036,67.0462,103.1463],[23.7029,67.0417,107.1124],[23.7144,67.0414,102.7945],[23.7137,67.0369,102.1911],[23.7252,67.0367,116.7351],[23.7238,67.0277,108.7568],[23.7353,67.0274,111.0164],[23.7339,67.0184,109.1063],[23.7454,67.0182,117.2488],[23.7447,67.0137,105.8843],[23.7561,67.0134,114.0963],[23.7548,67.0044,110.309],[23.7662,67.0042,99.3803],[23.7649,66.9952,107.445],[23.7878,66.9947,98.5],[23.7885,66.9992,115.3068],[23.777,66.9994,99.0],[23.7777,67.0039,112.3809],[23.8693,67.0018,122.2548],[23.87,67.0063,106.7255],[23.9731,67.0039,123.2384],[23.9739,67.0084,124.746],[24.0082,67.0075,123.6871],[24.0075,67.003,124.8933],[24.0762,67.0014,132.4344],[24.0777,67.0103,152.4671],[24.1693,67.008,175.0572],[24.1686,67.0036,166.5335],[24.18,67.0033,170.0908],[24.1793,66.9988,161.1885],[24.1907,66.9985,164.7882],[24.19,66.994,159.7798],[24.2014,66.9937,163.9478],[24.2006,66.9892,163.4944],[24.2922,66.9869,210.6226],[24.2914,66.9824,227.7542],[24.3715,66.9803,182.5744],[24.3707,66.9758,195.3265],[24.4622,66.9734,232.4786],[24.4614,66.9689,201.5733],[24.5414,66.9667,178.5131],[24.5406,66.9622,172.8844],[24.632,66.9597,251.5802],[24.6312,66.9552,277.8153],[24.7225,66.9526,196.7724],[24.7217,66.9481,188.2129],[24.8016,66.9458,168.2504],[24.8007,66.9413,167.4651],[24.8692,66.9393,141.3031],[24.871,66.9483,143.3882],[24.8596,66.9486,143.2249],[24.8622,66.9621,125.504],[24.8508,66.9624,139.9767],[24.8535,66.9759,140.4743],[24.842,66.9762,143.7465],[24.8447,66.9897,142.571],[24.8332,66.99,153.6206],[24.8359,67.0035,147.772],[24.8244,67.0038,164.5219],[24.8271,67.0172,148.6213],[24.8156,67.0176,150.459],[24.8183,67.031,150.9383],[24.8068,67.0314,166.4474],[24.8095,67.0448,148.1046],[24.798,67.0452,162.5701],[24.8006,67.0586,162.1871],[24.7891,67.059,156.0625],[24.7918,67.0724,228.5475],[24.7803,67.0728,165.4209],[24.7829,67.0862,202.0323],[24.7714,67.0865,192.9204],[24.7741,67.1,232.4024],[24.7626,67.1003,246.2036],[24.7652,67.1138,212.4151],[24.7537,67.1141,204.4331],[24.7563,67.1276,199.5114],[24.7448,67.1279,192.8515],[24.7483,67.1459,207.7929]]]]}
,"properties": {"GID_3": "FIN.2.1.6_1","GID_0": "FIN","country": "Finland","GID_1": "FIN.2_1","province": "Lapland","NL_NAME_1": "NA","GID_2": "FIN.2.1_1","county": "Lapland","NL_NAME_2": "NA","city": "TunturiLapland","VARNAME_3": "NA","NL_NAME_3": "NA","TYPE_3": "Seutukunta|Ekonomiskregion","ENGTYPE_3": "Sub-Region","CC_3": "NA","HASC_3": "NA","name": "Tunturi_Lapland.city","area_km2": 21132.36,"hist_schema_id": "Elevation0-9000","hist_area_km2": {"100": 3.13,"125": 74.06,"150": 413.3,"175": 1564.09,"200": 2689.58,"225": 1933.04,"250": 1811.98,"275": 1599.92,"300": 1715.72,"325": 1613.92,"350": 1224.93,"375": 971.35,"400": 777.21,"425": 751.95,"450": 680.46,"475": 473.88,"500": 336.7,"525": 280.67,"550": 277.91,"575": 267.08,"600": 226.23,"625": 170.16,"650": 146.67,"675": 151.24,"700": 127.64,"725": 116.59,"750": 113.36,"775": 100.53,"800": 87.48,"825": 84.35,"850": 65.19,"875": 54.39,"900": 38.47,"925": 33.51,"950": 30.07,"975": 25.29,"1000": 24.22,"1025": 18.92,"1050": 12.99,"1075": 9.54,"1100": 9.61,"1125": 8.79,"1150": 5.61,"1175": 4.18,"1200": 2.39,"1225": 1.29,"1250": 1.02,"1275": 1.09,"1300": 0.64}}}