{"type":"Feature","properties":{"GID_3":"FIN.4.5.2_1","GID_0":"FIN","country":"Finland","GID_1":"FIN.4_1","province":"SouthernFinland","NL_NAME_1":"NA","GID_2":"FIN.4.5_1","county":"Uusimaa","NL_NAME_2":"NA","city":"Helsinki","VARNAME_3":"NA","NL_NAME_3":"NA","TYPE_3":"Seutukunta|Ekonomiskregion","ENGTYPE_3":"Sub-Region","CC_3":"NA","HASC_3":"FI.ES.HK","name":"Helsinki.city"},
"geometry":{"type": "MultiPolygon","coordinates": [[[[24.3686,59.9107,1.0855],[24.3692,59.9126,0.0],[24.3636,59.9115,0.0],[24.3642,59.9107,0.0],[24.3686,59.9107,1.0855]]],
[[[24.3403,59.9157,0.0],[24.3414,59.9171,0.0],[24.3375,59.9168,0.614],[24.3336,59.9143,0.0],[24.3336,59.9124,0.0],[24.3386,59.9124,0.0],[24.3369,59.9143,0.0],[24.3403,59.9157,0.0]]],
[[[24.3553,59.9212,0.0],[24.3547,59.9238,0.0],[24.3453,59.9221,0.0],[24.3442,59.9176,7.2322],[24.3453,59.9157,3.2032],[24.3436,59.9151,0.0],[24.3436,59.9132,0.0],[24.3508,59.9135,0.0],[24.3519,59.9171,2.6967],[24.3564,59.9199,0.0],[24.3553,59.9212,0.0]]],
[[[24.3519,59.9246,0.7748],[24.3503,59.9263,0.0],[24.3469,59.9263,0.0],[24.3475,59.9235,0.5341],[24.3519,59.9246,0.7748]]],
[[[24.4086,59.9324,0.0],[24.4019,59.9329,1.793],[24.4025,59.9301,2.3545],[24.4003,59.9285,0.0],[24.4186,59.9285,0.0],[24.4181,59.9293,0.0],[24.4086,59.9324,0.0]]],
[[[24.4519,59.9318,0.0],[24.4481,59.9332,0.4163],[24.4486,59.9304,0.0],[24.4519,59.9304,0.0],[24.4519,59.9318,0.0]]],
[[[24.3953,59.9357,0.0],[24.3942,59.9379,0.0],[24.3903,59.9382,3.104],[24.3842,59.9357,0.0],[24.3819,59.9321,0.3172],[24.3786,59.9315,0.0],[24.3803,59.9304,0.0],[24.393,59.9313,0.0],[24.3953,59.9357,0.0]]],
[[[24.4525,59.936,0.0],[24.4503,59.9379,0.0],[24.4453,59.9376,0.0],[24.4447,59.9346,1.8308],[24.4392,59.9346,2.0738],[24.4386,59.9326,0.0],[24.4442,59.9324,2.2097],[24.4486,59.9354,0.1355],[24.4525,59.936,0.0]]],
[[[24.4081,59.9379,0.286],[24.4097,59.9368,0.0],[24.4142,59.939,0.0],[24.4103,59.9393,0.0],[24.4081,59.9379,0.286]]],
[[[24.4225,59.9424,0.6647],[24.4236,59.9435,0.6647],[24.4142,59.9426,0.0],[24.4131,59.9413,0.4592],[24.4158,59.9407,3.2946],[24.4225,59.9424,0.6647]]],
[[[24.4003,59.9435,0.0],[24.3997,59.9451,0.0],[24.3953,59.9443,0.0],[24.3969,59.9426,0.0],[24.4003,59.9435,0.0]]],
[[[24.4403,59.9493,0.0],[24.4408,59.9501,0.0],[24.4381,59.9507,0.0],[24.4353,59.9476,1.1229],[24.4392,59.9482,0.0],[24.4403,59.9493,0.0]]],
[[[24.4469,59.9499,2.5931],[24.4486,59.9518,0.2595],[24.4447,59.9521,0.0],[24.4425,59.9501,0.6718],[24.4431,59.9493,0.6718],[24.4469,59.9499,2.5931]]],
[[[24.4586,59.9521,3.7575],[24.4603,59.9543,0.0],[24.4558,59.9546,0.0],[24.4536,59.9526,0.0],[24.4542,59.9515,0.0],[24.4586,59.9521,3.7575]]],
[[[24.4303,59.9557,0.0],[24.4292,59.9532,0.0],[24.4325,59.9538,2.3327],[24.4336,59.956,0.0],[24.4308,59.956,0.0],[24.4303,59.9557,0.0]]],
[[[24.4108,59.9549,0.0],[24.4125,59.9557,0.0597],[24.4119,59.9568,3.3593],[24.4086,59.9568,2.869],[24.4042,59.954,2.3531],[24.4064,59.9538,2.8592],[24.4108,59.9549,0.0]]],
[[[24.4597,59.9415,0.0],[24.4581,59.9432,1.0949],[24.4547,59.9424,0.0],[24.4553,59.941,0.7037],[24.4597,59.9415,0.0]]],
[[[24.4703,59.9451,0.0],[24.4719,59.9463,0.0],[24.4658,59.9457,0.0],[24.4664,59.9449,0.0],[24.4703,59.9451,0.0]]],
[[[24.4781,59.9551,0.0],[24.4775,59.9565,0.5169],[24.4742,59.9557,0.5169],[24.4719,59.9521,0.0],[24.4742,59.9521,0.0],[24.4781,59.9551,0.0]]],
[[[24.4681,59.956,0.0],[24.4664,59.9579,0.0],[24.4625,59.9568,0.0],[24.463,59.956,0.0],[24.4681,59.956,0.0]]],
[[[24.4925,59.9576,0.0],[24.4908,59.959,0.7181],[24.4808,59.9565,0.3203],[24.4875,59.9554,0.0],[24.4925,59.9576,0.0]]],
[[[24.4714,59.9593,0.0],[24.4742,59.9607,0.0],[24.4686,59.9613,0.0],[24.4692,59.9596,0.0],[24.4714,59.9593,0.0]]],
[[[24.4992,59.9646,0.0],[24.4953,59.9663,2.8083],[24.4825,59.9629,2.6066],[24.4847,59.9593,1.9204],[24.4908,59.9593,0.7181],[24.4947,59.9607,0.0],[24.4953,59.9635,0.0],[24.4992,59.9646,0.0]]],
[[[24.5064,59.9646,0.0601],[24.5042,59.9657,0.0],[24.5008,59.9654,0.0],[24.5025,59.9635,0.0675],[24.5064,59.9646,0.0601]]],
[[[24.5131,59.9696,0.2932],[24.5125,59.9712,2.7078],[24.5092,59.9712,2.7078],[24.5069,59.969,1.6906],[24.5092,59.9685,0.0],[24.5131,59.9696,0.2932]]],
[[[24.4875,59.9738,0.0],[24.4869,59.9751,0.0],[24.4836,59.9751,7.4905],[24.4803,59.9732,2.45],[24.4836,59.9724,4.0893],[24.4875,59.9738,0.0]]],
[[[24.473,59.9749,0.0],[24.4686,59.9763,2.3089],[24.4669,59.9746,0.0],[24.4703,59.974,2.3385],[24.473,59.9749,0.0]]],
[[[24.4947,59.9801,0.0],[24.4914,59.9813,1.4118],[24.4892,59.9801,0.0],[24.4892,59.9782,0.0],[24.4931,59.9771,1.1348],[24.4947,59.9801,0.0]]],
[[[24.5281,59.9624,0.1079],[24.5253,59.9635,0.6382],[24.5225,59.9626,0.1605],[24.5247,59.9615,0.0],[24.5281,59.9624,0.1079]]],
[[[24.5258,59.9715,0.0],[24.5253,59.9732,0.0],[24.5203,59.9721,0.0],[24.5208,59.971,0.1703],[24.5258,59.9715,0.0]]],
[[[24.5381,59.9835,0.0],[24.5386,59.9857,0.3464],[24.5269,59.9851,0.0],[24.5281,59.9829,0.0],[24.5381,59.9835,0.0]]],
[[[24.5753,59.9876,0.0],[24.5736,59.9899,0.6857],[24.5686,59.9882,2.3092],[24.5692,59.9871,2.3092],[24.5753,59.9876,0.0]]],
[[[24.3753,59.926,0.0],[24.3764,59.9279,0.7087],[24.3719,59.9282,5.3615],[24.3681,59.9254,0.0],[24.3719,59.9246,0.0],[24.3753,59.926,0.0]]],
[[[24.3786,59.9329,0.4853],[24.3797,59.9343,0.0],[24.3775,59.9346,1.1693],[24.3625,59.9296,0.0],[24.3708,59.9287,1.1196],[24.3786,59.9329,0.4853]]],
[[[24.3792,59.956,0.0],[24.3786,59.9576,0.0],[24.3719,59.9551,14.1721],[24.3703,59.9568,0.0],[24.3664,59.9562,0.1508],[24.3669,59.9538,4.5344],[24.3603,59.9518,3.8977],[24.3592,59.949,7.2785],[24.3625,59.9468,0.5354],[24.3592,59.946,0.5354],[24.3619,59.9446,0.2102],[24.3675,59.9454,0.0],[24.3692,59.9474,4.4625],[24.3719,59.946,1.2361],[24.3753,59.9465,0.6318],[24.3781,59.9496,0.0],[24.3775,59.9546,0.2164],[24.3792,59.956,0.0]]],
[[[24.3047,59.9829,0.7629],[24.3036,59.9846,0.4719],[24.3008,59.9843,0.0],[24.3042,59.9818,0.0],[24.3047,59.9829,0.7629]]],
[[[24.4592,59.9665,0.0],[24.4603,59.9676,0.0],[24.4592,59.9682,7.2116],[24.4542,59.9674,0.0],[24.4481,59.9651,3.3901],[24.4475,59.9635,0.0],[24.4536,59.9663,2.297],[24.4592,59.9665,0.0]]],
[[[24.4342,59.9657,0.3173],[24.4331,59.9674,0.0],[24.4264,59.9654,0.0],[24.4319,59.9649,0.0],[24.4342,59.9657,0.3173]]],
[[[24.4586,59.9749,0.0],[24.4581,59.9763,1.567],[24.4475,59.9765,4.7452],[24.4442,59.9754,0.0],[24.4425,59.9718,0.9999],[24.4464,59.971,3.746],[24.4586,59.9749,0.0]]],
[[[24.3864,59.9899,0.6569],[24.3847,59.9915,0.45],[24.3803,59.9907,0.0],[24.3814,59.9888,1.2974],[24.3864,59.9899,0.6569]]],
[[[24.3492,59.9879,3.6925],[24.3425,59.9888,0.0],[24.3425,59.9874,1.5419],[24.3458,59.9863,0.1552],[24.3497,59.9871,3.6925],[24.3492,59.9879,3.6925]]],
[[[24.3675,59.9899,0.0],[24.3692,59.9932,0.0],[24.3653,59.9926,1.3162],[24.3636,59.9896,0.0],[24.3664,59.989,1.785],[24.3675,59.9899,0.0]]],
[[[24.3858,59.9957,1.8735],[24.3869,59.9963,1.8735],[24.3803,59.996,0.0],[24.3747,59.9938,0.0],[24.3742,59.9918,0.0362],[24.3769,59.9912,0.9484],[24.3858,59.9957,1.8735]]],
[[[24.3703,59.9985,0.2707],[24.3714,60.0,0.0],[24.3646,60.0,7.2172],[24.3688,60.0021,0.0],[24.375,60.0021,16.1288],[24.3766,60.0036,14.7643],[24.3625,60.0042,12.2393],[24.3589,60.0016,19.5856],[24.3604,60.0,16.8397],[24.3425,60.0,0.7457],[24.3425,59.9963,0.8829],[24.3514,59.9976,1.1867],[24.3531,59.9996,0.9425],[24.3564,59.999,0.0],[24.3519,59.9957,0.0],[24.3419,59.9926,0.0],[24.3403,59.9901,0.6966],[24.3475,59.9904,0.6668],[24.3531,59.9932,1.3475],[24.3503,59.9882,3.6925],[24.3542,59.9871,4.4401],[24.3547,59.989,4.4436],[24.3642,59.9921,1.1438],[24.3669,59.9951,0.0],[24.3725,59.996,0.0],[24.3697,59.9974,0.2707],[24.3703,59.9985,0.2707]]],
[[[24.3919,59.9968,0.0],[24.393,59.9974,0.0],[24.3875,59.996,1.6527],[24.3903,59.9957,1.5049],[24.3919,59.9968,0.0]]],
[[[24.4042,60.0083,0.0],[24.4057,60.0099,0.0],[24.3979,60.0104,0.0],[24.3937,60.0125,6.1198],[24.3901,60.0099,16.4938],[24.4,60.0062,0.0],[24.4042,60.0083,0.0]]],
[[[24.4125,60.0125,17.078],[24.4141,60.0141,0.0],[24.4109,60.0141,15.4087],[24.4109,60.013,13.2041],[24.4125,60.0125,17.078]]],
[[[24.5086,59.9788,1.6072],[24.5103,59.9801,0.0],[24.5042,59.9796,0.0],[24.5053,59.9785,0.0],[24.5086,59.9788,1.6072]]],
[[[24.4653,59.979,1.3279],[24.4669,59.9829,3.5676],[24.4564,59.9799,0.0],[24.4603,59.9779,1.5366],[24.4653,59.979,1.3279]]],
[[[24.5047,59.9863,0.0],[24.5053,59.9874,0.2969],[24.5014,59.9879,1.3902],[24.4992,59.9854,0.0],[24.5025,59.9851,0.0],[24.5047,59.9863,0.0]]],
[[[24.5053,59.9899,0.0],[24.5064,59.9912,0.6517],[24.5014,59.9907,0.8696],[24.5019,59.9893,0.0],[24.5053,59.9899,0.0]]],
[[[24.5953,59.989,0.0],[24.5936,59.9904,1.55],[24.5908,59.9879,0.2029],[24.6003,59.9882,0.0],[24.5997,59.989,0.0],[24.5953,59.989,0.0]]],
[[[24.5675,59.9876,0.0],[24.567,59.9901,0.0],[24.5653,59.9907,0.8502],[24.5631,59.9888,1.4716],[24.5636,59.9879,0.0],[24.5675,59.9876,0.0]]],
[[[24.5703,59.991,0.0],[24.5708,59.9921,0.0],[24.5692,59.9926,0.0],[24.5647,59.9918,0.8502],[24.5681,59.9904,0.0],[24.5703,59.991,0.0]]],
[[[24.5808,59.9929,0.0],[24.5814,59.9949,0.6466],[24.5764,59.9946,1.1885],[24.5753,59.991,2.9278],[24.5769,59.9907,1.0154],[24.5808,59.9929,0.0]]],
[[[24.5742,59.9949,0.8907],[24.5736,59.9971,0.0],[24.5703,59.9963,2.4071],[24.5708,59.9943,1.4669],[24.5742,59.9949,0.8907]]],
[[[24.5417,60.0187,7.6609],[24.5432,60.0193,6.8517],[24.5432,60.0203,9.2893],[24.5401,60.0203,12.1462],[24.5417,60.0187,7.6609]]],
[[[24.5292,60.0187,13.8712],[24.5307,60.0203,5.5082],[24.5276,60.0203,0.0],[24.5276,60.0193,15.842],[24.5292,60.0187,13.8712]]],
[[[24.55,60.025,0.0],[24.5458,60.025,14.502],[24.5443,60.0234,10.6684],[24.5516,60.0234,0.0],[24.55,60.025,0.0]]],
[[[24.6,60.0438,8.9455],[24.5943,60.0432,0.0],[24.5943,60.0401,7.8736],[24.6016,60.0401,0.0],[24.6016,60.0432,3.943],[24.6,60.0438,8.9455]]],
[[[24.6125,60.0563,4.3763],[24.6104,60.0583,3.3607],[24.6042,60.0563,0.0],[24.6042,60.0542,0.0],[24.6104,60.0542,8.7676],[24.6125,60.0563,4.3763]]],
[[[24.6557,60.0797,0.0],[24.6599,60.0818,0.0],[24.6641,60.087,18.7185],[24.6583,60.0854,0.0],[24.6542,60.0875,18.9777],[24.6484,60.0828,0.0],[24.6526,60.0797,14.0556],[24.6557,60.0797,0.0]]],
[[[24.6766,60.1026,0.0],[24.6786,60.1057,0.0],[24.6713,60.1068,18.5164],[24.6667,60.1104,0.0],[24.663,60.1078,20.159],[24.6641,60.1026,9.7204],[24.6589,60.1016,10.5422],[24.6563,60.0979,9.8925],[24.6568,60.0964,11.7636],[24.6625,60.0958,0.0],[24.6766,60.1026,0.0]]],
[[[24.3808,59.9993,1.4341],[24.383,59.9987,0.0],[24.3842,60.0,0.8024],[24.3786,60.0,0.0],[24.3808,59.9993,1.4341]]],
[[[24.3578,60.0057,12.6145],[24.3563,60.0062,5.6599],[24.3547,60.0047,8.2415],[24.3578,60.0047,13.0155],[24.3578,60.0057,12.6145]]],
[[[24.3604,60.0125,17.4566],[24.3589,60.0109,16.1462],[24.362,60.0109,13.5915],[24.362,60.012,12.3425],[24.3604,60.0125,17.4566]]],
[[[24.3188,60.05,0.0],[24.3203,60.0516,15.7869],[24.3083,60.0542,10.0783],[24.2984,60.0484,0.0],[24.3042,60.0458,0.0],[24.3083,60.0458,0.0],[24.3188,60.05,0.0]]],
[[[24.3438,60.0583,9.3971],[24.3422,60.0568,0.0],[24.3453,60.0568,0.0],[24.3453,60.0578,5.8406],[24.3438,60.0583,9.3971]]],
[[[24.3547,60.0641,0.0],[24.3557,60.0661,0.0],[24.3479,60.0687,0.0],[24.3375,60.0646,0.0],[24.3333,60.0646,0.0],[24.3339,60.063,11.1482],[24.3438,60.0604,0.0],[24.3479,60.0604,0.0],[24.3547,60.0641,0.0]]],
[[[24.2779,60.0607,21.8264],[24.2773,60.0563,0.0],[24.2813,60.0583,0.0],[24.2896,60.0583,5.4958],[24.2938,60.0563,7.6194],[24.3063,60.0563,0.0],[24.3104,60.0583,15.2772],[24.3188,60.0583,0.0],[24.3229,60.0563,8.0725],[24.3333,60.0604,0.0],[24.3333,60.0625,6.5819],[24.3312,60.0625,0.0],[24.3271,60.0604,8.6769],[24.3229,60.0604,6.4731],[24.3083,60.0667,0.0],[24.3005,60.0672,10.7581],[24.3016,60.0724,10.3305],[24.2943,60.0766,0.5083],[24.3036,60.0797,0.0],[24.3026,60.0828,5.5239],[24.3104,60.0854,0.0],[24.3146,60.0833,0.0],[24.3224,60.0828,0.0],[24.3172,60.0797,0.0],[24.3271,60.0771,0.0],[24.3328,60.0776,0.0],[24.3318,60.0828,0.0],[24.337,60.0839,0.0],[24.3359,60.087,0.0],[24.3458,60.0896,17.111],[24.3583,60.0875,12.369],[24.3688,60.0833,0.0],[24.3729,60.0833,3.6064],[24.3771,60.0854,0.0],[24.3828,60.0849,0.0],[24.3755,60.0807,11.895],[24.3734,60.0766,8.4169],[24.3745,60.0734,0.0],[24.3714,60.0682,0.0],[24.3786,60.0609,6.317],[24.3745,60.0547,37.6327],[24.3609,60.0495,34.7783],[24.3641,60.0464,35.4571],[24.3589,60.0453,34.8694],[24.3599,60.0422,17.1464],[24.3589,60.0401,0.0],[24.3646,60.0396,13.3335],[24.3661,60.038,9.2162],[24.3641,60.0359,5.0746],[24.3516,60.0318,11.1393],[24.3443,60.0307,19.4837],[24.337,60.0234,27.8277],[24.3307,60.0193,8.171],[24.3255,60.0182,0.0],[24.3234,60.0141,25.2322],[24.3245,60.0109,15.2913],[24.3214,60.0047,2.9561],[24.3271,60.0042,6.6558],[24.3312,60.0062,8.3408],[24.3354,60.0042,3.1195],[24.3474,60.0089,14.6869],[24.3422,60.012,8.7648],[24.3474,60.013,2.3632],[24.3458,60.0167,18.9123],[24.3495,60.0224,0.0],[24.3464,60.0245,14.384],[24.3484,60.0266,4.9862],[24.3667,60.0271,15.3511],[24.3724,60.0255,0.0],[24.3745,60.0286,15.2038],[24.3672,60.0339,13.1236],[24.3688,60.0354,3.116],[24.3745,60.0349,0.0],[24.3807,60.0307,26.1132],[24.3797,60.0276,0.0],[24.3818,60.0255,13.2677],[24.387,60.0245,11.0],[24.3854,60.0229,15.6071],[24.3797,60.0224,0.0],[24.3854,60.0167,8.3336],[24.3937,60.0167,0.0],[24.4078,60.0214,0.0],[24.4047,60.0245,13.993],[24.4125,60.0313,8.6793],[24.4182,60.0307,0.0],[24.4203,60.0286,11.0704],[24.4172,60.0245,7.8997],[24.4172,60.0214,18.6496],[24.4214,60.0172,0.0],[24.4245,60.0172,8.9137],[24.4234,60.0307,0.0],[24.4286,60.0339,0.0],[24.4276,60.037,14.3362],[24.4396,60.0417,9.0835],[24.45,60.0417,0.0],[24.4578,60.0443,0.0],[24.4599,60.0474,0.0],[24.4526,60.0484,11.9333],[24.4547,60.0516,0.2732],[24.4599,60.0526,0.0],[24.4651,60.0599,0.5636],[24.4703,60.0609,0.0],[24.4734,60.0641,0.0],[24.4807,60.0641,15.7296],[24.4786,60.0609,28.6845],[24.4734,60.0599,0.0],[24.4714,60.0578,0.0],[24.4745,60.0547,17.0988],[24.4714,60.0505,0.0],[24.4766,60.0484,0.0],[24.4609,60.0432,0.0],[24.4516,60.0359,27.2578],[24.4464,60.0349,17.1567],[24.4443,60.0328,0.0],[24.45,60.0292,0.0],[24.4542,60.0292,0.0],[24.4583,60.0313,7.8534],[24.462,60.0276,9.1666],[24.4568,60.0266,15.3759],[24.4495,60.0214,20.5877],[24.4443,60.0203,12.2804],[24.437,60.0109,14.9186],[24.4318,60.0099,23.6039],[24.4172,60.0016,7.1879],[24.4169,59.9985,1.2902],[24.4225,59.9982,0.0],[24.4225,60.0,0.0],[24.4203,60.0,9.4148],[24.4214,60.0016,0.0],[24.4307,60.0026,11.4527],[24.4348,60.0061,0.0],[24.4321,60.0,8.8851],[24.4264,59.9996,0.0],[24.4269,59.9976,8.3981],[24.4242,59.9954,0.0],[24.4247,59.9915,8.0387],[24.4142,59.9896,7.9942],[24.4047,59.9837,18.74],[24.3986,59.9829,0.0],[24.3897,59.9779,1.2243],[24.3897,59.9746,1.1318],[24.3936,59.9738,7.6446],[24.3914,59.9718,0.0],[24.3936,59.9685,0.8345],[24.3908,59.966,0.9921],[24.3964,59.9651,0.0],[24.3958,59.9679,0.8345],[24.4003,59.9712,0.0],[24.4014,59.9701,3.5334],[24.3981,59.9671,0.5183],[24.4153,59.9671,9.5246],[24.4014,59.9651,0.0],[24.4025,59.9629,0.0],[24.4075,59.9643,2.6898],[24.4097,59.9615,0.0],[24.4147,59.9604,0.0],[24.4219,59.9637,0.0],[24.4231,59.9688,0.0],[24.4203,59.9718,0.0],[24.4158,59.9726,2.3937],[24.4164,59.9757,0.0],[24.4119,59.9749,3.4286],[24.4108,59.976,2.3683],[24.4158,59.9762,0.0],[24.4225,59.9801,0.0],[24.4258,59.9835,0.0],[24.4236,59.9876,7.1218],[24.4275,59.9868,7.1953],[24.4258,59.9857,0.0],[24.4281,59.9824,0.0],[24.4231,59.9793,0.0],[24.4253,59.9788,2.5832],[24.4264,59.9757,0.0],[24.4297,59.9751,0.0],[24.4358,59.979,8.2998],[24.4414,59.9793,0.0],[24.4397,59.9813,0.0],[24.4403,59.9829,1.216],[24.4447,59.9846,6.0978],[24.4497,59.9835,0.0],[24.4536,59.9863,3.878],[24.4569,59.9865,0.7674],[24.4525,59.9837,0.0],[24.4569,59.9832,0.0],[24.4653,59.9901,0.0],[24.4553,59.9924,0.0],[24.4536,59.9951,1.5363],[24.4492,59.996,1.2194],[24.4492,59.9971,1.8301],[24.4558,59.9951,0.0],[24.4603,59.9957,0.7422],[24.4636,59.9985,0.0],[24.4681,59.9986,5.1328],[24.4642,59.9963,3.7132],[24.4636,59.9918,0.0],[24.4719,59.9904,0.0],[24.4853,59.9943,5.0981],[24.4892,59.994,2.3983],[24.4908,59.9951,1.2225],[24.4903,59.9985,0.0],[24.4931,59.9987,0.8856],[24.4925,59.996,3.8058],[24.4958,59.9935,5.9232],[24.4858,59.9907,0.0],[24.4764,59.9904,0.0],[24.4814,59.9899,0.5234],[24.4825,59.9879,3.5574],[24.4808,59.9854,0.0],[24.4825,59.9824,3.233],[24.4931,59.9837,0.0],[24.4942,59.986,5.9556],[24.5003,59.9879,1.3902],[24.4997,59.9907,0.8696],[24.5047,59.9932,0.0],[24.5042,59.9946,2.0328],[24.4997,59.9949,3.6208],[24.4958,59.9991,0.7684],[24.5021,60.0013,11.9759],[24.5047,60.0016,0.8439],[24.5141,60.0068,15.676],[24.5089,60.0109,13.5949],[24.512,60.0151,9.6426],[24.5089,60.0172,0.0],[24.5109,60.0203,1.6371],[24.5187,60.0229,0.0],[24.5333,60.0229,12.5892],[24.5474,60.0297,15.0679],[24.5422,60.0318,6.0705],[24.5432,60.037,0.0],[24.538,60.038,1.487],[24.538,60.0411,15.0431],[24.5557,60.0464,8.1906],[24.5568,60.0495,17.5113],[24.562,60.0505,13.9115],[24.5708,60.0604,7.2502],[24.5766,60.0599,4.8841],[24.5755,60.0568,0.0],[24.5786,60.0547,20.8926],[24.5734,60.0536,7.6851],[24.5693,60.0484,0.0],[24.575,60.05,11.2334],[24.5875,60.0458,5.2007],[24.5932,60.0484,14.4849],[24.5922,60.0516,9.1095],[24.5943,60.0536,12.5879],[24.6042,60.0563,0.0],[24.6042,60.0583,10.457],[24.6089,60.062,8.6238],[24.6141,60.063,7.1928],[24.6151,60.0661,12.4604],[24.6203,60.0672,0.0],[24.6125,60.0708,0.0],[24.6083,60.0708,0.0],[24.6005,60.0682,0.0],[24.5974,60.063,23.2679],[24.5797,60.0609,0.0],[24.5818,60.0661,20.9453],[24.6036,60.0714,0.0],[24.6047,60.0745,13.4549],[24.6182,60.0797,0.0],[24.6172,60.0849,8.9082],[24.6193,60.087,0.0],[24.6328,60.088,0.0],[24.6339,60.0911,17.7608],[24.6391,60.0922,0.0],[24.6516,60.1026,0.0],[24.6495,60.1057,10.5166],[24.6464,60.1068,0.0],[24.6495,60.112,0.0],[24.6422,60.1172,3.7514],[24.6432,60.1203,0.0],[24.6172,60.1214,0.0],[24.6182,60.1266,0.0],[24.6172,60.1286,0.0],[24.6234,60.1328,9.6089],[24.6286,60.1339,0.0],[24.6307,60.137,0.0],[24.6214,60.1401,10.0147],[24.6245,60.1453,4.8759],[24.6182,60.1495,0.0],[24.613,60.1505,0.0],[24.6141,60.1536,0.0],[24.6109,60.1547,3.5291],[24.6125,60.1563,0.0],[24.6208,60.1563,1.593],[24.6328,60.1516,5.1245],[24.637,60.1453,1.7475],[24.6359,60.1422,0.0],[24.6422,60.138,12.9302],[24.6641,60.1328,7.4222],[24.663,60.1276,0.0],[24.6755,60.1172,20.0693],[24.6813,60.1167,9.3042],[24.6849,60.1193,17.8133],[24.6797,60.1214,0.0],[24.6792,60.1229,0.0],[24.6833,60.1271,6.9614],[24.6958,60.1271,0.0],[24.712,60.1224,3.2396],[24.7042,60.1188,6.1544],[24.6938,60.1188,0.0],[24.6859,60.1141,4.5493],[24.687,60.1109,7.3426],[24.6859,60.1089,9.2359],[24.7,60.1104,8.6974],[24.7016,60.1099,0.0],[24.7005,60.1068,2.1858],[24.7021,60.1063,2.1858],[24.7266,60.113,5.1646],[24.7313,60.1167,0.0],[24.737,60.1172,3.1228],[24.7359,60.1203,0.0],[24.7396,60.125,12.1246],[24.7375,60.1271,0.0],[24.7297,60.1276,6.8229],[24.7328,60.1328,0.0],[24.7229,60.1354,0.0],[24.7167,60.1312,5.6559],[24.7026,60.1318,5.8301],[24.6974,60.137,0.0],[24.6922,60.138,0.2231],[24.6922,60.1411,1.0438],[24.7083,60.1417,7.9254],[24.713,60.1453,0.4134],[24.7292,60.15,6.4219],[24.7349,60.1474,0.0],[24.7339,60.1443,0.0],[24.7354,60.1437,0.0],[24.7479,60.1437,0.0],[24.7547,60.1495,0.0],[24.7667,60.1542,7.4103],[24.7771,60.1542,0.0],[24.7813,60.1563,9.3771],[24.7917,60.1563,3.5194],[24.8016,60.1589,4.2652],[24.8161,60.1714,0.0],[24.8151,60.1745,6.9816],[24.8167,60.175,0.0],[24.8224,60.1745,6.6236],[24.8193,60.1693,0.0],[24.8271,60.1667,0.0],[24.8328,60.1672,12.9551],[24.8276,60.1693,5.4293],[24.8286,60.1724,5.713],[24.8276,60.1745,13.2335],[24.8411,60.1755,0.0],[24.8359,60.1807,9.3007],[24.8432,60.1911,0.0],[24.8396,60.1937,0.0],[24.8354,60.1937,0.0],[24.825,60.1896,2.2603],[24.8167,60.1896,-0.0216],[24.8146,60.1917,0.0408],[24.8172,60.1953,0.0],[24.8286,60.1984,0.0],[24.8339,60.2057,0.0],[24.8396,60.2062,6.9599],[24.8438,60.2042,0.0],[24.8453,60.2047,0.0],[24.8443,60.2078,-1.0],[24.8458,60.2083,-1.0],[24.8516,60.2078,1.5734],[24.8505,60.2047,1.5492],[24.8589,60.1984,0.0],[24.8682,60.1974,9.0199],[24.8745,60.1932,13.7211],[24.8734,60.1901,4.0632],[24.8792,60.1917,0.0],[24.8839,60.188,2.4381],[24.8917,60.1875,8.7697],[24.9,60.1833,0.0],[24.9042,60.1854,0.0],[24.9099,60.1849,9.3421],[24.9089,60.1818,1.9013],[24.912,60.1786,6.0871],[24.912,60.1755,0.0],[24.9005,60.1724,0.0],[24.9021,60.1708,0.0],[24.9141,60.1703,0.0],[24.9141,60.1672,11.6268],[24.9089,60.1661,5.0678],[24.9047,60.162,3.4962],[24.9078,60.1589,0.0],[24.9047,60.1547,3.4752],[24.9083,60.1521,2.9976],[24.9182,60.1526,2.1485],[24.9271,60.1625,13.6295],[24.9328,60.1599,9.1175],[24.9276,60.1536,4.3368],[24.9292,60.1521,4.2531],[24.9333,60.1542,3.0951],[24.9562,60.1542,8.1079],[24.9641,60.1568,0.0],[24.962,60.1599,0.0],[24.9568,60.1609,9.4037],[24.9526,60.1641,22.2516],[24.9562,60.1667,0.0],[24.9604,60.1667,2.792],[24.9646,60.1646,3.9113],[24.9729,60.1646,2.5435],[24.9766,60.1682,8.9791],[24.9604,60.1688,5.9011],[24.9547,60.1714,17.9068],[24.9495,60.1766,5.1299],[24.9417,60.1771,3.0443],[24.9401,60.1786,3.2383],[24.95,60.1813,10.927],[24.9583,60.1771,0.0],[24.9609,60.1807,4.597],[24.9688,60.1833,4.7365],[24.9729,60.1833,0.0],[24.9771,60.1813,3.5298],[24.9849,60.1839,0.0],[24.9818,60.1911,3.6204],[24.9849,60.1943,0.0],[24.9849,60.1974,0.0],[24.9797,60.1984,2.0917],[24.9776,60.2005,1.1962],[24.9797,60.2057,9.066],[24.9833,60.2083,0.0],[24.9938,60.2042,9.0151],[25.0042,60.2083,0.4505],[25.0125,60.2083,0.0],[25.0182,60.2057,4.1765],[25.0141,60.2005,0.0],[25.0026,60.1974,9.8339],[25.012,60.1922,0.0],[25.0083,60.1896,13.7106],[25.0042,60.1917,0.0],[24.9964,60.187,7.3207],[25.0005,60.1818,1.6643],[25.0141,60.1797,9.6397],[25.0161,60.1818,0.0],[25.0151,60.1849,12.1569],[25.0208,60.1896,2.6278],[25.0266,60.1891,5.4083],[25.0313,60.1854,3.9485],[25.0417,60.1854,0.0],[25.0453,60.1828,0.0],[25.0453,60.1797,9.5097],[25.0438,60.1792,24.2577],[25.0396,60.1813,0.0],[25.0313,60.1813,0.0],[25.0234,60.1786,12.9583],[25.0203,60.1755,10.6567],[25.0151,60.1745,24.4703],[25.0125,60.1708,25.2292],[25.0141,60.1672,0.0],[25.0109,60.163,0.0],[25.0167,60.1625,0.0],[25.0208,60.1646,7.3979],[25.025,60.1625,0.0],[25.0292,60.1625,0.0],[25.0333,60.1646,10.7103],[25.0375,60.1646,11.7521],[25.0521,60.1583,0.0],[25.0563,60.1604,11.0565],[25.0604,60.1604,11.8809],[25.0646,60.1583,7.8922],[25.0729,60.1583,11.0738],[25.0771,60.1604,0.0],[25.0812,60.1583,6.6819],[25.0854,60.1583,0.0],[25.0896,60.1604,9.7292],[25.0974,60.1609,0.0],[25.0953,60.1641,13.6649],[25.0859,60.1672,0.0],[25.087,60.1703,0.0],[25.0854,60.1708,0.0],[25.0755,60.1703,2.0348],[25.0688,60.1646,15.3714],[25.0589,60.1651,5.8155],[25.0703,60.1693,10.0498],[25.0651,60.1714,19.6449],[25.0646,60.1729,0.0],[25.0682,60.1786,0.0],[25.063,60.1807,12.1804],[25.0688,60.1813,16.3502],[25.0729,60.1792,0.0],[25.0771,60.1792,0.0],[25.0797,60.1828,20.7461],[25.0849,60.1839,23.181],[25.087,60.187,0.0],[25.075,60.1896,0.0],[25.0734,60.1891,0.0],[25.0745,60.1859,12.1493],[25.0667,60.1833,0.0],[25.0625,60.1833,0.0],[25.0609,60.1849,10.5072],[25.063,60.187,0.0],[25.0682,60.188,7.9096],[25.0714,60.1995,5.1657],[25.077,60.1979,0.0],[25.0875,60.2021,21.4165],[25.0917,60.2021,20.4641],[25.0958,60.2,0.0],[25.0995,60.2026,0.0],[25.0984,60.2057,0.0],[25.1078,60.2068,0.0],[25.1089,60.2099,4.3548],[25.1125,60.2125,0.0],[25.1182,60.212,0.0],[25.1161,60.2068,4.8905],[25.1109,60.2057,0.0],[25.112,60.2026,32.934],[25.1068,60.2016,22.2071],[25.1016,60.1943,27.162],[25.0901,60.1901,0.0],[25.0958,60.1896,0.0],[25.1063,60.1937,4.3561],[25.1167,60.1937,0.0],[25.1208,60.1958,7.3089],[25.1271,60.1958,0.0],[25.1375,60.2,0.0],[25.1417,60.1979,0.0],[25.1542,60.2021,6.479],[25.1599,60.2016,0.0],[25.1672,60.1964,4.8618],[25.1766,60.1943,0.0],[25.1818,60.1995,13.121],[25.187,60.2005,1.4053],[25.1854,60.2021,1.2281],[25.1797,60.2026,16.9088],[25.1776,60.2057,0.0],[25.1797,60.2078,0.0],[25.1849,60.2089,0.0],[25.1839,60.2141,2.9529],[25.1953,60.2172,2.726],[25.1953,60.2203,2.0218],[25.1932,60.2224,2.0302],[25.188,60.2234,10.0194],[25.1855,60.2269,7.3869],[25.1795,60.2272,2.1108],[25.1802,60.2317,9.4189],[25.1712,60.232,0.4134],[25.1726,60.241,25.3213],[25.1635,60.2413,41.0047],[25.165,60.2503,7.2845],[25.1559,60.2506,21.944],[25.1573,60.2596,42.2174],[25.1483,60.2599,11.3122],[25.149,60.2644,34.841],[25.14,60.2648,14.0508],[25.1407,60.2692,12.0156],[25.1497,60.2689,48.0414],[25.1504,60.2733,52.2101],[25.1685,60.2727,53.5629],[25.1692,60.2771,46.7829],[25.1873,60.2764,32.5238],[25.1894,60.2899,64.9049],[25.1985,60.2895,52.3553],[25.1992,60.294,46.5873],[25.1901,60.2943,51.0368],[25.1908,60.2988,57.3939],[25.1818,60.2992,39.4012],[25.1825,60.3036,53.0859],[25.1735,60.304,58.7031],[25.1749,60.3129,65.4981],[25.1568,60.3136,61.0353],[25.1575,60.3181,35.6674],[25.1394,60.3188,62.7285],[25.1401,60.3233,35.2866],[25.122,60.324,41.5154],[25.1227,60.3285,32.9109],[25.1137,60.3288,41.4886],[25.1144,60.3333,32.0542],[25.1234,60.3329,45.8622],[25.1241,60.3374,34.0602],[25.1513,60.3364,30.4676],[25.1527,60.3453,43.2715],[25.1346,60.346,38.2002],[25.1353,60.3505,61.6771],[25.1444,60.3502,42.7932],[25.1458,60.3591,48.6795],[25.1548,60.3588,36.9697],[25.1562,60.3677,59.3269],[25.1472,60.3681,51.9292],[25.1536,60.4084,49.276],[25.1626,60.408,36.1288],[25.1641,60.417,39.6289],[25.155,60.4173,38.18],[25.1578,60.4352,64.2392],[25.1488,60.4356,36.5574],[25.1566,60.4848,61.9193],[25.1657,60.4845,55.9027],[25.1692,60.5068,43.8877],[25.2147,60.5051,64.6406],[25.214,60.5006,73.6562],[25.2322,60.4999,65.2625],[25.2315,60.4954,44.7689],[25.2406,60.495,45.6849],[25.2398,60.4906,53.8092],[25.2489,60.4902,61.4888],[25.2482,60.4857,75.9316],[25.2573,60.4854,70.2212],[25.2566,60.4809,70.3506],[25.2657,60.4806,75.7742],[25.2649,60.4761,58.3037],[25.274,60.4757,63.3542],[25.2726,60.4668,46.4073],[25.2816,60.4664,50.3581],[25.2809,60.4619,46.9185],[25.29,60.4616,60.0708],[25.2893,60.4571,46.7206],[25.2984,60.4567,55.1315],[25.2976,60.4523,69.6734],[25.3067,60.4519,65.4694],[25.306,60.4474,79.6711],[25.3151,60.4471,43.3062],[25.3143,60.4426,56.0318],[25.3234,60.4422,58.832],[25.3227,60.4378,59.0123],[25.3317,60.4374,70.4198],[25.331,60.4329,61.2987],[25.3401,60.4326,54.4269],[25.3393,60.4281,40.8451],[25.3484,60.4277,29.3805],[25.3469,60.4188,30.2531],[25.356,60.4184,37.4872],[25.3545,60.4095,63.424],[25.3636,60.4091,45.4413],[25.3629,60.4046,22.277],[25.3719,60.4043,22.2167],[25.3727,60.4087,25.6617],[25.3999,60.4076,14.3359],[25.4006,60.4121,40.1953],[25.4278,60.411,21.5018],[25.4286,60.4155,42.5229],[25.4467,60.4147,26.2537],[25.4475,60.4192,32.6858],[25.4656,60.4185,41.2897],[25.4663,60.423,11.8199],[25.4754,60.4226,11.9248],[25.4762,60.4271,17.0465],[25.4943,60.4263,26.7665],[25.4958,60.4352,38.0094],[25.5049,60.4349,36.2819],[25.5057,60.4394,38.5062],[25.5147,60.439,43.6614],[25.5155,60.4435,52.0104],[25.5064,60.4438,46.837],[25.508,60.4528,44.0736],[25.4989,60.4532,43.1263],[25.4996,60.4576,40.9085],[25.4815,60.4584,63.3532],[25.4822,60.4628,46.8258],[25.4731,60.4632,45.1079],[25.4739,60.4677,58.0954],[25.4648,60.4681,70.3721],[25.4656,60.4725,46.4301],[25.4474,60.4733,52.0465],[25.4481,60.4778,44.3591],[25.4391,60.4781,56.1237],[25.4398,60.4826,42.1724],[25.4307,60.483,60.4124],[25.4352,60.5098,63.8645],[25.4261,60.5102,73.9982],[25.4276,60.5191,57.2944],[25.4185,60.5195,62.7464],[25.4208,60.5329,64.1663],[25.4117,60.5333,79.9204],[25.4132,60.5423,83.4297],[25.4314,60.5415,73.6268],[25.4321,60.546,69.4155],[25.4504,60.5452,80.1855],[25.4511,60.5497,58.6207],[25.4693,60.549,52.3489],[25.4701,60.5535,69.2899],[25.4883,60.5527,58.7114],[25.4891,60.5572,40.105],[25.5073,60.556399999999996,47.868899999999996],[25.5103,60.5743,42.4548],[25.5194,60.574,42.1636],[25.5202,60.5784,45.3013],[25.5111,60.5788,58.3661],[25.5119,60.5833,62.8067],[25.5027,60.5837,55.9146],[25.5035,60.5881,63.3928],[25.4944,60.5885,76.659],[25.4959,60.5975,76.2159],[25.4868,60.5978,68.4165],[25.4883,60.6068,61.4595],[25.4792,60.6072,78.3126],[25.4807,60.6161,60.7454],[25.4716,60.6165,79.3119],[25.4723,60.6209,74.8312],[25.4632,60.6213,62.9018],[25.464,60.6258,82.4167],[25.4548,60.6262,62.0232],[25.4556,60.6306,61.2043],[25.4465,60.631,63.773],[25.4473,60.6355,67.3157],[25.4381,60.6359,70.1777],[25.4389,60.6403,85.9361],[25.4297,60.6407,83.7767],[25.4328,60.6586,75.4574],[25.4236,60.659,78.6195],[25.4244,60.6634,75.9103],[25.4335,60.6631,81.3744],[25.435,60.672,96.4606],[25.4442,60.6716,78.3645],[25.4449,60.6761,81.6443],[25.4541,60.6758,82.971],[25.4556,60.6847,75.3613],[25.4647,60.6843,75.2361],[25.4655,60.6888,74.2633],[25.4746,60.6884,95.3466],[25.4754,60.6929,74.7372],[25.4846,60.6925,83.8677],[25.4853,60.697,83.6744],[25.4945,60.6967,78.1575],[25.4952,60.7011,77.7955],[25.5135,60.7004,70.6646],[25.5143,60.7048,72.4412],[25.5234,60.7045,72.8006],[25.5273,60.7268,79.5611],[25.5181,60.7272,78.461],[25.5212,60.7451,88.1312],[25.512,60.7455,77.8502],[25.5136,60.7544,76.5894],[25.5044,60.7548,94.9872],[25.506,60.7638,91.0819],[25.4968,60.7641,103.3645],[25.4983,60.7731,84.0],[25.4892,60.7735,104.9302],[25.4907,60.7824,96.335],[25.4815,60.7828,110.6152],[25.4831,60.7917,100.3625],[25.4647,60.7925,82.3987],[25.4655,60.797,105.3559],[25.4563,60.7973,84.731],[25.4555,60.7929,87.6929],[25.4372,60.7936,84.9665],[25.4364,60.7891,84.4917],[25.4272,60.7895,83.5252],[25.4257,60.7805,81.3315],[25.4166,60.7809,97.2505],[25.415,60.7719,102.7265],[25.4059,60.7723,80.202],[25.4044,60.7634,88.568],[25.3952,60.7637,84.7493],[25.3937,60.7548,92.1652],[25.3295,60.7573,93.713],[25.3303,60.7618,98.3176],[25.3211,60.7622,84.1122],[25.3204,60.7577,85.1053],[25.3112,60.7581,88.7518],[25.3105,60.7536,90.703],[25.3013,60.754,94.7642],[25.302,60.7584,93.2421],[25.2929,60.7588,90.6283],[25.2943,60.7677,88.1245],[25.2852,60.7681,95.7415],[25.2867,60.777,82.7974],[25.2775,60.7774,84.0089],[25.278199999999998,60.7819,88.8014],[25.269,60.7822,91.8521],[25.2698,60.7867,89.7651],[25.2514,60.7874,107.4052],[25.2522,60.7919,86.5452],[25.243,60.7923,85.9322],[25.2437,60.7967,86.7613],[25.2346,60.7971,100.5327],[25.2353,60.8016,96.0916],[25.2261,60.8019,112.4517],[25.2268,60.806399999999996,96.2298],[25.2176,60.8068,84.3067],[25.2206,60.8247,102.139],[25.2114,60.825,108.0386],[25.2136,60.8384,94.5524],[25.1952,60.8391,90.0934],[25.1923,60.8212,98.7941],[25.1831,60.8216,91.684],[25.1824,60.8171,90.8337],[25.1089,60.8199,84.3383],[25.1067,60.8065,84.4414],[25.1159,60.8061,94.1538],[25.1152,60.8017,91.2854],[25.1244,60.8013,98.7524],[25.1237,60.7968,97.3254],[25.1329,60.7965,117.9325],[25.1321,60.792,104.4412],[25.1413,60.7917,120.0442],[25.1406,60.7872,115.7499],[25.1498,60.7868,116.8771],[25.149,60.7824,119.8118],[25.1582,60.782,122.2698],[25.1561,60.7686,107.1305],[25.1377,60.7693,78.896],[25.137,60.7648,83.4833],[25.1095,60.7659,83.7513],[25.1088,60.7614,83.3773],[25.0904,60.7621,86.6165],[25.089,60.7531,84.3146],[25.0798,60.7535,83.2756],[25.0777,60.74,87.2068],[25.0686,60.7404,93.4778],[25.0664,60.7269,111.0794],[25.0573,60.7273,94.5747],[25.0566,60.7228,130.1424],[25.0657,60.7225,114.5328],[25.0643,60.7135,98.5311],[25.0735,60.7132,109.686],[25.0749,60.7221,134.2938],[25.084,60.7218,90.4615],[25.0848,60.7262,95.4653],[25.0939,60.7259,92.5819],[25.0953,60.7349,103.0749],[25.1045,60.7345,82.2402],[25.1052,60.739,83.3029],[25.1144,60.7386,79.4764],[25.1158,60.7476,79.4202],[25.125,60.7472,80.0077],[25.1243,60.7428,89.3035],[25.1334,60.7424,83.1431],[25.1327,60.7379,86.6658],[25.1419,60.7376,93.2115],[25.1411,60.7331,91.0877],[25.1595,60.7324,102.8524],[25.1587,60.7279,98.1108],[25.1954,60.7265,102.7068],[25.1946,60.7221,109.5723],[25.1763,60.7228,108.337],[25.1756,60.7183,103.9004],[25.1481,60.7193,84.103],[25.1474,60.7149,84.1538],[25.1383,60.7152,81.7214],[25.1376,60.7107,78.1919],[25.1192,60.7114,86.8755],[25.1185,60.707,93.5514],[25.1094,60.7073,99.0358],[25.1087,60.7028,101.3153],[25.0904,60.7035,97.8431],[25.0882,60.6901,91.2018],[25.0974,60.6897,86.5169],[25.096,60.6808,98.475],[25.1051,60.6804,88.9534],[25.1037,60.6715,104.7011],[25.1128,60.6711,108.5323],[25.1114,60.6622,116.2932],[25.084,60.6632,103.2181],[25.0847,60.6677,100.5257],[25.0664,60.6684,102.8318],[25.0671,60.6729,99.3673],[25.058,60.6732,86.0],[25.0587,60.6777,107.3654],[25.0495,60.678,91.4254],[25.0502,60.6825,102.9997],[25.0045,60.6842,94.3395],[25.0038,60.6797,116.2789],[24.9672,60.6811,95.4638],[24.9665,60.6766,86.819],[24.9482,60.6773,88.9162],[24.9475,60.6728,87.9166],[24.9292,60.6735,100.7977],[24.9285,60.669,93.753],[24.9194,60.6693,116.1138],[24.9187,60.6649,100.8978],[24.9096,60.6652,126.4581],[24.9089,60.6607,126.6665],[24.8815,60.6617,143.2412],[24.8808,60.6572,139.406],[24.8351,60.6589,90.7658],[24.8364,60.6679,87.9071],[24.8181,60.6685,97.9542],[24.8188,60.673,86.3988],[24.8097,60.6733,103.2401],[24.809,60.6688,87.6403],[24.7998,60.6692,89.0354],[24.7992,60.6647,112.7657],[24.79,60.665,100.5187],[24.7893,60.6605,104.8071],[24.7802,60.6609,125.7227],[24.7795,60.6564,121.5399],[24.7704,60.6567,111.6358],[24.7697,60.6522,116.5139],[24.7514,60.6529,132.5059],[24.7508,60.6484,130.9312],[24.6777,60.651,114.3495],[24.6783,60.6554,129.3367],[24.6509,60.6564,119.7644],[24.6515,60.6609,108.1435],[24.6332,60.6615,103.0],[24.6339,60.666,103.0],[24.6156,60.6666,103.0],[24.6149,60.6621,103.0],[24.6058,60.6624,103.0],[24.6052,60.658,116.7863],[24.596,60.6583,128.0971],[24.5947,60.6493,138.9945],[24.5856,60.6496,139.3264],[24.5849,60.6451,128.6007],[24.5758,60.6455,127.5518],[24.5745,60.6365,113.3236],[24.5654,60.6368,121.0334],[24.5603,60.601,99.262],[24.5695,60.6007,95.0614],[24.5682,60.5917,137.5049],[24.5773,60.5914,130.1978],[24.576,60.5824,115.9037],[24.5852,60.5821,102.3571],[24.5839,60.5732,89.6946],[24.593,60.5728,91.0139],[24.5911,60.5594,126.0601],[24.6002,60.5591,125.3658],[24.5989,60.5501,129.2887],[24.6081,60.5498,136.0115],[24.6074,60.5453,134.0667],[24.6165,60.545,121.0038],[24.6159,60.5405,118.2268],[24.625,60.5402,115.654],[24.6244,60.5358,117.2269],[24.6335,60.5354,109.4574],[24.6322,60.5265,121.5816],[24.6413,60.5262,114.4649],[24.6407,60.5217,86.5],[24.6498,60.5214,89.4189],[24.6491,60.5169,130.8764],[24.6127,60.5181,86.5],[24.6121,60.5137,100.4277],[24.603,60.514,104.7215],[24.6023,60.5095,124.9277],[24.5841,60.5101,89.6308],[24.5835,60.5056,107.7608],[24.5744,60.506,97.341],[24.5737,60.5015,93.1127],[24.5646,60.5018,96.712],[24.564,60.4973,101.7876],[24.5549,60.4976,121.1373],[24.5537,60.4887,115.3154],[24.5446,60.489,101.1997],[24.5439,60.4845,98.0223],[24.5348,60.4848,114.8948],[24.5336,60.4758,92.6617],[24.5427,60.4755,83.121],[24.542,60.471,64.7026],[24.5693,60.4701,106.4087],[24.5674,60.4567,114.6597],[24.5765,60.4564,117.1222],[24.5753,60.4474,99.4307],[24.5843,60.4471,98.5879],[24.5812,60.4247,66.2001],[24.5903,60.4244,78.1927],[24.5871,60.402,81.3696],[24.5962,60.4017,86.0776],[24.5955,60.3972,71.8012],[24.6046,60.3969,58.5983],[24.6033,60.3879,57.3773],[24.6124,60.3876,82.1988],[24.6111,60.3787,41.2677],[24.6202,60.3783,68.9079],[24.6189,60.3694,48.9332],[24.628,60.3691,63.238],[24.6255,60.3512,89.5311],[24.6164,60.3515,99.2045],[24.6139,60.3335,92.4331],[24.6048,60.3339,96.7464],[24.6035,60.3249,90.9447],[24.5945,60.3252,107.701],[24.5939,60.3207,104.242],[24.5848,60.321,83.7833],[24.5842,60.3166,102.1504],[24.5661,60.3172,101.2734],[24.5655,60.3127,90.1047],[24.5564,60.313,86.4527],[24.557,60.3175,100.517],[24.5299,60.3184,79.1159],[24.5305,60.3229,99.2294],[24.5033,60.3238,76.8629],[24.5021,60.3149,72.8709],[24.5112,60.3145,99.8538],[24.5087,60.2966,97.7778],[24.5177,60.2963,100.2043],[24.5159,60.2829,57.5851],[24.4797,60.2841,86.1341],[24.4809,60.2931,93.6584],[24.4538,60.294,74.9235],[24.4544,60.2985,93.3005],[24.4363,60.2991,82.8254],[24.4357,60.2946,77.8515],[24.4176,60.2952,81.6723],[24.4164,60.2862,74.7192],[24.4074,60.2865,69.1391],[24.4068,60.282,74.8847],[24.3977,60.2823,65.8616],[24.3971,60.2779,57.3666],[24.3881,60.2781,63.503],[24.3869,60.2692,64.166],[24.3778,60.2695,62.0667],[24.376,60.2561,46.2232],[24.367,60.2563,61.097],[24.3664,60.2519,52.4753],[24.3574,60.2522,63.1101],[24.3568,60.2477,57.4249],[24.3387,60.2483,38.855],[24.3405,60.2617,88.112],[24.3314,60.262,56.9839],[24.3326,60.271,90.0231],[24.3236,60.2713,74.9801],[24.3248,60.2802,42.5969],[24.3157,60.2805,69.7193],[24.3169,60.2895,79.1659],[24.3079,60.2898,62.0677],[24.3085,60.2943,77.0332],[24.2994,60.2945,54.0205],[24.2988,60.2901,73.4225],[24.2898,60.2904,46.2817],[24.2892,60.2859,33.2867],[24.2802,60.2862,60.2516],[24.279,60.2772,41.1278],[24.2699,60.2775,62.1676],[24.2688,60.2685,56.0],[24.2597,60.2688,83.2504],[24.2591,60.2643,67.1067],[24.2501,60.2646,71.497],[24.2495,60.2602,83.8223],[24.2134,60.2613,66.665],[24.2122,60.2523,65.0437],[24.2032,60.2526,76.5937],[24.2026,60.2481,68.459],[24.1936,60.2484,83.8297],[24.193,60.2439,63.4125],[24.184,60.2442,81.7369],[24.1828,60.2353,55.2661],[24.1738,60.2355,43.8646],[24.1732,60.2311,29.9561],[24.1642,60.2314,26.2817],[24.1636,60.2269,39.1523],[24.1546,60.2271,24.3397],[24.154,60.2227,59.7491],[24.145,60.2229,23.6064],[24.1456,60.2274,35.2135],[24.1365,60.2277,34.0379],[24.1371,60.2322,61.3129],[24.119,60.2327,37.7421],[24.1185,60.2283,52.5597],[24.0824,60.2294,50.9289],[24.0818,60.2249,59.0407],[24.0728,60.2252,56.8613],[24.0722,60.2207,68.4213],[24.0632,60.221,54.3381],[24.0626,60.2165,58.1304],[24.0536,60.2168,51.9382],[24.0525,60.2078,72.8429],[24.0435,60.2081,54.0776],[24.0429,60.2036,62.492],[24.0339,60.2039,64.7248],[24.0333,60.1994,73.1326],[24.0243,60.1997,67.3082],[24.0232,60.1907,31.395],[24.0142,60.191,36.7477],[24.0137,60.1865,40.5884],[24.0227,60.1862,45.3082],[24.0183,60.1503,63.5967],[24.0633,60.149,29.2381],[24.0628,60.1445,31.0914],[24.1078,60.1431,31.4932],[24.1072,60.1386,31.9162],[24.1162,60.1384,33.4458],[24.1157,60.1339,33.7578],[24.1337,60.1333,44.6935],[24.132,60.1199,55.9553],[24.141,60.1196,26.2527],[24.1404,60.1151,21.416],[24.1494,60.1148,18.2095],[24.15,60.1193,19.0723],[24.159,60.119,29.4883],[24.1596,60.1235,33.1453],[24.1686,60.1232,48.3323],[24.1691,60.1277,56.8964],[24.1781,60.1274,42.3419],[24.1787,60.1319,39.6802],[24.2057,60.1311,24.1307],[24.2051,60.1266,14.5417],[24.2141,60.1263,7.0114],[24.2136,60.1218,6.4941],[24.2226,60.1215,7.6182],[24.2214,60.1125,22.4695],[24.2304,60.1123,5.7995],[24.2298,60.1078,31.628],[24.2388,60.1075,25.8226],[24.2382,60.103,18.9524],[24.2293,60.1033,37.6159],[24.2281,60.0943,19.8551],[24.2371,60.0941,15.1239],[24.2365,60.0896,36.5101],[24.2455,60.0893,23.5203],[24.2444,60.0803,19.3036],[24.2533,60.08,20.316],[24.2528,60.0756,19.8996],[24.2617,60.0753,10.681],[24.2606,60.0663,32.585],[24.2696,60.066,27.9895],[24.269,60.0615,30.8058],[24.2779,60.0607,21.8264]]],
[[[24.7172,60.0651,10.0249],[24.7203,60.0651,10.7226],[24.7203,60.0661,10.2298],[24.7188,60.0667,0.0],[24.7172,60.0651,10.0249]]],
[[[24.762,60.1047,6.4949],[24.7568,60.1036,7.6009],[24.7547,60.1005,16.7084],[24.762,60.1005,11.4722],[24.7661,60.1057,1.7342],[24.762,60.1047,6.4949]]],
[[[24.7214,60.1047,12.497],[24.7229,60.1042,8.1039],[24.7245,60.1057,13.6354],[24.7229,60.1063,15.7696],[24.7214,60.1047,12.497]]],
[[[24.7417,60.1125,10.9676],[24.7432,60.113,14.1739],[24.7432,60.1141,12.6773],[24.7401,60.1141,14.3116],[24.7417,60.1125,10.9676]]],
[[[25.0443,60.1036,8.1898],[25.0422,60.0984,9.9637],[25.0458,60.0958,6.4612],[25.0563,60.1,0.0],[25.0625,60.1,0.0],[25.0661,60.1026,1.7036],[25.0646,60.1042,4.8833],[25.0443,60.1036,8.1898]]],
[[[25.0187,60.1375,0.0],[25.0151,60.1339,20.6597],[25.0187,60.1312,0.0],[25.0224,60.1349,6.9052],[25.0187,60.1375,0.0]]],
[[[24.9964,60.1391,9.9651],[24.9974,60.1339,5.8633],[24.9964,60.1318,0.0],[24.9979,60.1312,9.1255],[25.0099,60.1339,0.0],[25.012,60.1359,0.0],[25.0063,60.1396,8.6001],[24.9964,60.1391,9.9651]]],
[[[24.9818,60.1443,8.617],[24.9849,60.1411,7.5769],[24.9839,60.138,0.0],[24.9854,60.1375,0.0],[24.9932,60.1453,6.7836],[24.9854,60.15,0.0],[24.9818,60.1474,1.7685],[24.9818,60.1443,8.617]]],
[[[24.8109,60.1297,10.6652],[24.8141,60.1297,0.3491],[24.8141,60.1307,1.7168],[24.8125,60.1312,14.9072],[24.8109,60.1297,10.6652]]],
[[[24.8896,60.1333,22.1445],[24.8818,60.1307,0.0],[24.8818,60.1297,0.0],[24.8932,60.1297,5.5528],[24.8896,60.1333,22.1445]]],
[[[24.7896,60.1312,0.0],[24.7917,60.1333,0.0],[24.7896,60.1354,15.6434],[24.7833,60.1354,16.8693],[24.7792,60.1375,0.0],[24.7755,60.1349,0.0],[24.7786,60.1328,21.9359],[24.7755,60.1286,0.0],[24.7771,60.1271,0.0],[24.7896,60.1312,0.0]]],
[[[24.913,60.138,10.5711],[24.9161,60.138,16.651],[24.9161,60.1391,13.7494],[24.913,60.1391,7.8903],[24.913,60.138,10.5711]]],
[[[25.0729,60.15,9.0834],[25.0667,60.1521,12.5715],[25.0604,60.1521,0.0],[25.0536,60.1557,17.3417],[25.0479,60.1563,0.0],[25.0453,60.1526,13.2826],[25.0318,60.1474,0.0],[25.0328,60.1422,0.0],[25.0297,60.138,10.8275],[25.0354,60.1354,2.9749],[25.0438,60.1354,0.0],[25.0479,60.1375,0.0],[25.0521,60.1375,13.7293],[25.0563,60.1354,0.0],[25.0651,60.1453,0.2997],[25.0807,60.1464,20.5847],[25.0786,60.1495,13.908],[25.0729,60.15,9.0834]]],
[[[25.013,60.1526,14.6709],[25.0146,60.1521,14.6709],[25.0161,60.1536,5.4959],[25.013,60.1536,14.3129],[25.013,60.1526,14.6709]]],
[[[25.1417,60.1583,18.0904],[25.1333,60.1583,15.9854],[25.1318,60.1568,13.7358],[25.1432,60.1568,0.0],[25.1417,60.1583,18.0904]]],
[[[25.1125,60.1542,6.4394],[25.1208,60.1542,5.7426],[25.1224,60.1557,0.0],[25.1146,60.1604,26.3157],[25.1,60.1583,20.4249],[25.0979,60.1563,16.1421],[25.1,60.1542,0.0],[25.1042,60.1563,13.602],[25.1083,60.1563,0.0],[25.1125,60.1542,6.4394]]],
[[[24.5064,59.9987,11.3458],[24.4986,60.0,5.606],[24.5008,59.9987,1.8709],[24.5014,59.9957,0.0],[24.5097,59.9946,0.0],[24.5064,59.9987,11.3458]]],
[[[24.5229,60.0167,0.0],[24.5245,60.0172,15.6166],[24.5245,60.0182,16.291],[24.5214,60.0182,0.0],[24.5229,60.0167,0.0]]],
[[[24.6437,60.1292,15.2801],[24.6396,60.1292,16.7519],[24.638,60.1276,0.0],[24.6453,60.1276,0.0],[24.6437,60.1292,15.2801]]],
[[[24.7625,60.1417,15.2745],[24.7547,60.138,0.0],[24.762,60.138,7.4285],[24.7641,60.1401,8.4786],[24.7625,60.1417,15.2745]]],
[[[24.8193,60.1464,4.2813],[24.8224,60.1464,10.1076],[24.8224,60.1474,13.1131],[24.8193,60.1474,0.0],[24.8193,60.1464,4.2813]]],
[[[24.8833,60.1646,8.2884],[24.8688,60.1646,0.0],[24.8646,60.1667,0.0],[24.8563,60.1667,0.0],[24.8526,60.163,0.0],[24.8578,60.1599,11.1089],[24.8547,60.1557,7.6698],[24.8568,60.1526,9.2146],[24.8708,60.1542,0.0],[24.8786,60.1495,11.5556],[24.8776,60.1464,12.6767],[24.8875,60.1458,6.2518],[24.8891,60.1464,10.3985],[24.888,60.1495,7.8088],[24.8896,60.1521,2.1783],[24.888,60.1557,0.0],[24.8953,60.1599,0.0],[24.8891,60.1641,4.4027],[24.8833,60.1646,8.2884]]],
[[[24.8568,60.1693,11.2447],[24.8599,60.1693,13.5872],[24.8599,60.1703,0.0],[24.8568,60.1703,7.586],[24.8568,60.1693,11.2447]]],
[[[24.8672,60.1714,3.3603],[24.8688,60.1708,3.9822],[24.8703,60.1724,5.3101],[24.8688,60.1729,6.6148],[24.8672,60.1714,3.3603]]],
[[[24.85,60.1833,0.0],[24.8464,60.1828,0.0],[24.8443,60.1797,8.5853],[24.8521,60.175,10.0663],[24.8578,60.1776,0.0],[24.8568,60.1807,6.032],[24.8589,60.1828,0.0],[24.8682,60.1859,4.0434],[24.8703,60.1891,0.0],[24.8609,60.187,13.3883],[24.8542,60.1833,0.0],[24.85,60.1833,0.0]]],
[[[24.8813,60.1833,13.5516],[24.8797,60.1818,7.3761],[24.8854,60.1771,8.2978],[24.8911,60.1818,1.0892],[24.8875,60.1854,0.0],[24.8813,60.1833,13.5516]]],
[[[24.9854,60.1771,0.0],[24.9797,60.1766,0.0],[24.9776,60.1734,0.0],[24.9891,60.1734,0.0],[24.9854,60.1771,0.0]]],
[[[24.9911,60.1818,9.8283],[24.9833,60.1813,0.0],[24.9818,60.1797,4.217],[24.9974,60.1797,8.2261],[24.9953,60.1828,4.6802],[24.9911,60.1818,9.8283]]],
[[[25.1505,60.1859,4.0235],[25.1516,60.1891,0.0],[25.1464,60.1901,15.6364],[25.1453,60.1932,16.029],[25.1396,60.1917,15.7501],[25.1339,60.1932,7.3526],[25.1339,60.1901,0.0],[25.1359,60.188,11.3725],[25.15,60.1833,0.0],[25.1516,60.1839,10.4618],[25.1505,60.1859,4.0235]]],
[[[25.088,60.1964,0.0],[25.0911,60.1964,1.6216],[25.0911,60.1974,17.493],[25.088,60.1974,2.487],[25.088,60.1964,0.0]]]]}}