{"type":"Feature","properties":{"GID_3":"FIN.5.7.3_1","GID_0":"FIN","country":"Finland","GID_1":"FIN.5_1","province":"WesternFinland","NL_NAME_1":"NA","GID_2":"FIN.5.7_1","county":"Satakunta","NL_NAME_2":"NA","city":"Rauma","VARNAME_3":"NA","NL_NAME_3":"NA","TYPE_3":"Seutukunta|Ekonomiskregion","ENGTYPE_3":"Sub-Region","CC_3":"NA","HASC_3":"FI.LS.RM","name":"Rauma.city"},
"geometry":{"type": "MultiPolygon","coordinates": [[[[21.7613,61.0172,31.018],[21.7621,61.0306,34.8032],[21.7713,61.0305,37.0705],[21.7716,61.035,34.6638],[21.8272,61.0343,34.9556],[21.827,61.0298,48.3501],[21.8177,61.0299,44.348],[21.8174,61.0254,48.1682],[21.8082,61.0255,42.2596],[21.8076,61.0166,46.4111],[21.8262,61.0163,40.6603],[21.8259,61.0118,43.1576],[21.8444,61.0116,46.3804],[21.8442,61.0071,32.6115],[21.8534,61.007,40.9834],[21.8532,61.0025,40.5152],[21.8624,61.0023,56.2479],[21.8619,60.9934,36.0019],[21.8712,60.9932,47.3497],[21.8709,60.9887,34.1171],[21.8802,60.9886,51.9102],[21.8796,60.9796,38.6393],[21.9537,60.9786,50.648],[21.952,60.9516,40.9553],[21.9428,60.9518,41.5874],[21.9425,60.9473,41.6643],[21.9518,60.9472,41.0934],[21.9512,60.9382,36.6365],[21.9604,60.938,35.7215],[21.9602,60.9336,37.3295],[21.9694,60.9334,42.611],[21.9691,60.9289,41.2424],[21.9784,60.9288,64.1855],[21.9781,60.9243,55.5692],[21.9873,60.9242,62.6453],[21.9868,60.9152,60.4956],[21.996,60.9151,60.1539],[21.9954,60.9061,56.6114],[21.9862,60.9062,55.7488],[21.9859,60.9017,56.0262],[21.9952,60.9016,52.419],[21.9949,60.8971,47.5298],[22.0133,60.8968,48.6605],[22.0136,60.9013,47.4473],[22.0783,60.9003,46.599],[22.0785,60.9048,55.2531],[22.1339,60.904,56.5766],[22.1333,60.895,62.0754],[22.1426,60.8949,62.8463],[22.142,60.8859,62.4142],[22.1512,60.8857,58.929],[22.1506,60.8768,64.3197],[22.1598,60.8766,68.9986],[22.1595,60.8721,55.702],[22.1687,60.872,53.7075],[22.169,60.8764,58.797],[22.1782,60.8763,63.471],[22.1792,60.8898,67.8369],[22.1884,60.8896,76.2345],[22.189,60.8986,50.5],[22.1982,60.8984,61.7272],[22.1989,60.9074,55.5497],[22.2081,60.9073,58.526],[22.2084,60.9118,59.0025],[22.2176,60.9116,74.9284],[22.2179,60.9161,57.6053],[22.2272,60.916,59.3227],[22.2275,60.9204,50.5],[22.2367,60.9203,65.7348],[22.237,60.9248,56.3896],[22.2648,60.9243,77.5392],[22.2651,60.9288,77.3246],[22.2558,60.929,81.5825],[22.2561,60.9335,72.4435],[22.2469,60.9336,65.1748],[22.2475,60.9426,75.5627],[22.2383,60.9427,67.007],[22.2386,60.9472,64.3364],[22.2294,60.9474,56.6627],[22.2297,60.9519,61.4072],[22.2389,60.9517,62.9325],[22.2392,60.9562,74.6565],[22.2485,60.956,70.8527],[22.2491,60.965,60.0883],[22.2584,60.9649,43.0],[22.2587,60.9694,43.0],[22.2494,60.9695,51.4773],[22.251,60.992,43.0],[22.2418,60.9921,43.0],[22.2434,61.0146,43.0],[22.2341,61.0147,43.0],[22.2357,61.0372,43.0],[22.2264,61.0373,43.0],[22.228,61.0597,43.0],[22.2187,61.0599,43.0],[22.2203,61.0823,43.0],[22.211,61.0825,43.0],[22.2122,61.1004,48.6281],[22.2215,61.1003,57.8939],[22.2218,61.1048,72.1765],[22.2311,61.1046,73.7031],[22.2314,61.1091,91.5574],[22.2407,61.109,82.7263],[22.2411,61.1135,85.0417],[22.2318,61.1136,82.686],[22.2321,61.1181,78.9658],[22.2228,61.1183,79.3827],[22.2231,61.1227,85.8171],[22.2138,61.1229,86.2952],[22.2141,61.1274,87.1568],[22.2234,61.1272,81.1702],[22.224,61.1362,74.6523],[22.2333,61.1361,92.2062],[22.234,61.1451,79.6317],[22.2247,61.1452,82.9886],[22.2263,61.1676,59.3582],[22.2169,61.1678,67.2699],[22.2173,61.1723,77.2069],[22.208,61.1724,69.9111],[22.2083,61.1769,51.2251],[22.199,61.1771,52.2998],[22.1993,61.1815,48.5696],[22.19,61.1817,57.4933],[22.1903,61.1862,48.1333],[22.181,61.1863,52.8533],[22.1813,61.1908,38.3103],[22.1719,61.191,59.9211],[22.1723,61.1955,35.5468],[22.1629,61.1956,45.9702],[22.1632,61.2001,38.8443],[22.1539,61.2002,39.4757],[22.1542,61.2048,34.8109],[22.1449,61.2049,47.801],[22.1455,61.2139,48.9726],[22.1548,61.2137,37.1705],[22.1552,61.2182,50.5329],[22.1645,61.2181,33.1452],[22.1654,61.2315,36.0807],[22.1747,61.2314,37.7085],[22.1763,61.2538,43.6473],[22.167,61.254,47.5777],[22.1673,61.2585,48.0297],[22.1579,61.2586,45.0414],[22.1582,61.2631,43.3683],[22.1302,61.2635,44.1199],[22.1305,61.268,42.8061],[22.1025,61.2685,42.5038],[22.1028,61.2729,46.3444],[22.0748,61.2734,30.0836],[22.0745,61.2689,28.547],[22.0465,61.2693,41.4206],[22.0468,61.2738,31.4614],[22.0374,61.2739,44.6356],[22.038,61.2829,40.7215],[22.0287,61.2831,50.6752],[22.0292,61.292,27.6061],[22.0199,61.2922,41.5272],[22.0205,61.3011,50.5957],[22.0111,61.3013,24.3833],[22.0117,61.3103,32.3884],[21.9836,61.3107,21.7045],[21.9834,61.3062,23.7382],[21.9647,61.3064,23.8256],[21.9644,61.302,43.5378],[21.9457,61.3022,46.8712],[21.9454,61.2977,43.6465],[21.9361,61.2979,49.8471],[21.9363,61.3024,42.7777],[21.9083,61.3027,44.5818],[21.9086,61.3072,36.7491],[21.8899,61.3075,52.7355],[21.8896,61.303,50.6704],[21.8802,61.3031,55.5694],[21.88,61.2986,58.2921],[21.8706,61.2988,54.2979],[21.8709,61.3033,62.7032],[21.8522,61.3035,59.5335],[21.8525,61.308,55.2764],[21.8431,61.3081,62.6049],[21.8434,61.3126,51.8321],[21.834,61.3128,60.3725],[21.8343,61.3172,57.0156],[21.8249,61.3174,62.9594],[21.8252,61.3219,49.3352],[21.8158,61.322,57.0171],[21.8161,61.3265,58.5437],[21.8067,61.3266,48.0128],[21.807,61.3311,51.1341],[21.7883,61.3313,49.0824],[21.7885,61.3358,45.4995],[21.7698,61.3361,53.6272],[21.769,61.3226,51.9998],[21.7597,61.3227,55.3784],[21.7592,61.3137,41.5635],[21.7498,61.3139,39.5836],[21.7491,61.3004,34.5995],[21.7304,61.3006,32.8513],[21.7302,61.2961,30.6677],[21.7114,61.2964,29.5487],[21.7112,61.2919,30.4663],[21.7019,61.292,39.9734],[21.7016,61.2875,40.826],[21.6923,61.2876,40.5543],[21.6925,61.2921,43.5117],[21.6458,61.2927,34.2487],[21.646,61.2972,43.6765],[21.618,61.2975,38.717],[21.6182,61.302,28.6293],[21.5902,61.3023,13.5414],[21.5904,61.3068,19.3353],[21.5653,61.3071,4.7791],[21.5671,61.3107,9.974],[21.5453,61.3174,4.3344],[21.5502,61.3208,4.9556],[21.5474,61.3242,0.0],[21.5453,61.3214,0.0],[21.5359,61.3203,1.0321],[21.5391,61.3172,1.5984],[21.5271,61.3167,0.0],[21.5224,61.313,0.0],[21.5172,61.312,3.6624],[21.5141,61.3089,0.0],[21.5042,61.3083,0.0],[21.4943,61.3036,0.7105],[21.4958,61.3021,0.0],[21.5078,61.2995,0.4201],[21.5141,61.2953,0.4801],[21.5109,61.2901,0.0],[21.5151,61.288,2.7247],[21.5375,61.2875,2.6712],[21.5391,61.2859,2.5013],[21.5339,61.2849,0.0],[21.5349,61.2818,0.0],[21.5333,61.2813,0.0],[21.525,61.2813,0.9032],[21.5208,61.2833,9.2584],[21.5104,61.2792,4.2267],[21.5021,61.2792,7.0165],[21.4979,61.2813,0.0],[21.4896,61.2813,6.2584],[21.4797,61.2755,0.0],[21.487,61.2745,0.5711],[21.4859,61.2714,0.0],[21.4932,61.2703,6.5793],[21.4922,61.2672,4.7573],[21.4943,61.263,8.3218],[21.5167,61.2562,0.0],[21.5266,61.2557,7.5652],[21.5234,61.2505,0.0],[21.5417,61.25,4.4269],[21.5479,61.2458,0.0],[21.5682,61.2411,1.7157],[21.5729,61.2375,0.0],[21.5771,61.2375,3.1523],[21.5938,61.2313,0.0],[21.5995,61.2307,0.3969],[21.5974,61.2276,0.0],[21.588,61.2245,6.8229],[21.5901,61.2214,3.3719],[21.5995,61.2182,0.2663],[21.5958,61.2146,0.0],[21.5901,61.2151,4.0699],[21.5812,61.2208,0.0],[21.5734,61.2214,9.416],[21.5724,61.2245,0.0],[21.5672,61.2255,8.4362],[21.5625,61.2292,0.0],[21.55,61.2292,15.0912],[21.5458,61.2313,0.0],[21.5417,61.2313,6.4389],[21.5417,61.2333,0.0],[21.5333,61.2333,0.0],[21.5292,61.2313,7.577],[21.525,61.2313,0.0],[21.5234,61.2328,0.0],[21.5286,61.2339,0.0],[21.5266,61.237,0.0],[21.5208,61.2375,8.0169],[21.5104,61.2417,0.0],[21.5021,61.2417,0.2152],[21.5005,61.2422,4.6258],[21.5016,61.2453,0.0],[21.4917,61.2479,2.5015],[21.4792,61.2479,0.0],[21.475,61.2458,1.8455],[21.4708,61.2479,2.0068],[21.4667,61.2458,3.7048],[21.4625,61.2458,10.1184],[21.4542,61.25,11.0109],[21.45,61.2479,4.3427],[21.4458,61.25,0.0],[21.4417,61.25,0.0],[21.4234,61.2432,14.1489],[21.4328,61.2391,0.855],[21.4276,61.237,7.1644],[21.4297,61.2339,0.0],[21.4438,61.2333,1.2635],[21.4479,61.2354,2.5631],[21.4583,61.2354,0.0],[21.4661,61.2307,0.9827],[21.4651,61.2276,0.0],[21.475,61.2292,17.4546],[21.4911,61.2245,0.0],[21.4901,61.2214,0.0],[21.4932,61.2203,7.8654],[21.4922,61.2172,0.0],[21.5078,61.2161,3.2098],[21.5068,61.213,4.7823],[21.512,61.2099,8.9155],[21.5099,61.2068,6.9286],[21.5042,61.2062,1.5726],[21.5026,61.2068,0.0],[21.5036,61.212,0.0],[21.5021,61.2125,7.3655],[21.4875,61.2146,3.3586],[21.4833,61.2125,0.0],[21.4771,61.2125,0.0],[21.4693,61.2151,3.8157],[21.4646,61.2188,0.0],[21.4547,61.2193,9.6891],[21.4557,61.2224,0.0],[21.4542,61.2229,13.0336],[21.4458,61.2229,11.251],[21.4417,61.225,3.6649],[21.4375,61.225,12.7981],[21.4359,61.2234,0.0],[21.438,61.2214,6.8433],[21.4438,61.2208,2.9187],[21.4453,61.2193,0.0],[21.4375,61.2167,11.4775],[21.4318,61.2182,8.4927],[21.4297,61.2151,3.5514],[21.4328,61.2141,17.7995],[21.4318,61.2109,0.0],[21.4417,61.2104,12.6079],[21.4557,61.2057,5.6833],[21.4578,61.2005,0.0],[21.4547,61.2005,3.4336],[21.4458,61.2062,10.5274],[21.4354,61.2062,15.589],[21.4083,61.2146,0.0],[21.4026,61.2078,1.8191],[21.4042,61.2062,2.833],[21.4099,61.2078,1.687],[21.4109,61.2047,0.0],[21.4203,61.2016,16.5394],[21.4255,61.1964,0.0],[21.4391,61.1932,2.4239],[21.4422,61.188,0.0],[21.4474,61.1849,3.917],[21.4464,61.1818,0.0],[21.4484,61.1776,8.1073],[21.4557,61.1724,5.5403],[21.4536,61.1693,1.7502],[21.4422,61.163,5.4178],[21.4495,61.162,11.5193],[21.4526,61.1589,4.375],[21.462,61.1557,2.8911],[21.4568,61.1536,6.1282],[21.4589,61.1505,3.319],[21.462,61.1495,3.5341],[21.4609,61.1464,0.0],[21.4786,61.1411,7.9996],[21.4688,61.1354,0.0],[21.4646,61.1375,0.0],[21.4604,61.1375,8.1478],[21.4562,61.1354,15.8908],[21.4333,61.1354,11.754],[21.4271,61.1292,3.1974],[21.4292,61.1271,3.59],[21.4396,61.1271,10.3963],[21.4438,61.125,0.0],[21.4479,61.1271,6.1033],[21.4557,61.1266,0.0],[21.4547,61.1234,12.6003],[21.4599,61.1203,13.4455],[21.462,61.1172,6.6064],[21.4526,61.1161,0.0],[21.4484,61.1089,6.4209],[21.4516,61.1078,8.7293],[21.4505,61.1047,0.0],[21.4557,61.1026,5.5652],[21.45,61.1021,11.3243],[21.4484,61.1005,13.1159],[21.4568,61.0943,0.0],[21.4703,61.0911,0.0],[21.4724,61.088,9.1689],[21.4672,61.0849,5.8327],[21.4682,61.0818,7.346],[21.4604,61.0792,10.4785],[21.4557,61.0828,1.8631],[21.4484,61.0839,9.5485],[21.4438,61.0875,0.0],[21.4313,61.0875,0.0],[21.4208,61.0833,12.5993],[21.4167,61.0833,8.8577],[21.4078,61.0891,0.0],[21.3979,61.0896,3.5935],[21.3937,61.0917,0.0],[21.3755,61.0911,10.6275],[21.3693,61.0828,7.2707],[21.3693,61.0797,0.0],[21.3708,61.0792,0.0],[21.3833,61.0792,1.7616],[21.3875,61.0812,0.499],[21.4,61.0771,0.0],[21.4146,61.0771,1.5928],[21.4266,61.0724,5.4864],[21.4214,61.0703,8.6927],[21.4208,61.0687,5.1996],[21.4229,61.0667,2.4177],[21.4307,61.0661,3.1627],[21.4255,61.0578,0.0],[21.4286,61.0547,12.2143],[21.4224,61.0464,11.6828],[21.4196,61.0458,16.5267],[21.4194,61.0436,20.8821],[21.4287,61.0435,13.3914],[21.4279,61.0256,21.9623],[21.4372,61.0255,22.146],[21.437,61.021,24.7204],[21.4462,61.0209,19.3794],[21.446,61.0164,18.7588],[21.4553,61.0163,21.6154],[21.4551,61.0118,27.2983],[21.4644,61.0117,23.9201],[21.4642,61.0072,22.3101],[21.4734,61.0071,32.2926],[21.4732,61.0026,23.948],[21.4825,61.0025,19.873],[21.4823,60.998,26.4187],[21.4915,60.9979,28.0519],[21.4917,61.0024,23.6621],[21.5381,61.0019,30.2513],[21.5383,61.0064,26.8913],[21.5846,61.0059,32.5784],[21.5848,61.0103,32.952],[21.6033,61.0101,21.2283],[21.604,61.0236,21.0204],[21.5947,61.0237,16.3952],[21.5952,61.0327,15.6696],[21.6045,61.0326,34.393],[21.6049,61.0416,18.9152],[21.6142,61.0414,20.4954],[21.6144,61.0459,19.112],[21.633,61.0457,26.2382],[21.6325,61.0367,27.4103],[21.6418,61.0366,22.9214],[21.6413,61.0276,26.0881],[21.6506,61.0275,20.24],[21.6497,61.0096,28.2695],[21.6589,61.0095,22.4636],[21.6582,60.996,11.5],[21.6767,60.9958,12.4443],[21.677,61.0003,12.3625],[21.6955,61.0,14.6019],[21.6957,61.0045,18.2406],[21.705,61.0044,31.1542],[21.7048,60.9999,28.5581],[21.7418,60.9994,43.5896],[21.7421,61.0039,31.6837],[21.7513,61.0038,36.5737],[21.7516,61.0083,40.3761],[21.7608,61.0082,39.8087],[21.7611,61.0127,34.3825],[21.7703,61.0126,34.8955],[21.7706,61.017,34.5752],[21.7613,61.0172,31.018]]],
[[[21.4391,61.1224,10.6664],[21.4359,61.1224,9.847],[21.4359,61.1214,9.3576],[21.4375,61.1208,14.0458],[21.4391,61.1224,10.6664]]],
[[[21.4458,61.1458,15.4335],[21.4422,61.1443,0.0],[21.4536,61.1443,5.9829],[21.4521,61.1458,0.0],[21.4458,61.1458,15.4335]]],
[[[21.4411,61.1578,10.1013],[21.4396,61.1583,13.0423],[21.438,61.1568,0.0],[21.4411,61.1568,0.0],[21.4411,61.1578,10.1013]]],
[[[21.4391,61.1661,0.0],[21.4359,61.1661,10.17],[21.4359,61.1651,9.437],[21.4391,61.1651,0.0],[21.4391,61.1661,0.0]]],
[[[21.5333,61.2354,1.1746],[21.5417,61.2354,1.7278],[21.5417,61.2333,0.0],[21.5453,61.2339,0.0],[21.5417,61.2375,0.0],[21.5318,61.237,4.6237],[21.5333,61.2354,1.1746]]],
[[[21.4922,61.2922,1.8934],[21.4958,61.2896,2.7595],[21.5016,61.2901,0.8432],[21.4979,61.2938,0.0],[21.4938,61.2938,5.6559],[21.4922,61.2922,1.8934]]],
[[[21.4146,61.2354,16.6038],[21.413,61.2339,6.1516],[21.4161,61.2339,13.4699],[21.4161,61.2349,18.421],[21.4146,61.2354,16.6038]]],
[[[21.4922,61.2953,6.0275],[21.4932,61.2974,13.6675],[21.4896,61.3,0.6748],[21.4792,61.3,14.361],[21.475,61.2979,16.664],[21.4708,61.3,6.63],[21.4651,61.2995,1.3294],[21.4708,61.2958,4.4153],[21.4792,61.2958,8.6154],[21.4833,61.2979,17.3977],[21.4849,61.2974,18.6856],[21.4839,61.2943,3.9734],[21.4854,61.2938,3.9734],[21.4922,61.2953,6.0275]]],
[[[21.4146,61.0625,1.8498],[21.4161,61.0641,0.0],[21.4083,61.0667,0.0],[21.4047,61.0641,5.7797],[21.4063,61.0625,3.0681],[21.4146,61.0625,1.8498]]],
[[[21.3974,61.0682,13.7794],[21.3958,61.0687,13.7794],[21.3943,61.0672,0.0],[21.3974,61.0672,2.9319],[21.3974,61.0682,13.7794]]],
[[[21.3661,61.137,12.524],[21.3646,61.1375,14.0924],[21.363,61.1359,8.719],[21.3646,61.1354,10.2963],[21.3661,61.137,12.524]]],
[[[21.325,61.1458,3.114],[21.3214,61.1443,0.0],[21.3271,61.1437,0.0],[21.3307,61.1474,0.5931],[21.3292,61.1479,0.9866],[21.325,61.1458,3.114]]],
[[[21.4151,61.1682,14.0481],[21.413,61.1651,0.0],[21.4292,61.1646,0.0],[21.4313,61.1667,2.6933],[21.4292,61.1688,0.5302],[21.4151,61.1682,14.0481]]],
[[[21.4282,61.1729,16.064],[21.4255,61.1714,2.8493],[21.4391,61.1714,0.1114],[21.4375,61.1729,0.0],[21.4282,61.1729,16.064]]],
[[[21.4141,61.1745,12.869],[21.4182,61.1734,10.894],[21.4245,61.1776,0.0],[21.4286,61.1828,0.0],[21.4229,61.1833,13.305],[21.4161,61.1776,15.3341],[21.4068,61.1766,3.769],[21.4083,61.175,0.0],[21.4141,61.1745,12.869]]],
[[[21.4193,61.187,0.0],[21.4172,61.1839,4.5933],[21.4203,61.1839,0.0],[21.4224,61.1859,1.719],[21.4193,61.187,0.0]]],
[[[21.387,61.1661,9.6469],[21.3839,61.1661,2.7225],[21.3839,61.1651,5.1234],[21.387,61.1651,6.9555],[21.387,61.1661,9.6469]]],
[[[21.3958,61.2125,4.7829],[21.3854,61.2167,0.0],[21.3792,61.2146,0.0],[21.363,61.2141,0.0],[21.3682,61.2099,5.5243],[21.3703,61.2047,11.1168],[21.3609,61.2036,0.0],[21.3583,61.2,10.4761],[21.3599,61.1964,13.0149],[21.3479,61.1958,10.9027],[21.3438,61.1937,14.1269],[21.3375,61.1937,8.4601],[21.3359,61.1922,4.6238],[21.3495,61.187,0.0],[21.3443,61.1839,5.7559],[21.3495,61.1807,2.7893],[21.3484,61.1776,6.9725],[21.3505,61.1755,13.0975],[21.3563,61.1729,0.0],[21.3703,61.1734,0.0],[21.3734,61.1766,5.0108],[21.3786,61.1776,9.5275],[21.3813,61.1813,1.9471],[21.4042,61.1813,0.0],[21.412,61.1839,0.0],[21.4026,61.188,0.0],[21.3958,61.1937,0.0],[21.3833,61.1937,6.5791],[21.3792,61.1958,0.3709],[21.3734,61.1943,14.1588],[21.3734,61.1974,2.3551],[21.3849,61.2005,4.4317],[21.3922,61.2057,6.55],[21.3974,61.2068,0.0],[21.4,61.2104,12.6641],[21.3995,61.212,0.0],[21.3958,61.2125,4.7829]]],
[[[21.3578,61.2057,1.2814],[21.3547,61.2057,1.7578],[21.3547,61.2047,6.039],[21.3578,61.2047,9.1431],[21.3578,61.2057,1.2814]]],
[[[21.4068,61.2193,6.7406],[21.4125,61.2167,17.3256],[21.4146,61.2188,10.5917],[21.4125,61.2208,6.856],[21.4083,61.2208,11.0943],[21.4068,61.2193,6.7406]]],
[[[21.3813,61.2583,1.7288],[21.3797,61.2568,1.2245],[21.3891,61.2568,0.0],[21.3875,61.2583,1.8124],[21.3813,61.2583,1.7288]]],
[[[21.3625,61.2667,2.5081],[21.3609,61.2651,0.3024],[21.3641,61.2651,0.0],[21.3641,61.2661,2.1974],[21.3625,61.2667,2.5081]]]]}}