{"type":"Feature","properties":{"featurecla":"River","scalerank":6,"rivernum":361,"dissolve":"361River","name":"Kokemenjoki","name_alt":null,"note":null,"min_zoom":5.0,"strokeweig":0.25,"name_en":"Kokemenjoki","min_label":6.0},
"geometry":{"type": "LineString","coordinates": [[21.71630859375,61.51947662968162,2.4116],[21.733056640625023,61.50726959843162,1.5509],[21.75244140625,61.49750397343162,0.8114],[21.774169921875,61.49017975468162,2.8229],[21.828759765625023,61.480243231244117,3.0336],[21.839013671875023,61.47431061405662,4.6555],[21.846093750000023,61.43695709843162,6.4817],[21.863916015625023,61.41693756718162,11.8292],[21.8994140625,61.39203522343162,48.494],[21.940185546875,61.37079498905662,45.853],[22.039453125000023,61.33905670780662,19.6522],[22.075927734375,61.321063543744117,30.0202],[22.125878906250023,61.30829498905662,32.9985],[22.16455078125,61.28558991093162,56.2783],[22.194238281250023,61.278094793744117,57.4787],[22.25048828125,61.273065496869123,36.0246],[22.275146484375,61.268085028119117,37.1007],[22.3212890625,61.24787018436912,42.1327],[22.346923828125,61.245721746869123,40.8314],[22.342041015625,61.250604559369123,39.3394],[22.333398437500023,61.265643621869117,34.446],[22.341552734375,61.26483795780662,41.7373],[22.359033203125023,61.26605866093162,37.8305],[22.367431640625,61.265643621869117,37.1702],[22.358544921875023,61.27631256718162,43.4868],[22.343505859375,61.29071686405662,58.8377],[22.33349609375,61.306415106244117,43.6148],[22.339599609375,61.32086823124412,56.8886],[22.352441406250023,61.318231512494123,48.8206],[22.401611328125,61.273065496869123,62.5225],[22.4267578125,61.265155340619117,51.831],[22.4794921875,61.25543854374412,45.1411],[22.565332031250023,61.21613190311912,53.3621],[22.5791015625,61.21100494999412,49.2556]]}}