{"type": "Feature","bbox": [22.5609,61.0,23.3787,61.7253],"geometry": {"type": "MultiPolygon","coordinates": [[[[23.0052,61.0268,83.3913],[23.0144,61.0266,84.9516],[23.014,61.0222,87.1291],[23.0233,61.0219,89.7535],[23.0237,61.0264,95.9729],[23.0422,61.026,92.4265],[23.0426,61.0305,117.4905],[23.0704,61.0299,114.0993],[23.0709,61.0344,116.9602],[23.1542,61.0325,96.5818],[23.1534,61.0235,116.059],[23.1626,61.0233,107.9378],[23.1613,61.0098,99.6923],[23.1705,61.0096,102.643],[23.1701,61.0051,102.6727],[23.1886,61.0047,104.0429],[23.1882,61.0002,103.9486],[23.1974,61.0,123.6446],[23.1978,61.0045,119.8245],[23.2164,61.004,118.2929],[23.2168,61.0085,120.226],[23.2631,61.0074,91.9551],[23.2659,61.0343,98.1517],[23.2751,61.0341,95.8078],[23.2765,61.0476,144.1749],[23.2858,61.0474,122.5],[23.2867,61.0563,119.4842],[23.2682,61.0568,103.1731],[23.2686,61.0612,108.633],[23.2501,61.0617,106.5038],[23.2505,61.0662,111.8208],[23.232,61.0666,120.1613],[23.2325,61.0711,98.0127],[23.2603,61.0704,109.6449],[23.2607,61.0749,108.9481],[23.2886,61.0742,120.465],[23.2895,61.0832,117.7276],[23.2524,61.0841,111.5803],[23.2542,61.1021,88.5202],[23.2357,61.1025,83.2978],[23.237,61.116,85.9657],[23.2463,61.1157,93.8066],[23.2468,61.1202,102.8568],[23.2561,61.12,91.6203],[23.2556,61.1155,90.5901],[23.3113,61.1142,120.4103],[23.3118,61.1187,96.5725],[23.3304,61.1182,101.3197],[23.3308,61.1227,113.7003],[23.3494,61.1222,112.0285],[23.3499,61.1267,114.8009],[23.3778,61.126,124.8477],[23.3787,61.135,107.7085],[23.3694,61.1352,113.6169],[23.3699,61.1397,108.9971],[23.3606,61.1399,127.1807],[23.3611,61.1444,112.722],[23.3518,61.1447,117.5683],[23.3523,61.1492,124.1564],[23.343,61.1494,127.6483],[23.3434,61.1539,123.8701],[23.3342,61.1541,113.6965],[23.3346,61.1586,114.9843],[23.316,61.159,116.1252],[23.3165,61.1635,108.9265],[23.3072,61.1637,112.7584],[23.3077,61.1682,103.8356],[23.2984,61.1684,104.6782],[23.2988,61.1729,107.8693],[23.2802,61.1734,106.7152],[23.2807,61.1779,104.435],[23.2621,61.1783,112.8557],[23.2649,61.2052,105.5615],[23.2742,61.205,110.786],[23.2774,61.2364,136.8747],[23.2868,61.2362,134.8928],[23.2924,61.29,129.4542],[23.283,61.2902,136.6297],[23.284,61.2992,136.3816],[23.2746,61.2994,130.6829],[23.2756,61.3084,119.964],[23.2662,61.3086,132.982],[23.2667,61.3131,128.6332],[23.2574,61.3133,117.5582],[23.2578,61.3178,117.6768],[23.2485,61.318,132.3813],[23.2489,61.3225,115.9414],[23.2302,61.323,124.356],[23.2307,61.3274,128.342],[23.2213,61.3277,133.7938],[23.2218,61.3322,122.1189],[23.2312,61.3319,137.5372],[23.2321,61.3409,124.2302],[23.2414,61.3407,132.9894],[23.2424,61.3497,135.067],[23.2517,61.3494,140.9348],[23.2527,61.3584,123.6642],[23.2433,61.3586,128.0479],[23.2442,61.3676,145.5822],[23.2349,61.3678,130.5738],[23.2358,61.3768,127.9567],[23.2264,61.377,147.7007],[23.2278,61.3905,139.2699],[23.2184,61.3907,120.2814],[23.2194,61.3997,123.1177],[23.21,61.3999,137.337],[23.2109,61.4089,133.0748],[23.2015,61.4091,125.0715],[23.2025,61.418,136.4333],[23.1931,61.4183,127.4797],[23.1944,61.4317,56.5],[23.1851,61.4319,56.5],[23.1864,61.4454,56.5],[23.1958,61.4452,56.5],[23.1963,61.4496,56.5],[23.2057,61.4494,56.5],[23.2061,61.4539,56.5],[23.1967,61.4542,56.5],[23.1972,61.4586,56.5],[23.1878,61.4589,69.7606],[23.1874,61.4544,82.6834],[23.1592,61.455,90.893],[23.1596,61.4595,88.6647],[23.1409,61.4599,79.0627],[23.1418,61.4689,136.8216],[23.1699,61.4683,110.7882],[23.1704,61.4727,127.3816],[23.208,61.4719,84.5544],[23.2121,61.5122,129.4626],[23.2027,61.5125,110.4407],[23.2041,61.5259,127.3793],[23.1947,61.5261,123.8729],[23.1961,61.5396,137.0093],[23.0737,61.5424,122.853],[23.0746,61.5513,120.7207],[23.0652,61.5516,128.6811],[23.066,61.5605,115.3556],[23.0566,61.5607,115.9715],[23.0575,61.5697,118.8534],[23.0669,61.5695,139.0247],[23.0678,61.5785,106.8029],[23.0772,61.5783,108.2959],[23.0781,61.5872,98.5775],[23.0687,61.5875,100.1361],[23.0691,61.5919,100.5542],[23.0503,61.5924,86.2247],[23.0507,61.5968,96.3203],[23.0319,61.5973,87.975],[23.0323,61.6017,92.2299],[23.0229,61.602,95.9952],[23.0224,61.5975,104.2841],[23.013,61.5977,110.0543],[23.0126,61.5932,102.7891],[23.0031,61.5934,120.7339],[23.0027,61.5889,102.3198],[22.9933,61.5891,120.5337],[22.9928,61.5846,106.0006],[22.974,61.585,96.7346],[22.9744,61.5895,113.9659],[22.965,61.5897,100.2008],[22.9654,61.5942,98.9151],[22.956,61.5944,94.3346],[22.9555,61.5899,106.8342],[22.9461,61.5901,103.426],[22.9457,61.5856,109.4731],[22.9363,61.5858,105.6574],[22.9367,61.5903,111.4412],[22.9272,61.5905,132.2425],[22.9277,61.595,128.6972],[22.9182,61.5952,134.8983],[22.9187,61.5997,125.7503],[22.9092,61.5999,132.7593],[22.9096,61.6044,131.972],[22.9002,61.6046,129.3661],[22.9006,61.6091,128.4681],[22.8912,61.6093,129.2409],[22.8916,61.6137,125.5872],[22.8822,61.6139,116.886],[22.8826,61.6184,113.4037],[22.8637,61.6188,101.3973],[22.8641,61.6233,99.9611],[22.8547,61.6235,98.6276],[22.8551,61.628,109.011],[22.8457,61.6282,93.3633],[22.8469,61.6416,110.8265],[22.8374,61.6418,103.5003],[22.8387,61.6553,124.1253],[22.8292,61.6555,117.7138],[22.8309,61.6734,125.6395],[22.8214,61.6736,135.8347],[22.8218,61.6781,125.6373],[22.8124,61.6783,133.9787],[22.8128,61.6828,132.1513],[22.8033,61.683,109.4178],[22.8037,61.6875,122.9658],[22.7848,61.6879,120.8741],[22.7852,61.6923,112.8398],[22.7663,61.6927,111.6587],[22.7667,61.6972,100.7887],[22.7477,61.6976,115.1845],[22.7485,61.7066,124.2675],[22.7391,61.7067,119.8412],[22.7395,61.7112,115.6054],[22.73,61.7114,122.5007],[22.7304,61.7159,118.0612],[22.7209,61.7161,122.8987],[22.7217,61.7251,125.5075],[22.7122,61.7253,114.7749],[22.7115,61.7163,119.1361],[22.702,61.7165,123.2211],[22.7012,61.7075,124.6454],[22.6917,61.7077,121.6404],[22.691,61.6987,107.4919],[22.6626,61.6992,122.0258],[22.6622,61.6948,114.95],[22.6527,61.6949,111.6408],[22.6496,61.659,125.2971],[22.6591,61.6589,118.2061],[22.6587,61.6544,109.5],[22.6682,61.6542,110.0],[22.6685,61.6587,113.0631],[22.6875,61.6583,130.8053],[22.689,61.6763,112.7486],[22.6985,61.6761,127.1732],[22.6981,61.6716,111.5905],[22.717,61.6712,107.2904],[22.7166,61.6667,113.4171],[22.726,61.6665,107.9643],[22.7233,61.6351,102.5434],[22.7138,61.6353,112.4993],[22.713,61.6264,111.3014],[22.6942,61.6267,121.5213],[22.6946,61.6312,118.4617],[22.6851,61.6314,115.3411],[22.6855,61.6359,119.0587],[22.6666,61.6362,116.8544],[22.6662,61.6318,115.9681],[22.6757,61.6316,115.4686],[22.6749,61.6226,114.2355],[22.6843,61.6224,123.61],[22.6836,61.6134,113.4429],[22.693,61.6133,110.4593],[22.6915,61.5953,109.5178],[22.682,61.5955,107.0053],[22.6816,61.591,110.1329],[22.6628,61.5914,119.0949],[22.6624,61.5869,114.4652],[22.653,61.5871,120.2081],[22.6526,61.5826,113.7459],[22.6431,61.5828,78.6768],[22.6416,61.5648,92.7258],[22.6322,61.565,72.407],[22.6318,61.5605,84.8939],[22.6224,61.5607,80.8433],[22.622,61.5562,74.8757],[22.6032,61.5565,77.1709],[22.6028,61.552,76.1557],[22.5934,61.5522,72.7747],[22.593,61.5477,85.9036],[22.5836,61.5479,85.8174],[22.5832,61.5434,78.3973],[22.5926,61.5433,76.691],[22.5922,61.5388,75.2027],[22.6017,61.5386,75.9453],[22.6009,61.5296,65.8837],[22.6103,61.5294,77.5774],[22.6096,61.5205,76.6269],[22.619,61.5203,74.0175],[22.6182,61.5113,74.1018],[22.6276,61.5111,83.0212],[22.6273,61.5066,81.7741],[22.6367,61.5065,78.2683],[22.6359,61.4975,79.0239],[22.6453,61.4973,65.7631],[22.6446,61.4883,74.8015],[22.6539,61.4881,63.24],[22.653199999999998,61.4792,61.7848],[22.7284,61.4777,116.2713],[22.7268,61.4598,104.9022],[22.7174,61.4599,99.7313],[22.7166,61.451,92.8078],[22.726,61.4508,104.9598],[22.7249,61.4373,94.205],[22.7342,61.4371,102.0621],[22.7338,61.4326,89.8122],[22.7151,61.433,95.9549],[22.7147,61.4285,91.8346],[22.6771,61.4292,91.5453],[22.6768,61.4248,80.4383],[22.6674,61.4249,74.4124],[22.667,61.4205,80.6635],[22.6764,61.4203,92.2535],[22.6752,61.4068,90.4683],[22.6565,61.4072,90.9779],[22.6561,61.4027,77.361],[22.6374,61.403,94.0582],[22.6358,61.3851,83.1687],[22.6265,61.3853,93.0489],[22.6268,61.3898,93.6545],[22.5987,61.3903,117.092],[22.5991,61.3948,104.6754],[22.5616,61.3955,67.3247],[22.5609,61.3865,97.9195],[22.5702,61.3863,102.205],[22.5691,61.3729,95.8913],[22.5785,61.3727,84.9995],[22.5774,61.3592,103.626],[22.5868,61.3591,104.8329],[22.5856,61.3456,92.5056],[22.595,61.3454,103.8802],[22.5946,61.3409,113.5063],[22.5853,61.3411,97.0622],[22.5849,61.3366,99.5915],[22.5756,61.3368,85.1883],[22.5752,61.3323,94.2684],[22.5658,61.3325,98.8751],[22.5655,61.328,96.2895],[22.5748,61.3278,83.7389],[22.5741,61.3189,85.5067],[22.5834,61.3187,93.8589],[22.5831,61.3142,92.9125],[22.5924,61.314,96.841],[22.592,61.3095,91.6012],[22.6014,61.3093,87.9277],[22.601,61.3049,92.612],[22.6104,61.3047,91.5524],[22.6096,61.2957,82.2686],[22.619,61.2955,89.7625],[22.6182,61.2865,58.5331],[22.6276,61.2864,88.1928],[22.6268,61.2774,49.9441],[22.6362,61.2772,50.0504],[22.635,61.2638,61.1916],[22.6444,61.2636,49.0935],[22.6432,61.2501,45.9592],[22.6526,61.2499,44.7363],[22.6522,61.2454,41.0],[22.7548,61.2434,69.2749],[22.7552,61.2479,95.4674],[22.7738,61.2475,85.9882],[22.7735,61.243,89.8677],[22.8014,61.2425,88.9795],[22.801,61.238,81.1903],[22.8197,61.2376,86.4671],[22.8193,61.2331,77.0237],[22.8752,61.2319,83.5367],[22.8748,61.2275,76.4617],[22.8841,61.2273,77.1725],[22.8833,61.2183,71.6077],[22.902,61.2179,78.6885],[22.9016,61.2134,74.2264],[22.9202,61.213,75.4607],[22.9198,61.2085,72.9878],[22.9384,61.2081,74.5077],[22.9376,61.1992,84.6798],[22.9469,61.199,75.7382],[22.9456,61.1855,79.5061],[22.9549,61.1853,77.8503],[22.9541,61.1763,101.7412],[22.9169,61.1771,85.5648],[22.9156,61.1637,103.2707],[22.9249,61.1635,103.2093],[22.9228,61.141,73.7371],[22.9322,61.1408,67.2577],[22.9317,61.1363,79.7042],[22.941,61.1361,66.2314],[22.9398,61.1227,112.7487],[22.9584,61.1223,113.4615],[22.9579,61.1178,105.0202],[22.9765,61.1174,101.1859],[22.9761,61.1129,99.3238],[22.9668,61.1131,105.4869],[22.9664,61.1086,103.959],[22.9571,61.1088,107.9595],[22.9567,61.1043,110.0725],[22.9474,61.1045,106.3227],[22.947,61.1,114.1196],[22.9377,61.1003,101.0782],[22.9373,61.0958,104.1898],[22.928,61.096,105.7363],[22.9276,61.0915,88.1277],[22.9183,61.0917,89.2775],[22.9175,61.0827,87.5731],[22.9268,61.0825,86.0299],[22.9263,61.078,87.4442],[22.9356,61.0778,85.2937],[22.9352,61.0733,93.2187],[22.9445,61.0731,84.4547],[22.9449,61.0776,83.7458],[22.9634,61.0772,89.0442],[22.9639,61.0817,103.7632],[22.9824,61.0813,95.6374],[22.9828,61.0858,99.4326],[23.0014,61.0854,90.9498],[23.0006,61.0764,97.8323],[23.0098,61.0762,91.9748],[23.0094,61.0717,97.4757],[22.9909,61.0721,87.7018],[22.9904,61.0676,98.5084],[22.9812,61.0678,91.8768],[22.9807,61.0633,82.2918],[22.9715,61.0635,84.01],[22.9711,61.0591,83.1759],[22.9618,61.0593,78.8731],[22.9609,61.0503,88.3268],[22.9702,61.0501,97.0598],[22.9694,61.0411,77.765],[22.9786,61.0409,76.3398],[22.9782,61.0364,83.5179],[22.9875,61.0362,79.6722],[22.9871,61.0317,83.6274],[23.0056,61.0313,83.1454],[23.0052,61.0268,83.3913]]]]}
,"properties": {"GID_3": "FIN.5.6.4_1","GID_0": "FIN","country": "Finland","GID_1": "FIN.5_1","province": "WesternFinland","NL_NAME_1": "NA","GID_2": "FIN.5.6_1","county": "Pirkanmaa","NL_NAME_2": "NA","city": "SouthWesternPirkanm","VARNAME_3": "NA","NL_NAME_3": "NA","TYPE_3": "Seutukunta|Ekonomiskregion","ENGTYPE_3": "Sub-Region","CC_3": "NA","HASC_3": "NA","name": "South_Western_Pirkanm.city","area_km2": 1744.1,"hist_schema_id": "Elevation0-9000","hist_area_km2": {"50": 112.419,"75": 363.894,"100": 796.061,"125": 444.972,"150": 26.44,"175": 0.314}}}