{"type":"Feature","properties":{"GID_3":"FIN.5.6.3_1","GID_0":"FIN","country":"Finland","GID_1":"FIN.5_1","province":"WesternFinland","NL_NAME_1":"NA","GID_2":"FIN.5.6_1","county":"Pirkanmaa","NL_NAME_2":"NA","city":"SouthEasternPirkanm","VARNAME_3":"NA","NL_NAME_3":"NA","TYPE_3":"Seutukunta|Ekonomiskregion","ENGTYPE_3":"Sub-Region","CC_3":"NA","HASC_3":"NA","name":"South_Eastern_Pirkanm.city"},
"geometry":{"type": "MultiPolygon","coordinates": [[[[24.8565,61.4686,106.5],[24.8579,61.4776,106.5],[24.8673,61.4773,106.5],[24.8666,61.4728,106.5],[24.8853,61.4721,106.5],[24.8846,61.4676,106.5],[24.9128,61.4666,106.5],[24.912,61.4622,134.5574],[24.9308,61.4615,125.081],[24.9301,61.457,106.5],[24.9582,61.456,150.7855],[24.9596,61.465,135.4882],[24.9503,61.4653,130.0991],[24.951,61.4698,136.7696],[24.9416,61.4701,130.2935],[24.9423,61.4746,128.738],[24.9329,61.4749,106.5],[24.935,61.4884,117.5283],[24.9257,61.4887,106.5],[24.9306,61.5201,143.7626],[24.94,61.5197,152.9028],[24.9429,61.5376,153.8196],[24.9335,61.538,155.8586],[24.9342,61.5424,150.941],[24.8778,61.5444,128.0],[24.8785,61.5489,128.0],[24.8879,61.5486,141.3728],[24.8886,61.5531,150.3042],[24.898,61.5527,143.7019],[24.8987,61.5572,158.5651],[24.9081,61.5569,161.1941],[24.9088,61.5614,157.2688],[24.9182,61.561,149.9872],[24.9225,61.5879,155.8328],[24.9131,61.5882,158.365],[24.9138,61.5927,156.9228],[24.8949,61.5934,154.1787],[24.8956,61.5979,155.7868],[24.8862,61.5982,142.3253],[24.8855,61.5937,127.4072],[24.8761,61.594,132.9349],[24.8754,61.5896,140.4531],[24.866,61.5899,116.4361],[24.8653,61.5854,100.5],[24.8559,61.5857,100.5],[24.8531,61.5678,103.5],[24.8437,61.5682,106.4179],[24.8415,61.5547,121.1087],[24.8133,61.5557,121.267],[24.814,61.5602,146.8088],[24.7576,61.5621,173.6181],[24.7583,61.5666,185.8615],[24.7489,61.5669,200.4204],[24.7475,61.558,167.5821],[24.7381,61.5583,168.0995],[24.7333,61.527,134.0056],[24.7051,61.5279,116.619],[24.7058,61.5324,125.006],[24.6682,61.5337,136.4396],[24.6669,61.5247,120.5802],[24.6575,61.525,97.4266],[24.6568,61.5205,90.9433],[24.6474,61.5209,92.7815],[24.6461,61.5119,91.4506],[24.6273,61.5125,82.0],[24.6279,61.517,85.7541],[24.6185,61.5173,82.0],[24.6192,61.5218,82.0],[24.6098,61.5221,82.0],[24.6105,61.5266,82.0],[24.6011,61.5269,82.0],[24.6017,61.5314,82.0],[24.5829,61.532,82.0],[24.5823,61.5275,82.0],[24.5541,61.5285,82.0],[24.5547,61.533,82.0],[24.5453,61.5333,82.0],[24.546,61.5378,82.0],[24.5272,61.5384,82.0],[24.5278,61.5428,82.0],[24.509,61.5435,82.0],[24.5097,61.548,82.0],[24.4532,61.5498,82.0],[24.4526,61.5453,82.0],[24.3962,61.5471,82.0],[24.3955,61.5426,82.0],[24.3767,61.5432,82.0],[24.3761,61.5387,82.0],[24.3573,61.5393,82.0],[24.3566,61.5349,82.0],[24.3378,61.5354,82.0],[24.3372,61.531,82.0],[24.309,61.5318,82.0],[24.3084,61.5274,82.0],[24.2896,61.528,82.0],[24.289,61.5235,82.0],[24.2796,61.5238,82.0],[24.2789,61.5193,82.0],[24.2696,61.5196,82.0],[24.2689,61.5151,82.0],[24.2595,61.5154,82.0],[24.2583,61.5064,82.0],[24.2489,61.5067,82.0],[24.2483,61.5022,82.0],[24.2389,61.5025,83.3683],[24.2383,61.498,82.0],[24.2289,61.4983,82.0],[24.2259,61.4759,82.0],[24.2353,61.4756,99.8608],[24.2346,61.4711,82.0],[24.244,61.4709,104.7883],[24.2434,61.4664,119.1793],[24.2528,61.4661,130.1845],[24.2522,61.4616,115.4287],[24.271,61.461,153.3523],[24.2697,61.4521,126.8138],[24.2791,61.4518,128.2024],[24.2779,61.4428,142.2812],[24.2873,61.4425,137.8117],[24.2836,61.4156,101.8044],[24.2929,61.4153,89.4704],[24.2905,61.3974,104.9907],[24.2718,61.398,86.9146],[24.2712,61.3935,87.9857],[24.2524,61.3941,90.5264],[24.2518,61.3896,123.8105],[24.2425,61.3899,96.1276],[24.2418,61.3854,107.1545],[24.2231,61.386,136.3949],[24.2225,61.3815,140.6389],[24.2038,61.3821,144.0047],[24.2032,61.3776,146.0917],[24.1845,61.3782,99.7831],[24.1839,61.3737,86.742],[24.1652,61.3743,83.519],[24.1646,61.3698,82.0],[24.1459,61.3703,92.5627],[24.1453,61.3659,90.9083],[24.1266,61.3664,97.1185],[24.126,61.3619,95.6011],[24.1073,61.3625,82.0],[24.1067,61.358,103.5453],[24.0973,61.3583,82.0],[24.0968,61.3538,82.0],[24.1061,61.3535,82.0],[24.1049,61.3446,82.0],[24.0956,61.3449,82.0],[24.0944,61.3359,83.8278],[24.0851,61.3362,82.0],[24.0839,61.3272,82.0],[24.0932,61.3269,84.5925],[24.0926,61.3224,82.0],[24.102,61.3222,82.0],[24.1008,61.3132,82.0],[24.0915,61.3135,82.0],[24.0886,61.2911,82.0],[24.1072,61.2905,82.0],[24.1066,61.286,82.0],[24.1253,61.2855,82.0],[24.1247,61.281,82.0],[24.134,61.2807,82.0],[24.1335,61.2762,82.0],[24.1428,61.2759,82.0],[24.1422,61.2715,82.0],[24.1608,61.2709,82.0],[24.1602,61.2664,82.0],[24.1789,61.2658,82.0],[24.1783,61.2614,91.8885],[24.2342,61.2596,97.94],[24.2337,61.2552,109.0709],[24.243,61.2549,139.244],[24.2424,61.2504,129.3189],[24.261,61.2498,96.4545],[24.2604,61.2453,99.9522],[24.279,61.2448,97.2967],[24.2784,61.2403,95.4951],[24.2877,61.24,95.0117],[24.2871,61.2355,109.6261],[24.3244,61.2343,125.9597],[24.325,61.2388,117.5423],[24.3436,61.2382,127.4567],[24.3443,61.2427,134.4974],[24.3629,61.2421,119.4799],[24.3635,61.2466,83.0],[24.3914,61.2457,83.0],[24.3921,61.2502,83.0],[24.4107,61.2496,83.0],[24.4113,61.2541,106.5139],[24.43,61.2534,122.4525],[24.4306,61.2579,116.2081],[24.4399,61.2576,127.7929],[24.4406,61.2621,102.6361],[24.4499,61.2618,112.8533],[24.4505,61.2663,116.64],[24.4598,61.266,108.1262],[24.4605,61.2705,101.8108],[24.4698,61.2702,94.1937],[24.4704,61.2746,123.4074],[24.4798,61.2743,108.4226],[24.4804,61.2788,106.0583],[24.4897,61.2785,94.0303],[24.4904,61.283,100.0154],[24.4997,61.2827,125.4269],[24.5003,61.2872,111.9337],[24.519,61.2866,106.6306],[24.5196,61.291,114.3417],[24.529,61.2907,124.5708],[24.5296,61.2952,134.2489],[24.5483,61.2946,117.9049],[24.5489,61.2991,124.4418],[24.5583,61.2988,104.0406],[24.5589,61.3032,117.035],[24.5776,61.3026,88.0],[24.5769,61.2981,93.4973],[24.5862,61.2978,92.7067],[24.5856,61.2934,84.4472],[24.5949,61.293,103.6232],[24.5943,61.2886,97.408],[24.6222,61.2876,136.1452],[24.6216,61.2831,140.5568],[24.6496,61.2822,126.6834],[24.6489,61.2777,125.3477],[24.6769,61.2767,86.0],[24.6762,61.2723,106.984],[24.7042,61.2713,95.2201],[24.7048,61.2758,110.5755],[24.7142,61.2755,86.0],[24.7175,61.2979,84.5],[24.7268,61.2976,84.5],[24.7295,61.3155,84.5],[24.7389,61.3151,93.4535],[24.7375,61.3062,103.0019],[24.7469,61.3059,115.3938],[24.7455,61.2969,108.2115],[24.7548,61.2966,110.8282],[24.7535,61.2876,118.8456],[24.7628,61.2873,123.3594],[24.7615,61.2783,111.7853],[24.7708,61.278,120.8328],[24.7694,61.2691,125.3211],[24.7881,61.2684,125.0356],[24.7887,61.2729,125.0764],[24.8167,61.2719,112.6975],[24.8174,61.2764,89.8199],[24.836,61.2757,86.0],[24.8367,61.2802,86.0],[24.8647,61.2792,124.5425],[24.8654,61.2837,134.3885],[24.884,61.283,108.4145],[24.8847,61.2875,113.866],[24.894,61.2872,93.0],[24.8947,61.2917,100.6147],[24.8854,61.292,110.0877],[24.8875,61.3054,152.4663],[24.8968,61.3051,161.5541],[24.8982,61.314,122.64],[24.9076,61.3137,114.1556],[24.909,61.3227,107.2477],[24.9183,61.3223,99.2523],[24.919,61.3268,99.9176],[24.9097,61.3272,100.125],[24.9111,61.3361,115.2106],[24.9017,61.3364,106.9313],[24.9031,61.3454,121.3603],[24.8938,61.3457,130.9035],[24.8994,61.3815,139.5463],[24.9087,61.3812,134.2461],[24.9101,61.3902,117.3643],[24.9008,61.3905,114.0],[24.9036,61.4084,134.567],[24.913,61.4081,128.741],[24.9144,61.417,121.1077],[24.905,61.4174,135.6779],[24.9064,61.4263,131.5972],[24.897,61.4267,113.5],[24.8978,61.4311,133.7132],[24.8884,61.4315,113.5],[24.8891,61.436,119.0775],[24.8797,61.4363,124.2704],[24.8804,61.4408,117.7221],[24.871,61.4411,124.1048],[24.8724,61.4501,106.5],[24.8631,61.4504,106.5],[24.8652,61.4638,106.5],[24.8558,61.4642,106.5],[24.8565,61.4686,106.5]]],
[[[24.9676,61.4557,160.9468],[24.9582,61.456,150.7855],[24.9575,61.4515,141.2637],[24.9669,61.4512,160.9914],[24.9676,61.4557,160.9468]]]]}}