{"type":"Feature","properties":{"GID_2":"FIN.5.2_1","GID_0":"FIN","country":"Finland","GID_1":"FIN.5_1","province":"WesternFinland","NL_NAME_1":"NA","county":"CentralOstrobothnia","VARNAME_2":"Keski-Pohjanmaa|MellerstaÖsterb","NL_NAME_2":"NA","TYPE_2":"Maakunta|landskap","ENGTYPE_2":"Region","CC_2":"NA","HASC_2":"NA","name":"Central_Ostrobothnia.county"},
"geometry":{"type": "MultiPolygon","coordinates": [[[[24.1777,63.1472,155.1848],[24.1783,63.1517,155.143],[24.1684,63.152,148.4571],[24.1678,63.1475,151.2308],[24.1777,63.1472,155.1848]]],
[[[24.7962,63.2722,179.1183],[24.7969,63.2767,174.8077],[24.8069,63.2763,174.1325],[24.8084,63.2853,183.468],[24.7984,63.2856,181.1536],[24.8006,63.2991,165.4106],[24.7906,63.2994,167.2348],[24.7944,63.3218,165.7495],[24.7844,63.3221,161.1588],[24.7874,63.3401,165.7055],[24.7774,63.3404,168.1494],[24.7811,63.3628,172.4491],[24.7911,63.3624,178.7122],[24.7925,63.3714,175.8218],[24.8025,63.3711,176.171],[24.8033,63.3756,168.0548],[24.8133,63.3752,173.4374],[24.8148,63.3842,169.2866],[24.8248,63.3839,173.8486],[24.8255,63.3884,176.312],[24.8355,63.388,172.9549],[24.837,63.397,173.1939],[24.847,63.3967,180.2575],[24.8478,63.4011,168.7328],[24.8578,63.4008,167.9813],[24.8593,63.4098,175.9678],[24.8693,63.4094,169.9265],[24.87,63.4139,172.4375],[24.88,63.4136,167.3106],[24.8816,63.4225,164.0673],[24.8916,63.4222,165.0798],[24.8923,63.4267,171.6982],[24.9023,63.4263,176.2095],[24.9031,63.4308,173.5567],[24.9131,63.4305,172.1323],[24.9139,63.435,160.9605],[24.9339,63.4343,161.3355],[24.9347,63.4388,161.4611],[24.9547,63.4381,164.522],[24.9555,63.4426,162.6877],[24.9655,63.4422,164.9822],[24.9662,63.4467,160.4495],[24.9863,63.446,169.4826],[24.987,63.4505,171.8829],[25.0071,63.4498,176.9358],[25.0079,63.4543,175.5761],[25.0279,63.4536,173.378],[25.0302,63.467,175.1569],[25.0202,63.4674,180.0115],[25.021,63.4719,182.4337],[25.011,63.4722,171.4277],[25.0118,63.4767,174.9408],[25.0017,63.477,170.69],[25.0025,63.4815,172.8692],[24.9925,63.4819,172.859],[24.9933,63.4863,171.4941],[24.9832,63.4867,169.2638],[24.984,63.4912,168.6428],[24.974,63.4915,164.9704],[24.9748,63.496,164.3446],[24.9647,63.4963,162.2395],[24.9655,63.5008,160.912],[24.9555,63.5011,163.6674],[24.9562,63.5056,162.8363],[24.9462,63.506,163.527],[24.947,63.5104,161.7532],[24.9369,63.5108,165.672],[24.9377,63.5153,151.356],[24.9277,63.5156,154.4896],[24.9284,63.5201,152.2171],[24.9184,63.5204,155.2478],[24.9192,63.5249,150.7431],[24.9091,63.5252,164.997],[24.9099,63.5297,144.0426],[24.8998,63.53,147.1134],[24.9014,63.539,143.1816],[24.8913,63.5393,141.5841],[24.8921,63.5438,138.4214],[24.882,63.5442,137.5887],[24.8828,63.5486,134.0106],[24.8727,63.549,136.6462],[24.8743,63.5579,130.3506],[24.8642,63.5583,132.9534],[24.865,63.5627,129.6382],[24.8549,63.5631,132.9092],[24.8557,63.5676,130.8059],[24.8456,63.5679,131.7068],[24.8464,63.5724,128.586],[24.8363,63.5727,135.7297],[24.8378,63.5817,131.9114],[24.8278,63.582,131.2466],[24.8285,63.5865,130.0399],[24.8185,63.5868,130.938],[24.8192,63.5913,128.1653],[24.7991,63.5919,130.8595],[24.7998,63.5964,134.0069],[24.7898,63.5968,137.2704],[24.7905,63.6012,133.7353],[24.7704,63.6019,137.5137],[24.7711,63.6064,144.8935],[24.761,63.6067,138.38],[24.7618,63.6112,144.158],[24.7416,63.6118,150.4607],[24.7424,63.6163,138.1476],[24.7323,63.6166,148.896],[24.733,63.6211,143.8568],[24.7129,63.6217,150.9972],[24.7136,63.6262,150.5684],[24.6935,63.6269,150.2078],[24.6942,63.6314,149.7445],[24.674,63.632,158.6641],[24.6748,63.6365,152.1857],[24.6546,63.6371,143.196],[24.6553,63.6416,143.1841],[24.6452,63.6419,149.7783],[24.646,63.6464,141.2421],[24.6258,63.647,135.2012],[24.6265,63.6515,136.0746],[24.6164,63.6518,135.5564],[24.6172,63.6563,136.2712],[24.6071,63.6567,132.8851],[24.6078,63.6611,132.1586],[24.5977,63.6614,131.6077],[24.5991,63.6704,132.1568],[24.589,63.6707,129.9659],[24.5898,63.6752,137.9465],[24.5797,63.6755,129.4704],[24.5804,63.68,129.3611],[24.5703,63.6803,129.2969],[24.5717,63.6893,129.497],[24.5616,63.6896,131.9363],[24.5623,63.6941,129.0925],[24.5522,63.6944,128.2521],[24.5537,63.7033,127.1461],[24.5435,63.7037,128.5312],[24.545,63.7126,127.4559],[24.5349,63.7129,127.5408],[24.5363,63.7219,127.6815],[24.5262,63.7222,127.073],[24.5276,63.7312,129.9073],[24.5175,63.7315,129.9216],[24.5189,63.7404,126.6193],[24.5088,63.7407,126.7296],[24.5102,63.7497,134.2339],[24.5001,63.75,126.5983],[24.5022,63.7635,122.276],[24.4921,63.7638,124.9343],[24.4935,63.7727,127.365],[24.4833,63.773,117.673],[24.4848,63.782,137.3614],[24.4746,63.7823,119.0284],[24.476,63.7913,133.3532],[24.4659,63.7916,129.5125],[24.4673,63.8005,138.6503],[24.4572,63.8009,130.3477],[24.4586,63.8098,128.2093],[24.4484,63.8101,125.6374],[24.4505,63.8236,118.7733],[24.4404,63.8239,118.6673],[24.4418,63.8328,118.3028],[24.4316,63.8331,111.0589],[24.4323,63.8376,111.7541],[24.4222,63.8379,111.3867],[24.4229,63.8424,113.5526],[24.3924,63.8433,116.6942],[24.3931,63.8478,117.6634],[24.3524,63.849,115.9585],[24.3531,63.8535,116.7914],[24.3226,63.8544,115.0874],[24.3233,63.8589,109.3689],[24.2826,63.86,109.4012],[24.2833,63.8645,99.9655],[24.2731,63.8648,104.4366],[24.2738,63.8693,106.9372],[24.2637,63.8696,104.0076],[24.2643,63.8741,99.1547],[24.244,63.8747,98.5727],[24.2467,63.8926,90.2067],[24.2365,63.8929,95.5307],[24.2385,63.9063,86.5152],[24.2283,63.9066,91.5665],[24.2303,63.9201,78.4171],[24.2201,63.9204,81.3798],[24.2222,63.9338,91.37],[24.1814,63.935,94.1447],[24.182,63.9395,101.9057],[24.1719,63.9398,102.5342],[24.1732,63.9487,87.7453],[24.163,63.949,85.6368],[24.1643,63.958,87.7127],[24.1541,63.9583,88.8314],[24.1548,63.9627,84.8167],[24.1446,63.963,91.8496],[24.1459,63.972,83.376],[24.1357,63.9723,83.6314],[24.137,63.9812,88.9241],[24.1268,63.9815,83.1331],[24.1274,63.986,83.1987],[24.1172,63.9863,85.5736],[24.1185,63.9953,75.9886],[24.1083,63.9955,86.6158],[24.1096,64.0045,71.6733],[24.0994,64.0048,70.1507],[24.1027,64.0272,85.1651],[24.0924,64.0275,69.4263],[24.097,64.0589,69.4439],[24.0868,64.0592,68.6046],[24.0887,64.0726,59.9677],[24.0682,64.0732,73.8673],[24.0689,64.0777,55.6494],[24.0484,64.0782,60.032],[24.049,64.0827,52.4969],[24.0285,64.0833,52.328],[24.0292,64.0878,50.8696],[24.0087,64.0883,52.1233],[24.0093,64.0928,49.5682],[23.958,64.0941,50.1928],[23.9587,64.0986,46.7487],[23.9381,64.0992,45.0534],[23.9388,64.1037,43.4508],[23.9182,64.1042,39.3943],[23.9189,64.1087,41.5289],[23.8984,64.1092,45.6367],[23.899,64.1137,40.1855],[23.8887,64.114,44.7073],[23.8893,64.1185,43.4023],[23.8688,64.119,32.2493],[23.8694,64.1235,37.7387],[23.8489,64.124,36.2125],[23.8495,64.1285,36.442],[23.829,64.129,26.9696],[23.8296,64.1335,30.0288],[23.8193,64.1338,24.927],[23.8199,64.1383,25.8573],[23.7994,64.1388,20.2851],[23.8,64.1433,20.5247],[23.7794,64.1438,16.9518],[23.78,64.1483,21.8678],[23.7698,64.1485,21.4073],[23.7704,64.153,19.5968],[23.7498,64.1535,12.119],[23.7504,64.158,19.3935],[23.7298,64.1585,23.8176],[23.7305,64.163,12.992],[23.7202,64.1633,17.0868],[23.7208,64.1678,14.9813],[23.7002,64.1683,8.4471],[23.7008,64.1728,8.7169],[23.6917,64.173,0.0],[23.6938,64.175,12.0297],[23.6901,64.1724,0.0],[23.6922,64.1693,0.0],[23.6953,64.1682,0.0],[23.6932,64.1651,3.5192],[23.6833,64.1646,0.0],[23.6755,64.162,5.9345],[23.6729,64.1583,0.6927],[23.6745,64.1547,4.7538],[23.6724,64.1526,2.6872],[23.6672,64.1516,0.6247],[23.662,64.1443,2.1498],[23.6568,64.1443,4.9923],[23.6479,64.15,0.0],[23.6422,64.1495,11.6508],[23.6443,64.1464,0.0],[23.6536,64.1412,8.8509],[23.6516,64.138,1.0443],[23.6437,64.1375,8.1646],[23.6391,64.1412,0.0],[23.6276,64.1432,0.0],[23.6297,64.1401,0.0],[23.6411,64.1328,2.7699],[23.6359,64.1255,0.0],[23.6391,64.1245,4.2484],[23.638,64.1214,0.0],[23.6401,64.1193,0.0],[23.6432,64.1182,4.2034],[23.6411,64.1151,4.3288],[23.6271,64.1167,0.3152],[23.6229,64.1188,0.0],[23.6104,64.1208,6.9906],[23.6042,64.125,5.8607],[23.5938,64.125,1.1311],[23.587,64.1193,3.8913],[23.5818,64.1182,0.0],[23.5839,64.1151,0.0],[23.5932,64.1099,11.1434],[23.5922,64.1068,0.0],[23.5974,64.1036,3.7434],[23.5964,64.1005,0.4584],[23.5974,64.0964,9.8258],[23.5901,64.0953,0.0],[23.588,64.0911,5.1244],[23.5901,64.088,3.0832],[23.5958,64.0854,0.0],[23.5995,64.088,0.1312],[23.5964,64.0911,7.1995],[23.6057,64.0911,1.7004],[23.6234,64.0776,0.0],[23.6328,64.0724,1.4425],[23.6276,64.0703,0.9238],[23.6234,64.0661,0.0],[23.6245,64.0609,0.4289],[23.6203,64.0568,18.5664],[23.6151,64.0557,0.0],[23.6161,64.0526,0.2882],[23.6104,64.0458,0.0],[23.6026,64.0463,5.6472],[23.6036,64.0495,0.0],[23.6005,64.0505,0.0],[23.5953,64.0557,0.0],[23.5875,64.0563,0.0],[23.5818,64.0505,0.0],[23.5875,64.05,0.3524],[23.5891,64.0484,-0.0319],[23.5812,64.0458,0.2098],[23.5734,64.0453,0.0],[23.5687,64.0417,0.258],[23.5583,64.0417,5.3535],[23.5396,64.05,0.0],[23.5255,64.0505,0.0],[23.5214,64.0526,0.4445],[23.5224,64.0557,4.6391],[23.5208,64.0563,0.0],[23.5167,64.0563,0.0],[23.5125,64.0542,0.3939],[23.5021,64.0563,0.0],[23.4979,64.0542,-0.0774],[23.4875,64.0542,0.2359],[23.4833,64.0563,0.0],[23.4792,64.0563,0.4548],[23.4661,64.062,1.2892],[23.4589,64.063,5.1674],[23.4599,64.0703,0.0],[23.4542,64.0708,1.5104],[23.4422,64.0755,8.9727],[23.4432,64.0787,0.0],[23.4375,64.0813,3.4601],[23.425,64.0813,2.1546],[23.4125,64.0854,1.1334],[23.4078,64.0818,0.0],[23.4026,64.0807,0.0],[23.4005,64.0787,0.0],[23.4016,64.0734,0.0],[23.3974,64.0693,0.0],[23.3859,64.0661,0.0],[23.3755,64.0557,0.0],[23.3786,64.0537,0.0],[23.3776,64.0505,0.0],[23.3807,64.0484,3.0437],[23.3776,64.0453,0.0],[23.3786,64.0422,0.0],[23.3771,64.0396,0.0],[23.3786,64.0359,0.0],[23.3755,64.0318,0.0],[23.3911,64.0224,0.0],[23.3932,64.0193,1.3573],[23.3896,64.0146,0.0],[23.3911,64.0109,0.0],[23.3849,64.0047,0.0],[23.3755,64.0036,3.032],[23.3734,64.0005,0.0],[23.3911,63.9995,7.1411],[23.3901,63.9964,0.0],[23.3911,63.9943,0.0],[23.387,63.9901,0.0],[23.3818,63.988,6.273],[23.3911,63.9849,3.6159],[23.3953,63.9818,0.6586],[23.3901,63.9766,0.0],[23.3891,63.9734,0.1975],[23.3833,63.9729,0.0],[23.3729,63.9688,4.5555],[23.3688,63.9708,5.758],[23.3672,63.9693,9.8117],[23.3724,63.9661,12.3615],[23.3714,63.963,4.9384],[23.3849,63.9599,0.1107],[23.4016,63.9495,0.0],[23.4036,63.9474,-0.028],[23.4026,63.9443,0.0571],[23.4057,63.9432,-0.0298],[23.4036,63.9401,0.0],[23.3984,63.9391,3.1888],[23.3953,63.9359,9.9434],[23.3875,63.9333,9.8222],[23.3792,63.9333,10.309],[23.3693,63.9286,10.2878],[23.3708,63.9271,4.9347],[23.3766,63.9266,9.05],[23.3828,63.9214,-0.1394],[23.3708,63.9208,6.2811],[23.3667,63.9229,7.4716],[23.363,63.9203,2.357],[23.3651,63.9172,0.4957],[23.3682,63.9161,4.5769],[23.3661,63.913,0.0],[23.3563,63.9146,0.0],[23.3453,63.9224,11.4506],[23.3359,63.9255,15.4873],[23.3349,63.9286,4.6085],[23.3297,63.9297,2.7106],[23.3224,63.9349,0.0],[23.3151,63.9359,2.7989],[23.3161,63.9391,0.0],[23.3063,63.9396,0.0],[23.3047,63.9401,7.7409],[23.3057,63.9432,10.7363],[23.3016,63.9453,8.1772],[23.2917,63.9458,7.6297],[23.2875,63.9479,4.4689],[23.2839,63.9453,0.0],[23.287,63.9432,5.6607],[23.2839,63.9391,10.9485],[23.2859,63.9359,0.0],[23.3016,63.9328,3.6515],[23.3005,63.9297,0.0],[23.3026,63.9255,0.0],[23.3161,63.9224,1.518],[23.3203,63.9193,0.0],[23.3104,63.9188,0.0],[23.2964,63.9141,13.1372],[23.2917,63.9104,21.2526],[23.2792,63.9125,-0.0124],[23.2724,63.9161,2.3889],[23.2667,63.9167,7.152],[23.2604,63.9125,0.0],[23.2563,63.9146,0.0],[23.2458,63.9146,0.0],[23.2396,63.9104,7.2406],[23.225,63.9104,3.9638],[23.2141,63.9182,6.2387],[23.2104,63.9188,3.1957],[23.2089,63.9172,2.2367],[23.2182,63.9109,0.0],[23.2026,63.9099,0.0],[23.2057,63.9068,4.0269],[23.2021,63.9042,0.0],[23.1984,63.9047,12.2139],[23.1917,63.9125,2.9483],[23.175,63.9125,13.1343],[23.1708,63.9146,0.0],[23.1589,63.9141,4.3602],[23.1536,63.9068,0.0],[23.15,63.9063,1.0911],[23.1333,63.9167,9.8303],[23.1297,63.9141,0.0],[23.1276,63.9089,0.0],[23.1313,63.9063,0.0],[23.137,63.9057,15.0748],[23.1432,63.9005,15.2189],[23.138,63.8953,0.0],[23.1411,63.8922,0.0],[23.1359,63.8911,-0.0421],[23.1313,63.8875,2.8344],[23.1234,63.888,0.0],[23.1141,63.8953,0.0],[23.1068,63.8964,2.7818],[23.1078,63.8995,0.0],[23.1057,63.9016,0.0],[23.1,63.9042,4.765],[23.0943,63.9047,15.2336],[23.0922,63.9068,18.9086],[23.0932,63.9099,3.4482],[23.087,63.9141,0.0],[23.0708,63.9146,0.0],[23.0693,63.913,14.3423],[23.075,63.9125,0.0],[23.0786,63.9099,0.0],[23.0755,63.9047,0.0],[23.0812,63.9021,2.727],[23.0911,63.9016,3.3301],[23.0984,63.8964,15.5152],[23.0995,63.8943,4.3553],[23.0984,63.8922,0.0],[23.1047,63.888,0.0],[23.1146,63.8875,4.8601],[23.1203,63.8849,17.2562],[23.1193,63.8818,0.0],[23.1245,63.8776,0.0],[23.1172,63.8703,0.0],[23.1203,63.8672,0.0],[23.1172,63.863,0.0],[23.1203,63.8609,5.9403],[23.1167,63.8583,0.0],[23.1026,63.8568,0.0],[23.1005,63.8599,11.4004],[23.1057,63.8682,0.0],[23.0984,63.8693,0.1231],[23.0922,63.8734,0.149],[23.0901,63.8755,3.7237],[23.0911,63.8786,0.0],[23.0896,63.8792,0.0],[23.0812,63.8792,0.0],[23.0771,63.8812,0.0],[23.0625,63.8729,2.5312],[23.0563,63.8729,6.7416],[23.0521,63.875,0.0],[23.0417,63.875,6.9861],[23.0401,63.8734,0.0],[23.0432,63.8714,14.4076],[23.0411,63.8693,12.0],[23.0297,63.8661,4.4277],[23.0318,63.863,2.789],[23.0375,63.8625,3.4818],[23.0391,63.8609,0.0],[23.0255,63.8557,2.1696],[23.0286,63.8526,0.5],[23.0229,63.8521,0.0],[23.0151,63.8484,0.0],[23.0255,63.8422,2.5524],[23.0391,63.8391,-0.5],[23.0432,63.8359,-0.5],[23.0391,63.8318,0.0],[23.0339,63.8307,0.0],[23.0271,63.825,3.1019],[23.0214,63.8255,0.0],[23.0146,63.8292,0.0],[23.0099,63.8255,13.8075],[22.9984,63.8224,8.4204],[23.0,63.8208,0.0],[23.0057,63.8203,0.0],[23.0078,63.8182,2.0998],[23.0068,63.8151,0.0],[23.0144,63.8137,0.0],[23.0216,63.8144,4.6584],[23.0234,63.813,4.1444],[23.0164,63.8078,1.7691],[23.0201,63.8033,11.119],[23.0086,63.7962,6.506],[23.0118,63.7944,0.3732],[23.0238,63.7959,10.402],[23.0362,63.787,5.5169],[23.0399,63.7872,14.3095],[23.0394,63.7827,6.0],[23.0597,63.7823,23.6792],[23.0592,63.7778,15.2714],[23.0693,63.7776,23.1986],[23.0689,63.7731,21.8504],[23.0891,63.7727,23.0878],[23.0887,63.7682,25.8849],[23.0988,63.768,26.1174],[23.0983,63.7635,29.4232],[23.1085,63.7633,29.9279],[23.108,63.7588,30.6959],[23.1282,63.7584,21.4697],[23.1278,63.7539,28.3982],[23.1379,63.7537,31.6903],[23.1374,63.7492,28.9645],[23.1475,63.749,27.6903],[23.147,63.7445,26.4388],[23.1673,63.7441,20.9459],[23.1668,63.7396,13.7922],[23.1769,63.7394,22.6917],[23.1764,63.7349,19.8531],[23.1967,63.7344,23.5378],[23.1962,63.7299,33.2624],[23.2063,63.7297,18.4183],[23.2058,63.7252,28.7561],[23.216,63.725,28.111],[23.2155,63.7205,19.0032],[23.2357,63.7201,19.7273],[23.2352,63.7156,20.5118],[23.2453,63.7154,20.9603],[23.2464,63.7243,20.9115],[23.2565,63.7241,24.0763],[23.2575,63.7331,29.5333],[23.2676,63.7329,31.9171],[23.2692,63.7463,41.7323],[23.2793,63.7461,20.1489],[23.2798,63.7506,26.9613],[23.29,63.7504,29.9644],[23.2905,63.7549,18.0207],[23.3108,63.7544,31.9995],[23.3113,63.7589,36.0022],[23.4026,63.7568,24.1023],[23.402,63.7524,28.7565],[23.4324,63.7517,26.5275],[23.4314,63.7427,35.3201],[23.4415,63.7424,29.232],[23.4409,63.7379,39.7886],[23.4511,63.7377,36.2933],[23.4516,63.7422,26.3231],[23.4618,63.742,26.6225],[23.4634,63.7554,39.3755],[23.4533,63.7556,32.8084],[23.4543,63.7646,31.8453],[23.4645,63.7644,37.9913],[23.4656,63.7734,34.275],[23.4757,63.7731,41.3718],[23.4763,63.7776,45.5125],[23.4864,63.7774,54.4355],[23.4859,63.7729,50.0012],[23.5061,63.7724,50.4404],[23.5056,63.7679,55.0814],[23.5157,63.7677,50.9322],[23.5152,63.7632,50.7156],[23.5253,63.763,51.873],[23.5248,63.7585,51.3098],[23.5349,63.7582,52.0245],[23.5343,63.7537,52.1075],[23.5445,63.7535,49.7867],[23.5439,63.749,48.0],[23.5642,63.7485,53.6845],[23.5636,63.744,54.6933],[23.5738,63.7438,53.2642],[23.5732,63.7393,58.5597],[23.5833,63.7391,53.6829],[23.5828,63.7346,57.6447],[23.5929,63.7343,56.5239],[23.5923,63.7299,53.4825],[23.6025,63.7296,57.9189],[23.6019,63.7251,58.5512],[23.6222,63.7246,63.6824],[23.6216,63.7201,66.9505],[23.6317,63.7199,73.9655],[23.6311,63.7154,71.909],[23.6514,63.7149,65.6597],[23.6508,63.7104,65.4062],[23.6609,63.7102,65.6236],[23.6603,63.7057,69.198],[23.6806,63.7052,70.9593],[23.68,63.7007,75.6003],[23.6901,63.7004,69.8334],[23.6895,63.6959,69.729],[23.6996,63.6957,70.9806],[23.6991,63.6912,77.2847],[23.7092,63.691,71.4222],[23.7086,63.6865,70.6217],[23.7288,63.686,77.8839],[23.7282,63.6815,74.6057],[23.7383,63.6812,74.8581],[23.7378,63.6767,83.7462],[23.7479,63.6765,78.6371],[23.7473,63.672,87.6892],[23.7372,63.6722,85.9669],[23.7366,63.6678,84.8794],[23.7265,63.668,72.2608],[23.7259,63.6635,72.5],[23.7158,63.6638,83.5973],[23.7152,63.6593,77.9157],[23.6849,63.6601,79.549],[23.6855,63.6646,66.0877],[23.6653,63.6651,65.756],[23.6658,63.6695,66.0558],[23.6456,63.67,69.2152],[23.6451,63.6656,61.0697],[23.635,63.6658,59.1062],[23.6338,63.6568,66.7936],[23.6237,63.6571,61.1847],[23.6231,63.6526,54.6544],[23.613,63.6528,65.4186],[23.6125,63.6483,49.5],[23.6024,63.6486,56.2088],[23.6018,63.6441,58.604],[23.5816,63.6446,48.5416],[23.5811,63.6401,71.5327],[23.5609,63.6406,45.9268],[23.5603,63.6361,43.5683],[23.5502,63.6364,50.8564],[23.5497,63.6319,46.3943],[23.5295,63.6324,69.476],[23.53,63.6369,43.5],[23.5199,63.6371,60.8625],[23.5205,63.6416,43.5],[23.5104,63.6418,52.9832],[23.512,63.6553,47.1243],[23.5019,63.6555,43.5],[23.5036,63.669,51.4558],[23.4935,63.6692,45.8954],[23.4929,63.6647,44.8214],[23.4828,63.665,55.4541],[23.4823,63.6605,47.7502],[23.4722,63.6607,43.5],[23.4716,63.6562,53.1541],[23.4817,63.656,43.486],[23.4801,63.6425,57.2308],[23.4902,63.6423,57.1345],[23.4896,63.6378,44.0],[23.4795,63.6381,48.6685],[23.479,63.6336,56.1235],[23.4689,63.6338,53.5578],[23.4683,63.6293,60.4604],[23.4583,63.6296,51.4259],[23.4577,63.6251,54.736],[23.4678,63.6248,50.4283],[23.4662,63.6114,50.5268],[23.4561,63.6116,58.3526],[23.4566,63.6161,53.2623],[23.4364,63.6166,51.2262],[23.4264,63.6168,57.0187],[23.4258,63.6123,58.8967],[23.4359,63.6121,55.6958],[23.4354,63.6076,55.6064],[23.4455,63.6074,56.9437],[23.4449,63.6029,56.1182],[23.4651,63.6024,66.4939],[23.4646,63.5979,59.7253],[23.4746,63.5977,61.3899],[23.4741,63.5932,54.6928],[23.4842,63.5929,56.9001],[23.4836,63.5885,52.0114],[23.5038,63.588,61.4884],[23.5043,63.5925,63.5365],[23.5245,63.592,51.3351],[23.525,63.5965,48.4703],[23.5452,63.596,49.3923],[23.5458,63.6005,53.2845],[23.5659,63.6,56.2242],[23.5637,63.582,69.2115],[23.5738,63.5818,63.6111],[23.5715,63.5639,61.0485],[23.5816,63.5636,61.3824],[23.5799,63.5502,60.7672],[23.6,63.5497,58.0221],[23.5995,63.5452,64.7987],[23.6196,63.5447,66.7127],[23.619,63.5402,57.0794],[23.6291,63.5399,71.1372],[23.6285,63.5355,59.7022],[23.6486,63.535,74.7975],[23.6481,63.5305,73.3162],[23.6581,63.5302,78.4648],[23.6541,63.4988,87.3945],[23.6642,63.4986,94.7807],[23.6568,63.4403,85.5407],[23.6668,63.44,90.3431],[23.6651,63.4266,73.7982],[23.6751,63.4263,73.7738],[23.674,63.4173,67.1725],[23.684,63.4171,73.6029],[23.6828,63.4081,74.2419],[23.6929,63.4079,69.3239],[23.6917,63.3989,79.8559],[23.7017,63.3986,76.4849],[23.7006,63.3897,83.8621],[23.7106,63.3894,89.8693],[23.7094,63.3804,81.6526],[23.6994,63.3807,86.0752],[23.6988,63.3762,91.076],[23.7088,63.3759,88.2394],[23.7077,63.367,79.6728],[23.7177,63.3667,85.9058],[23.7165,63.3577,83.2585],[23.7265,63.3575,84.8652],[23.7254,63.3485,85.8931],[23.7354,63.3483,96.7722],[23.7342,63.3393,95.7843],[23.7442,63.339,91.0405],[23.7436,63.3345,93.296],[23.7536,63.3343,92.8177],[23.7524,63.3253,105.7782],[23.7624,63.3251,97.2357],[23.7613,63.3161,103.2034],[23.7713,63.3158,94.5728],[23.7707,63.3114,106.915],[23.7806,63.3111,100.7576],[23.7801,63.3066,96.9296],[23.8,63.3061,89.1265],[23.7994,63.3016,92.5612],[23.8094,63.3013,94.1831],[23.8088,63.2969,95.9312],[23.8188,63.2966,94.7137],[23.8182,63.2921,99.9733],[23.8382,63.2916,93.4524],[23.8376,63.2871,93.4685],[23.8475,63.2868,99.9949],[23.8469,63.2824,95.793],[23.8569,63.2821,99.1134],[23.8563,63.2776,98.4196],[23.9958,63.2738,122.0],[23.9952,63.2694,122.0],[24.0251,63.2685,136.6446],[24.0245,63.2641,122.0],[24.0444,63.2635,143.4797],[24.0438,63.259,130.7286],[24.0637,63.2585,129.5861],[24.0631,63.254,126.4168],[24.073,63.2537,127.7948],[24.0724,63.2492,132.3903],[24.0923,63.2487,144.3489],[24.0917,63.2442,135.5952],[24.1116,63.2436,132.4554],[24.111,63.2391,136.2561],[24.1209,63.2388,140.4191],[24.1203,63.2344,144.5768],[24.1302,63.2341,137.5647],[24.1296,63.2296,144.1578],[24.1395,63.2293,148.8962],[24.1389,63.2248,148.3717],[24.1489,63.2246,152.4219],[24.1482,63.2201,155.9361],[24.1582,63.2198,155.176],[24.1575,63.2153,152.002],[24.1675,63.215,152.2801],[24.1668,63.2105,149.7358],[24.1768,63.2102,166.6671],[24.1761,63.2058,174.808],[24.1861,63.2055,161.9566],[24.1854,63.201,162.0247],[24.1954,63.2007,159.1804],[24.1947,63.1962,160.1477],[24.2046,63.1959,159.8568],[24.2034,63.187,158.0208],[24.2133,63.1867,161.5051],[24.2126,63.1822,167.1852],[24.2226,63.1819,165.654],[24.2219,63.1774,166.8231],[24.2318,63.1771,181.0353],[24.2312,63.1727,166.5554],[24.2213,63.173,165.5814],[24.2206,63.1685,162.5107],[24.2008,63.169,158.2766],[24.2001,63.1646,159.8072],[24.1902,63.1648,166.4886],[24.1889,63.1559,160.6065],[24.179,63.1562,159.2142],[24.1783,63.1517,155.143],[24.1982,63.1511,162.4362],[24.1988,63.1556,163.4129],[24.2087,63.1553,172.231],[24.2081,63.1508,166.2382],[24.218,63.1505,168.7227],[24.2174,63.1461,170.4196],[24.2273,63.1458,176.2608],[24.2267,63.1413,170.356],[24.2366,63.141,169.2296],[24.2359,63.1365,170.5041],[24.2458,63.1362,173.0678],[24.2452,63.1317,173.7302],[24.265,63.1311,172.6449],[24.2657,63.1356,175.0387],[24.2855,63.1351,173.3401],[24.2862,63.1395,172.1034],[24.3159,63.1386,173.6218],[24.3152,63.1342,181.281],[24.3252,63.1339,176.571],[24.3245,63.1294,183.658],[24.3443,63.1288,173.8608],[24.3436,63.1243,172.6564],[24.3536,63.124,171.6789],[24.3529,63.1195,170.606],[24.3826,63.1186,172.6132],[24.3833,63.1231,175.3024],[24.3932,63.1228,177.2063],[24.3939,63.1273,179.1674],[24.4137,63.1267,181.0076],[24.4144,63.1312,180.4841],[24.4342,63.1306,181.4191],[24.4349,63.1351,179.0268],[24.4448,63.1348,175.7121],[24.4455,63.1392,181.0036],[24.4653,63.1386,179.4653],[24.466,63.1431,177.5154],[24.4858,63.1425,172.8435],[24.4865,63.147,174.8913],[24.4964,63.1467,171.3116],[24.4971,63.1511,173.0786],[24.517,63.1505,163.6898],[24.5177,63.155,154.699],[24.5276,63.1547,153.8272],[24.5283,63.1592,158.6484],[24.5382,63.1589,159.7461],[24.5375,63.1544,161.0856],[24.597,63.1525,195.15],[24.5963,63.148,194.3023],[24.6756,63.1455,198.9761],[24.6749,63.141,194.1584],[24.7443,63.1388,198.4721],[24.7436,63.1343,206.2856],[24.7634,63.1336,204.7478],[24.7641,63.1381,199.8128],[24.7542,63.1384,203.471],[24.755,63.1429,202.5947],[24.7351,63.1436,199.4501],[24.7439,63.1973,199.9007],[24.7538,63.197,196.7871],[24.7567,63.2149,196.2901],[24.7667,63.2146,207.5923],[24.7689,63.2281,192.3489],[24.7589,63.2284,196.536],[24.7633,63.2552,180.3612],[24.7534,63.2556,190.3302],[24.7549,63.2645,182.3823],[24.7648,63.2642,185.6088],[24.7655,63.2687,192.4265],[24.7755,63.2684,192.5608],[24.7762,63.2729,175.6866],[24.7962,63.2722,179.1183]]],
[[[23.5745,64.0484,0.0],[23.5745,64.0495,0.0],[23.5714,64.0495,2.1675],[23.5714,64.0484,1.4156],[23.5745,64.0484,0.0]]],
[[[23.5495,64.0641,0.0],[23.537,64.0724,4.9537],[23.5276,64.0724,0.0],[23.5276,64.0693,0.0],[23.5328,64.0682,5.4474],[23.5401,64.063,0.2457],[23.5547,64.0568,3.105],[23.5646,64.0542,0.0],[23.5682,64.0568,0.0],[23.5625,64.0604,16.5621],[23.5526,64.0609,0.119],[23.5495,64.0641,0.0]]],
[[[23.5411,64.0755,0.0],[23.5401,64.0734,0.0],[23.5422,64.0714,0.0],[23.5516,64.0714,0.0],[23.5443,64.0776,6.2424],[23.5453,64.087,6.8115],[23.5396,64.0896,3.2547],[23.5318,64.087,9.7361],[23.5339,64.0839,1.7583],[23.537,64.0828,0.3158],[23.5359,64.0797,1.6143],[23.5411,64.0755,0.0]]],
[[[23.2057,63.9193,3.3849],[23.2057,63.9203,3.0645],[23.2026,63.9203,8.55],[23.2026,63.9193,8.5929],[23.2057,63.9193,3.3849]]],
[[[23.1771,63.9208,6.389],[23.1786,63.9224,2.8051],[23.1688,63.925,4.9293],[23.1651,63.9224,1.5475],[23.1667,63.9208,0.0],[23.1771,63.9208,6.389]]],
[[[23.1182,63.9339,2.2505],[23.1182,63.9349,0.0],[23.1151,63.9349,7.3243],[23.1167,63.9333,1.0086],[23.1182,63.9339,2.2505]]],
[[[22.9984,63.8349,1.9436],[22.9995,63.837,3.5882],[22.9922,63.838,0.0],[22.9875,63.8417,5.3496],[22.9792,63.8354,6.8022],[22.975,63.8375,0.0],[22.9672,63.837,0.0],[22.9734,63.8318,0.0],[22.9849,63.8307,0.0],[22.9797,63.8224,0.0],[22.9833,63.8187,0.0],[22.987,63.8193,2.5961],[22.9839,63.8224,9.5666],[22.9901,63.8245,0.0],[22.9911,63.8266,2.3365],[22.9901,63.8286,6.4517],[22.9958,63.8271,0.0],[23.0016,63.8318,9.7641],[22.9984,63.8349,1.9436]]],
[[[22.8786,63.8964,0.0],[22.8708,63.8979,1.2062],[22.8708,63.8958,0.8693],[22.8646,63.8937,9.2287],[22.863,63.8943,8.4314],[22.8641,63.8974,0.0],[22.8589,63.8984,1.1305],[22.8578,63.9016,7.3936],[22.8542,63.9042,8.7064],[22.8505,63.9005,8.4272],[22.8557,63.8964,4.4555],[22.8521,63.8937,0.0],[22.8464,63.8964,9.0252],[22.8474,63.8995,5.9826],[22.8411,63.9036,13.1088],[22.825,63.9042,0.0],[22.8234,63.9036,0.0],[22.8245,63.9005,0.0],[22.8193,63.8984,0.0],[22.8255,63.8943,2.9231],[22.8312,63.8937,0.0],[22.8328,63.8922,8.8156],[22.8229,63.8875,10.8496],[22.8188,63.8875,10.398],[22.8146,63.8896,0.0],[22.8109,63.888,0.0],[22.8188,63.8833,0.0],[22.8266,63.8849,9.1353],[22.8255,63.8818,0.0],[22.8266,63.8776,7.3046],[22.8214,63.8755,0.0],[22.825,63.8729,0.0],[22.8307,63.8724,8.6823],[22.8337,63.8694,0.0],[22.8412,63.8674,0.0],[22.8438,63.8688,6.5587],[22.8479,63.8667,0.0],[22.8604,63.8667,0.0],[22.8688,63.8625,0.0],[22.8786,63.862,0.0],[22.8833,63.8583,0.0],[22.8911,63.8589,1.6756],[22.888,63.862,0.59],[22.8901,63.8641,0.0],[22.8937,63.8646,1.1736],[22.9016,63.862,0.0],[22.9078,63.8578,8.0568],[22.9068,63.8547,0.0],[22.9099,63.8526,8.6309],[22.9,63.8521,0.0],[22.8958,63.85,6.3633],[22.8917,63.8521,6.7109],[22.8859,63.8474,0.0],[22.9016,63.8359,6.7507],[22.8778,63.8345,15.4518],[22.8714,63.8315,6.2874],[22.8709,63.8266,16.6448],[22.881,63.8264,1.5],[22.8801,63.8174,13.5072],[22.8903,63.8172,5.2701],[22.8894,63.8082,12.4447],[22.8792,63.8084,7.2323],[22.8784,63.8006,4.8581],[22.8807,63.7966,0.0],[22.8983,63.7868,0.0],[22.9233,63.776,13.4523],[22.9369,63.7758,0.0],[22.9374,63.7803,7.5505],[22.9577,63.7799,3.068],[22.9582,63.7844,17.9897],[22.9785,63.784,5.4646],[22.9789,63.7885,4.1954],[22.9896,63.7883,3.9411],[22.988,63.7932,4.8688],[22.9958,63.8021,0.0],[22.9901,63.8109,8.2733],[22.9911,63.8141,0.0],[22.9854,63.8167,5.3595],[22.9771,63.8167,5.4035],[22.9724,63.8203,0.0],[22.9542,63.825,16.0839],[22.9458,63.825,0.6303],[22.9422,63.8276,0.0],[22.9438,63.8292,0.0],[22.9661,63.8297,0.0],[22.9641,63.8328,0.0],[22.9589,63.8359,0.0],[22.9609,63.8411,0.0],[22.9661,63.8422,5.2694],[22.9651,63.8453,8.8518],[22.9661,63.8474,0.0],[22.963,63.8495,2.3826],[22.9729,63.85,0.0],[22.9766,63.8526,0.0],[22.9667,63.8563,0.0],[22.9547,63.8547,5.8335],[22.9502,63.8612,0.0],[22.9464,63.863,14.2119],[22.9484,63.8661,3.3397],[22.9521,63.8667,3.8504],[22.9583,63.8625,0.0],[22.9661,63.863,14.0574],[22.9609,63.8672,11.3441],[22.9578,63.8724,5.5031],[22.95,63.8708,7.0977],[22.9484,63.8714,0.0],[22.9495,63.8745,0.0],[22.9401,63.8776,0.0],[22.938,63.8807,1.9245],[22.9432,63.8828,0.0],[22.9401,63.8839,10.5547],[22.9411,63.887,0.0],[22.9391,63.8891,0.8457],[22.9333,63.8917,0.0],[22.9229,63.8917,3.6445],[22.9188,63.8896,5.4228],[22.9172,63.8901,10.8431],[22.9182,63.8932,3.1903],[22.9141,63.8953,2.8842],[22.9026,63.8964,0.0],[22.9036,63.8995,0.0],[22.9021,63.9,0.0],[22.8875,63.8979,8.4546],[22.8833,63.9,0.0],[22.8786,63.8964,0.0]]],
[[[22.8708,63.8979,1.2062],[22.8708,63.9,0.0],[22.8672,63.8995,7.069],[22.8672,63.8984,9.6996],[22.8708,63.8979,1.2062]]],
[[[22.8995,63.9047,10.2828],[22.8995,63.9057,7.965],[22.8964,63.9057,5.0395],[22.8979,63.9042,0.0],[22.8995,63.9047,10.2828]]],
[[[22.7953,63.912,0.0],[22.8,63.9104,0.0],[22.8042,63.9125,3.0432],[22.8146,63.9125,7.8585],[22.8161,63.913,1.9203],[22.8151,63.9161,5.8521],[22.8161,63.9182,0.0],[22.8083,63.9229,0.0],[22.7901,63.9203,3.3478],[22.788,63.9172,2.9696],[22.7901,63.913,0.0],[22.7953,63.912,0.0]]],
[[[22.9562,63.9188,4.6911],[22.9547,63.9172,0.0],[22.9568,63.9151,0.0],[22.9599,63.9151,0.0],[22.9589,63.9172,9.01],[22.9562,63.9188,4.6911]]],
[[[22.8146,63.9271,2.7111],[22.8109,63.9234,0.0],[22.8203,63.9234,5.4935],[22.8182,63.9266,5.2465],[22.8146,63.9271,2.7111]]],
[[[22.8333,63.9333,0.8524],[22.8292,63.9333,0.0],[22.8276,63.9318,4.1184],[22.837,63.9318,0.0],[22.8333,63.9333,0.8524]]],
[[[22.8224,63.938,5.3714],[22.8125,63.9417,1.3275],[22.8089,63.9391,0.0],[22.8146,63.9354,0.0],[22.8188,63.9354,0.0],[22.8224,63.938,5.3714]]],
[[[22.8443,63.9516,2.8494],[22.8422,63.9484,0.0],[22.8495,63.9484,1.6053],[22.8474,63.9516,2.5461],[22.8443,63.9516,2.8494]]],
[[[23.1141,63.937,6.829],[23.1109,63.937,0.4531],[23.1109,63.9359,0.0],[23.1125,63.9354,1.1365],[23.1141,63.937,6.829]]],
[[[23.2026,63.9484,17.3433],[23.2057,63.9536,0.0],[23.2021,63.9542,4.0042],[23.1979,63.9521,11.247],[23.1938,63.9542,3.1587],[23.1859,63.9536,0.4903],[23.1891,63.9505,12.0646],[23.1859,63.9464,14.9828],[23.1953,63.9411,20.8043],[23.2005,63.9359,0.0],[23.2042,63.9354,0.0],[23.2083,63.9375,18.5595],[23.2125,63.9354,0.0],[23.2229,63.9354,0.0],[23.2266,63.938,1.4947],[23.2208,63.9417,0.0],[23.2026,63.9443,22.0574],[23.2036,63.9474,17.8304],[23.2026,63.9484,17.3433]]],
[[[23.0563,63.9479,2.8307],[23.0526,63.9474,8.5824],[23.0526,63.9464,5.6528],[23.0578,63.9464,4.0984],[23.0563,63.9479,2.8307]]],
[[[23.1495,63.9786,11.3497],[23.1464,63.9786,3.9748],[23.1464,63.9776,1.8078],[23.1495,63.9776,9.5786],[23.1495,63.9786,11.3497]]],
[[[23.5089,64.0818,0.0],[23.5125,64.0792,0.0],[23.5229,64.0792,0.0],[23.5245,64.0797,5.9848],[23.5234,64.0828,9.5311],[23.5245,64.0849,11.677],[23.5167,64.0854,12.571],[23.5089,64.0818,0.0]]],
[[[23.4099,64.0911,11.5491],[23.3984,64.0932,2.6114],[23.4005,64.0901,3.8109],[23.4063,64.0875,0.0],[23.4099,64.0911,11.5491]]],
[[[23.6328,64.1516,12.0179],[23.637,64.1505,8.9225],[23.6391,64.1536,4.5917],[23.6318,64.1536,14.5551],[23.6328,64.1516,12.0179]]],
[[[23.6151,64.162,8.1488],[23.6151,64.1609,2.8848],[23.6182,64.1609,9.2655],[23.6182,64.162,5.2496],[23.6151,64.162,8.1488]]]]}}