{"type": "Feature","id": "3181","bbox": [22.97682,63.1192,25.02868,64.31501],"geometry": {"type": "MultiPolygon","coordinates": [[[[22.99383,63.83299,11.9508],[22.99497,63.83645,8.2888],[22.98911,63.84048,9.444],[22.98146,63.83723,11.6815],[22.97682,63.83393,13.6397],[22.98609,63.83161,1.4536],[22.99383,63.83299,11.9508]]],
[[[23.31007,63.94623,0.0],[23.3034,63.94782,0.0],[23.29453,63.94843,0.0807],[23.29103,63.94668,9.7322],[23.28639,63.93968,9.9808],[23.30185,63.93496,1.5823],[23.31007,63.94623,0.0]]],
[[[23.22096,63.93248,0.0],[23.22592,63.9392,5.9751],[23.21998,63.94249,0.0],[23.21445,63.94343,3.8042],[23.2116,63.9475,0.0],[23.21079,63.9492,0.0],[23.20834,63.95246,0.0],[23.20257,63.95649,0.0],[23.19842,63.95474,0.0],[23.19223,63.95474,6.6143],[23.18865,63.9503,12.1667],[23.19182,63.9405,0.0],[23.19825,63.93781,6.3101],[23.2081,63.93236,0.0],[23.22096,63.93248,0.0]]],
[[[23.52581,64.08576,0.0],[23.52239,64.08706,8.6934],[23.52068,64.08548,0.0],[23.51791,64.08364,15.7066],[23.51319,64.08405,11.6386],[23.52117,64.07514,0.0],[23.52239,64.07612,0.0],[23.53004,64.07616,0.0],[23.53256,64.07998,5.8366],[23.52792,64.08169,2.2377],[23.52581,64.08576,0.0]]],
[[[23.5499,64.0705,0.0],[23.54453,64.08556,9.8393],[23.53712,64.08869,8.2155],[23.5333,64.08788,12.2024],[23.5337,64.08344,0.0622],[23.54005,64.07376,0.0],[23.54689,64.06839,0.0],[23.5499,64.0705,0.0]]],
[[[23.41212,64.08698,0.0],[23.40642,64.09231,2.3568],[23.40252,64.08808,0.0],[23.40895,64.08698,0.0],[23.41212,64.08698,0.0]]],
[[[23.6517,64.14391,1.9882],[23.64096,64.15261,3.2932],[23.6281,64.15607,5.9655],[23.62916,64.1518,0.0],[23.63144,64.14932,0.0],[23.63885,64.1468,0.0],[23.64829,64.14305,5.6588],[23.6517,64.14391,1.9882]]],
[[[23.88219,64.11071,43.0321],[23.70647,64.16808,14.7281],[23.70427,64.16669,16.5009],[23.67954,64.15534,6.1651],[23.66033,64.1433,0.2126],[23.65602,64.13007,4.9234],[23.64479,64.12442,6.2079],[23.62208,64.10712,6.435],[23.61443,64.10342,7.8421],[23.58546,64.10855,0.0],[23.57358,64.10725,0.0],[23.56609,64.09658,0.0],[23.58172,64.08466,0.0],[23.60597,64.0611,0.0],[23.6198,64.03803,12.317],[23.6045,64.02766,20.5513],[23.53834,64.03189,11.1974],[23.5066,64.04165,2.5149],[23.49676,64.03946,2.8763],[23.48756,64.03596,4.4588],[23.47731,64.0351,15.2458],[23.46754,64.03791,5.3248],[23.45655,64.04548,9.8191],[23.44996,64.04816,10.5255],[23.41521,64.05622,3.7151],[23.39649,64.05614,4.9397],[23.3816,64.04816,2.2073],[23.36988,64.00324,0.0],[23.36744,63.99726,0.0],[23.37086,63.98753,0.0],[23.37672,63.97875,0.0],[23.37875,63.96894,11.1307],[23.37086,63.956,0.0],[23.37086,63.94652,0.0],[23.38478,63.9383,0.0],[23.41578,63.92463,5.5018],[23.39422,63.91108,11.3468],[23.37281,63.90062,17.5869],[23.35076,63.89883,17.9872],[23.32643,63.91096,13.4406],[23.30649,63.89423,14.4741],[23.27524,63.8889,9.1164],[23.19793,63.89061,6.0417],[23.16733,63.88695,12.5443],[23.15504,63.88369,10.3599],[23.14186,63.87596,6.5907],[23.14161,63.86945,5.9865],[23.15122,63.86489,18.1601],[23.15349,63.86347,18.4703],[23.14234,63.85847,15.4234],[23.13258,63.85248,12.2596],[23.12135,63.84955,9.9716],[23.07496,63.85737,14.6482],[23.06284,63.85297,8.3404],[23.04762,63.84129,12.33],[22.99073,63.81538,0.0],[22.99448,63.80622,0.0],[22.99464,63.80073,0.0],[22.99073,63.78762,0.0],[22.99966,63.78303,0.0],[23.0102,63.78138,1.4872],[23.02199,63.78285,0.8682],[23.03614,63.78696,5.5169],[23.19789,63.72381,35.3963],[23.24585,63.71983,20.2974],[23.27014,63.72867,45.7555],[23.29308,63.74174,20.7696],[23.3215,63.75332,25.7444],[23.36202,63.75771,28.6884],[23.39716,63.75283,27.5806],[23.42847,63.74528,32.5021],[23.44945,63.74345,26.706],[23.47591,63.76825,37.2757],[23.50309,63.76701,55.3712],[23.59084,63.74086,54.2301],[23.71538,63.68867,71.8029],[23.73398,63.66823,82.1633],[23.71869,63.6633,74.4348],[23.61306,63.65278,65.4186],[23.54567,63.63519,43.5],[23.51756,63.64046,43.5],[23.50743,63.65307,57.7773],[23.49958,63.66847,43.5],[23.49544,63.6679,45.4008],[23.48335,63.66511,55.4541],[23.4757,63.66232,53.9914],[23.47488,63.65821,49.0318],[23.47705,63.65539,55.2661],[23.48459,63.64304,44.0],[23.48687,63.6402,45.3341],[23.48521,63.63707,45.1854],[23.48087,63.63596,46.7467],[23.46702,63.6311,60.7413],[23.46268,63.6301,50.7692],[23.45999,63.62723,55.0061],[23.46155,63.6248,53.9935],[23.46268,63.62154,53.5649],[23.46361,63.61769,47.9281],[23.46475,63.61444,46.5556],[23.46103,63.61214,53.7111],[23.44356,63.60749,64.2743],[23.46155,63.60346,64.3286],[23.49193,63.59943,58.7678],[23.54505,63.59922,54.5681],[23.56676,63.59245,61.6575],[23.56821,63.58511,70.6409],[23.57802,63.55674,56.0428],[23.599,63.54759,60.5501],[23.61771,63.54359,67.3796],[23.63993,63.53214,69.4348],[23.65264,63.51235,92.8136],[23.67528,63.42419,71.8516],[23.68685,63.40698,67.8655],[23.71073,63.38603,83.911],[23.71011,63.3828,80.8142],[23.70742,63.38161,82.6147],[23.70349,63.38213,85.9619],[23.69936,63.38063,86.0752],[23.71962,63.35699,85.7896],[23.74297,63.33562,92.7103],[23.76954,63.31696,99.2842],[23.79941,63.30156,92.5612],[23.83362,63.28947,93.2859],[23.87051,63.28162,99.4214],[24.04321,63.26306,138.2907],[24.11153,63.2381,138.8612],[24.20176,63.19149,157.4305],[24.22491,63.17454,164.0271],[24.20331,63.16669,158.9759],[24.18977,63.16007,162.1411],[24.1783,63.1516,155.143],[24.21943,63.15211,178.4458],[24.36278,63.1192,177.7611],[24.52825,63.15914,158.6484],[24.5854,63.15708,192.6226],[24.7364,63.13708,201.9598],[24.73919,63.1425,201.2999],[24.73754,63.1625,208.7781],[24.74333,63.18074,199.6103],[24.75687,63.20834,196.406],[24.7641,63.23157,190.0207],[24.761,63.24451,197.4921],[24.75935,63.26286,188.7157],[24.76782,63.26699,184.3374],[24.79304,63.27454,183.2869],[24.79986,63.27575,174.5291],[24.78457,63.31169,165.6855],[24.78343,63.35221,166.8599],[24.81123,63.38078,176.9173],[24.89567,63.41812,168.3701],[25.02868,63.45804,170.8551],[25.00068,63.48401,173.3943],[24.76865,63.60459,140.5409],[24.63036,63.65898,141.5098],[24.56442,63.70211,129.2163],[24.44846,63.81006,125.6374],[24.40826,63.83414,111.6883],[24.35658,63.85021,114.7816],[24.27173,63.86812,108.9132],[24.2431,63.8838,93.9628],[24.24072,63.89269,96.0054],[24.22698,63.91739,74.4586],[24.22388,63.92537,82.4191],[24.1937,63.93553,90.6925],[24.14522,63.95899,83.9677],[24.12724,63.97775,87.5488],[24.10182,64.02364,73.5378],[24.09396,64.04772,70.6455],[24.03639,64.07785,56.5398],[23.88219,64.11071,43.0321]]],
[[[23.68124,64.18793,9.8753],[23.67579,64.18716,10.8527],[23.67563,64.18207,0.0],[23.68035,64.18203,0.0],[23.68808,64.18041,0.0],[23.68124,64.18793,9.8753]]],
[[[23.57317,64.18875,0.0],[23.56788,64.19538,5.1565],[23.5586,64.19416,4.4472],[23.55738,64.19103,0.0],[23.56918,64.18728,0.0],[23.57317,64.18875,0.0]]],
[[[23.68312,64.17516,0.0],[23.67449,64.18041,12.4653],[23.66879,64.1848,8.0448],[23.66538,64.18749,6.9527],[23.65862,64.19628,0.6914],[23.65618,64.1894,0.0],[23.65821,64.18476,0.0],[23.66261,64.18138,0.0],[23.66814,64.17418,0.0],[23.67758,64.17235,0.0],[23.68312,64.17516,0.0]]],
[[[23.65187,64.19123,2.3213],[23.64959,64.1992,2.702],[23.64503,64.20279,13.2456],[23.63982,64.20291,12.4223],[23.63592,64.2014,7.0201],[23.63331,64.19888,12.8666],[23.62949,64.19721,5.6333],[23.61866,64.19566,9.6126],[23.60947,64.18838,9.6624],[23.60385,64.18985,14.0718],[23.59929,64.18891,14.7092],[23.59767,64.18439,0.0],[23.60426,64.18057,0.0],[23.62664,64.18224,0.0],[23.6399,64.18793,0.0],[23.64479,64.18521,0.0],[23.64975,64.1848,0.2174],[23.65187,64.19123,2.3213]]],
[[[23.64934,64.20909,0.0],[23.64487,64.21398,11.8892],[23.63852,64.21377,9.1261],[23.63754,64.21039,0.0],[23.63893,64.2073,7.81],[23.6443,64.2049,7.0686],[23.64934,64.20909,0.0]]],
[[[23.68653,64.22061,0.0],[23.68344,64.22399,11.7949],[23.68222,64.21922,0.0],[23.68621,64.21719,0.0],[23.68653,64.22061,0.0]]],
[[[23.6548,64.2294,0.0],[23.65447,64.23367,2.4209],[23.64829,64.2368,5.3058],[23.64617,64.23139,0.0],[23.64829,64.22903,0.0],[23.6548,64.2294,0.0]]],
[[[23.51564,64.3087,0.0],[23.51938,64.30984,0.0],[23.51905,64.31375,0.0],[23.51564,64.31501,0.0],[23.51165,64.3133,0.0],[23.50896,64.30858,0.0],[23.51564,64.3087,0.0]]]]}
,"properties": {"ISO3166-1-Alpha-3": "FIN","country": "Finland","fill": "#FF0","name": "Central Ostrobothnia","area_km2": 5308.022,"hist_schema_id": "Elevation0-9000","hist_area_km2": {"0": 213.212,"25": 641.808,"50": 458.225,"75": 477.815,"100": 812.311,"125": 979.745,"150": 851.117,"175": 751.978,"200": 120.645,"225": 1.167}}}