{"type":"Feature","properties":{"GID_3":"FIN.5.4.4_1","GID_0":"FIN","country":"Finland","GID_1":"FIN.5_1","province":"WesternFinland","NL_NAME_1":"NA","GID_2":"FIN.5.4_1","county":"Ostrobothnia","NL_NAME_2":"NA","city":"Vaasa","VARNAME_3":"NA","NL_NAME_3":"NA","TYPE_3":"Seutukunta|Ekonomiskregion","ENGTYPE_3":"Sub-Region","CC_3":"NA","HASC_3":"FI.LS.VA","name":"Vaasa.city"},
"geometry":{"type": "MultiPolygon","coordinates": [[[[21.3629,62.7425,27.2937],[21.3631,62.747,25.8393],[21.3827,62.7468,38.0288],[21.3829,62.7513,29.8227],[21.3731,62.7514,31.75],[21.3733,62.7559,31.7363],[21.3831,62.7558,27.6822],[21.3833,62.7603,29.6683],[21.4716,62.7594,18.1817],[21.4718,62.7639,18.2107],[21.5404,62.7632,27.4218],[21.5402,62.7587,39.6203],[21.55,62.7586,43.7894],[21.5498,62.7541,33.0063],[21.6184,62.7533,47.9983],[21.6179,62.7444,43.1811],[21.6669,62.7438,32.3298],[21.6667,62.7393,32.012],[21.6961,62.739,35.2277],[21.6966,62.748,36.4245],[21.7064,62.7478,36.1592],[21.7072,62.7613,37.3879],[21.717,62.7612,37.5015],[21.7172,62.7657,38.6773],[21.727,62.7656,48.0124],[21.7305,62.824,24.7487],[21.7403,62.8238,47.9902],[21.7408,62.8328,33.7645],[21.7506,62.8327,54.3702],[21.7509,62.8372,38.7822],[21.7607,62.8371,45.2137],[21.7613,62.846,28.3694],[21.7711,62.8459,32.4186],[21.7727,62.8729,29.688],[21.7826,62.8727,34.7806],[21.7842,62.8997,25.4427],[21.794,62.8996,21.0002],[21.7954,62.922,26.9846],[21.8053,62.9219,28.0925],[21.8058,62.9309,38.6398],[21.8157,62.9308,39.9604],[21.8163,62.9397,38.1046],[21.8261,62.9396,36.414],[21.8264,62.9441,43.3844],[21.8363,62.944,27.0292],[21.8368,62.953,33.8337],[21.8467,62.9528,18.8133],[21.847,62.9573,19.1251],[21.8568,62.9572,29.3945],[21.8574,62.9662,23.3857],[21.8673,62.9661,20.2419],[21.8676,62.9706,17.5664],[21.8774,62.9704,15.1466],[21.878,62.9794,21.729],[21.8879,62.9793,11.6888],[21.889,62.9972,8.2391],[21.8989,62.9971,8.2143],[21.9007,63.0241,7.374],[21.9106,63.0239,8.3582],[21.9135,63.0688,7.1745],[21.9036,63.069,10.4868],[21.9039,63.0735,12.8393],[21.9138,63.0733,5.9102],[21.9144,63.0823,6.0803],[21.9243,63.0822,6.9611],[21.924,63.0777,7.7604],[21.9339,63.0775,4.9551],[21.9342,63.082,6.3995],[21.9441,63.0819,9.9495],[21.9444,63.0864,8.7097],[21.9543,63.0863,15.8525],[21.9549,63.0952,9.1539],[21.9648,63.0951,23.689],[21.9652,63.0996,35.2717],[21.9751,63.0995,26.0758],[21.9757,63.1085,33.8554],[21.9856,63.1083,25.5508],[21.9859,63.1128,27.7457],[21.9958,63.1127,29.0843],[21.9967,63.1261,24.5608],[22.0067,63.126,21.0894],[22.007,63.1305,14.5836],[22.0269,63.1302,12.9955],[22.0272,63.1347,17.8489],[22.057,63.1343,21.0148],[22.0573,63.1388,13.0926],[22.0771,63.1385,9.2726],[22.0768,63.134,22.7178],[22.0967,63.1337,23.8447],[22.0963,63.1292,26.392],[22.1162,63.1289,15.8815],[22.1159,63.1245,23.5473],[22.1258,63.1243,15.7495],[22.1252,63.1153,21.8034],[22.1351,63.1152,23.6484],[22.1347,63.1107,25.3038],[22.1447,63.1105,28.7956],[22.1443,63.1061,26.0629],[22.1543,63.1059,33.6215],[22.1539,63.1014,31.4233],[22.1638,63.1013,34.2062],[22.1635,63.0968,26.9295],[22.1734,63.0966,22.5325],[22.1731,63.0921,17.9227],[22.1929,63.0918,27.5722],[22.1926,63.0873,27.8048],[22.2025,63.0872,22.1621],[22.2018,63.0782,21.2741],[22.2118,63.0781,18.5471],[22.2114,63.0736,32.3072],[22.2213,63.0734,16.7528],[22.221,63.0689,16.2644],[22.2408,63.0686,16.886],[22.2404,63.0641,37.5549],[22.2603,63.0638,18.7086],[22.2599,63.0593,23.5573],[22.3391,63.0581,32.6667],[22.3395,63.0626,32.8031],[22.3593,63.0623,31.8467],[22.3597,63.0667,25.2866],[22.3696,63.0666,38.1774],[22.3699,63.0711,41.304],[22.3898,63.0708,44.2182],[22.3901,63.0752,57.0152],[22.4,63.0751,43.1663],[22.4004,63.0796,44.3314],[22.4202,63.0792,35.8275],[22.4206,63.0837,44.1576],[22.4305,63.0836,43.7697],[22.4309,63.0881,59.6902],[22.4507,63.0877,49.6091],[22.4511,63.0922,48.0271],[22.461,63.092,43.2753],[22.4614,63.0965,56.0605],[22.4812,63.0962,38.3043],[22.4816,63.1007,41.6157],[22.5807,63.0989,48.9845],[22.5812,63.1034,43.5906],[22.6506,63.1022,52.1316],[22.6522,63.1201,61.0638],[22.6423,63.1203,48.8392],[22.6427,63.1248,45.7174],[22.6328,63.125,50.409],[22.6332,63.1295,48.9303],[22.6431,63.1293,46.876],[22.6435,63.1338,49.5498],[22.6633,63.1334,60.6514],[22.6625,63.1245,47.9365],[22.6824,63.1241,48.8657],[22.6848,63.151,51.332],[22.6749,63.1512,64.7404],[22.6786,63.1916,57.0751],[22.6687,63.1918,59.4441],[22.6683,63.1873,58.0029],[22.6484,63.1876,63.3728],[22.648,63.1832,62.475],[22.638,63.1833,59.2156],[22.6376,63.1789,61.4075],[22.6177,63.1792,65.8433],[22.6181,63.1837,64.7125],[22.6082,63.1839,64.0272],[22.6086,63.1884,61.723],[22.5986,63.1885,63.5655],[22.5982,63.1841,61.5703],[22.5883,63.1842,64.6281],[22.5879,63.1797,65.4469],[22.578,63.1799,57.7482],[22.5787,63.1889,64.0416],[22.5887,63.1887,65.2597],[22.5899,63.2022,47.5724],[22.5998,63.202,61.6468],[22.601,63.2155,43.1363],[22.5811,63.2158,39.1493],[22.5807,63.2113,39.5048],[22.5708,63.2115,38.9806],[22.572,63.225,44.0388],[22.5819,63.2248,46.0457],[22.5823,63.2293,51.6636],[22.5923,63.2291,53.4423],[22.5927,63.2336,47.2292],[22.6027,63.2334,46.4056],[22.6035,63.2424,49.1536],[22.5835,63.2428,51.8156],[22.5839,63.2473,50.8215],[22.564,63.2476,48.1485],[22.566,63.2701,48.5305],[22.5759,63.2699,50.5778],[22.5763,63.2744,53.229],[22.5863,63.2742,55.3532],[22.5867,63.2787,48.9989],[22.6167,63.2782,46.2206],[22.6175,63.2871,56.1345],[22.6075,63.2873,49.1845],[22.6079,63.2918,50.0884],[22.5979,63.292,55.2824],[22.5983,63.2965,51.2642],[22.5883,63.2967,50.744],[22.5891,63.3056,48.5789],[22.5791,63.3058,51.8365],[22.5795,63.3103,48.7145],[22.5696,63.3105,55.1765],[22.57,63.315,48.3891],[22.56,63.3151,40.5211],[22.5607,63.3241,38.2891],[22.5508,63.3243,30.5831],[22.5516,63.3333,22.4631],[22.5416,63.3335,22.8523],[22.542,63.3379,20.8349],[22.422,63.34,8.1301],[22.4223,63.3445,11.9624],[22.383,63.3451,0.0],[22.3859,63.3401,3.4988],[22.3911,63.337,0.0],[22.3901,63.3339,0.0],[22.3911,63.3297,0.2762],[22.3708,63.3271,0.0],[22.3625,63.3208,3.1494],[22.3563,63.325,0.0],[22.3484,63.3224,0.0],[22.3536,63.3203,6.6898],[22.3526,63.3172,0.0],[22.3599,63.3161,0.0],[22.3589,63.313,8.7533],[22.362,63.312,15.6891],[22.3609,63.3089,11.594],[22.3661,63.3057,3.3376],[22.3651,63.3026,0.0],[22.3682,63.3016,0.0],[22.3672,63.2984,1.3627],[22.3703,63.2922,2.3834],[22.3542,63.2917,0.0],[22.35,63.2938,0.0],[22.3375,63.2938,0.0],[22.3224,63.3036,11.2957],[22.3151,63.3047,5.381],[22.3057,63.312,8.8664],[22.3,63.3104,31.9583],[22.2958,63.3125,0.0],[22.2854,63.3125,0.0],[22.2818,63.3089,1.2188],[22.2849,63.3078,5.7506],[22.287,63.3047,11.7357],[22.2818,63.3036,0.0],[22.2771,63.3,0.0],[22.2667,63.3,0.7817],[22.2589,63.2974,3.032],[22.2568,63.2953,9.8216],[22.2599,63.2932,3.7457],[22.2578,63.2901,9.1962],[22.2437,63.2854,4.771],[22.2339,63.288,0.0],[22.237,63.2943,4.1827],[22.2359,63.2974,0.0],[22.2443,63.3099,0.0],[22.2495,63.3109,6.3145],[22.2536,63.3151,0.0],[22.2505,63.3182,7.7311],[22.2536,63.3224,10.3873],[22.2516,63.3245,0.0],[22.2479,63.325,7.6282],[22.2443,63.3203,13.529],[22.2453,63.3172,0.0],[22.238,63.3172,0.0],[22.2391,63.3203,0.0],[22.2359,63.3224,5.3954],[22.2391,63.3266,0.0],[22.2359,63.3286,0.0],[22.2391,63.3328,0.0],[22.2359,63.3339,13.7332],[22.237,63.337,0.0],[22.2333,63.3396,8.3982],[22.2271,63.3375,0.0],[22.2224,63.3411,7.2826],[22.2172,63.3411,19.2525],[22.2089,63.3286,2.9578],[22.212,63.3214,6.9348],[22.2099,63.3193,2.6171],[22.2047,63.3182,0.0],[22.2,63.3125,15.9766],[22.188,63.313,0.0],[22.1911,63.3172,8.2569],[22.1911,63.3203,0.0],[22.1688,63.3229,6.2854],[22.1646,63.325,2.6411],[22.1609,63.3224,5.2205],[22.162,63.3172,10.265],[22.1604,63.3167,7.7166],[22.1396,63.3208,4.1351],[22.138,63.3224,7.3677],[22.1401,63.3245,0.0],[22.1453,63.3255,10.559],[22.1432,63.3286,6.2757],[22.1292,63.3292,0.7637],[22.1266,63.3328,3.5049],[22.1167,63.3333,0.0],[22.1125,63.3354,0.0],[22.1083,63.3354,9.4524],[22.0917,63.3292,10.7919],[22.0854,63.3292,0.0],[22.0839,63.3286,0.0],[22.0849,63.3255,6.6494],[22.0771,63.325,3.3946],[22.0729,63.3229,10.8096],[22.0646,63.3271,11.3827],[22.0609,63.3234,12.7215],[22.0641,63.3224,17.4341],[22.063,63.3193,0.0],[22.0651,63.3172,0.0],[22.0714,63.313,0.0],[22.0786,63.312,0.0],[22.0776,63.3089,3.8621],[22.0807,63.3078,13.7862],[22.0797,63.3047,0.0],[22.0818,63.3026,0.0],[22.0875,63.3,0.0],[22.0932,63.2995,15.287],[22.087,63.2922,9.3803],[22.075,63.2917,0.0],[22.0708,63.2896,0.0],[22.0609,63.2922,0.0],[22.0661,63.2943,0.0],[22.0682,63.2974,0.0],[22.063,63.3006,0.0],[22.0641,63.3036,0.0],[22.0599,63.3057,14.3347],[22.0557,63.312,0.0],[22.0307,63.3286,12.014099999999999],[22.0234,63.3276,0.0],[22.0266,63.3349,0.0],[22.0208,63.3354,2.1656],[22.0146,63.3312,8.1373],[21.9979,63.3312,11.6646],[21.9964,63.3297,8.0751],[21.9995,63.3286,5.1765],[21.9984,63.3255,7.3505],[22.0005,63.3234,0.0],[22.012,63.3224,8.5591],[22.0193,63.3172,0.0],[22.0266,63.3161,3.1243],[22.0286,63.313,7.2015],[22.0208,63.3104,8.855],[22.0161,63.3141,2.3524],[22.0104,63.3146,0.0],[21.9932,63.3224,6.1759],[21.9901,63.3224,15.8281],[21.9807,63.3089,0.0],[21.9734,63.3016,0.0],[21.9745,63.2964,6.9961],[21.9672,63.2859,0.0],[21.9703,63.2849,12.8053],[21.9693,63.2818,0.0],[21.975,63.2792,0.0],[22.0016,63.2786,0.1215],[21.9922,63.2755,16.5547],[21.9974,63.2724,13.3617],[21.9964,63.2693,11.1583],[22.0021,63.2667,0.0],[22.0062,63.2667,0.0],[22.0167,63.2708,0.0],[22.0245,63.2714,0.0144],[22.0224,63.2745,0.0],[22.0193,63.2755,10.7856],[22.0214,63.2786,0.0],[22.0292,63.2813,0.0],[22.0438,63.2792,0.0],[22.0521,63.2854,0.0],[22.0646,63.2813,0.0],[22.0724,63.2807,13.4306],[22.0734,63.2776,0.0],[22.0786,63.2766,6.5929],[22.0792,63.275,0.0],[22.0786,63.2734,3.5813],[22.0708,63.2708,6.8798],[22.0568,63.2703,0.0],[22.0547,63.2682,2.2412],[22.0563,63.2667,0.0],[22.0667,63.2667,0.0],[22.0708,63.2687,4.1819],[22.0792,63.2646,0.0],[22.0917,63.2646,12.9052],[22.0958,63.2625,0.0],[22.1042,63.2625,16.231],[22.1146,63.2562,0.0],[22.1333,63.2583,5.5454],[22.1396,63.2542,0.0],[22.1542,63.2562,0.0],[22.1583,63.2542,0.0],[22.1661,63.2609,0.0],[22.163,63.2641,0.0],[22.1661,63.2682,0.0],[22.163,63.2703,4.8562],[22.1745,63.2714,0.0],[22.1729,63.2729,8.9378],[22.1672,63.2734,0.0],[22.1599,63.2786,0.4569],[22.1526,63.2797,17.786],[22.1505,63.2818,6.7477],[22.1526,63.287,0.3026],[22.1604,63.2875,5.4479],[22.162,63.287,7.1921],[22.1609,63.2839,0.0],[22.163,63.2818,0.0],[22.1729,63.2792,0.0],[22.1813,63.2792,0.0],[22.1875,63.275,0.0],[22.2083,63.2729,2.3955],[22.212,63.2682,1.3147],[22.2109,63.2651,0.0],[22.2151,63.263,4.5437],[22.2229,63.2604,0.0],[22.2354,63.2604,0.0],[22.2375,63.2583,0.0],[22.2354,63.2562,-0.2861],[22.2208,63.2562,1.2057],[22.2089,63.263,0.0],[22.2036,63.2682,0.0],[22.1938,63.2687,0.0],[22.1875,63.2708,1.4737],[22.1859,63.2703,1.7394],[22.1859,63.2672,11.3129],[22.1995,63.2641,0.0532],[22.2016,63.2609,12.6345],[22.1839,63.2557,2.7857],[22.1818,63.2516,0.9389],[22.1833,63.2479,0.0],[22.1818,63.2453,0.0],[22.1833,63.2417,0.0],[22.1818,63.2391,0.0],[22.1828,63.2359,0.0],[22.1797,63.2359,0.0],[22.1776,63.238,0.0],[22.1786,63.2432,0.0],[22.1771,63.2438,0.0],[22.15,63.2458,3.5044],[22.1474,63.2422,0.0],[22.1437,63.2417,0.0],[22.1375,63.2458,0.0],[22.1297,63.2432,5.6108],[22.1307,63.2401,0.4783],[22.1068,63.2328,0.0],[22.1021,63.2292,0.0],[22.0922,63.2297,0.0],[22.0943,63.2349,1.432],[22.0995,63.2411,0.0],[22.0964,63.2422,0.0],[22.0974,63.2453,0.0],[22.0943,63.2464,10.8498],[22.0953,63.2495,0.0],[22.0932,63.2536,0.0],[22.0896,63.2562,2.1544],[22.0839,63.2557,11.368],[22.0792,63.2521,0.0],[22.0583,63.2521,0.0],[22.0542,63.25,23.5605],[22.0354,63.25,9.9159],[22.0271,63.2542,2.0477],[22.0234,63.2505,0.0],[22.0297,63.2464,0.0],[22.0354,63.2458,9.0838],[22.037,63.2443,3.6534],[22.0276,63.2432,0.0],[22.0286,63.2401,0.0],[22.0193,63.2391,0.0],[22.0172,63.2359,0.0],[22.0297,63.2276,0.0],[22.037,63.2266,2.7576],[22.0391,63.2234,0.0],[22.037,63.2193,0.0],[22.0292,63.2188,0.0],[22.025,63.2167,-0.3467],[22.0214,63.2172,-0.2762],[22.0224,63.2203,0.0574],[22.0203,63.2245,1.2904],[22.0151,63.2255,12.5206],[22.0099,63.2328,1.5129],[22.0026,63.2339,-0.4649],[22.0047,63.237,0.0],[22.0099,63.238,0.0],[22.0109,63.2411,0.0],[22.0161,63.2422,1.4779],[22.0203,63.2464,0.0],[22.0172,63.2484,0.0],[22.0182,63.2516,0.0],[22.0161,63.2536,1.3447],[22.0,63.2542,0.0],[21.9943,63.2526,10.7817],[21.9901,63.2547,1.8362],[21.9932,63.2599,0.3488],[21.9901,63.2609,3.3869],[21.9911,63.2641,0.0],[21.9891,63.2661,0.0],[21.9771,63.2667,0.0],[21.9693,63.2641,0.0],[21.9651,63.2599,0.0],[21.9682,63.2568,7.1579],[21.9604,63.2542,0.0],[21.9526,63.2547,4.0554],[21.9536,63.2578,13.9822],[21.95,63.2625,0.2746],[21.9464,63.2599,0.0],[21.9432,63.2547,15.67],[21.9354,63.2542,4.2329],[21.9307,63.2505,0.0],[21.925,63.25,0.0],[21.9234,63.2505,0.0],[21.9214,63.2557,0.0],[21.9234,63.2578,0.0],[21.9286,63.2589,0.0],[21.9328,63.2651,0.0],[21.9297,63.2672,10.2434],[21.9307,63.2703,0.0],[21.9224,63.2766,0.0],[21.9125,63.2771,11.8544],[21.9083,63.2792,0.0],[21.8859,63.2703,16.3497],[21.8839,63.2672,0.0],[21.887,63.2651,16.4529],[21.8813,63.2604,9.6279],[21.8625,63.2604,13.1264],[21.8521,63.2667,11.4019],[21.8443,63.2641,5.8492],[21.8391,63.2589,0.0],[21.8312,63.2562,10.466],[21.8271,63.2583,1.5799],[21.8229,63.2583,1.1112],[21.8167,63.2562,4.9795],[21.813,63.2589,5.1782],[21.8141,63.262,0.0],[21.8047,63.2651,0.0],[21.8036,63.2682,6.0985],[21.7875,63.2687,0.0],[21.7859,63.2672,16.7659],[21.7891,63.2661,0.0],[21.788,63.263,0.0],[21.7911,63.2609,12.826599999999999],[21.7797,63.2599,0.0],[21.7797,63.2568,0.0],[21.7953,63.2557,7.745],[21.7932,63.2526,15.8656],[21.7854,63.25,0.0],[21.7771,63.2542,0.0],[21.7724,63.2505,0.0],[21.7672,63.2495,0.0],[21.7646,63.2458,13.1593],[21.7583,63.2479,13.0186],[21.7526,63.2474,8.9388],[21.7495,63.2422,22.3736],[21.7443,63.2411,13.8687],[21.7422,63.2391,15.8987],[21.7438,63.2354,13.9092],[21.7401,63.2297,0.0],[21.7453,63.2266,1.1713],[21.7443,63.2234,0.0],[21.7516,63.2224,0.0],[21.7495,63.2193,0.0],[21.7464,63.2193,0.0],[21.7391,63.2245,1.4102],[21.7318,63.2255,9.0868],[21.7286,63.2286,15.9223],[21.7214,63.2297,16.6312],[21.7224,63.2328,8.1585],[21.7167,63.2333,13.2821],[21.7062,63.2375,0.0],[21.7,63.2375,0.0],[21.6964,63.2349,12.0998],[21.6995,63.2318,4.3921],[21.6943,63.2307,17.5834],[21.6839,63.2182,8.5018],[21.6828,63.2151,6.8317],[21.6792,63.2125,0.0],[21.6688,63.2125,0.0],[21.6641,63.2161,8.3986],[21.6568,63.2172,0.0],[21.6505,63.2214,0.6044],[21.6516,63.2245,3.6799],[21.65,63.225,0.0],[21.6458,63.2229,3.0718],[21.625,63.2229,1.2286],[21.6234,63.2245,18.5103],[21.6266,63.2286,0.0],[21.625,63.2292,0.0],[21.6146,63.2271,11.0168],[21.6083,63.2313,15.1784],[21.6042,63.2292,12.8038],[21.6005,63.2297,17.6207],[21.6036,63.2349,5.0289],[21.5984,63.238,3.3276],[21.5995,63.2411,0.0],[21.5938,63.2438,1.5512],[21.5854,63.2438,14.2827],[21.5818,63.2464,2.8109],[21.5839,63.2495,12.9562],[21.5891,63.2516,0.0],[21.5797,63.2568,0.0],[21.5828,63.262,0.0],[21.5797,63.2641,12.0305],[21.5828,63.2682,0.0],[21.5734,63.2734,1.2906],[21.5786,63.2766,5.7471],[21.5688,63.2771,0.0],[21.5646,63.275,11.9086],[21.5563,63.275,0.3138],[21.5484,63.2724,0.0],[21.5516,63.2693,3.6756],[21.5464,63.2682,4.5602],[21.5443,63.2661,6.601],[21.5474,63.2641,0.0],[21.5464,63.2609,5.0371],[21.5479,63.2583,-0.39],[21.5464,63.2547,0.0],[21.5484,63.2526,1.8261],[21.5557,63.2516,15.4353],[21.5547,63.2484,0.0],[21.5578,63.2464,0.2258],[21.5542,63.2438,0.0],[21.5464,63.2432,3.4807],[21.5474,63.2401,8.1212],[21.5396,63.2375,0.0],[21.5292,63.2375,2.1181],[21.5255,63.2349,0.0],[21.5286,63.2318,8.7518],[21.5193,63.2203,11.3422],[21.5224,63.2172,4.824],[21.5172,63.2161,0.0],[21.5182,63.213,2.5606],[21.5172,63.2109,0.0],[21.5203,63.2089,16.8367],[21.5167,63.2042,0.0],[21.5193,63.2005,0.0],[21.525,63.1979,4.0389],[21.5375,63.1979,1.1614],[21.5438,63.1937,0.0],[21.5521,63.1937,4.2914],[21.562,63.1901,1.7454],[21.5521,63.1854,0.0],[21.5479,63.1875,2.6786],[21.5313,63.1875,5.0297],[21.525,63.1896,0.0],[21.5234,63.188,0.0],[21.5266,63.1859,0.0],[21.5245,63.1839,0.0],[21.5193,63.1828,2.0668],[21.5224,63.1797,0.0],[21.5193,63.1755,1.9887],[21.5224,63.1734,0.0],[21.5187,63.1729,3.4105],[21.5083,63.1771,0.0],[21.5047,63.1766,18.7249],[21.5026,63.1714,8.4117],[21.5125,63.1708,0.0],[21.5141,63.1703,0.0],[21.513,63.1672,0.0],[21.5203,63.1661,0.0],[21.5167,63.1604,0.0],[21.5193,63.1568,0.0],[21.5271,63.1521,0.0],[21.5375,63.1542,6.6051],[21.5411,63.1516,0.0],[21.5391,63.1464,0.0],[21.5276,63.1453,7.365],[21.5307,63.1432,2.3866],[21.5286,63.1401,7.9756],[21.5208,63.1396,16.1527],[21.5193,63.138,14.0521],[21.5208,63.1375,0.0],[21.5208,63.1354,9.9544],[21.5271,63.1333,0.0],[21.5417,63.1333,16.873],[21.5432,63.1349,14.4229],[21.5401,63.1359,1.7595],[21.538,63.1391,0.0],[21.5401,63.1432,0.8398],[21.5438,63.1437,0.0],[21.5516,63.1411,4.3472],[21.5505,63.138,0.0],[21.5599,63.1328,0.0],[21.5568,63.1276,0.0],[21.5661,63.1224,10.4415],[21.5651,63.1193,0.0],[21.5771,63.1188,0.0],[21.5875,63.1229,0.0],[21.6016,63.1203,1.8111],[21.5995,63.1172,8.4445],[21.5901,63.1161,0.0],[21.5859,63.112,2.5025],[21.5839,63.1068,0.0],[21.5875,63.1042,0.0],[21.6078,63.1036,0.5957],[21.6057,63.1005,10.441],[21.6005,63.0995,0.0],[21.6021,63.0958,8.1355],[21.6005,63.0922,0.0],[21.6026,63.0901,0.0],[21.613,63.0839,5.9526],[21.6208,63.0812,0.0],[21.6354,63.0812,11.7375],[21.637,63.0807,14.0929],[21.6359,63.0776,0.0],[21.638,63.0755,4.5402],[21.6479,63.075,0.0],[21.6536,63.0724,5.8491],[21.6526,63.0693,0.0],[21.6542,63.0667,0.0],[21.6526,63.063,-0.1926],[21.6646,63.0625,-0.0358],[21.6703,63.0641,-0.0856],[21.6724,63.062,-1.0],[21.6714,63.0589,-0.2078],[21.6745,63.0568,-0.1718],[21.6437,63.0583,-0.0275],[21.6417,63.0563,-0.1869],[21.6437,63.0542,-0.1183],[21.6521,63.0542,-0.0749],[21.6625,63.05,-0.0357],[21.6708,63.05,0.0149],[21.6724,63.0484,-0.152],[21.6641,63.0443,-1.5],[21.6583,63.0438,-1.5],[21.6536,63.0474,-1.5],[21.6464,63.0484,0.2157],[21.6318,63.0547,-0.0809],[21.6286,63.0578,2.9018],[21.6188,63.0604,13.5083],[21.6109,63.0578,0.0],[21.6063,63.0542,0.0],[21.6021,63.0563,0.0],[21.5979,63.0563,0.0],[21.5964,63.0568,0.0],[21.5974,63.0599,0.0],[21.5953,63.062,0.0],[21.588,63.063,5.3491],[21.5797,63.0693,0.0],[21.5807,63.0745,0.0],[21.575,63.075,9.1243],[21.5708,63.0729,14.7547],[21.5646,63.0729,8.8994],[21.563,63.0734,8.954],[21.5641,63.0766,0.0836],[21.562,63.0786,2.5911],[21.5521,63.0812,0.0],[21.5443,63.0807,0.0],[21.5432,63.0776,14.7202],[21.5396,63.075,15.5904],[21.5339,63.0755,18.8462],[21.537,63.0776,12.3947],[21.5354,63.0792,6.7776],[21.5125,63.0792,2.0029],[21.5109,63.0776,1.9753],[21.5208,63.0771,0.0],[21.5266,63.0745,6.8006],[21.5245,63.0714,16.4923],[21.5193,63.0703,0.0],[21.5172,63.0672,6.1192],[21.5203,63.0661,2.9416],[21.5193,63.063,0.0],[21.5214,63.0609,0.0],[21.5286,63.0599,13.5018],[21.5266,63.0568,8.9231],[21.5167,63.0563,0.0],[21.5141,63.0599,0.0],[21.5083,63.0604,4.8208],[21.5036,63.0568,3.0226],[21.4979,63.0563,0.0],[21.4922,63.0589,0.0],[21.4932,63.062,4.0842],[21.4859,63.063,7.9012],[21.4839,63.0651,5.5343],[21.4849,63.0682,1.6455],[21.4786,63.0724,14.2384],[21.475,63.0729,7.1863],[21.4766,63.0693,0.0],[21.4714,63.0609,0.0],[21.4771,63.0604,0.0],[21.4786,63.0589,1.9036],[21.4672,63.0557,3.4014],[21.4651,63.0526,0.0],[21.4682,63.0516,9.8816],[21.4672,63.0484,7.9249],[21.4693,63.0464,5.9794],[21.4786,63.0401,17.0894],[21.4693,63.0391,0.0],[21.463,63.0328,0.0],[21.4682,63.0286,1.4734],[21.4682,63.0255,2.5808],[21.4661,63.0234,9.7073],[21.4458,63.0229,0.0],[21.4443,63.0245,0.0],[21.4495,63.0276,0.0],[21.4516,63.0307,0.0],[21.4313,63.0292,13.5145],[21.4297,63.0307,0.0],[21.4318,63.0328,0.0],[21.437,63.0339,0.0],[21.4401,63.0391,4.7177],[21.4479,63.0396,11.95],[21.4516,63.0422,6.089],[21.45,63.0438,0.0],[21.4458,63.0438,0.0],[21.4458,63.0458,0.6481],[21.4422,63.0464,4.2664],[21.4453,63.0516,0.0],[21.438,63.0526,16.6789],[21.4401,63.0578,0.0],[21.4453,63.0589,7.5306],[21.4536,63.0693,0.0],[21.4484,63.0734,16.1631],[21.4495,63.0766,0.0],[21.4401,63.0797,0.0],[21.4375,63.0833,3.782],[21.4208,63.0833,3.1496],[21.4167,63.0854,0.0],[21.4063,63.0854,0.0],[21.4021,63.0833,7.4829],[21.3958,63.0875,0.0],[21.3917,63.0854,9.6078],[21.3818,63.0849,0.0],[21.3828,63.0797,0.0],[21.3755,63.0755,10.6578],[21.3854,63.075,1.6861],[21.3917,63.0729,0.0],[21.3943,63.0766,13.8169],[21.4021,63.0771,4.0889],[21.4036,63.0755,0.0],[21.4005,63.0714,0.0],[21.4063,63.0687,1.9028],[21.4146,63.0687,3.6793],[21.4182,63.0661,-1.5],[21.4167,63.0646,-1.5],[21.4125,63.0667,-1.5],[21.3922,63.0661,0.0],[21.3937,63.0646,2.0862],[21.4036,63.0641,0.0],[21.4057,63.0609,11.7043],[21.3984,63.0568,5.5401],[21.4042,63.0542,2.0324],[21.4141,63.0536,0.2695],[21.412,63.0505,10.6576],[21.4005,63.0474,0.0],[21.3984,63.0453,0.0],[21.4016,63.0432,7.7721],[21.4,63.0417,0.0],[21.3771,63.0417,5.8433],[21.3703,63.0453,12.0009],[21.3646,63.0458,0.2051],[21.3542,63.0417,3.7703],[21.3438,63.0417,0.0],[21.3396,63.0396,0.0],[21.3312,63.0396,0.0],[21.3297,63.038,0.0],[21.337,63.037,10.1603],[21.3604,63.0271,0.0],[21.3646,63.0271,11.043],[21.3688,63.025,0.0],[21.3813,63.025,12.1484],[21.3828,63.0245,0.0],[21.3818,63.0214,0.0],[21.3833,63.0208,0.0],[21.4146,63.0187,0.0],[21.4161,63.0172,7.3995],[21.4047,63.0161,0.0],[21.4078,63.0141,2.5716],[21.4063,63.0125,4.1688],[21.3958,63.0125,10.2551],[21.3896,63.0167,0.0],[21.3755,63.0182,0.0],[21.3734,63.0151,0.5031],[21.3807,63.0141,0.2628],[21.3786,63.0109,0.224],[21.3667,63.0125,5.7805],[21.3646,63.0104,0.7357],[21.3651,63.0089,0.0],[21.3703,63.0078,0.0],[21.3766,63.0036,0.0],[21.3729,63.0,13.2157],[21.3682,63.0036,0.0],[21.3563,63.0083,0.0],[21.3479,63.0083,0.8454],[21.3354,63.0125,9.1515],[21.3255,63.012,0.0],[21.3193,63.0047,0.0],[21.325,63.0021,13.6127],[21.325,63.0,0.0],[21.3391,63.0016,0.0],[21.3359,62.9974,0.0],[21.3375,62.9958,0.0],[21.3479,62.9958,0.0],[21.3521,62.9979,0.0],[21.3625,62.9917,0.0],[21.3917,62.9917,0.0],[21.3958,62.9938,7.1155],[21.4021,62.9896,4.3831],[21.4125,62.9896,10.2479],[21.4167,62.9917,0.0],[21.4182,62.9911,3.6019],[21.4172,62.988,0.0],[21.4188,62.9875,0.0],[21.4313,62.9875,0.0],[21.4375,62.9854,0.0],[21.4391,62.987,0.0],[21.4333,62.9896,3.0342],[21.4276,62.9901,18.4074],[21.4224,62.9953,0.0],[21.4151,62.9964,2.8131],[21.4203,62.9995,0.0],[21.4141,63.0036,3.0596],[21.4042,63.0042,0.8437],[21.4026,63.0057,0.0],[21.4161,63.0068,0.0],[21.4182,63.0099,0.0],[21.4125,63.0104,6.8645],[21.4109,63.012,3.4296],[21.4188,63.0125,0.0],[21.4229,63.0104,0.0],[21.4328,63.0099,0.4895],[21.4349,63.0078,0.0],[21.4339,63.0026,0.8559],[21.4354,63.0021,1.4448],[21.4417,63.0062,0.5223],[21.4536,63.0068,0.0],[21.4557,63.0099,0.0],[21.45,63.0125,0.0],[21.4458,63.0125,0.0],[21.4417,63.0104,2.5212],[21.4375,63.0125,2.9529],[21.4292,63.0125,0.0],[21.4271,63.0146,0.7984],[21.4297,63.0182,1.2767],[21.4417,63.0187,0.0],[21.4458,63.0167,0.0],[21.4542,63.0167,0.0],[21.4604,63.0125,9.1794],[21.4703,63.012,0.229],[21.4688,63.0083,3.0033],[21.4708,63.0062,0.0],[21.4833,63.0062,0.0],[21.4875,63.0042,0.0],[21.4974,63.0036,13.4446],[21.4953,63.0005,4.4026],[21.4839,62.9974,12.6633],[21.4792,62.9938,5.3871],[21.4708,62.9938,3.9317],[21.4641,62.9974,0.4243],[21.4542,63.0,0.584],[21.4443,62.9995,9.4789],[21.4401,62.9953,0.0],[21.4458,62.9917,0.0],[21.4557,62.9911,0.2906],[21.4604,62.9875,0.0],[21.4745,62.987,0.2698],[21.4734,62.9818,0.0],[21.4849,62.9745,0.0],[21.487,62.9714,0.0],[21.4625,62.9646,8.4483],[21.4521,62.9646,0.0],[21.4443,62.962,0.0],[21.4411,62.9589,6.9209],[21.4359,62.9578,0.0],[21.4339,62.9557,0.0],[21.4271,62.9458,0.0],[21.4286,62.9432,15.4426],[21.4276,62.9401,0.0],[21.4328,62.937,10.2012],[21.4328,62.9339,6.5574],[21.4276,62.9286,0.0],[21.4224,62.9193,8.3796],[21.4172,62.9182,0.0],[21.4224,62.913,8.6799],[21.4172,62.912,2.4689],[21.412,62.9068,5.0761],[21.4068,62.9057,0.0],[21.4078,62.9005,2.123],[21.4026,62.8922,0.0],[21.4057,62.8911,0.0],[21.4078,62.888,0.2079],[21.4036,62.8818,0.0],[21.3901,62.8818,0.0],[21.3859,62.888,0.0],[21.3891,62.8953,3.8296],[21.3839,62.8984,6.8429],[21.3849,62.9016,14.7964],[21.3813,62.9042,4.1908],[21.3693,62.9036,9.5989],[21.3703,62.8984,0.0],[21.363,62.8891,0.0],[21.3693,62.8839,0.0],[21.3766,62.8828,3.7251],[21.3786,62.8797,7.7225],[21.3703,62.8755,0.0],[21.3625,62.875,0.0],[21.3583,62.8729,10.4713],[21.3521,62.8771,0.0],[21.3297,62.8797,0.0],[21.3146,62.8896,0.124],[21.3104,62.8875,0.0],[21.2896,62.8937,0.0],[21.2854,62.8917,7.3274],[21.2813,62.8917,9.5075],[21.2771,62.8937,0.0],[21.2708,62.8937,3.2122],[21.2625,62.8854,5.7439],[21.2583,62.8875,0.0],[21.2521,62.8875,10.0863],[21.2521,62.8854,0.0],[21.2547,62.8839,0.0],[21.2604,62.8833,0.3542],[21.2641,62.8807,6.8798],[21.2641,62.8776,6.9484],[21.2589,62.8724,0.0],[21.262,62.8703,1.6041],[21.2599,62.8672,0.0],[21.2401,62.8641,0.0],[21.2417,62.8625,0.0],[21.2474,62.862,3.5595],[21.2464,62.8589,0.6069],[21.2474,62.8568,12.2927],[21.2417,62.8563,0.0],[21.2417,62.8542,0.0],[21.2453,62.8536,0.0],[21.2479,62.85,6.5384],[21.2422,62.8432,0.0],[21.2453,62.8411,1.1465],[21.2443,62.838,0.0],[21.2474,62.8359,0.0],[21.2422,62.8349,2.2618],[21.237,62.8297,7.3859],[21.2318,62.8286,0.0],[21.2266,62.8214,0.0],[21.2193,62.8224,4.1507],[21.2161,62.8193,0.0],[21.2109,62.8182,0.0],[21.2141,62.8151,2.1088],[21.2047,62.8141,0.0],[21.2057,62.8109,0.0],[21.2047,62.8089,0.0],[21.2078,62.8078,0.0],[21.2057,62.8047,0.0],[21.1938,62.8042,0.545],[21.1859,62.8068,0.0],[21.1755,62.813,5.0956],[21.1766,62.8161,2.0149],[21.175,62.8167,1.5774],[21.1708,62.8146,1.5383],[21.1542,62.8146,0.0],[21.15,62.8125,0.3713],[21.1422,62.812,0.7138],[21.1411,62.8089,12.4935],[21.1359,62.8078,0.0],[21.1375,62.8042,0.0],[21.1359,62.8016,0.2415],[21.137,62.7984,0.0],[21.1271,62.8,2.5715],[21.1193,62.7974,0.0],[21.1286,62.7932,1.5518],[21.125,62.7875,0.6201],[21.1271,62.7833,2.5084],[21.1255,62.7797,0.0],[21.1286,62.7745,4.9428],[21.1276,62.7714,0.0],[21.137,62.7661,0.0],[21.1339,62.7609,0.0],[21.137,62.7599,0.0],[21.1443,62.7505,0.0],[21.15,62.7479,0.0],[21.1646,62.7479,0.0],[21.1688,62.75,0.0],[21.1771,62.75,0.0],[21.1786,62.7495,0.0],[21.1776,62.7464,0.0],[21.1807,62.7453,0.0],[21.1786,62.7422,6.5238],[21.1734,62.7411,9.7219],[21.1729,62.7396,0.0],[21.1745,62.737,1.3845],[21.1734,62.7339,0.0],[21.1766,62.7318,2.0609],[21.1745,62.7297,0.0],[21.1693,62.7286,0.0],[21.1641,62.7214,0.242],[21.1563,62.7208,1.9782],[21.1516,62.7172,0.0],[21.1464,62.7161,0.0],[21.1443,62.7109,0.0],[21.1474,62.7047,0.0],[21.1445,62.7042,0.0],[21.1439,62.6992,13.5339],[21.1388,62.6956,19.4024],[21.1308,62.693,6.5369],[21.1249,62.6866,17.2687],[21.1449,62.686,9.061],[21.1451,62.6905,11.5107],[21.1843,62.6902,17.0411],[21.1841,62.6857,24.3739],[21.2134,62.6855,6.5949],[21.2129,62.672,16.4529],[21.2324,62.6718,11.5883],[21.2326,62.6763,8.3792],[21.2424,62.6762,8.3294],[21.2426,62.6807,7.8535],[21.2524,62.6806,13.379],[21.2526,62.6851,18.0844],[21.2624,62.685,21.4987],[21.2622,62.6805,22.8137],[21.2719,62.6805,19.9654],[21.2718,62.676,22.9568],[21.2815,62.6759,25.308],[21.2813,62.6714,20.9854],[21.3009,62.6712,20.4609],[21.3011,62.6757,25.6402],[21.3109,62.6756,22.8596],[21.3113,62.6846,21.2071],[21.321,62.6845,24.9765],[21.3212,62.689,17.3],[21.331,62.6889,17.0647],[21.3322,62.7159,17.2559],[21.342,62.7158,17.3454],[21.3422,62.7202,29.1769],[21.352,62.7202,24.2952],[21.3518,62.7157,22.4279],[21.3616,62.7156,28.2563],[21.3618,62.7201,30.6517],[21.3716,62.72,25.1206],[21.3718,62.7244,30.6099],[21.3816,62.7244,27.5753],[21.3818,62.7289,29.5062],[21.372,62.729,36.5436],[21.3722,62.7335,39.2739],[21.3624,62.7335,30.7573],[21.3627,62.738,33.7544],[21.3529,62.7381,28.9906],[21.353,62.7426,29.6922],[21.3629,62.7425,27.2937]]],
[[[21.1896,62.8292,4.6752],[21.1818,62.8286,1.0317],[21.1818,62.8255,3.658],[21.1891,62.8255,0.0],[21.1911,62.8276,0.572],[21.1896,62.8292,4.6752]]],
[[[21.2438,62.8917,5.4792],[21.2422,62.8901,1.9432],[21.2458,62.8875,0.0],[21.2521,62.8875,10.0863],[21.2521,62.8896,7.8771],[21.2536,62.8901,0.0],[21.2521,62.8917,0.6196],[21.2438,62.8917,5.4792]]],
[[[21.2443,62.8943,0.0],[21.2458,62.8937,0.0],[21.2474,62.8953,6.6411],[21.2458,62.8958,6.5536],[21.2443,62.8943,0.0]]],
[[[21.2005,62.9245,1.4384],[21.2036,62.9286,0.0],[21.1938,62.9313,0.0],[21.1854,62.9313,0.42],[21.1786,62.9255,2.1862],[21.1734,62.9245,1.6465],[21.1672,62.9151,0.0],[21.1703,62.9141,0.0],[21.1776,62.9047,0.0],[21.1839,62.9005,0.0],[21.1896,62.9,3.3073],[21.1953,62.8974,3.2407],[21.2057,62.8891,0.0],[21.2057,62.8859,0.0],[21.2021,62.8812,4.9784],[21.2047,62.8776,0.0],[21.225,62.8729,0.9345],[21.2266,62.8724,0.9345],[21.2255,62.8693,0.0],[21.237,62.8672,4.741],[21.2417,62.8729,0.0],[21.2359,62.8786,10.9651],[21.2411,62.8849,0.0],[21.2359,62.888,0.0],[21.237,62.8932,0.7833],[21.2318,62.8974,1.567],[21.2411,62.9047,6.9603],[21.2391,62.9099,0.0],[21.2271,62.9146,0.0],[21.2214,62.9141,6.6305],[21.2167,62.9104,0.0],[21.2109,62.9109,0.0],[21.212,62.9141,0.0],[21.2005,62.9151,0.0],[21.2057,62.9182,5.5183],[21.2005,62.9214,0.0],[21.2005,62.9245,1.4384]]],
[[[21.2536,62.9526,0.0],[21.2505,62.9536,12.7625],[21.2484,62.9505,4.676],[21.2516,62.9505,0.0],[21.2536,62.9526,0.0]]],
[[[21.2578,62.9589,6.4794],[21.2547,62.9599,7.3195],[21.2526,62.9568,12.3722],[21.2557,62.9568,0.0],[21.2578,62.9589,6.4794]]],
[[[21.2604,63.0021,0.0],[21.262,63.0036,0.0],[21.2438,63.0062,0.0],[21.2422,63.0057,0.0],[21.2432,63.0005,5.656],[21.2411,62.9984,0.0],[21.2318,62.9995,0.0],[21.2307,62.9964,0.0],[21.2255,62.9953,5.9286],[21.2214,62.9901,0.0],[21.2276,62.9859,0.0],[21.2417,62.9833,1.1986],[21.25,62.9917,0.0],[21.2443,62.9974,0.0],[21.2479,62.9979,2.7559],[21.2521,62.9958,0.0],[21.2599,62.9984,0.0],[21.2568,63.0016,0.0],[21.2604,63.0021,0.0]]],
[[[21.3458,62.9083,10.5156],[21.3417,62.9083,0.0],[21.3401,62.9068,3.2966],[21.3422,62.9047,0.0],[21.3458,62.9042,0.0],[21.3479,62.9063,0.0],[21.3458,62.9083,10.5156]]],
[[[21.3745,62.9109,11.6957],[21.3693,62.9089,0.0],[21.3729,62.9063,0.0],[21.3766,62.9068,2.1952],[21.3786,62.912,5.2206],[21.3745,62.9109,11.6957]]],
[[[21.3484,62.9193,5.1065],[21.3417,62.9208,0.0],[21.3375,62.9188,0.0],[21.3359,62.9193,0.0],[21.337,62.9224,10.0483],[21.3354,62.9229,4.7722],[21.325,62.9229,12.6781],[21.3214,62.9203,1.6287],[21.3255,62.9172,2.4523],[21.3333,62.9146,0.0],[21.3438,62.9167,3.2866],[21.3479,62.9146,2.1928],[21.3516,62.9172,0.0],[21.3484,62.9193,5.1065]]],
[[[21.3583,62.9708,0.0],[21.3609,62.9672,10.0294],[21.3667,62.9646,0.0],[21.3745,62.9672,0.0],[21.3771,62.9708,6.0852],[21.375,62.9729,12.9421],[21.3604,62.9729,12.3526],[21.3583,62.9708,0.0]]],
[[[21.3464,62.9714,2.4253],[21.3495,62.9714,0.5288],[21.3495,62.9724,0.0],[21.3479,62.9729,0.0],[21.3464,62.9714,2.4253]]],
[[[21.3771,62.9833,3.1076],[21.3807,62.9849,1.5789],[21.3688,62.9896,0.0],[21.3526,62.9891,11.5577],[21.3583,62.9854,0.0],[21.3625,62.9875,0.0],[21.3708,62.9833,1.0153],[21.3771,62.9833,3.1076]]],
[[[21.325,62.9958,3.0004],[21.3292,62.9958,11.6123],[21.3307,62.9974,7.1041],[21.325,62.9979,10.7193],[21.325,63.0,0.0],[21.3193,62.9995,13.5586],[21.3193,62.9984,7.7075],[21.325,62.9958,3.0004]]],
[[[21.1224,62.713,1.4899],[21.1224,62.7161,1.7257],[21.1193,62.7161,0.0],[21.1193,62.713,0.3456],[21.1224,62.713,1.4899]]],
[[[21.0786,62.7432,0.0],[21.0646,62.7438,0.0],[21.0604,62.7458,0.0],[21.0505,62.7411,0.0],[21.0516,62.7359,0.8784],[21.0505,62.7339,0.0],[21.0536,62.7318,10.352],[21.0484,62.7245,0.0],[21.0516,62.7214,0.0],[21.0484,62.7172,0.0],[21.0536,62.7141,7.7222],[21.0526,62.7109,0.0],[21.0589,62.7068,0.0],[21.0766,62.7068,0.0],[21.0818,62.7141,8.5908],[21.0932,62.7234,0.3402],[21.088,62.7276,0.6154],[21.0891,62.7307,0.0],[21.0839,62.7339,0.0],[21.0818,62.738,6.3408],[21.0828,62.7411,0.0],[21.0786,62.7432,0.0]]],
[[[21.1229,62.7313,0.0],[21.1172,62.7255,0.0],[21.125,62.725,0.0],[21.1286,62.7276,0.0],[21.1229,62.7313,0.0]]],
[[[21.1375,62.7333,5.64],[21.1333,62.7333,0.0],[21.1318,62.7318,0.0],[21.1339,62.7297,0.0],[21.1375,62.7292,0.0],[21.1396,62.7313,0.0],[21.1375,62.7333,5.64]]],
[[[21.2318,62.8474,6.0371],[21.237,62.8484,0.0],[21.2417,62.8521,0.0],[21.2417,62.8542,0.0],[21.238,62.8547,10.8103],[21.2328,62.862,4.3593],[21.2208,62.8625,2.3443],[21.2193,62.8609,0.0],[21.2224,62.8589,0.0],[21.2146,62.8583,11.7979],[21.2083,62.8625,0.0],[21.1901,62.8651,3.4865],[21.1911,62.8682,0.0],[21.1896,62.8688,3.4506],[21.1813,62.8688,0.0],[21.1771,62.8708,0.0],[21.1646,62.8708,1.2321],[21.163,62.8693,4.7418],[21.1682,62.8651,7.6582],[21.1646,62.8625,0.0],[21.1604,62.8646,0.0],[21.1542,62.8646,0.0],[21.15,62.8625,10.2917],[21.1458,62.8646,0.0],[21.1417,62.8625,9.3031],[21.1297,62.862,0.0],[21.1276,62.8589,1.6034],[21.1328,62.8578,0.0],[21.1333,62.8563,0.0],[21.1286,62.8505,0.0],[21.1167,62.85,2.6746],[21.1063,62.8458,3.9611],[21.0984,62.8453,0.0],[21.1,62.8438,0.0],[21.1057,62.8432,2.7397],[21.1078,62.8401,2.0805],[21.0964,62.837,1.3875],[21.0958,62.8354,2.325],[21.0984,62.8318,0.9799],[21.1042,62.8292,0.0],[21.1167,62.8292,2.2443],[21.1229,62.8333,4.1852],[21.1271,62.8312,0.3742],[21.1396,62.8312,3.9257],[21.1437,62.8271,0.0],[21.1479,62.8292,0.0],[21.1792,62.8312,0.0],[21.1833,62.8333,2.6513],[21.1979,62.8333,1.9372],[21.2042,62.8375,0.0],[21.2188,62.8375,0.0],[21.2245,62.8422,0.0],[21.2255,62.8453,0.0],[21.2318,62.8474,6.0371]]],
[[[21.1151,62.862,0.7949],[21.1125,62.8583,0.0],[21.1151,62.8547,0.0],[21.1286,62.8547,4.0516],[21.1224,62.8599,0.0],[21.1151,62.862,0.7949]]],
[[[21.1745,62.888,0.5402],[21.1729,62.8896,0.0],[21.1672,62.8891,1.0319],[21.1688,62.8875,0.0],[21.1745,62.888,0.5402]]],
[[[21.0833,62.8917,0.0],[21.0875,62.8896,3.5455],[21.0932,62.8901,0.0],[21.0922,62.8932,0.0],[21.0932,62.8953,0.0],[21.0839,62.9005,0.9681],[21.0807,62.9057,0.0],[21.0776,62.9057,1.1742],[21.0755,62.9026,0.0],[21.0786,62.9016,3.134],[21.0776,62.8984,1.5236],[21.0807,62.8964,0.0],[21.0776,62.8922,0.0],[21.0833,62.8917,0.0]]],
[[[21.0422,62.9109,0.7995],[21.0453,62.9109,0.0],[21.0453,62.912,1.3521],[21.0438,62.9125,1.3809],[21.0422,62.9109,0.7995]]],
[[[21.0068,62.9193,0.4665],[21.0099,62.9193,0.5972],[21.0099,62.9203,0.0],[21.0068,62.9203,0.7011],[21.0068,62.9193,0.4665]]],
[[[20.9583,62.9583,4.9665],[20.962,62.962,0.0],[20.9547,62.963,4.6734],[20.95,62.9667,0.0],[20.9464,62.9661,0.0],[20.9464,62.963,1.6478],[20.9484,62.9609,0.0],[20.9542,62.9583,0.0],[20.9583,62.9583,4.9665]]],
[[[21.0401,62.9745,1.8882],[21.0432,62.9724,1.2678],[21.0422,62.9693,0.0],[21.0438,62.9688,0.0],[21.0495,62.9734,0.0],[21.0464,62.9755,1.52],[21.0474,62.9786,1.9932],[21.0458,62.9792,0.9687],[21.0401,62.9745,1.8882]]],
[[[21.1521,62.8979,0.0],[21.1563,62.8979,2.7558],[21.1604,62.8958,0.0],[21.1641,62.8995,0.0],[21.1583,62.9021,4.0496],[21.1484,62.9016,0.0],[21.1521,62.8979,0.0]]],
[[[21.0859,62.9245,0.0],[21.0839,62.9193,0.0],[21.0875,62.9167,0.0],[21.0953,62.9172,0.0],[21.0995,62.9234,0.0],[21.0979,62.925,0.0],[21.0859,62.9245,0.0]]],
[[[21.1349,62.9745,3.2759],[21.1188,62.9792,0.0],[21.113,62.9786,0.0],[21.125,62.9729,4.7995],[21.1333,62.9729,0.0],[21.1349,62.9745,3.2759]]],
[[[21.163,63.0026,4.2945],[21.1583,63.0042,9.6882],[21.1526,63.0026,0.0],[21.1506,63.0057,7.82],[21.1557,63.0078,0.0],[21.15,63.0104,1.6141],[21.1422,63.0078,4.7204],[21.1375,63.0042,11.9815],[21.1271,63.0042,0.0],[21.1234,63.0016,0.0],[21.1214,62.9964,0.0],[21.1286,62.9953,8.9416],[21.1349,62.9911,10.7891],[21.1339,62.988,0.0],[21.1391,62.9849,11.7992],[21.138,62.9818,0.0],[21.1411,62.9807,10.1521],[21.1401,62.9776,0.0],[21.1542,62.9771,0.0],[21.1583,62.9729,0.0],[21.1568,62.9703,1.5654],[21.1578,62.9651,8.7492],[21.15,62.9625,0.0],[21.1422,62.963,9.4557],[21.1495,62.9672,0.0],[21.1474,62.9703,9.7481],[21.1417,62.9729,0.0],[21.1359,62.9724,0.0],[21.137,62.9693,15.0532],[21.1354,62.9667,1.5515],[21.137,62.963,12.3447],[21.1359,62.9609,9.5919],[21.1391,62.9599,11.7838],[21.1411,62.9568,8.0807],[21.1359,62.9547,0.0],[21.1417,62.9521,0.0],[21.1474,62.9516,12.0343],[21.1521,62.9479,2.6341],[21.1578,62.9474,13.7474],[21.1625,62.9437,9.2076],[21.1786,62.9443,0.0],[21.1776,62.9495,0.0],[21.1833,62.9562,5.5917],[21.1995,62.9557,0.0],[21.2016,62.9516,4.9047],[21.1984,62.9453,0.7769],[21.2,62.9437,0.0],[21.2042,62.9437,1.7025],[21.2083,62.9458,2.019],[21.2224,62.9464,0.0],[21.2224,62.9495,0.0],[21.2172,62.9505,11.215],[21.2151,62.9547,7.4504],[21.2167,62.9583,0.0],[21.2151,62.9609,10.7051],[21.2161,62.9641,1.4118],[21.213,62.9651,3.9317],[21.2141,62.9682,0.0],[21.2089,62.9714,11.6673],[21.2104,62.975,0.0],[21.2089,62.9786,11.0351],[21.2141,62.9859,0.0],[21.2109,62.988,0.0],[21.212,62.9911,0.0],[21.2062,62.9896,7.3592],[21.1958,62.9896,5.2071],[21.1943,62.9901,11.3322],[21.1953,62.9932,3.2766],[21.1896,62.9938,10.4755],[21.1776,62.9984,0.0],[21.1786,63.0016,0.0],[21.1688,63.0042,0.0],[21.163,63.0026,4.2945]]],
[[[21.2938,63.0062,14.4221],[21.2896,63.0062,8.0778],[21.288,63.0047,0.0],[21.2917,63.0021,4.4627],[21.2979,63.0021,0.0],[21.3016,63.0047,10.0376],[21.3,63.0062,6.5151],[21.2938,63.0062,14.4221]]],
[[[21.2964,63.0089,0.0],[21.2995,63.0089,0.0],[21.2995,63.0099,0.0],[21.2964,63.0099,0.0],[21.2964,63.0089,0.0]]],
[[[21.2125,63.0125,0.0],[21.2109,63.013,7.4074],[21.212,63.0161,4.1105],[21.2047,63.0172,3.3892],[21.2026,63.0193,0.0],[21.2036,63.0245,1.1512],[21.2,63.0271,0.0],[21.1896,63.0271,0.0],[21.1859,63.0245,0.0],[21.1859,63.0214,4.3863],[21.1911,63.0172,0.0064],[21.1646,63.0167,5.004],[21.1609,63.0141,1.1435],[21.1708,63.0104,0.0],[21.1786,63.0099,0.0],[21.1818,63.0047,5.5515],[21.1891,63.0036,0.0],[21.188,63.0005,0.0],[21.2,62.9938,0.0],[21.2042,62.9958,1.0179],[21.2146,62.9958,0.0],[21.2286,63.0005,0.0],[21.2339,63.0078,0.0881],[21.2391,63.0089,0.0],[21.2411,63.0109,0.0],[21.237,63.0141,0.0],[21.2313,63.0146,1.8847],[21.2234,63.012,7.0574],[21.2203,63.0068,11.176],[21.2167,63.0062,3.8268],[21.213,63.0089,3.0239],[21.2141,63.012,0.0],[21.2125,63.0125,0.0]]],
[[[21.2839,63.0109,0.0],[21.2854,63.0104,0.0],[21.287,63.012,4.6315],[21.2854,63.0125,6.8151],[21.2839,63.0109,0.0]]],
[[[21.3599,63.0234,0.0],[21.3583,63.025,0.0],[21.3526,63.0245,5.9397],[21.3542,63.0229,0.0],[21.3599,63.0234,0.0]]],
[[[21.386,63.056,0.0],[21.3734,63.0589,0.0],[21.3745,63.062,11.3311],[21.3729,63.0625,12.783],[21.3625,63.0583,10.3418],[21.3526,63.0578,0.0],[21.3557,63.0557,0.0],[21.3547,63.0526,12.5284],[21.362,63.0516,0.0],[21.3667,63.0479,0.0],[21.3729,63.0479,0.0],[21.3771,63.05,5.7262],[21.3813,63.0479,0.0],[21.3854,63.05,15.5248],[21.3917,63.0479,13.5061],[21.3974,63.0505,6.0347],[21.3953,63.0536,9.4413],[21.386,63.056,0.0]]],
[[[21.3208,63.0604,9.2228],[21.313,63.0599,0.0],[21.313,63.0568,0.0],[21.3188,63.0563,5.7429],[21.3229,63.0583,0.0],[21.3307,63.0589,10.9479],[21.3292,63.0604,13.6884],[21.3208,63.0604,9.2228]]],
[[[21.3312,63.0687,3.2988],[21.3328,63.0672,10.7338],[21.3276,63.0651,3.4652],[21.3411,63.0651,0.0],[21.338,63.0672,0.0],[21.3391,63.0703,0.0],[21.3297,63.0703,0.0],[21.3312,63.0687,3.2988]]],
[[[21.2641,63.0245,0.0],[21.2563,63.025,2.6061],[21.2547,63.0234,0.0],[21.2625,63.0229,0.0],[21.2641,63.0245,0.0]]],
[[[21.2813,63.0458,0.0],[21.2734,63.0432,0.0],[21.2734,63.0422,0.0],[21.287,63.0422,14.0304],[21.2813,63.0458,0.0]]],
[[[21.3089,63.0776,0.0],[21.3104,63.0771,2.936],[21.312,63.0786,2.9075],[21.3104,63.0792,0.4508],[21.3089,63.0776,0.0]]],
[[[21.3208,63.0854,6.1207],[21.3172,63.0839,0.0],[21.3245,63.0818,10.7641],[21.3224,63.0849,9.3079],[21.3208,63.0854,6.1207]]],
[[[21.325,63.0729,0.0],[21.3172,63.0693,2.4092],[21.3245,63.0693,0.0],[21.3266,63.0714,5.2502],[21.325,63.0729,0.0]]],
[[[21.3318,63.0901,0.0],[21.3375,63.0896,0.0],[21.3391,63.0911,9.2088],[21.3297,63.0932,12.4042],[21.3318,63.0901,0.0]]],
[[[21.3516,63.0924,9.9152],[21.35,63.0938,4.8659],[21.3464,63.0932,13.1003],[21.3479,63.0917,13.0977],[21.3516,63.0924,9.9152]]],
[[[21.3359,63.0943,13.243],[21.3391,63.0943,14.0127],[21.3391,63.0953,15.1845],[21.3375,63.0958,8.9777],[21.3359,63.0943,13.243]]],
[[[20.813,62.9755,0.9427],[20.8146,62.975,0.4641],[20.8161,62.9766,1.2923],[20.8146,62.9771,2.0482],[20.813,62.9755,0.9427]]],
[[[20.8458,62.975,0.0],[20.8417,62.975,7.5588],[20.838,62.9776,7.7764],[20.8354,62.9833,0.0],[20.8391,62.9891,0.0],[20.8359,62.9901,2.3009],[20.837,62.9932,1.8918],[20.8349,62.9953,0.0],[20.8292,62.9979,1.2],[20.8255,62.9953,0.0],[20.8234,62.9911,1.4323],[20.8245,62.9859,0.0],[20.8146,62.9854,0.7456],[20.8125,62.9833,0.0],[20.813,62.9818,0.0],[20.8224,62.9786,2.012],[20.8255,62.9734,0.6612],[20.8307,62.9703,0.0],[20.8276,62.9651,0.0],[20.8396,62.9604,0.0],[20.8474,62.9609,0.0],[20.8443,62.9641,2.8654],[20.8484,62.9682,2.3434],[20.8536,62.9693,0.0],[20.8563,62.9729,0.0],[20.8661,62.9734,0.0],[20.8682,62.9786,1.7943],[20.8625,62.9771,0.0],[20.85,62.9771,0.4292],[20.8458,62.975,0.0]]],
[[[20.8458,62.9917,1.0416],[20.8474,62.9932,0.0],[20.8422,62.9932,4.0134],[20.8422,62.9922,2.9167],[20.8458,62.9917,1.0416]]],
[[[20.9891,63.0057,0.0],[20.9813,63.0062,2.3528],[20.9797,63.0047,1.1081],[20.9875,63.0042,0.0],[20.9891,63.0057,0.0]]],
[[[20.8375,63.0083,0.0],[20.8339,63.0047,0.0],[20.8375,63.0021,0.0],[20.8391,63.0026,0.0],[20.838,63.0057,1.6924],[20.8391,63.0078,0.0],[20.8375,63.0083,0.0]]],
[[[20.8401,63.013,0.0],[20.8354,63.0146,1.9547],[20.8333,63.0125,0.0],[20.8354,63.0104,2.3951],[20.8396,63.0104,0.0],[20.8411,63.0109,0.0],[20.8401,63.013,0.0]]],
[[[20.8641,63.0172,0.0],[20.8609,63.0182,0.0],[20.8589,63.0151,1.6134],[20.862,63.0151,1.488],[20.8641,63.0172,0.0]]],
[[[20.8672,63.0255,0.0],[20.8688,63.025,2.0136],[20.8703,63.0266,2.3767],[20.8672,63.0266,0.0],[20.8672,63.0255,0.0]]],
[[[20.813,63.0526,4.3987],[20.8089,63.0536,5.3059],[20.8125,63.05,0.0],[20.8141,63.0505,1.1645],[20.813,63.0526,4.3987]]],
[[[20.837,63.0547,0.0],[20.837,63.0578,0.0],[20.8271,63.0583,2.5357],[20.8229,63.0604,0.0],[20.8193,63.0578,0.9928],[20.8193,63.0547,2.1166],[20.8292,63.0542,2.2936],[20.8328,63.0505,0.0],[20.8271,63.05,0.0],[20.8208,63.0521,0.0],[20.8151,63.0484,0.0],[20.8172,63.0464,0.0],[20.8271,63.0438,0.0],[20.8333,63.0479,0.0],[20.8417,63.0479,0.0],[20.8458,63.0458,0.0],[20.8536,63.0484,0.8624],[20.8521,63.05,6.5427],[20.8438,63.05,5.5733],[20.8359,63.0526,2.282],[20.837,63.0547,0.0]]],
[[[20.8401,63.0651,5.5986],[20.8432,63.0651,7.8286],[20.8432,63.0661,8.108],[20.8417,63.0667,0.0],[20.8401,63.0651,5.5986]]],
[[[20.8224,63.0672,6.5669],[20.8193,63.0682,2.8044],[20.8172,63.0651,0.0],[20.8203,63.0651,0.0],[20.8224,63.0672,6.5669]]],
[[[21.1141,62.9953,0.0],[21.1,62.9958,5.7424],[21.0984,62.9964,2.6982],[21.0995,62.9995,0.0],[21.0901,62.9995,0.6356],[21.0964,62.9943,0.0],[21.1036,62.9932,7.2304],[21.113,62.9859,0.0],[21.1266,62.9859,0.0],[21.1224,62.9891,0.0],[21.113,62.9922,0.0],[21.1141,62.9953,0.0]]],
[[[21.1151,63.0068,1.0518],[21.1167,63.0062,0.0],[21.1182,63.0078,0.0],[21.1167,63.0083,2.4065],[21.1151,63.0068,1.0518]]],
[[[21.1245,63.0151,4.4551],[21.1234,63.013,0.0],[21.125,63.0125,0.0],[21.1297,63.0161,7.7922],[21.1349,63.0172,0.0],[21.1339,63.0224,0.6573],[21.1391,63.0286,0.0],[21.1354,63.0292,0.0],[21.1172,63.0224,0.0],[21.1182,63.0193,7.3833],[21.1172,63.0172,0.0],[21.1229,63.0167,2.5934],[21.1245,63.0151,4.4551]]],
[[[21.1422,63.1911,0.0],[21.1401,63.188,0.4026],[21.1458,63.1854,1.7285],[21.15,63.1896,1.2154],[21.1458,63.1937,7.6527],[21.1422,63.1911,0.0]]],
[[[21.5901,63.0901,1.9412],[21.5911,63.0932,0.0],[21.5839,63.0943,10.9595],[21.5797,63.0964,8.0523],[21.5807,63.0995,1.1791],[21.575,63.1,8.6589],[21.5714,63.0974,0.308],[21.5724,63.0943,7.7866],[21.5667,63.0938,0.0],[21.5625,63.0958,0.0],[21.5563,63.0896,4.522],[21.5589,63.0859,5.5205],[21.5651,63.0818,0.0],[21.5708,63.0812,0.0],[21.5755,63.0849,3.6612],[21.5833,63.0875,2.9398],[21.5911,63.088,0.0],[21.5901,63.0901,1.9412]]],
[[[21.5693,63.1005,1.4772],[21.5708,63.1,8.5795],[21.5724,63.1016,5.4344],[21.5708,63.1021,0.0],[21.5693,63.1005,1.4772]]],
[[[21.5313,63.1021,7.7476],[21.5411,63.1005,0.0],[21.5375,63.1042,12.7058],[21.5297,63.1036,5.3757],[21.5313,63.1021,7.7476]]],
[[[21.4125,62.9583,7.2049],[21.4005,62.9589,0.0],[21.3984,62.962,0.0],[21.4036,62.963,0.0],[21.4042,62.9646,0.0],[21.4,62.9688,10.9298],[21.3896,62.9688,0.0],[21.3854,62.9667,15.6895],[21.3776,62.9661,0.0],[21.375,62.9625,1.6159],[21.3563,62.9604,3.1321],[21.3547,62.9589,0.0],[21.3604,62.9562,0.0],[21.3646,62.9562,0.0],[21.375,62.9604,0.0],[21.3807,62.9568,0.0],[21.3755,62.9557,2.0458],[21.3724,62.9526,13.0096],[21.3672,62.9516,0.0],[21.3641,62.9484,8.315],[21.3547,62.9453,0.0],[21.3505,62.9401,9.782],[21.3536,62.9391,0.0],[21.3526,62.9359,10.121],[21.3609,62.9297,0.0],[21.3708,62.9271,0.0],[21.3828,62.9286,0.0],[21.3875,62.9229,9.0432],[21.3839,62.9182,0.0],[21.3839,62.9151,0.0],[21.3891,62.9141,1.9973],[21.388,62.9109,0.0],[21.3917,62.9104,0.0],[21.4016,62.9234,0.0],[21.4005,62.9286,0.0],[21.4125,62.9271,0.0],[21.4161,62.9297,0.0],[21.4182,62.9339,0.0875],[21.4141,62.9411,4.7089],[21.4083,62.9417,6.9899],[21.4047,62.9443,6.3116],[21.4057,62.9495,0.0],[21.4005,62.9516,0.0],[21.4083,62.9521,2.583],[21.4099,62.9536,0.0],[21.4042,62.9542,0.0],[21.4026,62.9557,2.5292],[21.4224,62.9568,0.0],[21.4266,62.9641,6.1668],[21.4089,62.9641,0.0],[21.4109,62.9609,0.0],[21.4141,62.9599,0.0],[21.4125,62.9583,7.2049]]],
[[[21.4167,62.9729,5.9964],[21.4109,62.9672,0.0],[21.4188,62.9667,0.0],[21.4266,62.9693,0.0],[21.4271,62.9708,4.7976],[21.425,62.9729,4.4278],[21.4167,62.9729,5.9964]]],
[[[21.3854,62.9792,13.9193],[21.3818,62.9776,0.0],[21.3875,62.975,0.0],[21.4021,62.975,0.0],[21.4042,62.9771,11.2649],[21.4021,62.9792,0.0],[21.3854,62.9792,13.9193]]],
[[[21.4479,63.0479,7.7275],[21.4458,63.0479,0.0],[21.4458,63.0458,0.6481],[21.4495,63.0464,15.6288],[21.4479,63.0479,7.7275]]],
[[[21.4714,63.0734,0.0],[21.475,63.0729,7.1863],[21.475,63.075,5.0859],[21.4714,63.0745,3.3173],[21.4714,63.0734,0.0]]],
[[[21.4542,63.0792,0.0],[21.4557,63.0786,0.0],[21.4547,63.0755,0.0],[21.4562,63.075,0.0],[21.4641,63.0776,0.0],[21.462,63.0807,0.0],[21.4578,63.0828,3.2341],[21.4505,63.0828,3.2165],[21.4542,63.0792,0.0]]],
[[[21.4214,63.0922,10.9541],[21.4229,63.0917,1.2893],[21.4245,63.0932,5.3527],[21.4214,63.0932,6.0216],[21.4214,63.0922,10.9541]]],
[[[21.5214,63.1224,12.3752],[21.5224,63.1193,7.0878],[21.5208,63.1167,1.5053],[21.5229,63.1146,0.0],[21.5286,63.1151,0.0],[21.5328,63.1193,0.0],[21.5297,63.1214,15.6079],[21.5307,63.1245,0.0],[21.5292,63.125,0.0],[21.5214,63.1224,12.3752]]],
[[[21.5286,63.1276,0.0],[21.5266,63.1307,4.6264],[21.5208,63.1333,19.4196],[21.5208,63.1354,9.9544],[21.5172,63.1359,8.3607],[21.5141,63.1391,0.0],[21.5021,63.1396,13.3079],[21.5005,63.138,15.006],[21.5036,63.1359,14.9543],[21.5005,63.1318,0.0],[21.5036,63.1297,0.0],[21.4922,63.1286,13.6789],[21.4901,63.1234,0.0],[21.4953,63.1203,10.0629],[21.4922,63.1151,4.1982],[21.4979,63.1125,0.0],[21.5021,63.1125,8.0369],[21.5099,63.1203,0.0],[21.5042,63.1208,13.3406],[21.4984,63.1234,4.0764],[21.5005,63.1266,8.8483],[21.5146,63.1292,2.4304],[21.5208,63.125,0.0],[21.5286,63.1276,0.0]]],
[[[21.5271,63.1937,0.0],[21.5286,63.1953,0.0],[21.5234,63.1953,8.0818],[21.5234,63.1943,4.207],[21.5271,63.1937,0.0]]],
[[[21.7167,63.2458,9.2896],[21.7151,63.2453,0.0],[21.7161,63.2432,2.9872],[21.7193,63.2401,11.5159],[21.7229,63.2396,10.308],[21.7307,63.2422,0.0],[21.7328,63.2474,0.0],[21.7307,63.2516,0.0],[21.7208,63.2521,0.0],[21.7172,63.2495,13.1086],[21.7182,63.2464,1.5954],[21.7167,63.2458,9.2896]]],
[[[21.7568,63.2505,0.0],[21.7599,63.2505,0.0],[21.7599,63.2516,0.0],[21.7583,63.2521,10.0248],[21.7568,63.2505,0.0]]],
[[[21.763,63.2526,9.1735],[21.7661,63.2526,1.3878],[21.7661,63.2536,3.1188],[21.7646,63.2542,0.0],[21.763,63.2526,9.1735]]],
[[[22.0422,63.2641,0.0],[22.0453,63.2682,0.0],[22.038,63.2693,18.9331],[22.0391,63.2724,0.0],[22.0313,63.2771,0.0],[22.0297,63.2766,13.0868],[22.0307,63.2714,4.0496],[22.0266,63.2672,15.7392],[22.0214,63.2661,3.1507],[22.0193,63.263,0.0],[22.0292,63.2604,0.0],[22.0396,63.2604,9.8641],[22.0422,63.2641,0.0]]],
[[[21.9578,63.2922,14.8471],[21.9604,63.2958,0.0],[21.9589,63.2984,5.2559],[21.9599,63.3016,0.0],[21.9479,63.3021,4.2757],[21.9438,63.3,14.5032],[21.9396,63.3021,0.0],[21.9359,63.2995,6.627],[21.937,63.2943,15.5625],[21.9318,63.2932,8.1209],[21.9328,63.2901,14.3215],[21.9318,63.288,9.048],[21.937,63.2849,19.0187],[21.9359,63.2818,0.0],[21.9401,63.2797,0.0],[21.9521,63.2792,0.0],[21.9599,63.2818,0.0],[21.9589,63.287,6.9391],[21.9599,63.2891,0.0],[21.9568,63.2901,19.8595],[21.9578,63.2922,14.8471]]],
[[[21.8937,63.2875,0.0],[21.8953,63.288,0.0],[21.8953,63.2911,9.825],[21.8901,63.2922,13.3785],[21.8896,63.2938,12.9432],[21.8932,63.2995,4.0296],[21.8854,63.3,13.3476],[21.8813,63.2979,14.9216],[21.875,63.2979,0.0],[21.8714,63.2953,13.996],[21.8766,63.2911,0.0],[21.8797,63.2859,1.8898],[21.8875,63.2854,0.0],[21.8937,63.2875,0.0]]],
[[[21.7797,63.2693,11.2515],[21.7813,63.2687,0.0],[21.7828,63.2703,0.0],[21.7813,63.2708,0.0],[21.7797,63.2693,11.2515]]],
[[[21.8099,63.2734,9.9957],[21.8063,63.275,9.2399],[21.8042,63.2729,4.8476],[21.8063,63.2708,10.1602],[21.8099,63.2734,9.9957]]],
[[[21.7047,63.2859,1.3534],[21.7078,63.2859,7.1994],[21.7078,63.287,8.7625],[21.7062,63.2875,6.8903],[21.7047,63.2859,1.3534]]],
[[[21.8208,63.2896,8.7055],[21.8266,63.2901,0.0],[21.8286,63.2932,0.0],[21.8104,63.3042,0.0],[21.8068,63.3016,-2.5],[21.8036,63.2964,12.5739],[21.7984,63.2953,2.902],[21.8,63.2938,0.0],[21.8099,63.2932,0.0],[21.8146,63.2896,0.0],[21.8208,63.2896,8.7055]]],
[[[21.4688,63.1146,0.0],[21.4714,63.1109,0.0],[21.4755,63.1089,11.9184],[21.4828,63.1089,1.3836],[21.4786,63.1161,16.4198],[21.4708,63.1167,14.9808],[21.4688,63.1146,0.0]]],
[[[21.4589,63.113,0.0],[21.4604,63.1125,0.0],[21.462,63.1141,13.6927],[21.4604,63.1146,10.8144],[21.4589,63.113,0.0]]],
[[[21.4854,63.1208,1.6891],[21.487,63.1224,2.9092],[21.4849,63.1266,0.0],[21.4797,63.1276,11.2984],[21.4807,63.1328,12.1258],[21.475,63.1333,15.8347],[21.4714,63.1307,0.0],[21.4745,63.1276,2.5378],[21.4714,63.1234,0.0],[21.4792,63.1188,0.0],[21.4854,63.1208,1.6891]]],
[[[21.4453,63.1339,5.4817],[21.4438,63.1354,14.7698],[21.438,63.1349,4.3014],[21.4396,63.1333,5.8847],[21.4453,63.1339,5.4817]]],
[[[21.4745,63.1464,13.9203],[21.4693,63.1401,0.0],[21.4786,63.1401,0.0],[21.4755,63.1432,2.4431],[21.4786,63.1474,0.1328],[21.4745,63.1464,13.9203]]],
[[[21.4943,63.1547,0.0],[21.4953,63.1578,5.9068],[21.488,63.1589,13.1045],[21.4891,63.162,4.5975],[21.487,63.1641,0.0],[21.4776,63.1641,13.6538],[21.4807,63.1609,4.6089],[21.4776,63.1568,7.5719],[21.4839,63.1526,1.5051],[21.4911,63.1516,4.2527],[21.4839,63.1474,15.6967],[21.4896,63.1437,0.0],[21.4938,63.1479,4.1181],[21.5,63.1479,0.0],[21.5042,63.1458,4.5959],[21.5104,63.15,0.0],[21.5161,63.1474,8.2769],[21.5151,63.1443,6.5644],[21.5187,63.1417,2.4499],[21.5266,63.1484,-1.0],[21.5208,63.1521,0.0],[21.5125,63.1521,5.1979],[21.5083,63.1542,6.8916],[21.5042,63.1542,0.0],[21.5,63.1521,5.3633],[21.4943,63.1547,0.0]]],
[[[21.4033,63.1604,15.8311],[21.3875,63.1646,0.0],[21.3839,63.162,9.3284],[21.3917,63.1563,0.0],[21.4099,63.1589,7.8181],[21.4083,63.1604,13.6194],[21.4033,63.1604,15.8311]]],
[[[21.4,63.1667,0.0],[21.3964,63.1651,17.8516],[21.4,63.1625,0.0],[21.4078,63.163,0.0],[21.4036,63.1661,16.9048],[21.4,63.1667,0.0]]],
[[[21.3958,63.1688,0.0],[21.4026,63.1745,8.5689],[21.4078,63.1766,0.0],[21.4021,63.1792,16.6497],[21.3958,63.175,0.0],[21.3917,63.1771,0.0],[21.388,63.1745,12.0077],[21.388,63.1714,15.0757],[21.3901,63.1693,7.8816],[21.3958,63.1688,0.0]]],
[[[21.4375,63.2,6.4175],[21.4339,63.1984,0.0],[21.4396,63.1958,0.0],[21.4474,63.1984,5.7433],[21.4438,63.2021,0.0],[21.4375,63.2,6.4175]]],
[[[21.4609,63.2026,9.8915],[21.4625,63.2021,14.5201],[21.4641,63.2036,5.0781],[21.4625,63.2042,0.0],[21.4609,63.2026,9.8915]]],
[[[21.4995,63.2057,0.8534],[21.4917,63.2062,9.2207],[21.4901,63.2047,12.0252],[21.4979,63.2042,11.3189],[21.4995,63.2057,0.8534]]],
[[[21.6193,63.2339,2.0176],[21.6208,63.2333,0.0],[21.6224,63.2349,0.0],[21.6208,63.2354,7.8851],[21.6193,63.2339,2.0176]]],
[[[21.6563,63.25,5.6583],[21.6625,63.2479,0.5717],[21.6661,63.2484,0.0],[21.6604,63.2521,5.7063],[21.6547,63.2516,2.7526],[21.6563,63.25,5.6583]]],
[[[21.5958,63.2604,0.0],[21.6021,63.2583,7.0411],[21.612,63.2641,0.0],[21.6068,63.2672,1.7032],[21.6078,63.2703,5.3372],[21.6021,63.2729,12.3317],[21.5979,63.2708,0.0],[21.5901,63.2703,7.0498],[21.5859,63.2661,0.0],[21.5922,63.2609,0.0],[21.5958,63.2604,0.0]]],
[[[21.6208,63.2792,0.0],[21.6151,63.2786,12.011],[21.613,63.2755,5.0054],[21.6203,63.2755,2.5134],[21.6224,63.2776,15.9115],[21.6208,63.2792,0.0]]],
[[[21.4146,63.2875,13.7258],[21.413,63.2891,12.9328],[21.4182,63.2901,7.8022],[21.4203,63.2932,0.0],[21.4146,63.2958,7.1755],[21.4083,63.2917,10.5798],[21.4036,63.2953,3.1194],[21.3984,63.2953,9.4887],[21.4016,63.2932,13.6806],[21.4005,63.2901,4.366],[21.4068,63.2859,0.0],[21.4141,63.2849,16.3361],[21.4172,63.2797,0.0],[21.4255,63.2734,0.0],[21.4349,63.2734,4.9979],[21.4318,63.2755,9.2178],[21.4328,63.2786,0.0],[21.4297,63.2797,0.9565],[21.4307,63.2828,0.0],[21.4286,63.2849,0.0],[21.4146,63.2875,13.7258]]],
[[[21.3936,63.2917,0.0],[21.388,63.2911,8.4887],[21.3859,63.288,0.0],[21.3974,63.288,1.9774],[21.3936,63.2917,0.0]]],
[[[21.4297,63.2901,5.3207],[21.4328,63.2901,1.0669],[21.4328,63.2911,0.3971],[21.4297,63.2911,5.2064],[21.4297,63.2901,5.3207]]],
[[[21.3891,63.2943,7.8637],[21.3859,63.2953,1.5873],[21.3839,63.2922,0.0],[21.387,63.2922,12.2522],[21.3891,63.2943,7.8637]]],
[[[21.5812,63.2875,1.6985],[21.5776,63.287,0.2267],[21.5755,63.2818,2.0014],[21.5812,63.2813,0.0],[21.5839,63.2828,2.466],[21.5849,63.2849,7.7214],[21.5812,63.2875,1.6985]]],
[[[21.6932,63.2932,0.0],[21.7021,63.2875,4.0905],[21.7057,63.2901,0.0],[21.7036,63.2953,9.924],[21.7021,63.2958,0.0],[21.6938,63.2958,6.0703],[21.6922,63.2953,3.7839],[21.6932,63.2932,0.0]]],
[[[21.7068,63.3214,15.018],[21.7036,63.3245,0.0],[21.6938,63.3271,0.0],[21.6854,63.3187,6.5947],[21.6609,63.3224,1.3583],[21.662,63.3193,0.0],[21.6568,63.3182,6.842],[21.6536,63.313,9.9113],[21.6484,63.312,6.9457],[21.6464,63.3099,9.4559],[21.6495,63.3078,0.0],[21.6474,63.3047,7.936],[21.6339,63.3036,15.8681],[21.6354,63.3021,6.0353],[21.6432,63.3016,-1.0],[21.638,63.2995,11.0579],[21.6375,63.2979,7.8959],[21.6391,63.2943,3.6359],[21.6359,63.288,0.0],[21.6375,63.2854,9.149],[21.6339,63.2807,8.7661],[21.637,63.2776,6.7342],[21.6271,63.2771,15.4542],[21.6255,63.2755,5.371],[21.637,63.2745,0.0],[21.637,63.2714,15.8159],[21.6339,63.2672,0.0],[21.6391,63.2641,7.6652],[21.638,63.2609,1.189],[21.65,63.2562,1.4764],[21.6646,63.2562,-1.5],[21.6693,63.2599,6.1247],[21.6745,63.2609,10.2285],[21.6729,63.2646,6.7138],[21.6766,63.2703,0.0],[21.6734,63.2714,0.0],[21.6745,63.2745,3.3789],[21.6729,63.2771,2.5797],[21.6745,63.2807,7.4496],[21.6693,63.2849,0.0],[21.6786,63.2901,0.0],[21.6776,63.2953,0.0],[21.6896,63.2958,16.1845],[21.6932,63.2984,-0.0324],[21.6917,63.3021,4.4381],[21.6953,63.3078,0.0],[21.6922,63.3089,4.6968],[21.6901,63.312,8.8518],[21.6938,63.3146,9.5669],[21.6979,63.3125,0.0],[21.7078,63.312,1.9764],[21.7109,63.3068,0.0],[21.7161,63.3057,0.0],[21.7161,63.3026,13.3698],[21.713,63.2984,0.0],[21.7203,63.2932,2.6714],[21.7224,63.2891,10.504],[21.7214,63.2859,0.0],[21.7339,63.2776,0.0],[21.7563,63.2729,4.4735],[21.7646,63.2792,0.0],[21.7771,63.275,0.0],[21.7807,63.2776,0.0],[21.7776,63.2797,13.1177],[21.7807,63.2839,10.6772],[21.7776,63.2859,0.0],[21.7786,63.2891,1.8914],[21.7708,63.2938,9.2946],[21.7651,63.2922,0.0],[21.763,63.2964,0.0],[21.7641,63.2995,14.0388],[21.7568,63.3005,0.0],[21.7578,63.3036,12.3005],[21.7547,63.3047,-1.0],[21.7583,63.3083,-1.0],[21.7625,63.3063,1.7729],[21.7766,63.3109,10.0748],[21.7714,63.313,0.0],[21.7703,63.3161,0.0],[21.7646,63.3167,9.5017],[21.7583,63.3125,15.9456],[21.7542,63.3146,3.1226],[21.7526,63.3141,2.218],[21.7536,63.3109,5.1633],[21.7521,63.3104,1.2953],[21.7417,63.3104,0.0],[21.7375,63.3125,0.0],[21.7167,63.3125,1.4573],[21.7125,63.3146,1.7227],[21.7083,63.3146,0.0],[21.7047,63.3172,0.0],[21.7099,63.3193,0.0],[21.7068,63.3214,15.018]]],
[[[21.588,63.3297,0.0],[21.5911,63.3297,4.5444],[21.5911,63.3307,7.253],[21.588,63.3307,0.6027],[21.588,63.3297,0.0]]],
[[[21.3974,63.3005,12.4816],[21.3974,63.3016,13.6002],[21.3943,63.3016,5.5361],[21.3958,63.3,11.2676],[21.3974,63.3005,12.4816]]],
[[[21.6958,63.3354,14.3018],[21.6943,63.3349,14.3018],[21.6953,63.3318,22.0631],[21.6943,63.3297,7.412],[21.6958,63.3292,0.0],[21.7036,63.3297,11.2101],[21.7005,63.3328,10.1653],[21.7057,63.3339,17.9495],[21.7042,63.3354,19.1773],[21.6958,63.3354,14.3018]]],
[[[21.6901,63.3359,0.0],[21.6917,63.3354,0.0],[21.6932,63.337,2.9498],[21.6917,63.3375,0.0],[21.6901,63.3359,0.0]]],
[[[21.7062,63.3396,6.3236],[21.7042,63.3417,9.1491],[21.7005,63.338,0.0],[21.7042,63.3375,0.0],[21.7062,63.3396,6.3236]]],
[[[21.6563,63.3875,6.2047],[21.65,63.3875,3.5058],[21.6484,63.3859,0.0],[21.6578,63.3859,0.0],[21.6563,63.3875,6.2047]]],
[[[21.2307,63.0859,0.2738],[21.2292,63.0875,0.0],[21.2234,63.087,2.0562],[21.225,63.0854,2.7473],[21.2307,63.0859,0.2738]]],
[[[21.3125,63.0938,4.755],[21.3047,63.0901,0.0],[21.3146,63.0896,6.056],[21.3224,63.0922,3.7956],[21.3208,63.0938,0.0],[21.3125,63.0938,4.755]]],
[[[21.2979,63.1021,3.2622],[21.2995,63.1036,1.3949],[21.2943,63.1036,0.0],[21.2943,63.1026,0.0],[21.2979,63.1021,3.2622]]],
[[[21.2979,63.1125,1.4826],[21.2938,63.1125,0.7938],[21.2922,63.1109,0.0],[21.2943,63.1089,0.0],[21.2979,63.1083,0.0],[21.3,63.1104,3.4583],[21.2979,63.1125,1.4826]]],
[[[21.375,63.0958,0.5186],[21.3714,63.0943,7.5354],[21.3771,63.0917,0.0],[21.3875,63.0958,9.6451],[21.3937,63.0958,0.0],[21.3953,63.0974,0.0],[21.3792,63.0979,0.0],[21.375,63.0958,0.5186]]],
[[[21.3547,63.0964,2.632],[21.3505,63.0974,1.1537],[21.3526,63.0943,2.7925],[21.3578,63.0943,0.0],[21.3547,63.0964,2.632]]],
[[[21.3651,63.1109,0.9146],[21.3682,63.1109,0.0],[21.3682,63.112,2.5288],[21.3651,63.112,0.0],[21.3651,63.1109,0.9146]]],
[[[21.3703,63.1703,11.8529],[21.3672,63.1693,4.5545],[21.3708,63.1646,6.8157],[21.3745,63.1682,15.7908],[21.3703,63.1703,11.8529]]],
[[[21.3464,63.1714,10.0664],[21.3417,63.1729,9.4049],[21.3396,63.1708,12.7107],[21.3401,63.1693,20.0559],[21.3458,63.1688,10.5876],[21.3474,63.1693,3.6318],[21.3464,63.1714,10.0664]]],
[[[21.338,63.2797,1.6655],[21.3396,63.2792,0.0],[21.3411,63.2807,8.9079],[21.338,63.2807,0.0],[21.338,63.2797,1.6655]]],
[[[21.3339,63.2859,0.0],[21.3292,63.2875,0.0],[21.3271,63.2854,5.8279],[21.3276,63.2839,1.5418],[21.3333,63.2833,0.0],[21.3349,63.2839,3.0697],[21.3339,63.2859,0.0]]],
[[[21.3714,63.288,0.0],[21.3729,63.2875,0.0],[21.3745,63.2891,0.0],[21.3729,63.2896,3.8483],[21.3714,63.288,0.0]]],
[[[21.263,63.2547,0.0],[21.2661,63.2547,2.894],[21.2661,63.2557,3.5758],[21.2646,63.2562,3.0472],[21.263,63.2547,0.0]]],
[[[21.3005,63.2609,0.0],[21.3021,63.2604,0.0],[21.3036,63.262,9.0297],[21.3021,63.2625,12.9495],[21.3005,63.2609,0.0]]],
[[[21.2297,63.3609,0.0],[21.2318,63.3641,0.0],[21.237,63.3651,0.0],[21.2401,63.3682,0.4016],[21.2516,63.3714,0.0],[21.2536,63.3734,0.0],[21.2578,63.3797,0.0],[21.2547,63.3828,2.5593],[21.2568,63.3849,4.0092],[21.262,63.3859,0.0],[21.2604,63.3896,0.0],[21.262,63.3932,0.0],[21.2599,63.3953,0.0],[21.2542,63.3979,0.0],[21.2438,63.3979,0.0],[21.2333,63.3937,-0.5],[21.2229,63.3937,2.5532],[21.2182,63.3901,0.0],[21.2068,63.387,4.5567],[21.2057,63.3839,0.0],[21.2005,63.3828,6.4105],[21.1974,63.3797,7.8833],[21.188,63.3786,7.3913],[21.1859,63.3766,6.0382],[21.187,63.3714,0.0],[21.1818,63.3651,0.0],[21.1875,63.3625,0.0],[21.1917,63.3625,0.0],[21.1979,63.3667,4.3858],[21.2109,63.3589,0.0],[21.2208,63.3583,1.4883],[21.2286,63.3547,2.613],[21.2229,63.3542,3.774],[21.2188,63.3563,0.0],[21.2146,63.3563,0.0],[21.2042,63.3521,0.0],[21.1979,63.3521,0.0],[21.1938,63.3542,0.0],[21.1792,63.3542,0.0],[21.1755,63.3516,4.6275],[21.1745,63.3484,5.2626],[21.1651,63.3474,4.2637],[21.163,63.3453,0.0],[21.1641,63.3422,0.0],[21.1526,63.3391,1.537],[21.1578,63.3349,1.659],[21.1599,63.3307,9.1889],[21.1589,63.3276,0.0],[21.1651,63.3234,6.343],[21.1708,63.3229,10.0852],[21.1724,63.3214,5.7676],[21.1604,63.3208,10.6794],[21.15,63.325,0.0],[21.1396,63.325,0.0],[21.1193,63.3182,0.0],[21.1208,63.3167,6.3531],[21.1266,63.3161,0.0],[21.1286,63.3141,1.3482],[21.1286,63.3109,-0.5],[21.1255,63.3068,-0.5],[21.1286,63.3047,0.4209],[21.125,63.3042,15.8081],[21.1203,63.3078,11.9015],[21.1172,63.3078,11.0205],[21.113,63.3036,3.4515],[21.1161,63.3005,14.4182],[21.1104,63.2958,5.834],[21.1021,63.3042,4.4738],[21.0938,63.3042,3.9483],[21.0896,63.3063,0.9449],[21.0859,63.3036,0.0],[21.0901,63.2964,0.0],[21.0995,63.2911,3.5598],[21.088,63.287,8.1073],[21.0859,63.2839,2.4766],[21.088,63.2818,5.2295],[21.0938,63.2792,0.0],[21.1021,63.2792,0.0],[21.1063,63.2771,1.8267],[21.1104,63.2771,4.0334],[21.112,63.2766,0.0],[21.1109,63.2734,10.1218],[21.1208,63.2729,-0.5],[21.1224,63.2714,-0.5],[21.1021,63.2708,8.639],[21.0979,63.2729,8.4688],[21.0833,63.2729,3.6123],[21.0818,63.2714,4.3075],[21.0917,63.2646,2.699],[21.0979,63.2646,0.0],[21.1021,63.2667,11.1786],[21.112,63.2641,5.3627],[21.1099,63.2609,1.7961],[21.1047,63.2599,0.0],[21.1026,63.2568,0.0],[21.1307,63.2474,5.1193],[21.1297,63.2422,0.0],[21.137,63.2411,12.2151],[21.1359,63.238,1.8727],[21.1401,63.2318,0.0],[21.1474,63.2307,3.4983],[21.1464,63.2276,0.7418],[21.1495,63.2255,0.0],[21.1443,63.2245,10.714],[21.1401,63.2203,4.2999],[21.1432,63.2172,2.9516],[21.1401,63.213,4.139],[21.1432,63.212,2.7223],[21.1422,63.2089,0.0],[21.1432,63.2078,0.0],[21.1474,63.2057,2.4539],[21.1464,63.2026,3.2448],[21.1542,63.2042,0.0],[21.1578,63.2016,4.9572],[21.1526,63.1984,4.7709],[21.1641,63.1911,7.479],[21.163,63.188,2.8875],[21.1688,63.1854,0.0],[21.1875,63.1854,0.0],[21.1917,63.1875,0.0],[21.2021,63.1875,3.6409],[21.2062,63.1896,13.3854],[21.2125,63.1896,0.0],[21.2167,63.1875,0.0],[21.2203,63.1901,9.9793],[21.2172,63.1932,1.7476],[21.225,63.1937,0.0],[21.2266,63.1932,0.0],[21.2255,63.1901,0.0],[21.2328,63.1849,0.0],[21.2328,63.1818,0.0],[21.2276,63.1755,0.0],[21.2307,63.1745,0.0],[21.2297,63.1714,6.28],[21.2339,63.1693,0.0],[21.2458,63.1646,0.0],[21.2542,63.1646,1.9289],[21.2687,63.1583,3.6392],[21.3,63.1583,0.0],[21.3042,63.1563,8.4751],[21.3104,63.1604,0.0],[21.3146,63.1604,0.0],[21.3188,63.1583,0.0],[21.3266,63.1589,3.1716],[21.3214,63.1641,0.0],[21.3234,63.1682,12.6642],[21.3286,63.1693,3.4904],[21.3328,63.1745,0.0],[21.3125,63.175,9.9074],[21.3089,63.1786,0.7106],[21.3208,63.1792,0.0],[21.3286,63.1818,1.6014],[21.3276,63.1849,0.0],[21.3328,63.1859,0.0],[21.3339,63.1891,0.0],[21.3391,63.1901,0.0],[21.338,63.1932,2.8022],[21.3432,63.1943,0.0],[21.3479,63.1979,2.4469],[21.3557,63.1984,3.6052],[21.3578,63.2026,0.0],[21.3568,63.2078,0.0],[21.3609,63.212,0.0],[21.3745,63.212,0.0],[21.3766,63.2099,3.6073],[21.3755,63.2068,2.8746],[21.3786,63.2057,7.2127],[21.3745,63.1984,10.9926],[21.3693,63.1932,0.0],[21.3724,63.1911,10.2158],[21.3714,63.188,1.4199],[21.3729,63.1875,7.743],[21.3807,63.188,1.7688],[21.3833,63.1917,0.0],[21.3937,63.1896,2.2502],[21.3953,63.1911,7.8942],[21.3922,63.1932,8.4213],[21.4,63.1958,0.0],[21.4141,63.1964,0.0],[21.4161,63.1995,0.0],[21.413,63.2016,0.0],[21.4167,63.2042,8.2527],[21.4208,63.2021,3.4083],[21.4313,63.2021,0.0],[21.4354,63.2042,0.0],[21.45,63.2042,0.5787],[21.4578,63.2109,4.7795],[21.4464,63.2151,10.5],[21.4443,63.2172,16.6322],[21.4453,63.2203,0.0],[21.4422,63.2214,7.3045],[21.4458,63.2271,2.7514],[21.4443,63.2307,0.678],[21.4474,63.2359,0.0],[21.4464,63.2411,5.799],[21.4516,63.2422,0.2093],[21.4495,63.2453,4.502],[21.4464,63.2464,0.3849],[21.4474,63.2495,0.0],[21.4453,63.2516,2.545],[21.4297,63.2609,6.284],[21.4276,63.263,2.9279],[21.4286,63.2661,0.0],[21.4214,63.2672,0.0154],[21.4224,63.2703,0.0],[21.4182,63.2724,4.3331],[21.4063,63.2708,10.339],[21.3984,63.2734,0.0],[21.3854,63.2813,0.0],[21.3813,63.2792,6.0233],[21.3693,63.2807,1.5267],[21.3703,63.2755,0.0],[21.3682,63.2714,0.0],[21.3604,63.2687,0.2409],[21.35,63.2687,2.1243],[21.3458,63.2708,5.0783],[21.338,63.2682,0.0],[21.3328,63.263,0.0277],[21.3214,63.2599,0.2274],[21.3188,63.2562,3.3949],[21.2958,63.2583,0.0],[21.287,63.2641,0.0],[21.2813,63.2646,2.2591],[21.2797,63.2641,6.8196],[21.2807,63.2609,0.0],[21.2755,63.2526,0.0],[21.2849,63.2484,0.7569],[21.2646,63.25,7.4179],[21.263,63.2484,0.0],[21.2724,63.2422,5.7877],[21.2609,63.2391,3.1454],[21.2563,63.2354,0.0],[21.2458,63.2354,10.9856],[21.2396,63.2396,0.0],[21.238,63.2391,1.7389],[21.2391,63.2359,3.919],[21.2318,63.2359,0.0],[21.2328,63.2391,0.0],[21.2161,63.2495,6.4646],[21.2089,63.2505,0.0],[21.2068,63.2536,0.0],[21.2125,63.2521,0.0],[21.2203,63.2526,0.0],[21.2193,63.2578,0.0],[21.2208,63.2604,0.0],[21.2193,63.2641,10.0201],[21.2245,63.2651,7.466],[21.2255,63.2682,0.0],[21.2318,63.2745,0.1166],[21.2432,63.2776,0.0],[21.2484,63.2849,0.0],[21.262,63.2859,2.3772],[21.2693,63.2953,9.4663],[21.2745,63.2964,6.7113],[21.2766,63.2984,0.0],[21.2734,63.3005,4.4185],[21.2745,63.3036,0.0],[21.2703,63.3099,0.0],[21.2625,63.3146,0.0],[21.2505,63.313,1.1394],[21.2474,63.3182,0.0],[21.2438,63.3208,1.8118],[21.2313,63.3208,5.4179],[21.2271,63.3229,0.0],[21.2208,63.3229,0.0],[21.213,63.3203,5.2947],[21.212,63.3172,2.2519],[21.2068,63.3161,1.7393],[21.2078,63.313,0.0],[21.1938,63.3083,0.0],[21.1891,63.312,6.641],[21.1839,63.312,7.9334],[21.1896,63.3063,0.0],[21.187,63.3026,13.9615],[21.1818,63.3016,6.6887],[21.1797,63.2995,0.0],[21.1849,63.2953,2.3651],[21.1797,63.2932,0.0],[21.1849,63.2891,3.8686],[21.1828,63.2839,0.0],[21.1813,63.2833,0.0],[21.1667,63.2833,2.8325],[21.1625,63.2854,0.0],[21.1563,63.2854,7.6375],[21.1521,63.2833,6.5505],[21.1375,63.2813,0.0],[21.1328,63.287,0.0],[21.1188,63.2896,8.4849],[21.1151,63.2922,3.7336],[21.1172,63.2953,1.9423],[21.125,63.2958,3.5041],[21.1292,63.2979,0.0],[21.1333,63.2958,3.0107],[21.1417,63.2958,0.0],[21.1458,63.2938,0.0],[21.1563,63.2938,1.5492],[21.1583,63.2958,0.0],[21.1568,63.2995,0.0],[21.1703,63.3005,0.0],[21.1724,63.3036,0.0],[21.1703,63.3057,10.5755],[21.163,63.3068,7.0909],[21.1589,63.3099,1.6149],[21.1729,63.3104,0.0],[21.1807,63.313,1.4186],[21.1854,63.3167,0.0],[21.1932,63.3172,4.2528],[21.1901,63.3203,6.7227],[21.1922,63.3224,0.0],[21.1974,63.3234,2.8939],[21.1995,63.3266,7.165],[21.1943,63.3297,4.232],[21.1922,63.3349,9.4975],[21.1979,63.3333,0.0],[21.2057,63.3339,7.9945],[21.2005,63.3391,0.0],[21.2083,63.3396,0.0],[21.2188,63.3438,0.0],[21.2307,63.3443,1.8069],[21.2297,63.3474,0.0],[21.2349,63.3484,0.0],[21.2359,63.3516,6.9405],[21.2411,63.3526,1.1426],[21.2391,63.3557,5.7499],[21.2297,63.3609,0.0]]],
[[[21.2318,63.3297,10.8045],[21.2349,63.3297,14.3097],[21.2349,63.3307,13.1553],[21.2318,63.3307,14.461],[21.2318,63.3297,10.8045]]],
[[[20.8443,63.0776,6.6534],[20.8417,63.0792,0.0],[20.838,63.0755,0.0],[20.8453,63.0755,2.5662],[20.8443,63.0776,6.6534]]],
[[[20.7276,63.0828,2.3865],[20.725,63.0792,1.8601],[20.7292,63.075,1.3639],[20.7349,63.0807,0.0],[20.7318,63.0818,3.5313],[20.7328,63.0849,0.0],[20.7313,63.0854,2.624],[20.7276,63.0828,2.3865]]],
[[[20.8297,63.0901,0.0],[20.8312,63.0896,0.0],[20.8328,63.0911,3.5922],[20.8297,63.0911,2.9795],[20.8297,63.0901,0.0]]],
[[[20.7979,63.1083,3.7052],[20.8021,63.1083,0.0],[20.8063,63.1063,3.7871],[20.812,63.1109,0.0],[20.8068,63.1151,0.0],[20.8099,63.1224,1.823],[20.8026,63.1224,0.0],[20.7964,63.1161,1.3601],[20.788,63.1026,0.0],[20.7911,63.1026,0.9672],[20.7979,63.1083,3.7052]]],
[[[20.7354,63.1208,4.8266],[20.737,63.1224,0.0],[20.7318,63.1224,0.0],[20.7318,63.1214,3.7303],[20.7354,63.1208,4.8266]]],
[[[20.6083,63.2375,0.6941],[20.6005,63.2339,0.0],[20.6141,63.2339,0.4783],[20.6141,63.237,0.4405],[20.6083,63.2375,0.6941]]],
[[[20.6646,63.2458,0.0],[20.663,63.2453,0.0],[20.663,63.2422,1.4093],[20.6667,63.2396,1.5632],[20.6708,63.2417,2.4016],[20.6833,63.2417,0.0],[20.6854,63.2438,3.305],[20.6813,63.2479,5.8072],[20.6646,63.2458,0.0]]],
[[[21.0193,63.3318,1.6389],[21.0208,63.3312,0.0],[21.0224,63.3328,1.6052],[21.0208,63.3333,2.5541],[21.0193,63.3318,1.6389]]],
[[[21.1266,63.2401,6.0427],[21.125,63.2417,0.0],[21.1193,63.2411,1.2451],[21.1208,63.2396,2.8729],[21.1266,63.2401,6.0427]]],
[[[21.1234,63.3401,0.0],[21.125,63.3396,0.0],[21.1266,63.3411,2.9241],[21.1234,63.3411,0.2655],[21.1234,63.3401,0.0]]],
[[[21.1547,63.3526,0.0],[21.1578,63.3526,0.0],[21.1578,63.3536,1.1491],[21.1547,63.3536,0.0],[21.1547,63.3526,0.0]]],
[[[21.0979,63.3583,0.6253],[21.0984,63.3599,1.6457],[21.1036,63.362,0.7205],[21.0958,63.3646,0.0],[21.088,63.3641,0.0],[21.0953,63.3609,0.0],[21.0818,63.3557,0.0],[21.0797,63.3536,1.6352],[21.0797,63.3505,5.43],[21.0818,63.3484,0.0],[21.0849,63.3484,0.3834],[21.0922,63.3557,1.6326],[21.0974,63.3568,0.0],[21.0979,63.3583,0.6253]]],
[[[21.0964,63.3672,1.6723],[21.0979,63.3667,0.0],[21.0995,63.3682,1.3642],[21.0979,63.3688,2.4079],[21.0964,63.3672,1.6723]]],
[[[21.088,63.3693,0.0],[21.0896,63.3688,0.0],[21.0911,63.3703,0.0],[21.088,63.3703,1.7948],[21.088,63.3693,0.0]]],
[[[21.0943,63.3714,3.0442],[21.0958,63.3708,0.0],[21.0974,63.3724,2.5017],[21.0943,63.3724,0.9788],[21.0943,63.3714,3.0442]]],
[[[21.1271,63.4167,0.0],[21.1193,63.413,1.7084],[21.1313,63.4125,0.0],[21.1391,63.4151,0.0],[21.1375,63.4167,2.1861],[21.1271,63.4167,0.0]]],
[[[21.35,63.3708,0.0],[21.3417,63.3708,6.8819],[21.3375,63.3729,0.2232],[21.3333,63.3729,0.7197],[21.3292,63.3708,5.5534],[21.3167,63.3708,0.8566],[21.3089,63.3682,0.0],[21.3078,63.3651,3.4544],[21.3026,63.3641,1.5347],[21.2974,63.3589,0.9653],[21.288,63.3578,0.0],[21.2891,63.3547,-1.0],[21.2875,63.3542,-0.3754],[21.2833,63.3563,0.0],[21.2792,63.3542,4.4429],[21.275,63.3563,0.0],[21.2667,63.3563,1.2527],[21.2651,63.3568,5.4433],[21.2661,63.3599,0.0],[21.2589,63.362,2.6778],[21.2557,63.3589,5.6131],[21.2505,63.3578,1.2413],[21.2484,63.3557,0.0],[21.2516,63.3526,0.0],[21.2443,63.3422,0.0],[21.2474,63.3411,4.0373],[21.2495,63.338,0.0],[21.2474,63.3359,9.5444],[21.2422,63.3349,8.0325],[21.2422,63.3318,8.0918],[21.2583,63.3312,0.0],[21.2625,63.3333,0.0],[21.2708,63.3333,2.8557],[21.2807,63.3307,1.2827],[21.2776,63.3234,0.0],[21.2807,63.3172,5.3148],[21.2776,63.3109,0.0],[21.2813,63.3083,0.0],[21.2938,63.3083,0.5438],[21.3,63.3063,0.0],[21.3026,63.3099,0.0],[21.3078,63.3109,0.0],[21.3146,63.3167,6.2691],[21.3208,63.3167,1.6422],[21.3312,63.3208,7.3589],[21.3354,63.3187,0.0],[21.3453,63.3182,0.0],[21.3443,63.3151,0.0],[21.35,63.3146,4.6118],[21.3516,63.313,0.0],[21.3479,63.3104,0.0],[21.3401,63.3099,0.0],[21.3359,63.3026,3.1271],[21.3391,63.3016,5.7064],[21.3411,63.2984,4.5749],[21.3359,63.2974,0.0],[21.3339,63.2953,3.2324],[21.3339,63.2922,3.4468],[21.3375,63.2896,1.6629],[21.3563,63.2896,0.0],[21.362,63.2943,0.0],[21.3714,63.3078,0.0],[21.3766,63.3089,0.4637],[21.3813,63.3125,-1.0],[21.3891,63.313,2.7214],[21.388,63.3161,2.1725],[21.3974,63.3172,1.3675],[21.3943,63.3193,0.0],[21.3953,63.3224,0.0],[21.3922,63.3276,0.0785],[21.3964,63.3349,0.2151],[21.4078,63.338,0.0],[21.4172,63.3495,9.8078],[21.4286,63.3526,0.0],[21.4271,63.3542,7.5574],[21.4208,63.3542,3.0161],[21.4167,63.3521,1.6197],[21.4047,63.3568,10.9091],[21.4063,63.3583,0.0],[21.4141,63.3589,0.0],[21.4047,63.3641,2.2161],[21.4125,63.3646,3.0565],[21.4141,63.3661,7.9334],[21.4083,63.3667,7.4703],[21.3979,63.3708,0.0],[21.3854,63.3667,1.5615],[21.3813,63.3667,9.4471],[21.3771,63.3688,0.0],[21.3688,63.3688,0.8731],[21.3646,63.3708,0.0],[21.3604,63.3688,3.7687],[21.3542,63.3688,2.9408],[21.35,63.3708,0.0]]],
[[[21.2203,63.337,3.9803],[21.2188,63.3375,5.2393],[21.2172,63.3359,0.0],[21.2188,63.3354,0.0],[21.2203,63.337,3.9803]]],
[[[21.0578,63.4141,1.7306],[21.0563,63.4146,0.1879],[21.0547,63.413,1.7396],[21.0563,63.4125,0.6514],[21.0578,63.4141,1.7306]]],
[[[21.0854,63.4396,0.0],[21.0771,63.4396,2.8069],[21.0729,63.4417,0.34],[21.0661,63.4359,2.6655],[21.0568,63.4349,0.6295],[21.0526,63.4307,0.0],[21.0557,63.4276,0.0],[21.0526,63.4245,0.0],[21.0526,63.4214,1.2085],[21.0604,63.4167,0.0],[21.0688,63.4167,3.5059],[21.0729,63.4146,1.4523],[21.0776,63.4182,1.4561],[21.0854,63.4208,5.4587],[21.0911,63.4193,0.0],[21.0891,63.4224,0.0],[21.0859,63.4234,0.0],[21.0911,63.4266,0.0],[21.087,63.4328,0.0],[21.0839,63.4339,0.0],[21.087,63.438,0.0],[21.0854,63.4396,0.0]]],
[[[21.962,63.3057,19.9606],[21.9641,63.3016,14.3284],[21.963,63.2984,0.0],[21.9661,63.2984,0.0],[21.9682,63.3005,4.9324],[21.9672,63.3036,0.0],[21.9682,63.3078,4.2525],[21.9609,63.3078,14.9223],[21.962,63.3057,19.9606]]],
[[[21.9693,63.3203,0.0],[21.9651,63.313,12.6255],[21.9745,63.313,0.0],[21.9766,63.3182,5.9836],[21.9729,63.3208,14.5534],[21.9693,63.3203,0.0]]],
[[[22.2583,63.3312,11.7968],[22.2505,63.3276,12.9073],[22.2578,63.3276,10.0983],[22.2599,63.3297,5.1069],[22.2583,63.3312,11.7968]]],
[[[21.9875,63.3354,10.6738],[21.9818,63.3297,13.2009],[21.9911,63.3297,0.0],[21.988,63.3318,10.9931],[21.9891,63.3349,11.976],[21.9875,63.3354,10.6738]]],
[[[22.0542,63.3292,0.0],[22.0578,63.3328,10.808],[22.0505,63.3339,11.1456],[22.0536,63.338,14.4661],[22.0521,63.3396,14.4525],[22.0458,63.3375,12.5322],[22.0396,63.3375,5.6004],[22.0359,63.3349,13.1716],[22.0391,63.3328,8.8107],[22.038,63.3297,0.0],[22.0438,63.3271,10.7839],[22.0542,63.3292,0.0]]],
[[[22.3422,63.338,4.2585],[22.3438,63.3375,0.803],[22.3453,63.3391,10.2306],[22.3422,63.3391,10.3118],[22.3422,63.338,4.2585]]],
[[[21.7922,63.3047,5.1345],[21.788,63.3057,0.0],[21.7917,63.3021,8.7908],[21.7932,63.3026,10.0649],[21.7922,63.3047,5.1345]]],
[[[21.7068,63.3505,3.2137],[21.7083,63.35,13.3795],[21.7099,63.3516,12.5825],[21.7083,63.3521,0.0],[21.7068,63.3505,3.2137]]],
[[[21.7328,63.3818,6.7779],[21.7297,63.3828,9.3562],[21.7276,63.3797,4.7554],[21.7307,63.3797,7.0406],[21.7328,63.3818,6.7779]]],
[[[21.7854,63.4,12.8207],[21.7813,63.4,6.14],[21.7797,63.3984,0.0],[21.7833,63.3958,4.8889],[21.7953,63.3964,5.5849],[21.7932,63.3995,0.0],[21.7854,63.4,12.8207]]],
[[[22.0021,63.3396,7.3227],[21.9984,63.3391,4.045],[22.0005,63.3339,9.9788],[22.0078,63.3339,1.877],[22.0099,63.337,7.4132999999999996],[22.0068,63.3391,4.1751],[22.012,63.3453,0.0],[22.0047,63.3474,0.0],[22.0026,63.3443,0.0],[22.0057,63.3422,4.7303],[22.0021,63.3396,7.3227]]],
[[[22.2297,63.3422,11.2898],[22.2313,63.3417,12.142],[22.2328,63.3432,6.5464],[22.2297,63.3432,9.7522],[22.2297,63.3422,11.2898]]],
[[[22.2307,63.3464,18.079],[22.2276,63.3474,17.8298],[22.2255,63.3443,0.0],[22.2286,63.3443,13.7685],[22.2307,63.3464,18.079]]],
[[[22.0234,63.388,0.0],[22.0208,63.3917,6.8379],[22.0109,63.3922,9.6882],[22.012,63.3953,2.8081],[22.0104,63.3958,3.9969],[22.0036,63.3901,0.0],[21.9984,63.3891,5.9848],[22.0016,63.3859,0.0],[21.9922,63.3849,9.6877],[21.9901,63.3828,14.4235],[21.9911,63.3776,0.0],[21.9891,63.3755,5.2846],[21.9839,63.3745,7.4458],[21.9724,63.3672,10.4943],[21.9672,63.3661,0.0],[21.9651,63.362,15.3372],[21.9661,63.3568,0.0],[21.9547,63.3557,0.0],[21.9578,63.3526,13.7368],[21.9495,63.3422,17.7944],[21.9443,63.3411,8.4712],[21.9464,63.3359,6.1613],[21.9562,63.3354,9.4505],[21.9604,63.3333,0.0],[21.9745,63.338,0.0],[21.9776,63.3411,4.2341],[21.9891,63.3443,2.4746],[21.9901,63.3474,0.0],[21.9979,63.35,0.0],[22.0083,63.35,4.9213],[22.0125,63.3479,0.0],[22.0167,63.3479,0.0],[22.0276,63.3401,0.0],[22.0396,63.3396,0.0],[22.0411,63.3411,0.0],[22.038,63.3432,11.5565],[22.0401,63.3453,0.0],[22.0516,63.3484,5.6486],[22.0568,63.3536,0.0],[22.0646,63.3563,0.0],[22.0708,63.3563,0.0],[22.0755,63.3599,0.0],[22.0932,63.3651,1.7433],[22.0922,63.3703,0.1857],[22.0932,63.3745,8.1638],[22.0854,63.375,4.5837],[22.0839,63.3766,0.0],[22.0958,63.3771,1.6576],[22.0995,63.3797,0.0],[22.0979,63.3812,0.0],[22.0922,63.3818,0.0],[22.0875,63.3875,1.9282],[22.0729,63.3854,6.4869],[22.0714,63.3859,4.8475],[22.0724,63.3891,10.7161],[22.0583,63.3896,0.0],[22.0542,63.3917,1.3044],[22.038,63.3911,2.5679],[22.0349,63.3859,5.5095],[22.0313,63.3833,0.0],[22.0234,63.3839,15.2203],[22.0245,63.387,8.0711],[22.0234,63.388,0.0]]],
[[[21.6854,63.3937,5.6324],[21.675,63.3937,8.7084],[21.6734,63.3943,11.5842],[21.6745,63.3974,11.1556],[21.6729,63.3979,0.0],[21.6667,63.3937,15.5079],[21.6625,63.3958,7.5808],[21.6563,63.3937,16.4925],[21.65,63.3979,5.4451],[21.6443,63.3922,0.0],[21.6599,63.3911,0.0],[21.6609,63.388,7.568],[21.6661,63.387,10.0556],[21.6651,63.3818,3.6565],[21.6708,63.3812,0.0],[21.675,63.3833,15.6218],[21.6828,63.3839,5.7614],[21.6859,63.387,2.5344],[21.6911,63.388,12.8074],[21.6932,63.3901,5.8559],[21.6891,63.3932,0.0],[21.6854,63.3937,5.6324]]],
[[[21.6917,63.3979,0.0],[21.6854,63.3979,8.3342],[21.6839,63.3964,15.7363],[21.6932,63.3964,0.0],[21.6917,63.3979,0.0]]],
[[[21.6708,63.4125,3.0716],[21.6724,63.4141,11.9175],[21.6693,63.4141,7.8695],[21.6693,63.413,4.5096],[21.6708,63.4125,3.0716]]],
[[[21.6771,63.4146,12.6437],[21.6786,63.4161,6.8758],[21.6755,63.4161,8.5179],[21.6755,63.4151,12.6437],[21.6771,63.4146,12.6437]]],
[[[21.7036,63.4182,18.152],[21.7021,63.4188,16.2311],[21.7005,63.4172,16.1315],[21.7021,63.4167,15.2917],[21.7036,63.4182,18.152]]],
[[[22.1297,63.3766,16.7663],[22.1255,63.3724,2.5551],[22.1255,63.3693,0.0],[22.1354,63.3688,0.0],[22.1411,63.3734,0.0],[22.1354,63.3771,15.106],[22.1297,63.3766,16.7663]]],
[[[22.1922,63.3776,0.0],[22.1875,63.3792,12.0681],[22.1854,63.3771,13.9869],[22.1859,63.3755,10.2557],[22.1917,63.375,12.2188],[22.1932,63.3755,13.7208],[22.1922,63.3776,0.0]]],
[[[22.1672,63.3818,7.2668],[22.1646,63.3833,1.7666],[22.1609,63.3797,7.7483],[22.1682,63.3797,11.46],[22.1672,63.3818,7.2668]]],
[[[22.1339,63.388,6.3205],[22.137,63.388,12.3051],[22.137,63.3891,7.3742],[22.1339,63.3891,0.0],[22.1339,63.388,6.3205]]],
[[[21.7557,63.3995,0.0],[21.7479,63.4,0.0],[21.7464,63.3984,0.0],[21.7542,63.3979,0.0],[21.7557,63.3995,0.0]]],
[[[21.7911,63.4089,14.3506],[21.788,63.4099,8.8795],[21.7859,63.4068,12.1341],[21.7891,63.4068,16.7802],[21.7911,63.4089,14.3506]]],
[[[21.7224,63.4109,4.8869],[21.7208,63.4125,10.4089],[21.7151,63.412,11.9549],[21.7167,63.4104,0.0],[21.7224,63.4109,4.8869]]],
[[[21.7922,63.4151,19.59],[21.7953,63.4151,13.2544],[21.7953,63.4161,0.0],[21.7922,63.4161,14.1459],[21.7922,63.4151,19.59]]],
[[[21.8042,63.4208,17.8798],[21.8005,63.4203,17.5549],[21.7984,63.4172,8.1575],[21.8042,63.4167,16.3746],[21.8078,63.4193,9.2479],[21.8042,63.4208,17.8798]]],
[[[21.7964,63.4214,7.0499],[21.7979,63.4208,16.7983],[21.7995,63.4224,17.2452],[21.7979,63.4229,16.1145],[21.7964,63.4214,7.0499]]],
[[[21.8141,63.4276,11.3119],[21.8125,63.4292,0.0],[21.8068,63.4286,13.1333],[21.8083,63.4271,13.0478],[21.8141,63.4276,11.3119]]],
[[[21.7813,63.4271,13.6516],[21.7828,63.4286,11.8121],[21.7776,63.4286,17.8035],[21.7776,63.4276,15.9102],[21.7813,63.4271,13.6516]]],
[[[21.712,63.4339,13.6513],[21.7104,63.4354,8.6241],[21.7047,63.4349,9.3039],[21.7062,63.4333,11.703],[21.712,63.4339,13.6513]]],
[[[21.7458,63.4479,12.0885],[21.7422,63.4495,10.4172],[21.7474,63.4505,0.0],[21.7495,63.4536,0.0],[21.7458,63.4562,0.0],[21.7422,63.4557,5.1149],[21.7396,63.4521,5.6302],[21.725,63.4521,0.0],[21.7188,63.4542,2.2167],[21.7167,63.4521,0.0],[21.7182,63.4484,0.0],[21.713,63.4474,4.7268],[21.7109,63.4443,7.1936],[21.7167,63.4417,0.0],[21.7307,63.4411,1.7656],[21.7255,63.4391,0.0],[21.7234,63.4359,12.831],[21.7292,63.4333,0.0],[21.7349,63.4328,0.0],[21.7297,63.4297,10.2759],[21.7375,63.4271,9.8876],[21.7417,63.4292,9.0226],[21.7516,63.4297,12.9728],[21.75,63.4313,14.466],[21.7443,63.4318,0.0],[21.7479,63.4375,15.6129],[21.7422,63.4432,7.8824],[21.75,63.4437,13.1382],[21.7542,63.4417,0.0],[21.7557,63.4432,1.0361],[21.7495,63.4474,0.0],[21.7458,63.4479,12.0885]]],
[[[21.8104,63.45,16.0907],[21.8089,63.4505,17.0046],[21.8099,63.4536,6.4946],[21.8026,63.4547,8.5597],[21.7979,63.4583,0.0],[21.7833,63.4583,8.2505],[21.7818,63.4568,0.0],[21.7849,63.4557,10.7317],[21.7839,63.4526,0.0],[21.7849,63.4505,0.0],[21.7797,63.4495,9.7038],[21.7776,63.4464,0.0],[21.7875,63.4458,0.0],[21.7974,63.4432,12.1404],[21.7953,63.4401,10.5878],[21.7901,63.4391,0.0],[21.7932,63.4359,15.1218],[21.7901,63.4328,16.3523],[21.7901,63.4297,0.0],[21.8146,63.4313,0.0],[21.8203,63.4297,8.5073],[21.8224,63.4328,9.7091],[21.8172,63.437,13.8918],[21.8286,63.4411,0.0],[21.8203,63.4432,0.0],[21.8193,63.4453,12.3175],[21.8203,63.4495,0.3865],[21.8104,63.45,16.0907]]],
[[[21.7755,63.4609,5.4609],[21.7771,63.4604,0.0],[21.7786,63.462,7.9011],[21.7771,63.4625,3.0721],[21.7755,63.4609,5.4609]]],
[[[21.7333,63.4667,2.5271],[21.7318,63.4651,0.0],[21.7453,63.4651,0.0],[21.7396,63.4688,0.0],[21.7333,63.4667,2.5271]]]]}}