{"type":"Feature","properties":{"GID_3":"FIN.5.6.7_1","GID_0":"FIN","country":"Finland","GID_1":"FIN.5_1","province":"WesternFinland","NL_NAME_1":"NA","GID_2":"FIN.5.6_1","county":"Pirkanmaa","NL_NAME_2":"NA","city":"UpperPirkanmaa","VARNAME_3":"NA","NL_NAME_3":"NA","TYPE_3":"Seutukunta|Ekonomiskregion","ENGTYPE_3":"Sub-Region","CC_3":"NA","HASC_3":"NA","name":"Upper_Pirkanmaa.city"},
"geometry":{"type": "MultiPolygon","coordinates": [[[[24.7381,61.5583,168.0995],[24.7475,61.558,167.5821],[24.7489,61.5669,200.4204],[24.7583,61.5666,185.8615],[24.7576,61.5621,173.6181],[24.814,61.5602,146.8088],[24.8133,61.5557,121.267],[24.8322,61.5551,110.6088],[24.8342,61.5685,120.6063],[24.8248,61.5688,120.8231],[24.8269,61.5822,133.0706],[24.8175,61.5826,111.0],[24.8189,61.5915,139.3259],[24.8095,61.5919,142.8502],[24.8102,61.5963,137.4017],[24.8008,61.5967,130.1099],[24.8015,61.6012,162.2419],[24.792,61.6015,153.9157],[24.7941,61.6149,168.4834],[24.7847,61.6152,162.6271],[24.7868,61.6287,111.5286],[24.7962,61.6283,100.5],[24.799,61.6463,138.8538],[24.8084,61.6459,162.5043],[24.8098,61.6549,147.7386],[24.8381,61.6539,139.1157],[24.8374,61.6494,143.9474],[24.8846,61.6478,152.5847],[24.8839,61.6433,147.5074],[24.9027,61.6426,142.4347],[24.902,61.6381,131.1267],[24.9114,61.6378,137.481],[24.9107,61.6333,124.0],[24.9579,61.6317,129.2642],[24.9593,61.6406,122.8712],[24.9499,61.6409,122.7816],[24.9513,61.6499,127.9438],[24.9607,61.6496,130.0176],[24.9622,61.6585,129.8339],[24.9716,61.6582,126.4179],[24.9723,61.6627,123.5],[24.9629,61.663,123.5],[24.9643,61.672,129.4622],[24.9549,61.6723,123.5],[24.9556,61.6768,132.2788],[24.9462,61.6771,123.5],[24.9476,61.6861,133.0298],[24.9382,61.6864,136.9398],[24.9389,61.6909,126.5],[24.9294,61.6912,142.9764],[24.9308,61.7002,159.4923],[24.9214,61.7005,145.3453],[24.9242,61.7184,128.0283],[24.9337,61.7181,147.6515],[24.9359,61.7315,118.5],[24.9453,61.7312,118.5],[24.9467,61.7401,118.5],[24.9562,61.7398,137.0446],[24.9555,61.7353,144.3094],[24.9649,61.735,118.5],[24.9642,61.7305,118.5],[24.9737,61.7302,126.7294],[24.9722,61.7212,118.5],[24.9817,61.7209,120.3354],[24.9824,61.7254,127.4685],[24.9919,61.725,143.2246],[24.9926,61.7295,131.0128],[25.0021,61.7292,129.5541],[25.0035,61.7381,143.6077],[24.994,61.7384,118.5],[24.9955,61.7474,147.2543],[24.986,61.7477,137.0345],[24.9875,61.7567,154.7464],[24.978,61.757,118.5],[24.9795,61.766,142.0847],[24.97,61.7663,162.1896],[24.9714,61.7753,147.0113],[24.962,61.7756,141.235],[24.9627,61.7801,127.9176],[24.9722,61.7798,156.3283],[24.9729,61.7843,177.7736],[24.9824,61.7839,172.0379],[24.9831,61.7884,170.422],[24.9641,61.7891,134.9676],[24.9649,61.7935,142.5607],[24.9459,61.7942,143.6926],[24.9473,61.8032,169.0273],[24.9379,61.8035,135.0635],[24.9393,61.8125,149.3718],[24.9298,61.8128,165.5175],[24.9313,61.8218,145.3648],[24.9218,61.8221,151.5378],[24.9225,61.8266,152.9009],[24.913,61.8269,174.0211],[24.9123,61.8224,149.5309],[24.9028,61.8228,152.9754],[24.9021,61.8183,148.3138],[24.8831,61.819,133.5],[24.8824,61.8145,135.0354],[24.835,61.8161,110.0],[24.8357,61.8206,121.5288],[24.8167,61.8213,110.0],[24.8174,61.8257,110.0],[24.8079,61.8261,110.0],[24.8072,61.8216,120.2328],[24.7882,61.8223,187.4093],[24.7876,61.8178,158.088],[24.7686,61.8184,178.8163],[24.7679,61.814,161.4118],[24.73,61.8152,154.4831],[24.7306,61.8197,170.158],[24.7211,61.82,162.887],[24.7218,61.8245,177.6598],[24.7123,61.8248,171.3726],[24.713,61.8293,177.4571],[24.7035,61.8296,191.4945],[24.7049,61.8386,173.0499],[24.6954,61.8389,151.5138],[24.6961,61.8434,151.0143],[24.6866,61.8437,141.3581],[24.688,61.8527,152.7998],[24.6785,61.853,164.5086],[24.6792,61.8575,198.8695],[24.6697,61.8578,191.279],[24.6703,61.8623,193.6241],[24.6608,61.8626,190.6899],[24.6615,61.8671,186.7558],[24.652,61.8674,180.8747],[24.6527,61.8719,169.2083],[24.6432,61.8722,160.9918],[24.6439,61.8767,165.8672],[24.6344,61.877,163.7892],[24.635,61.8815,178.7397],[24.6255,61.8818,183.779],[24.6262,61.8863,199.2916],[24.6072,61.8869,141.0698],[24.6079,61.8914,124.5],[24.5889,61.892,124.5],[24.5895,61.8965,149.0305],[24.58,61.8968,174.1578],[24.5807,61.9013,148.6973],[24.5712,61.9016,145.6049],[24.5718,61.9061,147.4443],[24.5623,61.9064,146.6262],[24.563,61.9109,149.6214],[24.5344,61.9118,147.5436],[24.5371,61.9297,155.7579],[24.5466,61.9294,162.6449],[24.5493,61.9473,129.1836],[24.5588,61.947,111.0],[24.5595,61.9515,120.8617],[24.5881,61.9505,126.5266],[24.5887,61.955,126.36279999999999],[24.5983,61.9547,137.8884],[24.5996,61.9637,147.5097],[24.6091,61.9634,147.5162],[24.6118,61.9813,99.0],[24.6214,61.981,98.5],[24.6234,61.9944,99.0],[24.6329,61.9941,106.3574],[24.6336,61.9986,99.0],[24.6527,61.9979,102.6687],[24.652,61.9935,99.0],[24.6616,61.9931,109.2007],[24.6623,61.9976,99.0],[24.6718,61.9973,105.7688],[24.6725,62.0018,98.5],[24.6916,62.0012,110.3716],[24.6923,62.0056,107.5999],[24.7018,62.0053,121.9296],[24.7025,62.0098,122.415],[24.712,62.0095,135.7131],[24.7134,62.0184,153.711],[24.723,62.0181,163.791],[24.7237,62.0226,167.6789],[24.7332,62.0223,145.9873],[24.7339,62.0267,137.7986],[24.7244,62.0271,146.2171],[24.7251,62.0315,159.4909],[24.7155,62.0319,135.4576],[24.7169,62.0408,132.0106],[24.7073,62.0411,119.1379],[24.708,62.0456,110.4172],[24.6889,62.0463,109.6932],[24.6896,62.0508,118.3233],[24.6705,62.0514,105.0],[24.6732,62.0693,105.0],[24.6637,62.0696,105.0],[24.6712,62.118899999999996,105.0],[24.6521,62.1195,120.117],[24.6528,62.124,109.2406],[24.624,62.125,105.9054],[24.6247,62.1295,121.185],[24.6151,62.1298,115.0133],[24.6165,62.1387,111.6461],[24.6069,62.139,107.5],[24.6082,62.148,118.0404],[24.5986,62.1483,116.9284],[24.6,62.1573,114.6525],[24.5904,62.1576,131.9811],[24.5911,62.1621,130.5685],[24.5815,62.1624,128.9012],[24.5828,62.1713,128.3248],[24.5732,62.1716,140.5743],[24.5746,62.1806,146.1295],[24.565,62.1809,176.1821],[24.5657,62.1854,172.3138],[24.5561,62.1857,156.4098],[24.5567,62.1902,154.4325],[24.5375,62.1908,161.5656],[24.5382,62.1953,150.1337],[24.519,62.1959,156.1634],[24.5197,62.2004,158.1219],[24.5101,62.2007,153.8898],[24.5094,62.1962,154.697],[24.4902,62.1968,167.7595],[24.4895,62.1924,160.0632],[24.4799,62.1927,154.8499],[24.4792,62.1882,160.4359],[24.4696,62.1885,160.2941],[24.469,62.184,146.0949],[24.4594,62.1843,143.3263],[24.4587,62.1798,128.0074],[24.4395,62.1804,150.3147],[24.4389,62.176,138.0847],[24.4293,62.1763,149.8116],[24.4286,62.1718,151.5949],[24.4382,62.1715,132.2718],[24.4369,62.1625,120.253],[24.4465,62.1622,122.6353],[24.4458,62.1577,131.8597],[24.4362,62.158,122.6236],[24.4356,62.1535,115.1289],[24.4164,62.1542,105.0],[24.417,62.1586,124.1221],[24.4074,62.1589,105.0],[24.4081,62.1634,105.0],[24.3409,62.1655,131.2452],[24.3416,62.17,108.0],[24.332,62.1703,142.1485],[24.3326,62.1748,139.1053],[24.323,62.1751,145.5404],[24.3236,62.1795,119.8512],[24.314,62.1798,132.3427],[24.3147,62.1843,121.8181],[24.3051,62.1846,117.5],[24.3063,62.1936,134.9201],[24.2967,62.1939,157.3117],[24.298,62.2028,157.5867],[24.2884,62.2031,127.4698],[24.2909,62.2211,172.3574],[24.2813,62.2214,164.9538],[24.2832,62.2348,176.8317],[24.2736,62.2351,174.2653],[24.2761,62.253,193.2186],[24.228,62.2545,194.4924],[24.2274,62.25,193.5435],[24.1407,62.2526,154.4122],[24.1414,62.257,157.6781],[24.1317,62.2573,157.7801],[24.1323,62.2618,157.3504],[24.1131,62.2624,151.1331],[24.1137,62.2668,157.9742],[24.1041,62.2671,158.6374],[24.1047,62.2716,170.2251],[24.0854,62.2722,137.7296],[24.0866,62.2811,127.4407],[24.077,62.2814,130.791],[24.0794,62.2993,125.5],[24.0697,62.2996,125.5],[24.0703,62.3041,125.5],[24.0511,62.3047,130.198],[24.0505,62.3002,134.864],[24.0312,62.3007,119.555],[24.033,62.3142,142.2],[24.0233,62.3144,139.222],[24.0269,62.3414,181.8628],[24.0172,62.3416,179.6227],[24.0202,62.364,197.4694],[24.0106,62.3643,190.5674],[24.0112,62.3688,192.0981],[24.0015,62.3691,188.4514],[24.0021,62.3736,188.9736],[23.9924,62.3738,181.4126],[23.993,62.3783,176.4803],[23.9834,62.3786,175.7193],[23.984,62.3831,173.5044],[23.9549,62.3839,195.0765],[23.9555,62.3884,181.9207],[23.9265,62.3892,154.6552],[23.9277,62.3981,168.7353],[23.918,62.3984,149.8158],[23.9198,62.4119,145.8688],[23.9101,62.4121,139.6406],[23.9124,62.4301,136.0673],[23.9027,62.4303,133.1172],[23.9051,62.4483,151.7529],[23.9148,62.448,149.9446],[23.9165,62.4614,157.7415],[23.9068,62.4617,160.3414],[23.9091,62.4796,159.1909],[23.8995,62.4799,164.3523],[23.9,62.4844,150.417],[23.8709,62.4852,171.639],[23.8674,62.4583,164.5052],[23.8384,62.4591,163.0231],[23.8424,62.4905,171.6711],[23.8327,62.4907,167.819],[23.8321,62.4863,170.0952],[23.8224,62.4865,166.6732],[23.8218,62.482,166.0354],[23.8121,62.4823,170.7281],[23.8104,62.4688,154.7699],[23.8201,62.4686,163.1162],[23.8195,62.4641,160.4958],[23.8001,62.4646,149.3356],[23.7996,62.4601,143.6768],[23.7802,62.4606,157.4275],[23.7796,62.4562,154.4147],[23.7602,62.4567,162.4039],[23.7597,62.4522,161.5143],[23.75,62.4524,152.775],[23.7494,62.448,154.4217],[23.7397,62.4482,157.0437],[23.7391,62.4437,153.8654],[23.7295,62.444,160.5051],[23.7284,62.435,140.5843],[23.7187,62.4353,144.2375],[23.7181,62.4308,146.0258],[23.7084,62.431,151.9509],[23.7079,62.4266,128.1744],[23.6982,62.4268,126.8493],[23.6976,62.4223,127.4321],[23.688,62.4226,138.3067],[23.6868,62.4136,126.9991],[23.6772,62.4139,127.7571],[23.6766,62.4094,128.894],[23.5023,62.4138,147.4891],[23.5018,62.4093,147.275],[23.5115,62.4091,146.8866],[23.5089,62.3866,150.3125],[23.5185,62.3864,149.5002],[23.5164,62.3684,147.8938],[23.5068,62.3687,152.9489],[23.5073,62.3732,151.2493],[23.4976,62.3734,149.704],[23.4982,62.3779,153.1237],[23.4788,62.3784,154.7887],[23.4793,62.3829,150.6241],[23.4697,62.3831,152.2264],[23.4691,62.3786,150.6353],[23.4498,62.3791,150.8844],[23.4493,62.3746,150.4294],[23.4299,62.3751,153.6071],[23.4304,62.3796,147.7718],[23.4111,62.38,142.9796],[23.4116,62.3845,138.8755],[23.4019,62.3847,139.0522],[23.4024,62.3892,138.8824],[23.3831,62.3897,138.985],[23.3841,62.3987,146.9895],[23.3744,62.3989,147.2465],[23.3749,62.4034,146.4065],[23.3652,62.4036,146.6636],[23.3657,62.4081,139.8528],[23.3561,62.4083,147.021],[23.3571,62.4173,137.136],[23.3474,62.4175,139.5351],[23.3479,62.422,136.0465],[23.3285,62.4225,146.3448],[23.328,62.418,138.6335],[23.3086,62.4184,137.116],[23.3081,62.414,143.4683],[23.2888,62.4144,136.7504],[23.2883,62.4099,136.4775],[23.2786,62.4101,134.0467],[23.2776,62.4012,133.8641],[23.2679,62.4014,134.3772],[23.2665,62.3879,129.9829],[23.2568,62.3881,140.3282],[23.2553,62.3747,142.1668],[23.2457,62.3749,137.1147],[23.2437,62.357,135.2963],[23.2341,62.3572,129.7582],[23.2326,62.3437,138.241],[23.2229,62.344,129.7723],[23.2215,62.3305,135.6817],[23.2312,62.3303,140.9558],[23.2302,62.3213,135.5789],[23.2399,62.3211,139.7945],[23.2394,62.3166,135.4955],[23.249,62.3164,136.0747],[23.2486,62.3119,138.1924],[23.2582,62.3116,144.5341],[23.2572,62.3027,145.9311],[23.2669,62.3025,147.0462],[23.2664,62.298,147.282],[23.2761,62.2978,147.3171],[23.2756,62.2933,150.9854],[23.2852,62.293,152.0782],[23.2842,62.2841,145.0881],[23.2939,62.2838,153.6904],[23.2934,62.2794,149.037],[23.303,62.2791,151.8296],[23.3021,62.2701,152.9687],[23.3117,62.2699,149.5098],[23.3112,62.2654,151.1231],[23.3209,62.2652,154.454],[23.3203,62.2607,154.8138],[23.33,62.2605,154.2422],[23.329,62.2515,156.8151],[23.3386,62.2513,159.0223],[23.3381,62.2468,160.5302],[23.3478,62.2466,157.7563],[23.3473,62.2421,159.115],[23.3569,62.2419,160.7341],[23.3559,62.2329,160.1102],[23.3655,62.2327,159.2694],[23.365,62.2282,158.3682],[23.3747,62.228,161.2978],[23.3737,62.219,160.7418],[23.3833,62.2188,162.4272],[23.3818,62.2053,166.1431],[23.3914,62.2051,163.1968],[23.3904,62.1961,171.8316],[23.4,62.1959,172.8688],[23.399,62.1869,187.4052],[23.4086,62.1867,180.7958],[23.4071,62.1732,190.3879],[23.4167,62.173,198.4297],[23.4157,62.164,197.8855],[23.4253,62.1638,198.4603],[23.4248,62.1593,193.269],[23.4152,62.1595,200.3521],[23.396,62.16,182.107],[23.3965,62.1645,186.0897],[23.3773,62.1649,174.3689],[23.3768,62.1604,184.6198],[23.3672,62.1607,184.5495],[23.3667,62.1562,176.6553],[23.3571,62.1564,179.2662],[23.3561,62.1474,178.7287],[23.3465,62.1477,168.6267],[23.3455,62.1387,188.8748],[23.3359,62.1389,185.9865],[23.3349,62.13,184.6901],[23.3253,62.1302,169.7514],[23.3249,62.1257,176.8613],[23.3153,62.1259,194.8929],[23.3143,62.117,187.4102],[23.3047,62.1172,175.2902],[23.3037,62.1082,179.4426],[23.2941,62.1084,174.5421],[23.2922,62.0905,187.1475],[23.3018,62.0903,177.9554],[23.3008,62.0813,176.5495],[23.3295,62.0806,172.4699],[23.329,62.0761,170.4769],[23.3578,62.0755,154.4299],[23.3573,62.071,154.6498],[23.3669,62.0707,154.6995],[23.3634,62.0393,154.6999],[23.373,62.0391,154.6735],[23.3705,62.0167,154.7969],[23.3609,62.0169,154.7129],[23.3599,62.0079,154.382],[23.3504,62.0082,154.6506],[23.3494,61.9992,154.6297],[23.3398,61.9994,154.4487],[23.3384,61.986,170.8019],[23.3288,61.9862,154.2952],[23.3279,61.9772,173.2054],[23.3183,61.9775,156.0625],[23.3173,61.9685,150.5],[23.3078,61.9687,162.2493],[23.3058,61.9508,139.1087],[23.3154,61.9505,157.0761],[23.3149,61.946,169.0889],[23.334,61.9456,165.4285],[23.3335,61.9411,170.3706],[23.343,61.9409,164.5855],[23.3425,61.9364,162.6114],[23.3616,61.9359,201.6496],[23.3611,61.9314,172.1496],[23.3802,61.931,179.4059],[23.3797,61.9265,185.3339],[23.3987,61.926,173.437],[23.3982,61.9216,170.3138],[23.4268,61.9209,163.9897],[23.4263,61.9164,170.3558],[23.4454,61.9159,167.6175],[23.4449,61.9114,166.2583],[23.4544,61.9112,170.6919],[23.4504,61.8753,146.6145],[23.4694,61.8748,172.6289],[23.4689,61.8703,157.2703],[23.4784,61.8701,171.4591],[23.4779,61.8656,159.5494],[23.4969,61.8652,167.2303],[23.4964,61.8607,171.9753],[23.5154,61.8602,170.0381],[23.5149,61.8557,162.3643],[23.5815,61.854,133.0099],[23.582,61.8585,141.3379],[23.5915,61.8582,131.6775],[23.5899,61.8448,146.4183],[23.5994,61.8445,146.1596],[23.5963,61.8176,150.9463],[23.5868,61.8179,149.9727],[23.5863,61.8134,152.6263],[23.5673,61.8139,140.6564],[23.5668,61.8094,147.0198],[23.5573,61.8096,134.2872],[23.5567,61.8052,151.9995],[23.5662,61.8049,132.5379],[23.5657,61.8004,153.3009],[23.5752,61.8002,138.0034],[23.5711,61.7643,140.9233],[23.5805,61.7641,149.379],[23.58,61.7596,148.1627],[23.5895,61.7593,144.5118],[23.59,61.7638,133.2558],[23.609,61.7633,139.5915],[23.6084,61.7589,137.9495],[23.6179,61.7586,132.4948],[23.6169,61.7496,149.0999],[23.6264,61.7494,139.5049],[23.6242,61.7314,128.44],[23.6337,61.7312,136.3025],[23.6332,61.7267,120.7033],[23.6321,61.7177,102.487],[23.6227,61.718,95.0],[23.6216,61.709,95.0],[23.65,61.7083,95.0],[23.6495,61.7038,95.0],[23.6779,61.703,95.0],[23.6773,61.6986,95.0],[23.7152,61.6976,95.0],[23.7146,61.6931,95.0],[23.7241,61.6928,95.0],[23.7235,61.6883,95.0],[23.7519,61.6876,95.0],[23.7524,61.6921,95.0],[23.7619,61.6918,95.0],[23.7635,61.7052,95.0],[23.773,61.705,95.0],[23.7752,61.7229,95.0],[23.7847,61.7227,95.0],[23.7852,61.7271,95.0],[23.7757,61.7274,95.0],[23.7763,61.7319,95.0],[23.7668,61.7322,95.0],[23.7679,61.7411,95.0],[23.7584,61.7414,95.0],[23.7612,61.7638,95.0],[23.7706,61.7635,95.0],[23.7723,61.777,95.0],[23.7818,61.7767,95.0],[23.7834,61.7902,95.0],[23.7929,61.7899,95.0],[23.7935,61.7944,95.0],[23.8029,61.7942,95.0],[23.8063,61.8211,95.0],[23.8158,61.8208,95.0],[23.8163,61.8253,95.0],[23.8258,61.825,95.0],[23.8264,61.8295,95.0],[23.8454,61.829,95.0],[23.8459,61.8335,95.0],[23.8744,61.8327,95.0],[23.8739,61.8282,95.0],[23.8834,61.8279,95.0],[23.8828,61.8234,95.0],[23.8923,61.8232,95.0],[23.8917,61.8187,95.0],[23.9012,61.8184,109.4473],[23.9006,61.8139,104.1125],[23.9196,61.8134,131.0664],[23.9191,61.8089,151.0241],[23.938,61.8084,126.6358],[23.9375,61.8039,138.9532],[23.9564,61.8034,145.0805],[23.9559,61.7989,142.5673],[23.9748,61.7984,142.609],[23.9743,61.7939,147.1345],[23.9837,61.7936,142.2405],[23.9832,61.7891,148.5225],[24.0306,61.7877,171.1411],[24.0312,61.7922,175.4061],[24.0691,61.7911,179.7133],[24.0697,61.7956,185.3417],[24.0887,61.7951,182.469],[24.0881,61.7906,171.3439],[24.0976,61.7903,172.9723],[24.094,61.7634,205.416],[24.1035,61.7631,197.1907],[24.1017,61.7497,187.6975],[24.1111,61.7494,186.9445],[24.1093,61.7359,169.5534],[24.1188,61.7357,142.5],[24.1182,61.7312,146.5748],[24.1088,61.7315,159.6516],[24.1082,61.727,150.1633],[24.0987,61.7272,156.8004],[24.0981,61.7228,149.2831],[24.0886,61.723,156.148],[24.0863,61.7051,152.5773],[24.0957,61.7048,147.9356],[24.0939,61.6914,174.7289],[24.1034,61.6911,160.2284],[24.0957,61.6328,137.0],[24.1145,61.6323,153.7887],[24.114,61.6278,143.9444],[24.1234,61.6275,152.4894],[24.1228,61.623,150.8084],[24.1322,61.6228,149.656],[24.1316,61.6183,148.8111],[24.1411,61.618,150.9739],[24.1405,61.6135,153.865],[24.1499,61.6132,150.9281],[24.1493,61.6087,149.689],[24.1587,61.6085,151.9818],[24.1581,61.604,148.8151],[24.1675,61.6037,137.0505],[24.1669,61.5992,142.1413],[24.1764,61.5989,128.5],[24.1758,61.5945,137.9447],[24.1852,61.5942,154.8731],[24.1846,61.5897,177.7735],[24.2034,61.5891,144.467],[24.2028,61.5846,142.8611],[24.2217,61.5841,103.3806],[24.2211,61.5796,118.3658],[24.2305,61.5793,86.0],[24.2298,61.5748,101.9872],[24.2393,61.5745,86.0],[24.2387,61.57,97.201],[24.2669,61.5692,86.0],[24.2675,61.5737,86.0],[24.2769,61.5733,86.0],[24.2776,61.5778,112.9429],[24.2964,61.5773,109.5742],[24.297,61.5817,129.0232],[24.3158,61.5812,119.8448],[24.3165,61.5856,123.5419],[24.3353,61.585,166.1273],[24.3347,61.5806,135.7995],[24.3535,61.58,161.9828],[24.3497,61.5531,82.0],[24.3686,61.5525,82.0],[24.3679,61.548,82.0],[24.4526,61.5453,82.0],[24.4532,61.5498,82.0],[24.5097,61.548,82.0],[24.509,61.5435,82.0],[24.5278,61.5428,82.0],[24.5272,61.5384,82.0],[24.546,61.5378,82.0],[24.5453,61.5333,82.0],[24.5547,61.533,82.0],[24.5541,61.5285,82.0],[24.5823,61.5275,82.0],[24.5829,61.532,82.0],[24.6017,61.5314,82.0],[24.6011,61.5269,82.0],[24.6105,61.5266,82.0],[24.6098,61.5221,82.0],[24.6192,61.5218,82.0],[24.6185,61.5173,82.0],[24.6279,61.517,85.7541],[24.6273,61.5125,82.0],[24.6461,61.5119,91.4506],[24.6474,61.5209,92.7815],[24.6568,61.5205,90.9433],[24.6575,61.525,97.4266],[24.6669,61.5247,120.5802],[24.6682,61.5337,136.4396],[24.7058,61.5324,125.006],[24.7051,61.5279,116.619],[24.7333,61.527,134.0056],[24.7381,61.5583,168.0995]],
[[24.5329,61.9118,143.1344],[24.5344,61.9118,147.5436],[24.5338,61.9073,145.6373],[24.5243,61.9076,152.763],[24.5249,61.9121,154.0404],[24.5329,61.9118,143.1344]]]]}}