{"type":"Feature","properties":{"GID_3":"FIN.5.8.1_1","GID_0":"FIN","country":"Finland","GID_1":"FIN.5_1","province":"WesternFinland","NL_NAME_1":"NA","GID_2":"FIN.5.8_1","county":"SouthernOstrobothnia","NL_NAME_2":"NA","city":"Härmänmaa","VARNAME_3":"NA","NL_NAME_3":"NA","TYPE_3":"Seutukunta|Ekonomiskregion","ENGTYPE_3":"Sub-Region","CC_3":"NA","HASC_3":"FI.LS.HR","name":"Härmänmaa.city"},
"geometry":{"type": "MultiPolygon","coordinates": [[[[23.4601,63.0581,87.8046],[23.4612,63.0671,93.0918],[23.4711,63.0668,92.7798],[23.4732,63.0848,104.3443],[23.4633,63.085,93.2387],[23.4654,63.103,108.1537],[23.4555,63.1032,104.6269],[23.4576,63.1212,114.7441],[23.4477,63.1214,107.8576],[23.4498,63.1393,107.7887],[23.4399,63.1396,107.9137],[23.441,63.1485,106.3356],[23.431,63.1488,103.1836],[23.4316,63.1533,108.8797],[23.4216,63.1535,106.5569],[23.4227,63.1625,101.7817],[23.4128,63.1627,95.3418],[23.4133,63.1672,96.2979],[23.4033,63.1674,94.0892],[23.4044,63.1764,95.8158],[23.3945,63.1766,104.5804],[23.395,63.1811,104.8389],[23.3751,63.1816,105.9651],[23.3756,63.1861,96.516],[23.3657,63.1863,101.2308],[23.3662,63.1908,100.943],[23.3563,63.191,96.8154],[23.3568,63.1955,103.1319],[23.3369,63.196,92.1362],[23.3374,63.2005,85.1271],[23.3275,63.2007,80.683],[23.328,63.2052,91.846],[23.278199999999998,63.2063,84.8123],[23.2777,63.2018,81.5583],[23.2578,63.2023,86.4761],[23.2573,63.1978,87.6166],[23.2374,63.1982,83.3145],[23.237,63.1937,80.1901],[23.2171,63.1942,83.5213],[23.2166,63.1897,77.1921],[23.2066,63.1899,86.4605],[23.2061,63.1854,72.753],[23.1962,63.1856,81.2035],[23.1957,63.1811,72.2693],[23.1952,63.1767,75.4231],[23.2051,63.1764,78.6146],[23.2041,63.1675,80.2362],[23.1843,63.1679,75.339],[23.1853,63.1769,66.9652],[23.1753,63.1771,77.0992],[23.1763,63.1861,76.7232],[23.1564,63.1865,78.0834],[23.1569,63.191,75.6769],[23.147,63.1912,80.0415],[23.1474,63.1957,69.7128],[23.1276,63.1961,73.4151],[23.128,63.2006,78.0589],[23.1181,63.2008,72.3504],[23.1186,63.2053,75.0831],[23.0987,63.2057,70.896],[23.0991,63.2102,69.2015],[23.0793,63.2107,71.6848],[23.0797,63.2151,78.9191],[23.0698,63.2153,78.7748],[23.0702,63.2198,68.12],[23.0503,63.2203,79.238],[23.0508,63.2247,74.9395],[23.0408,63.2249,82.596],[23.0413,63.2294,68.0852],[23.0214,63.2299,74.6317],[23.0219,63.2343,73.5036],[23.0119,63.2345,71.028],[23.0124,63.239,74.4775],[23.0024,63.2392,68.4983],[23.0033,63.2482,66.3396],[22.9934,63.2484,64.5182],[22.9943,63.2574,58.8426],[22.9843,63.2576,61.8489],[22.9853,63.2666,55.4302],[22.9952,63.2664,59.6222],[22.9966,63.2798,59.6331],[22.9975,63.2888,57.1391],[22.9876,63.289,52.8086],[22.9908,63.3204,51.4879],[22.9808,63.3206,61.8884],[22.9817,63.3296,63.5308],[22.9717,63.3298,57.3826],[22.9722,63.3343,57.6133],[22.9622,63.3345,61.7652],[22.9627,63.339,64.4059],[22.9427,63.3394,68.3614],[22.9431,63.3439,69.5781],[22.9231,63.3443,65.4569],[22.9236,63.3488,66.9345],[22.9036,63.3492,58.2435],[22.904,63.3537,64.1043],[22.874,63.3543,54.7733],[22.8732,63.3453,64.3386],[22.8632,63.3455,62.7837],[22.7932,63.3468,34.3424],[22.7936,63.3513,29.7976],[22.7736,63.3517,25.7832],[22.774,63.3562,35.3624],[22.734,63.3569,33.681],[22.7336,63.3525,31.4986],[22.7436,63.3523,27.483],[22.7432,63.3478,37.1828],[22.7532,63.3476,25.3245],[22.7527,63.3431,26.0],[22.7327,63.3435,29.6061],[22.7323,63.339,29.8073],[22.7223,63.3392,34.3858],[22.7219,63.3347,33.9212],[22.7019,63.3351,36.3467],[22.7015,63.3306,34.9143],[22.6915,63.3308,36.2544],[22.6911,63.3263,38.2869],[22.6811,63.3265,40.936],[22.6807,63.322,43.2674],[22.6607,63.3223,45.2394],[22.6603,63.3178,45.0591],[22.6503,63.318,46.8757],[22.6499,63.3135,46.6116],[22.6598,63.3134,49.4424],[22.659,63.3044,47.3994],[22.669,63.3042,46.5285],[22.6686,63.2997,46.2218],[22.6786,63.2995,41.359],[22.6782,63.295,42.2689],[22.6582,63.2954,49.3453],[22.6578,63.2909,46.2008],[22.6478,63.2911,48.9847],[22.6474,63.2866,59.5437],[22.6274,63.287,48.1936],[22.627,63.2825,52.0099],[22.6171,63.2826,49.9425],[22.6167,63.2782,46.2206],[22.5867,63.2787,48.9989],[22.5863,63.2742,55.3532],[22.5763,63.2744,53.229],[22.5759,63.2699,50.5778],[22.566,63.2701,48.5305],[22.564,63.2476,48.1485],[22.5839,63.2473,50.8215],[22.5835,63.2428,51.8156],[22.6035,63.2424,49.1536],[22.6027,63.2334,46.4056],[22.5927,63.2336,47.2292],[22.5923,63.2291,53.4423],[22.5823,63.2293,51.6636],[22.5819,63.2248,46.0457],[22.572,63.225,44.0388],[22.5708,63.2115,38.9806],[22.5807,63.2113,39.5048],[22.5811,63.2158,39.1493],[22.601,63.2155,43.1363],[22.5998,63.202,61.6468],[22.5899,63.2022,47.5724],[22.5887,63.1887,65.2597],[22.5787,63.1889,64.0416],[22.578,63.1799,57.7482],[22.5879,63.1797,65.4469],[22.5883,63.1842,64.6281],[22.5982,63.1841,61.5703],[22.5986,63.1885,63.5655],[22.6086,63.1884,61.723],[22.6082,63.1839,64.0272],[22.6181,63.1837,64.7125],[22.6177,63.1792,65.8433],[22.6376,63.1789,61.4075],[22.638,63.1833,59.2156],[22.648,63.1832,62.475],[22.6484,63.1876,63.3728],[22.6683,63.1873,58.0029],[22.6687,63.1918,59.4441],[22.6786,63.1916,57.0751],[22.6749,63.1512,64.7404],[22.6848,63.151,51.332],[22.6824,63.1241,48.8657],[22.6625,63.1245,47.9365],[22.6633,63.1334,60.6514],[22.6435,63.1338,49.5498],[22.6431,63.1293,46.876],[22.6332,63.1295,48.9303],[22.6328,63.125,50.409],[22.6427,63.1248,45.7174],[22.6423,63.1203,48.8392],[22.6522,63.1201,61.0638],[22.6506,63.1022,52.1316],[22.6307,63.1025,43.517],[22.6291,63.0846,47.3887],[22.6787,63.0837,48.2843],[22.6782,63.0792,49.3226],[22.6882,63.079,45.4594],[22.6869,63.0655,50.8081],[22.6968,63.0653,50.9517],[22.6964,63.0609,56.3377],[22.736,63.0601,54.9363],[22.7356,63.0556,55.3864],[22.7554,63.0553,42.0212],[22.755,63.0508,40.9211],[22.7649,63.0506,46.4311],[22.7645,63.0461,53.3568],[22.7744,63.0459,42.466],[22.7739,63.0414,41.3047],[22.7838,63.0412,37.2063],[22.7834,63.0367,37.799],[22.7933,63.0365,45.8869],[22.7916,63.0186,49.1501],[22.8015,63.0184,48.741],[22.7985,62.987,41.5437],[22.8084,62.9868,47.9725],[22.8071,62.9733,42.2084],[22.8169,62.9731,53.3464],[22.8157,62.9597,44.5822],[22.8255,62.9595,47.2796],[22.8242,62.946,37.8047],[22.8341,62.9458,51.5207],[22.8298,62.9009,47.8549],[22.8396,62.9007,43.0876],[22.8379,62.8828,50.51],[22.8281,62.883,46.9191],[22.8272,62.874,38.1622],[22.8174,62.8742,37.0343],[22.8169,62.8697,37.2851],[22.8464,62.8691,56.6126],[22.8469,62.8736,53.8656],[22.9551,62.8714,52.909],[22.9555,62.8759,41.3002],[22.9949,62.8751,54.4423],[22.9945,62.8706,62.2254],[23.0436,62.8696,101.9727],[23.0432,62.8651,97.9293],[23.0923,62.864,104.0581],[23.0919,62.8596,101.1219],[23.1115,62.8591,97.8854],[23.1111,62.8546,96.6817],[23.1012,62.8549,99.8457],[23.1008,62.8504,95.5723],[23.0909,62.8506,96.5675],[23.09,62.8416,92.3834],[23.0802,62.8418,106.3361],[23.0797,62.8373,90.983],[23.0699,62.8375,94.1835],[23.0689,62.8286,96.3261],[23.0591,62.8288,91.7578],[23.0586,62.8243,91.2805],[23.0488,62.8245,89.7271],[23.0484,62.82,93.0636],[23.0385,62.8202,90.743],[23.0376,62.8112,90.1571],[23.0867,62.8102,86.809],[23.0872,62.8147,86.8541],[23.1657,62.813,95.5091],[23.1662,62.8175,97.3833],[23.1957,62.8168,102.1636],[23.1952,62.8123,111.2203],[23.205,62.8121,103.9008],[23.2035,62.7986,104.6441],[23.2133,62.7984,103.2088],[23.2128,62.7939,108.503],[23.2227,62.7937,105.3158],[23.2217,62.7847,105.2762],[23.2315,62.7845,112.6053],[23.231,62.78,109.2962],[23.2702,62.7792,123.611],[23.2697,62.7747,122.1531],[23.2795,62.7744,123.2984],[23.28,62.7789,120.63],[23.2898,62.7787,115.3265],[23.2933,62.8101,102.6114],[23.3031,62.8099,106.2988],[23.3036,62.8144,105.4795],[23.3134,62.8141,108.589],[23.3139,62.8186,115.7379],[23.3238,62.8184,110.6912],[23.3243,62.8229,104.6633],[23.3341,62.8227,99.435],[23.3346,62.8271,95.5504],[23.3444,62.8269,100.0891],[23.347,62.8493,68.5787],[23.3568,62.8491,73.7738],[23.3578,62.8581,80.6403],[23.3676,62.8579,88.2002],[23.3692,62.8713,101.448],[23.379,62.8711,95.3641],[23.3806,62.8846,78.31],[23.3904,62.8843,90.4093],[23.3919,62.8978,81.7704],[23.4018,62.8975,85.7061],[23.4023,62.902,89.862],[23.422,62.9016,96.4226],[23.4225,62.9061,92.5966],[23.4422,62.9056,86.5177],[23.4427,62.9101,85.7312],[23.4919,62.9089,92.3365],[23.4925,62.9134,87.1176],[23.5122,62.9129,103.6652],[23.5127,62.9174,107.3824],[23.5226,62.9171,96.9978],[23.5231,62.9216,103.0013],[23.5133,62.9219,101.6538],[23.5138,62.9263,94.3482],[23.5039,62.9266,105.5268],[23.505,62.9356,100.071],[23.4951,62.9358,107.0754],[23.4957,62.9403,98.2979],[23.4858,62.9405,98.3596],[23.4863,62.945,98.0708],[23.4765,62.9453,99.9512],[23.477,62.9497,98.001],[23.4672,62.95,97.0971],[23.4688,62.9634,102.813],[23.4885,62.963,98.2746],[23.489,62.9674,99.1198],[23.4989,62.9672,94.0],[23.5021,62.9941,106.0682],[23.512,62.9939,104.3267],[23.5163,63.0298,93.5557],[23.5064,63.03,91.659],[23.5074,63.039,98.7632],[23.4975,63.0392,94.3288],[23.4981,63.0437,107.9213],[23.4882,63.0439,99.4965],[23.4887,63.0484,103.0664],[23.4788,63.0487,99.6396],[23.4794,63.0532,99.0275],[23.4695,63.0534,101.4915],[23.47,63.0579,96.3066],[23.4601,63.0581,87.8046]]]]}}