{"type":"Feature","properties":{"GID_2":"FIN.5.5_1","GID_0":"FIN","country":"Finland","GID_1":"FIN.5_1","province":"WesternFinland","NL_NAME_1":"NA","county":"PäijänneTavastia","VARNAME_2":"Päijät-Häme|PäijänneTavastland","NL_NAME_2":"NA","TYPE_2":"Maakunta|landskap","ENGTYPE_2":"Region","CC_2":"NA","HASC_2":"NA","name":"Päijänne_Tavastia.county"},
"geometry":{"type": "MultiPolygon","coordinates": [[[[25.4004,60.8491,107.8135],[25.4019,60.8581,112.2128],[25.4111,60.8577,101.9105],[25.4118,60.8622,92.6057],[25.421,60.8618,103.7948],[25.4218,60.8663,94.3514],[25.4402,60.8656,102.7599],[25.4394,60.8611,96.1722],[25.4486,60.8607,107.1774],[25.4494,60.8652,110.1013],[25.4586,60.8648,130.966],[25.4601,60.8738,118.7834],[25.4877,60.8727,86.4016],[25.4885,60.8771,76.8146],[25.4977,60.8768,86.6625],[25.4984,60.8812,72.7193],[25.5076,60.8809,92.0368],[25.5092,60.8898,84.6673],[25.5276,60.889,108.3949],[25.526,60.8801,131.7062],[25.5352,60.8797,121.3456],[25.5337,60.8708,134.2426],[25.5521,60.87,115.5946],[25.5529,60.8745,96.8655],[25.5621,60.8741,114.8433],[25.5636,60.8831,97.9371],[25.582,60.8823,92.9647],[25.5812,60.8778,97.8377],[25.5996,60.8771,87.5842],[25.5988,60.8726,89.5785],[25.6264,60.8715,68.9122],[25.6272,60.8759,69.1032],[25.6364,60.8755,67.5409],[25.6372,60.88,68.3589],[25.6464,60.8796,66.9336],[25.648,60.8886,72.3462],[25.6572,60.8882,76.2726],[25.6604,60.9061,72.4252],[25.6696,60.9057,70.9829],[25.6704,60.9102,84.4578],[25.6796,60.9098,72.1156],[25.6804,60.9143,74.3615],[25.6896,60.9139,73.3306],[25.6904,60.9184,75.9602],[25.6996,60.918,77.92],[25.7004,60.9225,102.2389],[25.7096,60.9221,85.5716],[25.7104,60.9265,97.2836],[25.7196,60.9261,86.2339],[25.7204,60.9306,94.1011],[25.7388,60.9298,109.5177],[25.7372,60.9209,120.8844],[25.7464,60.9205,97.1975],[25.7456,60.916,105.1326],[25.7548,60.9156,96.6739],[25.7556,60.9201,90.1441],[25.7741,60.9193,108.3677],[25.7749,60.9238,116.9143],[25.7841,60.9234,91.6544],[25.7784,60.8921,91.751],[25.7968,60.8913,93.202],[25.7976,60.8958,82.7037],[25.8436,60.8938,85.2744],[25.8988,60.8914,84.7401],[25.898,60.8869,85.4163],[25.9256,60.8857,112.9072],[25.9281,60.8992,89.7392],[25.9373,60.8988,91.1623],[25.9398,60.9122,109.5775],[25.949,60.9118,100.6659],[25.9523,60.9296,112.9824],[25.9707,60.9288,131.2095],[25.9699,60.9244,120.5353],[25.9791,60.924,115.1206],[25.9783,60.9195,123.4085],[25.9967,60.9187,109.9711],[25.9958,60.9142,111.3345],[26.005,60.9138,90.7795],[26.0042,60.9093,105.0042],[26.0134,60.9089,88.0443],[26.0125,60.9044,90.5228],[26.0309,60.9036,87.7349],[26.0301,60.8992,107.1998],[26.0669,60.8975,99.7856],[26.066,60.893,67.1453],[26.1028,60.8914,64.8406],[26.1045,60.9003,71.151],[26.1137,60.8999,62.321],[26.1155,60.9089,66.0821],[26.1523,60.9072,86.6476],[26.154,60.9161,98.482],[26.1632,60.9157,108.4605],[26.1658,60.9291,93.84],[26.0645,60.9337,81.9738],[26.0654,60.9382,86.2786],[26.0562,60.9386,88.4217],[26.0587,60.952,118.1026],[26.0495,60.9524,101.9688],[26.052,60.9658,107.4009],[26.0428,60.9662,110.3339],[26.0462,60.9841,75.6814],[26.0739,60.9829,84.1607],[26.0722,60.9739,84.7857],[26.0906,60.9731,73.5],[26.0915,60.9776,73.5],[26.1007,60.9771,73.5],[26.1016,60.9816,73.5],[26.1108,60.9812,73.5],[26.1117,60.9857,73.5],[26.1209,60.9853,73.5],[26.1286,61.0255,73.5],[26.1379,61.0251,73.5],[26.1387,61.0296,73.5],[26.1295,61.03,73.5],[26.1304,61.0344,81.2214],[26.1211,61.0349,82.1846],[26.1229,61.0438,101.1814],[26.1136,61.0442,102.2511],[26.1145,61.0487,91.4591],[26.1052,61.0491,89.9842],[26.1104,61.0759,115.98779999999999],[26.1012,61.0763,134.2253],[26.102,61.0808,138.9796],[26.0835,61.0816,113.0948],[26.0844,61.0861,137.6915],[26.0659,61.0869,114.2791],[26.0667,61.0914,120.029],[26.0482,61.0922,147.9201],[26.0491,61.0967,145.7971],[26.0306,61.0975,142.2339],[26.0297,61.0931,130.1459],[26.0205,61.0935,136.0328],[26.0196,61.089,118.9672],[26.0011,61.0898,128.1088],[26.0003,61.0853,124.127],[25.991,61.0858,136.7116],[25.9902,61.0813,131.7841],[25.9716,61.0821,115.3912],[25.9708,61.0776,121.4232],[25.9616,61.078,124.8607],[25.9607,61.0736,104.2588],[25.9422,61.0744,123.1029],[25.9414,61.0699,112.1273],[25.9321,61.0703,115.727],[25.933,61.0748,108.8097],[25.9237,61.0752,106.847],[25.9245,61.0796,114.2153],[25.8968,61.0808,106.6635],[25.8976,61.0853,111.2027],[25.8884,61.0857,115.3458],[25.8892,61.0902,130.4022],[25.8799,61.0906,136.1285],[25.8808,61.0951,150.268],[25.8715,61.0955,140.5212],[25.8724,61.0999,140.8277],[25.8631,61.1003,127.7652],[25.8656,61.1138,142.8977],[25.8748,61.1133,126.7587],[25.8765,61.1223,158.5254],[25.8858,61.1219,150.8824],[25.8874,61.1308,128.8281],[25.8967,61.1304,125.0336],[25.8984,61.1394,152.2523],[25.9077,61.139,140.6228],[25.9093,61.1479,162.4125],[25.9186,61.1475,134.1869],[25.9203,61.1565,137.233],[25.911,61.1569,102.759],[25.9127,61.1658,114.6088],[25.9034,61.1662,95.2483],[25.9042,61.1707,104.4967],[25.895,61.1711,92.3345],[25.8966,61.18,110.8814],[25.8874,61.1804,91.9999],[25.8899,61.1939,93.0967],[25.8991,61.1935,76.5],[25.9008,61.2024,79.3536],[25.9101,61.202,99.2327],[25.9126,61.2154,76.5],[25.9219,61.215,76.5],[25.9244,61.2284,76.5],[25.9151,61.2288,76.5],[25.916,61.2333,76.5],[25.8881,61.2345,76.5],[25.8923,61.2569,76.5],[25.883,61.2573,76.5],[25.8838,61.2617,76.5],[25.8745,61.2621,76.5],[25.8753,61.2666,76.5],[25.8474,61.2678,98.9251],[25.8483,61.2723,86.5847],[25.8389,61.2727,114.9226],[25.8381,61.2682,99.2007],[25.8009,61.2698,101.0308],[25.81,61.319,91.8243],[25.8007,61.3194,109.3295],[25.8015,61.3239,110.2373],[25.7922,61.3242,115.9249],[25.793,61.3287,106.7834],[25.7837,61.3291,102.8293],[25.7853,61.3381,101.4031],[25.776,61.3385,93.5147],[25.7768,61.3429,96.2002],[25.7675,61.3433,105.0602],[25.7683,61.3478,117.8882],[25.759,61.3482,127.1935],[25.7606,61.3571,118.6355],[25.7513,61.3575,124.701],[25.7521,61.362,135.0228],[25.7334,61.3628,154.752],[25.7318,61.3538,131.9044],[25.7225,61.3542,154.8914],[25.7208,61.3453,136.5783],[25.7115,61.3457,130.897],[25.7107,61.3412,136.8176],[25.6827,61.3424,133.3931],[25.6819,61.3379,136.6983],[25.5885,61.3417,109.2294],[25.5877,61.3372,111.9138],[25.5784,61.3376,83.2784],[25.5776,61.3331,96.1134],[25.5589,61.3339,76.5],[25.5581,61.3294,76.5],[25.5395,61.3302,76.5],[25.5411,61.3391,76.5],[25.5317,61.3395,76.5],[25.5333,61.3484,76.5],[25.524,61.3488,76.5],[25.5256,61.3578,76.5],[25.5162,61.3582,76.5],[25.517,61.3626,76.5],[25.5077,61.363,76.5],[25.5092,61.372,76.5],[25.4999,61.3723,76.5],[25.5015,61.3813,76.5],[25.4921,61.3816,76.5],[25.4937,61.3906,76.5],[25.4843,61.391,76.5],[25.4851,61.3955,76.5],[25.4758,61.3958,76.5],[25.4813,61.4272,76.5],[25.4906,61.4268,76.5],[25.493,61.4402,76.5],[25.4836,61.4406,76.5],[25.4852,61.4495,76.5],[25.4758,61.4499,76.5],[25.4774,61.4589,76.5],[25.468,61.4592,76.5],[25.4688,61.4637,76.5],[25.4595,61.4641,76.5],[25.461,61.473,76.5],[25.4516,61.4734,76.5],[25.4524,61.4779,76.5],[25.4431,61.4782,76.5],[25.4446,61.4872,76.5],[25.4259,61.4879,76.5],[25.4251,61.4835,76.5],[25.3688,61.4857,76.5],[25.3681,61.4812,76.5],[25.3118,61.4834,76.5],[25.311,61.4789,76.5],[25.2735,61.4803,76.5],[25.2728,61.4758,76.5],[25.2634,61.4762,76.5],[25.2626,61.4717,76.5],[25.215699999999998,61.4735,106.8187],[25.2165,61.478,137.8453],[25.1883,61.4791,129.6837],[25.1876,61.4746,96.2306],[25.1782,61.4749,81.4897],[25.1775,61.4705,82.3357],[25.1681,61.4708,76.5],[25.1674,61.4663,100.7519],[25.158,61.4667,112.2603],[25.1572,61.4622,130.7884],[25.1385,61.4629,117.2487],[25.1392,61.4674,124.7856],[25.1299,61.4677,127.1106],[25.1306,61.4722,153.1619],[25.1119,61.4729,114.5008],[25.1111,61.4684,129.4679],[25.083,61.4695,132.4344],[25.0822,61.465,119.0156],[25.0635,61.4657,124.7525],[25.0628,61.4612,120.7668],[25.044,61.4619,119.2851],[25.0433,61.4574,125.9842],[25.0152,61.4585,149.9781],[25.0145,61.454,147.7852],[24.9957,61.4547,167.1396],[24.995,61.4502,160.4212],[24.9575,61.4515,141.2637],[24.9582,61.456,150.7855],[24.9301,61.457,106.5],[24.9308,61.4615,125.081],[24.912,61.4622,134.5574],[24.9128,61.4666,106.5],[24.8846,61.4676,106.5],[24.8853,61.4721,106.5],[24.8666,61.4728,106.5],[24.8673,61.4773,106.5],[24.8579,61.4776,106.5],[24.8558,61.4642,106.5],[24.8652,61.4638,106.5],[24.8631,61.4504,106.5],[24.8724,61.4501,106.5],[24.871,61.4411,124.1048],[24.8804,61.4408,117.7221],[24.8797,61.4363,124.2704],[24.8891,61.436,119.0775],[24.8884,61.4315,113.5],[24.8978,61.4311,133.7132],[24.897,61.4267,113.5],[24.9064,61.4263,131.5972],[24.905,61.4174,135.6779],[24.9144,61.417,121.1077],[24.913,61.4081,128.741],[24.9036,61.4084,134.567],[24.9008,61.3905,114.0],[24.9101,61.3902,117.3643],[24.9087,61.3812,134.2461],[24.8994,61.3815,139.5463],[24.8938,61.3457,130.9035],[24.9031,61.3454,121.3603],[24.9017,61.3364,106.9313],[24.9111,61.3361,115.2106],[24.9097,61.3272,100.125],[24.919,61.3268,99.9176],[24.9155,61.3044,112.8717],[24.9248,61.3041,102.7621],[24.922,61.2862,93.0],[24.9407,61.2855,113.7866],[24.9414,61.29,93.0],[24.96,61.2893,105.5143],[24.9593,61.2848,93.0],[24.9686,61.2845,94.1457],[24.9672,61.2755,93.0],[24.9858,61.2749,93.0],[24.9866,61.2793,101.9725],[24.9959,61.279,103.1644],[24.9966,61.2835,114.6594],[25.0059,61.2831,112.8095],[25.0066,61.2876,112.6989],[25.016,61.2873,106.5],[25.0138,61.2738,138.0465],[25.0231,61.2735,170.3126],[25.021,61.2601,153.34],[25.0303,61.2597,151.6084],[25.028199999999998,61.2463,122.5],[25.0468,61.2456,176.3438],[25.0475,61.2501,158.588],[25.0661,61.2494,180.0731],[25.0668,61.2539,177.8672],[25.0948,61.2528,155.804],[25.0955,61.2573,169.3952],[25.1048,61.257,152.0136],[25.1041,61.2525,154.2338],[25.1413,61.2511,168.2265],[25.1406,61.2466,167.8781],[25.1685,61.2456,159.3729],[25.1678,61.2411,133.5],[25.205,61.2397,160.8362],[25.2021,61.2218,166.7597],[25.2114,61.2214,171.378],[25.2099,61.2125,183.4841],[25.2192,61.2121,161.6701],[25.2185,61.2076,175.2123],[25.2277,61.2073,165.1009],[25.227,61.2028,172.1018],[25.2363,61.2024,177.9358],[25.2356,61.198,156.4273],[25.2449,61.1976,151.3877],[25.2441,61.1931,152.7532],[25.2534,61.1928,152.7166],[25.2527,61.1883,157.5009],[25.2619,61.1879,148.4886],[25.2604,61.179,154.8263],[25.2512,61.1794,150.234],[25.2504,61.1749,142.7852],[25.2497,61.1704,145.2136],[25.259,61.17,139.175],[25.2552,61.1477,133.9179],[25.246,61.148,140.9804],[25.2452,61.1435,137.1193],[25.2359,61.1439,140.5721],[25.2352,61.1394,135.3713],[25.2445,61.1391,134.3501],[25.243,61.1301,129.3999],[25.2523,61.1297,139.5083],[25.2508,61.1208,142.5688],[25.2415,61.1212,170.7699],[25.2407,61.1167,166.0352],[25.2593,61.116,158.1243],[25.2585,61.1115,136.595],[25.2678,61.1111,134.3227],[25.2671,61.1067,128.7859],[25.2764,61.1063,121.9349],[25.2748,61.0974,103.272],[25.2841,61.097,114.6562],[25.2819,61.0836,127.4237],[25.2911,61.0832,112.106],[25.2904,61.0787,110.8272],[25.2997,61.0784,110.7508],[25.2966,61.0605,124.893],[25.2874,61.0608,125.5994],[25.2859,61.0519,127.5607],[25.2766,61.0522,142.9261],[25.2752,61.0433,114.9626],[25.2659,61.0436,109.102],[25.2644,61.0347,110.2427],[25.2552,61.035,114.0195],[25.2544,61.0306,118.6296],[25.2452,61.0309,126.4499],[25.2422,61.013,116.6062],[25.233,61.0134,118.5055],[25.2337,61.0178,121.3201],[25.2152,61.0186,164.6418],[25.2145,61.0141,154.8896],[25.2053,61.0144,161.7836],[25.2045,61.01,118.298],[25.223,61.0093,135.1921],[25.2223,61.0048,117.1076],[25.2315,61.0044,130.694],[25.23,60.9955,149.6618],[25.2393,60.9951,135.1778],[25.2385,60.9906,156.2411],[25.2478,60.9903,142.5314],[25.247,60.9858,157.1415],[25.2563,60.9855,145.4899],[25.254,60.972,114.7337],[25.2356,60.9727,119.4678],[25.2348,60.9683,115.6446],[25.2256,60.9686,102.5725],[25.2249,60.9641,105.0062],[25.215699999999998,60.9645,93.4227],[25.2149,60.96,92.2739],[25.2057,60.9604,99.3904],[25.205,60.9559,121.8902],[25.1957,60.9562,145.9373],[25.195,60.9518,120.1504],[25.1858,60.9521,128.6098],[25.1829,60.9342,119.2047],[25.1736,60.9346,141.822],[25.1715,60.9211,99.5595],[25.1622,60.9215,127.2113],[25.1615,60.917,110.98],[25.1523,60.9174,118.5856],[25.1516,60.9129,104.5576],[25.1424,60.9132,124.6993],[25.1409,60.9043,116.5977],[25.1317,60.9046,90.5415],[25.1252,60.8643,84.5554],[25.0884,60.8657,93.6134],[25.0828,60.8299,85.4498],[25.0919,60.8296,86.6432],[25.0905,60.8206,85.8352],[25.0997,60.8203,83.2616],[25.1004,60.8247,83.5395],[25.1096,60.8244,106.7565],[25.1089,60.8199,84.3383],[25.1824,60.8171,90.8337],[25.1831,60.8216,91.684],[25.1923,60.8212,98.7941],[25.1952,60.8391,90.0934],[25.2136,60.8384,94.5524],[25.2114,60.825,108.0386],[25.2206,60.8247,102.139],[25.2176,60.8068,84.3067],[25.2268,60.806399999999996,96.2298],[25.2261,60.8019,112.4517],[25.2353,60.8016,96.0916],[25.2346,60.7971,100.5327],[25.2437,60.7967,86.7613],[25.243,60.7923,85.9322],[25.2522,60.7919,86.5452],[25.2514,60.7874,107.4052],[25.2698,60.7867,89.7651],[25.269,60.7822,91.8521],[25.278199999999998,60.7819,88.8014],[25.2775,60.7774,84.0089],[25.2867,60.777,82.7974],[25.2852,60.7681,95.7415],[25.2943,60.7677,88.1245],[25.2929,60.7588,90.6283],[25.302,60.7584,93.2421],[25.3013,60.754,94.7642],[25.3105,60.7536,90.703],[25.3112,60.7581,88.7518],[25.3204,60.7577,85.1053],[25.3211,60.7622,84.1122],[25.3303,60.7618,98.3176],[25.3295,60.7573,93.713],[25.3937,60.7548,92.1652],[25.3952,60.7637,84.7493],[25.4044,60.7634,88.568],[25.4059,60.7723,80.202],[25.415,60.7719,102.7265],[25.4166,60.7809,97.2505],[25.4257,60.7805,81.3315],[25.4272,60.7895,83.5252],[25.4364,60.7891,84.4917],[25.4387,60.8025,97.2612],[25.4479,60.8022,80.9346],[25.4502,60.8156,79.8488],[25.441,60.816,90.232],[25.4425,60.8249,97.936],[25.4333,60.8253,94.4835],[25.4341,60.8298,92.829],[25.4249,60.8301,87.5421],[25.4257,60.8346,90.4025],[25.4165,60.835,102.7271],[25.4172,60.8395,94.0234],[25.408,60.8398,104.7617],[25.4088,60.8443,142.6177],[25.3996,60.8447,104.4947],[25.4004,60.8491,107.8135]]]]}}