{"type": "Feature","bbox": [27.6977,62.5807,29.1031,63.7535],"geometry": {"type": "MultiPolygon","coordinates": [[[[28.7515,62.8063,99.5],[28.7431,62.8068,99.5],[28.7457,62.8157,99.5],[28.7555,62.8151,99.5],[28.7568,62.8195,99.5],[28.7665,62.8189,99.5],[28.7692,62.8278,99.5],[28.7789,62.8272,111.6142],[28.7803,62.8317,109.7498],[28.8193,62.8293,99.5],[28.8179,62.8248,99.5],[28.8277,62.8242,99.5],[28.8263,62.8198,114.4555],[28.8361,62.8192,117.6424],[28.8347,62.8147,113.9405],[28.8445,62.8141,113.2881],[28.8432,62.8097,127.1093],[28.8529,62.8091,125.9324],[28.8516,62.8046,134.2574],[28.8808,62.8028,144.2605],[28.8794,62.7984,134.8006],[28.8989,62.7972,126.0],[28.8962,62.7883,141.0006],[28.906,62.7877,144.1866],[28.9046,62.7832,149.7566],[28.9241,62.782,158.9712],[28.9227,62.7775,128.8309],[28.9325,62.7769,132.5754],[28.9311,62.7725,118.0],[28.9408,62.7719,118.0],[28.9422,62.7763,130.7309],[28.9519,62.7757,130.9333],[28.9587,62.798,128.8772],[28.9684,62.7973,141.4584],[28.9711,62.8062,133.9851],[28.9809,62.8056,136.3971],[28.9822,62.8101,121.3923],[28.992,62.8095,107.5],[28.9933,62.8139,107.5],[29.0031,62.8133,107.0411],[29.0044,62.8177,108.0861],[29.0142,62.8171,105.8239],[29.0155,62.8216,118.2188],[29.0253,62.8209,118.4427],[29.0267,62.8254,119.7143],[29.0364,62.8248,119.44],[29.0378,62.8292,122.0828],[29.0475,62.8286,122.6574],[29.0489,62.8331,119.0055],[29.0684,62.8318,113.0293],[29.0697,62.8363,114.8588],[29.0795,62.8357,113.5783],[29.0809,62.8401,114.6249],[29.0906,62.8395,117.2566],[29.092,62.8439,112.2044],[29.1017,62.8433,112.7787],[29.1031,62.8478,110.6385],[29.0836,62.849,114.3039],[29.085,62.8534,113.7181],[29.0655,62.8547,116.4115],[29.0669,62.8591,109.5416],[29.0474,62.8604,122.1238],[29.0487,62.8648,114.721],[29.039,62.8654,123.6943],[29.0403,62.8699,113.8154],[29.0208,62.8711,135.5416],[29.0222,62.8755,125.6562],[29.0027,62.8768,153.9827],[29.004,62.8812,144.2836],[28.9943,62.8818,150.8604],[28.9984,62.8952,116.0],[28.9788,62.8964,131.7972],[28.9802,62.9009,122.0816],[28.9704,62.9015,116.0],[28.9718,62.9059,117.4676],[28.9522,62.9071,140.0295],[28.9536,62.9116,137.6677],[28.9438,62.9122,136.2225],[28.9452,62.9166,134.2094],[28.9354,62.9173,130.6114],[28.9395,62.9306,168.3245],[28.9297,62.9312,185.6864],[28.9324,62.9401,173.2771],[28.9422,62.9395,149.5999],[28.9408,62.935,164.9373],[28.9506,62.9344,148.2348],[28.9493,62.93,152.8319],[28.959,62.9294,152.1617],[28.9577,62.9249,154.762],[28.987,62.9231,159.9058],[28.9884,62.9275,145.0738],[28.9982,62.9269,144.5876],[28.9995,62.931399999999996,143.5798],[28.9897,62.932,152.5471],[28.9911,62.9364,147.1801],[28.9813,62.937,151.8783],[28.9827,62.9415,148.9375],[28.9729,62.9421,161.5373],[28.9743,62.9465,153.9279],[28.9645,62.9472,157.7714],[28.9672,62.9561,149.2898],[28.977,62.9554,138.4511],[28.9784,62.9599,146.0172],[28.9882,62.9593,143.362],[28.9895,62.9637,133.9424],[28.9993,62.9631,154.0653],[29.0007,62.9676,166.9151],[29.0105,62.9669,172.6087],[29.0119,62.9714,164.6399],[29.0315,62.9701,186.8624],[29.0328,62.9746,213.6289],[29.0426,62.974,196.7575],[29.044,62.9784,201.9914],[29.0538,62.9778,226.1587],[29.0552,62.9823,212.2021],[29.065,62.9816,224.536],[29.0677,62.9905,222.7112],[29.0579,62.9911,243.0291],[29.0593,62.9956,233.2948],[29.0495,62.9962,249.8656],[29.0523,63.0051,234.0453],[29.0425,63.0057,250.029],[29.0438,63.0102,242.7847],[29.0242,63.0114,204.8364],[29.0256,63.0159,204.7615],[28.9962,63.0177,198.7674],[28.9976,63.0221,199.0712],[28.9681,63.024,181.1943],[28.9695,63.0284,191.8507],[28.9401,63.0303,179.8288],[28.9414,63.0347,186.577],[28.9218,63.0359,195.3721],[28.9231,63.0404,178.2611],[28.9133,63.041,164.2788],[28.9147,63.0454,144.9169],[28.9049,63.046,153.207],[28.9062,63.0505,179.5751],[28.8669,63.0529,147.3116],[28.8683,63.0574,135.979],[28.8585,63.058,129.5308],[28.8612,63.0669,145.848],[28.8514,63.0675,128.9992],[28.8541,63.0764,137.3204],[28.8442,63.077,135.8796],[28.8469,63.0859,139.7647],[28.8371,63.0865,141.5643],[28.8385,63.0909,135.9674],[28.8286,63.0915,134.5822],[28.8313,63.1004,138.1949],[28.8215,63.101,136.4266],[28.8228,63.1055,136.4897],[28.813,63.1061,135.2799],[28.8144,63.1105,136.6902],[28.8045,63.1111,148.3756],[28.8059,63.1156,140.8109],[28.796,63.1162,143.082],[28.7974,63.1206,144.2725],[28.7875,63.1212,144.881],[28.7889,63.1257,143.1324],[28.779,63.1263,143.9959],[28.7804,63.1307,149.436],[28.7705,63.1313,150.4619],[28.7718,63.1358,146.9606],[28.762,63.1364,147.3268],[28.7633,63.1408,151.7249],[28.7535,63.1414,148.8889],[28.7548,63.1459,145.8532],[28.745,63.1465,154.0035],[28.7463,63.1509,152.7586],[28.7365,63.1515,163.0068],[28.7378,63.156,167.9072],[28.7279,63.1566,182.0938],[28.7293,63.161,168.6387],[28.7194,63.1616,192.875],[28.7208,63.166,189.6504],[28.7109,63.1666,192.2541],[28.7122,63.1711,201.8176],[28.7024,63.1717,194.681],[28.705,63.1806,170.947],[28.6952,63.1812,181.3265],[28.6965,63.1856,191.728],[28.6768,63.1868,180.2187],[28.6781,63.1913,151.1252],[28.6583,63.1925,156.3915],[28.6597,63.1969,147.0814],[28.6301,63.1987,146.4234],[28.6314,63.2031,138.0093],[28.6116,63.2043,142.6057],[28.6129,63.2088,142.6871],[28.6228,63.2082,144.8037],[28.6255,63.2171,135.2346],[28.6354,63.2165,136.505],[28.638,63.2254,131.5491],[28.6479,63.2248,140.5079],[28.6506,63.2337,115.3364],[28.6605,63.2331,138.7591],[28.6631,63.242,159.218],[28.6532,63.2426,155.6579],[28.6546,63.247,161.5433],[28.6447,63.2476,158.6368],[28.646,63.2521,162.6121],[28.6559,63.2515,167.9732],[28.6572,63.256,174.8136],[28.6671,63.2554,172.0223],[28.6685,63.2598,189.8281],[28.6784,63.2592,199.442],[28.6797,63.2637,204.1129],[28.6896,63.2631,218.5344],[28.6909,63.2675,214.2922],[28.7008,63.2669,213.4415],[28.7022,63.2714,225.4227],[28.7121,63.2708,228.5753],[28.7134,63.2752,237.5106],[28.7035,63.2758,242.7243],[28.7062,63.2847,200.7048],[28.6963,63.2853,199.702],[28.699,63.2942,189.2911],[28.7089,63.2936,194.9608],[28.7102,63.2981,190.1591],[28.7201,63.2975,213.1889],[28.7228,63.306399999999996,203.008],[28.7327,63.3058,228.9195],[28.7341,63.3102,228.0899],[28.744,63.3096,235.9097],[28.7535,63.3408,172.8372],[28.7436,63.3414,165.3165],[28.7463,63.3503,177.8187],[28.7503,63.3636,188.9146],[28.7603,63.363,192.4041],[28.767,63.3853,161.4818],[28.7571,63.3859,172.3577],[28.7585,63.3903,167.9763],[28.7485,63.3909,165.2232],[28.7499,63.3954,161.8315],[28.73,63.3966,183.9483],[28.7313,63.401,173.7485],[28.7214,63.4016,182.3648],[28.7228,63.4061,175.7129],[28.7029,63.4073,234.5405],[28.7042,63.4117,223.9788],[28.6943,63.4123,255.3282],[28.6956,63.4168,216.7028],[28.6757,63.4179,221.5369],[28.6771,63.4224,193.1211],[28.6671,63.423,199.056],[28.6698,63.4319,224.0522],[28.6598,63.4325,216.57],[28.6652,63.4503,241.487],[28.6553,63.4509,233.5989],[28.6593,63.4642,252.0101],[28.6493,63.4648,248.3892],[28.652,63.4737,255.1735],[28.6421,63.4743,247.0335],[28.6447,63.4832,240.9213],[28.6348,63.4838,231.8788],[28.6375,63.4927,242.5127],[28.6275,63.4933,218.1642],[28.6302,63.5022,220.7726],[28.6202,63.5028,214.3856],[28.6242,63.5161,226.1972],[28.6142,63.5167,214.4547],[28.6156,63.5212,217.9885],[28.6056,63.5218,199.4388],[28.611,63.5396,235.0325],[28.621,63.539,239.6871],[28.6223,63.5434,243.7902],[28.6323,63.5429,250.8504],[28.6336,63.5473,224.5997],[28.6436,63.5467,226.6016],[28.6423,63.5423,243.7919],[28.6623,63.5411,209.4433],[28.6636,63.5455,214.5163],[28.6736,63.5449,215.6138],[28.675,63.5494,200.8108],[28.685,63.5488,198.272],[28.6863,63.5532,185.6483],[28.6763,63.5539,196.2853],[28.6777,63.5583,198.5138],[28.6377,63.5606,197.8387],[28.639,63.5651,214.9589],[28.619,63.5663,179.5],[28.6204,63.5707,209.1773],[28.6104,63.5713,179.5],[28.6131,63.5802,241.5639],[28.6031,63.5808,230.7837],[28.6084,63.5986,196.9476],[28.5984,63.5992,208.452],[28.6051,63.6215,254.799],[28.5951,63.6221,243.3628],[28.6005,63.6399,188.6182],[28.5905,63.6404,213.6379],[28.5945,63.6538,174.3333],[28.5845,63.6544,175.3642],[28.5872,63.6633,185.835],[28.5972,63.6627,177.8341],[28.5999,63.6716,190.2307],[28.61,63.671,148.7385],[28.6113,63.6755,174.5168],[28.6013,63.6761,164.1055],[28.6026,63.6805,156.9221],[28.5926,63.6811,146.2366],[28.5939,63.6856,152.0509],[28.5839,63.6861,149.957],[28.5852,63.6906,149.2728],[28.5651,63.6918,150.8431],[28.5665,63.6962,152.6978],[28.5564,63.6968,151.0056],[28.5578,63.7013,168.6335],[28.5477,63.7018,156.4873],[28.5464,63.6974,166.3645],[28.5263,63.6986,192.5484],[28.5249,63.6941,217.8071],[28.4646,63.6976,225.349],[28.466,63.702,210.4887],[28.4559,63.7026,222.5674],[28.4572,63.7071,226.3147],[28.4472,63.7076,234.8703],[28.4485,63.7121,232.282],[28.4385,63.7127,242.5095],[28.4411,63.7216,233.7259],[28.4311,63.7222,247.677],[28.4324,63.7266,246.866],[28.4223,63.7272,260.0943],[28.4236,63.731699999999996,263.9076],[28.4035,63.7328,267.6823],[28.4048,63.7373,267.2002],[28.3948,63.7378,258.5499],[28.3961,63.7423,278.9332],[28.386,63.7429,258.9014],[28.3873,63.7473,266.9981],[28.3672,63.7485,275.3661],[28.3685,63.7529,281.3362],[28.3584,63.7535,259.0454],[28.3558,63.7446,268.0596],[28.3458,63.7451,264.5541],[28.3405,63.7273,251.4153],[28.3304,63.7279,261.75],[28.3265,63.7145,241.3533],[28.3164,63.7151,228.5778],[28.3112,63.6973,224.7113],[28.3012,63.6979,217.2801],[28.2973,63.6845,212.0938],[28.2872,63.6851,223.3518],[28.282,63.6672,187.8327],[28.272,63.6678,190.3948],[28.2733,63.6723,197.0782],[28.2532,63.6734,193.6886],[28.2545,63.6778,195.6651],[28.2444,63.6784,193.2398],[28.247,63.6873,203.7464],[28.237,63.6879,218.0534],[28.2383,63.6923,199.716],[28.2282,63.6929,229.8747],[28.2295,63.6974,195.5109],[28.2194,63.6979,200.8822],[28.2207,63.7024,190.6246],[28.2107,63.7029,188.1132],[28.212,63.7074,186.9324],[28.1918,63.7085,191.4189],[28.1931,63.713,187.0939],[28.173,63.7141,186.038],[28.1717,63.7096,186.7925],[28.1617,63.7102,186.5116],[28.1578,63.6968,192.398],[28.1478,63.6974,184.7242],[28.1439,63.684,188.6972],[28.1339,63.6846,186.6332],[28.13,63.6712,198.2699],[28.12,63.6718,190.9569],[28.1162,63.6584,210.1654],[28.1061,63.659,194.1275],[28.1023,63.6456,190.1448],[28.0923,63.6461,179.6817],[28.0885,63.6328,195.8302],[28.0784,63.6333,192.3505],[28.0759,63.6244,177.6854],[28.0659,63.625,162.4995],[28.0646,63.6205,165.3802],[28.0546,63.6211,168.8102],[28.0521,63.6121,163.0805],[28.0621,63.6116,162.6206],[28.0608,63.6071,158.4084],[28.0708,63.6066,159.1237],[28.0696,63.6021,156.3825],[28.0796,63.6016,156.8578],[28.0746,63.5837,156.6875],[28.0645,63.5843,155.6125],[28.0582,63.562,157.3502],[28.0482,63.5626,156.0296],[28.0445,63.5492,150.0068],[28.0545,63.5486,155.6267],[28.0532,63.5442,149.4785],[28.0632,63.5436,152.6522],[28.062,63.5392,154.2671],[28.072,63.5386,148.9916],[28.0707,63.5342,153.938],[28.0807,63.5336,154.4873],[28.0794,63.5292,149.1852],[28.0894,63.5286,153.4092],[28.0882,63.5242,143.5],[28.0982,63.5236,148.4675],[28.0957,63.5147,143.5],[28.1056,63.5141,148.0465],[28.1044,63.5097,143.5],[28.1144,63.5091,148.7209],[28.1118,63.5002,151.7569],[28.1218,63.4996,143.5],[28.1193,63.4907,143.5],[28.1293,63.4902,143.5],[28.1255,63.4768,143.5],[28.1355,63.4763,143.5],[28.1342,63.4718,143.5],[28.1242,63.4724,143.5],[28.1192,63.4545,165.092],[28.1092,63.4551,140.7456],[28.1054,63.4417,131.4293],[28.1154,63.4412,149.0314],[28.1104,63.4234,145.5906],[28.0904,63.4244,122.59],[28.0917,63.4289,119.7762],[28.0817,63.4295,122.7917],[28.083,63.4339,132.4222],[28.073,63.4345,121.1464],[28.0743,63.4389,130.8895],[28.0643,63.4395,123.9277],[28.0618,63.4306,142.0985],[28.0718,63.43,136.2416],[28.0692,63.4211,129.0586],[28.0792,63.4206,118.2491],[28.0767,63.4116,136.9749],[28.0867,63.4111,120.8333],[28.0816,63.3933,158.0865],[28.0717,63.3938,147.4928],[28.0692,63.3849,155.84],[28.0593,63.3855,144.5108],[28.058,63.381,141.5773],[28.048,63.3815,134.2375],[28.0456,63.3726,137.4152],[28.0356,63.3732,116.8866],[28.0306,63.3554,110.8065],[28.0207,63.3559,103.0527],[28.0182,63.347,104.9603],[28.0083,63.3475,100.8162],[28.0058,63.3386,95.0],[27.9561,63.3414,105.8055],[27.9536,63.3324,109.5076],[27.9437,63.333,102.4599],[27.9413,63.3241,99.006],[27.9364,63.3062,99.5299],[27.9463,63.3057,119.7923],[27.9451,63.3012,103.6264],[27.9153,63.3029,102.5],[27.9128,63.2939,114.8882],[27.9029,63.2945,108.4783],[27.9041,63.299,120.2919],[27.8843,63.3,127.235],[27.8855,63.3045,128.5714],[27.8756,63.305,131.3098],[27.8744,63.3006,131.621],[27.8644,63.3011,131.6223],[27.8596,63.2833,140.4078],[27.8497,63.2838,135.4311],[27.8436,63.2615,156.4887],[27.8337,63.2621,179.8345],[27.8325,63.2576,154.8099],[27.8226,63.2581,175.0501],[27.8238,63.2626,179.783],[27.8139,63.2631,169.6873],[27.8151,63.2676,166.8337],[27.7952,63.2686,163.547],[27.7916,63.2553,171.0227],[27.7817,63.2558,141.3166],[27.7793,63.2469,151.0843],[27.7001,63.2511,121.0],[27.6977,63.2422,124.1008],[27.7076,63.2417,131.3929],[27.7052,63.2327,127.8013],[27.725,63.2317,134.7476],[27.7238,63.2272,139.3508],[27.7535,63.2257,158.2267],[27.7523,63.2212,188.1986],[27.782,63.2196,163.5686],[27.7808,63.2151,150.7348],[27.8006,63.2141,136.7363],[27.7994,63.2096,136.0225],[27.8192,63.2085,115.9841],[27.818,63.2041,113.4672],[27.8279,63.2036,123.2918],[27.8219,63.1813,113.6931],[27.8318,63.1807,133.3728],[27.8306,63.1763,120.561],[27.8207,63.1768,113.18],[27.8147,63.1545,114.098],[27.8048,63.1551,97.7018],[27.8036,63.1506,89.9981],[27.8135,63.1501,101.6535],[27.8123,63.1456,90.3815],[27.8222,63.1451,103.2527],[27.821,63.1406,82.0],[27.8308,63.1401,104.0132],[27.8296,63.1356,89.4281],[27.8395,63.1351,78.0],[27.8383,63.1306,78.0],[27.8482,63.1301,100.7022],[27.8458,63.1212,88.5672],[27.8556,63.1206,113.2629],[27.8544,63.1162,104.4354],[27.8643,63.1156,78.0],[27.8571,63.0889,78.0],[27.8768,63.0878,78.0],[27.8756,63.0834,78.0],[27.8854,63.0828,78.0],[27.8842,63.0784,78.0],[27.8448,63.0805,78.0],[27.84,63.0627,115.0665],[27.8302,63.0632,98.0532],[27.8266,63.0498,85.7478],[27.8167,63.0504,85.2199],[27.8155,63.0459,78.0],[27.7958,63.047,78.0],[27.7947,63.0425,78.0],[27.8045,63.042,78.0],[27.8033,63.0375,78.0],[27.8132,63.037,78.0],[27.8119,63.0325,78.0],[27.8218,63.032,78.0],[27.8206,63.0275,78.0],[27.8403,63.0265,78.0],[27.8391,63.022,78.0],[27.8489,63.0215,78.0],[27.8477,63.017,78.0],[27.8673,63.0159,78.0],[27.8661,63.0115,78.0],[27.9251,63.0083,78.0],[27.9263,63.0127,78.0],[27.9361,63.0122,78.0],[27.9349,63.0077,78.0],[27.9546,63.0066,90.1205],[27.9558,63.0111,78.0],[27.9656,63.0105,78.0],[27.9693,63.0239,96.5474],[27.9594,63.0245,78.0],[27.9606,63.0289,78.0],[27.9508,63.0295,100.4246],[27.9557,63.0473,78.0],[27.9655,63.0467,78.0],[27.9667,63.0512,82.8585],[27.9766,63.0507,89.9272],[27.9754,63.0462,107.9192],[27.9852,63.0457,93.2398],[27.984,63.0412,105.4338],[28.0036,63.0401,78.0],[28.0024,63.0357,78.0],[28.0122,63.0351,78.0],[28.011,63.0307,78.0],[28.0209,63.0301,78.0],[28.0196,63.0256,78.0],[28.0688,63.0229,78.0],[28.0675,63.0185,78.0],[28.0774,63.0179,78.0],[28.0761,63.0134,78.0],[28.086,63.0129,78.0],[28.0847,63.0084,78.0],[28.1044,63.0073,78.0],[28.1031,63.0029,78.0],[28.1129,63.0023,78.0],[28.1117,62.9979,78.0],[28.1215,62.9973,84.7197],[28.1203,62.9929,78.0],[28.1301,62.9923,78.0],[28.1239,62.97,78.0],[28.1435,62.9689,78.0],[28.1423,62.9645,78.0],[28.1619,62.9633,78.0],[28.1607,62.9589,87.4147],[28.1803,62.9578,90.4214],[28.179,62.9533,78.0],[28.1986,62.9522,78.0],[28.1974,62.9477,78.0],[28.2758,62.9432,101.6286],[28.2745,62.9388,118.4034],[28.2941,62.9376,95.5],[28.2928,62.9332,113.054],[28.3124,62.9321,102.3641],[28.3112,62.9276,109.1972],[28.3014,62.9282,101.5142],[28.3001,62.9237,131.3974],[28.2903,62.9243,150.0788],[28.289,62.9198,178.6207],[28.2793,62.9204,146.6399],[28.278,62.916,142.3099],[28.3074,62.9142,135.5419],[28.3023,62.8964,117.1213],[28.2925,62.897,108.0914],[28.2938,62.9015,114.2723],[28.2742,62.9026,107.7807],[28.2717,62.8937,108.3096],[28.3011,62.892,91.5],[28.2985,62.8831,101.5157],[28.2594,62.8853,101.9639],[28.2607,62.8898,104.4217],[28.2509,62.8904,80.5],[28.2484,62.8815,86.8568],[28.2582,62.8809,104.5644],[28.2557,62.872,78.5],[28.2361,62.8731,78.5],[28.2374,62.8776,82.413],[28.2178,62.8787,78.5],[28.2191,62.8831,78.5],[28.1995,62.8843,78.5],[28.2008,62.8887,78.5],[28.1812,62.8898,84.362],[28.1799,62.8854,82.8699],[28.1702,62.8859,82.7864],[28.1677,62.877,78.5],[28.1775,62.8765,91.5113],[28.1762,62.872,93.9639],[28.186,62.8714,96.7323],[28.1848,62.867,99.063],[28.1945,62.8664,97.9329],[28.1933,62.862,89.2919],[28.2031,62.8614,78.5],[28.2018,62.857,112.9889],[28.2116,62.8564,78.5],[28.2066,62.8386,88.7626],[28.2164,62.838,112.6318],[28.2151,62.8336,111.0617],[28.2249,62.833,115.8274],[28.2236,62.8286,93.8729],[28.2334,62.828,107.0972],[28.2322,62.8235,102.2769],[28.2517,62.8224,90.0],[28.2504,62.818,90.0],[28.2602,62.8174,105.6253],[28.2589,62.8129,92.2883],[28.2784,62.8118,136.6438],[28.2797,62.8163,113.6387],[28.2894,62.8157,109.835],[28.2907,62.8202,114.6117],[28.3005,62.8196,113.7098],[28.303,62.8285,100.1414],[28.3127,62.8279,101.6993],[28.314,62.8324,111.7782],[28.3237,62.8318,103.9447],[28.3225,62.8274,99.5],[28.3322,62.8268,130.9032],[28.3297,62.8179,138.8476],[28.3395,62.8173,134.2976],[28.3332,62.7951,137.9435],[28.3137,62.7962,155.0301],[28.3124,62.7917,143.8597],[28.3027,62.7923,134.5914],[28.3014,62.7878,149.8789],[28.2917,62.7884,132.0145],[28.2904,62.784,122.5565],[28.2807,62.7845,120.3448],[28.278199999999998,62.7756,103.5936],[28.2684,62.7762,105.5125],[28.2672,62.7717,103.0345],[28.2574,62.7723,110.2702],[28.2562,62.7678,76.0],[28.2757,62.7667,89.3701],[28.2769,62.7712,113.0161],[28.2867,62.7706,117.3123],[28.2879,62.7751,118.0],[28.2977,62.7745,133.1315],[28.2989,62.7789,136.2869],[28.3086,62.7784,143.2176],[28.3099,62.7828,162.5611],[28.3294,62.7817,142.6336],[28.3281,62.7772,132.0428],[28.3379,62.7767,149.7158],[28.3354,62.7678,161.5297],[28.3451,62.7672,165.9631],[28.3438,62.7627,157.1561],[28.2951,62.7656,131.8898],[28.2939,62.7611,131.3113],[28.3036,62.7606,136.7605],[28.3024,62.7561,132.6873],[28.3121,62.7555,146.0079],[28.3096,62.7466,145.5643],[28.3193,62.7461,134.0],[28.3181,62.7416,154.4663],[28.3278,62.741,158.2668],[28.3266,62.7366,153.7186],[28.3363,62.736,130.3191],[28.3338,62.7271,125.0479],[28.3435,62.7266,140.3674],[28.3422,62.7221,130.2953],[28.352,62.7215,120.0485],[28.3507,62.7171,112.3963],[28.3604,62.7165,106.0],[28.3579,62.7076,106.9767],[28.3676,62.707,113.2197],[28.3626,62.6892,118.1388],[28.3529,62.6898,132.471],[28.3478,62.672,116.8369],[28.3381,62.6725,119.1408],[28.3344,62.6592,109.0],[28.3247,62.6598,133.7784],[28.3209,62.6464,76.0],[28.3306,62.6458,97.5191],[28.3294,62.6414,76.0],[28.3487,62.6402,87.4317],[28.3475,62.6358,95.2647],[28.3669,62.6346,105.8359],[28.3606,62.6124,76.0],[28.3897,62.6107,76.0],[28.3884,62.6062,94.8654],[28.4368,62.6033,76.0],[28.4356,62.5989,76.0],[28.4452,62.5983,76.0],[28.444,62.5939,76.0],[28.4537,62.5933,76.0],[28.4524,62.5888,76.0],[28.4621,62.5882,76.0],[28.4608,62.5838,76.0],[28.4705,62.5832,76.0],[28.4717,62.5877,76.0],[28.5395,62.5836,76.0],[28.5408,62.5881,87.686],[28.5504,62.5875,98.2352],[28.5517,62.5919,103.1253],[28.5711,62.5908,110.4823],[28.5698,62.5863,94.1064],[28.5795,62.5857,95.8311],[28.5782,62.5813,124.0758],[28.5878,62.5807,108.014],[28.5891,62.5851,115.0803],[28.5988,62.5846,114.9721],[28.6014,62.5935,115.8645],[28.6111,62.5929,110.6215],[28.6124,62.5973,130.7572],[28.622,62.5967,109.8819],[28.6233,62.6012,111.0],[28.633,62.6006,121.1784],[28.6343,62.605,114.4406],[28.6053,62.6068,120.1281],[28.6078,62.6157,140.9695],[28.6175,62.6151,152.5242],[28.6188,62.6196,123.1681],[28.6382,62.6184,126.6381],[28.6486,62.654,99.5],[28.6583,62.6534,99.5],[28.6648,62.6757,99.5],[28.6745,62.6751,99.5],[28.6758,62.6795,99.5],[28.6855,62.6789,112.3778],[28.6881,62.6878,99.5],[28.6978,62.6872,99.5],[28.6991,62.6917,99.5],[28.7088,62.6911,99.5],[28.7101,62.6955,99.5],[28.7004,62.6961,99.5],[28.7017,62.7006,99.5],[28.692,62.7012,99.5],[28.6933,62.7056,106.6964],[28.6836,62.7062,99.5],[28.6849,62.7107,99.5],[28.6655,62.7119,99.5],[28.6668,62.7163,99.5],[28.6571,62.7169,99.5],[28.6584,62.7214,99.5],[28.6487,62.7219,99.5],[28.6513,62.7308,99.5],[28.6416,62.7314,99.5],[28.6442,62.7403,99.5],[28.6345,62.7409,99.5],[28.6397,62.7587,99.5],[28.6494,62.7581,99.5],[28.652,62.767,99.5],[28.6617,62.7664,99.5],[28.6631,62.7709,99.5],[28.6728,62.7703,99.5],[28.6741,62.7747,99.5],[28.7228,62.7718,99.5],[28.7267,62.7851,99.5],[28.7365,62.7845,99.5],[28.7391,62.7934,99.5],[28.7488,62.7928,99.5],[28.7528,62.8062,99.5],[28.7515,62.8063,99.5]]]]}
,"properties": {"GID_3": "FIN.1.2.2_1","GID_0": "FIN","country": "Finland","GID_1": "FIN.1_1","province": "EasternFinland","NL_NAME_1": "NA","GID_2": "FIN.1.2_1","county": "NorthSavonia","NL_NAME_2": "NA","city": "NorthEasternSavonia","VARNAME_3": "NA","NL_NAME_3": "NA","TYPE_3": "Seutukunta|Ekonomiskregion","ENGTYPE_3": "Sub-Region","CC_3": "NA","HASC_3": "NA","name": "North_Eastern_Savonia.city","area_km2": 4134.018,"hist_schema_id": "Elevation0-9000","hist_area_km2": {"75": 103.952,"100": 977.176,"125": 1093.27,"150": 896.025,"175": 522.107,"200": 312.422,"225": 140.766,"250": 67.499,"275": 16.4,"300": 4.099,"325": 0.302}}}