{"type":"Feature","properties":{"GID_3":"FIN.5.1.4_1","GID_0":"FIN","country":"Finland","GID_1":"FIN.5_1","province":"WesternFinland","NL_NAME_1":"NA","GID_2":"FIN.5.1_1","county":"CentralFinland","NL_NAME_2":"NA","city":"Keuruu","VARNAME_3":"NA","NL_NAME_3":"NA","TYPE_3":"Seutukunta|Ekonomiskregion","ENGTYPE_3":"Sub-Region","CC_3":"NA","HASC_3":"FI.LS.KE","name":"Keuruu.city"},
"geometry":{"type": "MultiPolygon","coordinates": [[[[24.9651,62.2079,148.9283],[24.9658,62.2124,144.7934],[24.9754,62.2121,149.9829],[24.9747,62.2076,150.2664],[24.9939,62.2069,173.0966],[24.9931,62.2024,183.5021],[25.0027,62.2021,177.7841],[25.002,62.1976,173.8103],[25.0116,62.1973,189.0307],[25.0109,62.1928,196.2928],[25.0301,62.1921,176.8787],[25.0293,62.1876,171.3454],[25.0485,62.1869,173.1255],[25.0478,62.1824,170.2479],[25.067,62.1818,190.9658],[25.0662,62.1773,179.369],[25.0854,62.1766,178.2864],[25.0847,62.1721,178.8949],[25.1038,62.1714,158.2172],[25.1031,62.1669,148.428],[25.1223,62.1662,174.2249],[25.1215,62.1618,168.9711],[25.1598,62.1604,114.0857],[25.1606,62.1648,117.8971],[25.1702,62.1645,108.0364],[25.1694,62.16,114.4106],[25.2653,62.1565,166.558],[25.2645,62.152,133.1396],[25.2837,62.1512,138.6124],[25.2845,62.1557,145.6841],[25.2941,62.1554,145.1765],[25.2949,62.1598,155.3499],[25.3044,62.1595,159.6823],[25.306,62.1684,141.3804],[25.3156,62.1681,155.971],[25.3172,62.177,138.5],[25.3268,62.1767,144.48],[25.3275,62.1811,159.4943],[25.3371,62.1808,158.3912],[25.3395,62.1942,156.4716],[25.3491,62.1938,139.6014],[25.3515,62.2073,186.632],[25.3419,62.2076,162.3946],[25.345,62.2255,199.8657],[25.3354,62.2259,198.9805],[25.337,62.2349,175.5825],[25.3562,62.2341,196.9625],[25.357,62.2386,181.6736],[25.3666,62.2382,203.4476],[25.3674,62.2427,202.9181],[25.4059,62.2412,169.9869],[25.4067,62.2457,192.529],[25.4259,62.245,147.8135],[25.4267,62.2495,142.5364],[25.4171,62.2498,167.8098],[25.4219,62.2767,178.9895],[25.4315,62.2763,166.0928],[25.434,62.2897,156.4673],[25.4436,62.2894,160.6092],[25.4452,62.2983,203.8608],[25.4548,62.2979,193.4296],[25.4572,62.3114,206.1403],[25.4669,62.311,211.5782],[25.4701,62.3289,199.5458],[25.4798,62.3285,199.7896],[25.4822,62.3419,199.615],[25.4918,62.3416,201.9353],[25.4927,62.3461,211.0094],[25.4541,62.3475,195.1601],[25.4533,62.3431,199.195],[25.4436,62.3434,214.6972],[25.4461,62.3569,176.4052],[25.4364,62.3572,176.5752],[25.4372,62.3617,178.4368],[25.4083,62.3628,186.8388],[25.4091,62.3673,183.6567],[25.3898,62.368,176.2623],[25.3906,62.3725,182.9322],[25.3713,62.3733,180.7579],[25.3721,62.3777,175.7802],[25.3624,62.3781,191.7907],[25.3616,62.3736,199.4886],[25.3423,62.3743,211.2675],[25.3415,62.3699,210.5673],[25.3222,62.3706,211.4684],[25.3214,62.3661,218.0604],[25.3021,62.3669,205.9629],[25.3037,62.3758,207.3446],[25.294,62.3762,213.487],[25.2956,62.3851,195.4168],[25.286,62.3855,197.2441],[25.2875,62.3944,205.4931],[25.2779,62.3948,215.051],[25.2795,62.4037,197.5],[25.2698,62.4041,212.4754],[25.2706,62.4086,197.5],[25.2609,62.4089,212.5704],[25.2617,62.4134,201.7024],[25.2327,62.4145,187.0],[25.2335,62.419,191.0573],[25.1658,62.4214,209.1962],[25.1665,62.4259,212.0015],[25.1279,62.4273,233.1483],[25.1294,62.4363,222.7108],[25.1391,62.4359,251.3778],[25.1406,62.4449,241.2707],[25.1503,62.4445,243.9937],[25.1518,62.4535,241.8533],[25.1615,62.4531,241.0665],[25.1623,62.4576,241.0632],[25.1719,62.4573,232.0705],[25.1727,62.4617,224.0495],[25.1824,62.4614,213.6447],[25.1956,62.5375,188.4664],[25.2053,62.5372,202.1263],[25.2061,62.5416,191.3334],[25.2158,62.5413,193.5801],[25.2166,62.5457,189.9421],[25.236,62.545,190.2484],[25.2368,62.5495,187.9666],[25.2271,62.5499,189.8846],[25.2286,62.5588,189.3943],[25.2189,62.5592,184.1827],[25.2197,62.5637,197.2048],[25.21,62.564,193.9241],[25.2108,62.5685,198.8739],[25.2011,62.5688,181.6044],[25.2018,62.5733,194.5136],[25.1921,62.5737,181.7505],[25.1929,62.5782,177.3181],[25.1832,62.5785,176.9374],[25.1839,62.583,168.4351],[25.1451,62.5844,170.5311],[25.1443,62.5799,175.3449],[25.0957,62.5817,183.3518],[25.0949,62.5772,199.1931],[25.0463,62.5789,225.8479],[25.0455,62.5744,215.2102],[24.9969,62.5762,192.3822],[24.9962,62.5717,220.2341],[24.9476,62.5734,210.964],[24.9483,62.5779,224.0617],[24.9386,62.5782,232.0373],[24.9393,62.5827,234.522],[24.9296,62.583,227.62],[24.9303,62.5875,222.8941],[24.9206,62.5878,229.5539],[24.9214,62.5923,221.1124],[24.9116,62.5926,223.3322],[24.9124,62.5971,214.795],[24.9026,62.5975,205.3463],[24.9034,62.6019,198.9342],[24.8936,62.6023,196.7115],[24.8929,62.5978,201.6304],[24.8832,62.5981,188.3663],[24.8824,62.5936,217.2956],[24.8727,62.594,181.8545],[24.872,62.5895,188.9642],[24.8622,62.5898,186.3706],[24.8615,62.5854,191.5993],[24.8518,62.5857,191.1361],[24.851,62.5812,196.8797],[24.8413,62.5815,193.9369],[24.8399,62.5726,186.0],[24.8301,62.5729,199.0012],[24.8294,62.5684,206.0701],[24.8197,62.5687,215.3198],[24.8182,62.5598,229.0548],[24.8085,62.5601,223.6579],[24.8071,62.5512,220.2532],[24.7974,62.5515,221.614],[24.7967,62.547,220.6334],[24.7869,62.5473,222.961],[24.7862,62.5429,212.8736],[24.7668,62.5435,232.0848],[24.7661,62.539,213.8343],[24.7466,62.5397,184.0196],[24.7459,62.5352,191.395],[24.7265,62.5359,172.8881],[24.7258,62.5314,167.1557],[24.7161,62.5317,155.1001],[24.7168,62.5362,167.0361],[24.7071,62.5365,162.938],[24.7085,62.5455,173.3957],[24.6988,62.5458,163.5687],[24.7002,62.5547,174.8111],[24.6905,62.555,167.8797],[24.6912,62.5595,170.239],[24.6815,62.5599,169.4987],[24.6829,62.5688,179.1373],[24.6731,62.5691,176.0522],[24.6745,62.5781,181.846],[24.6648,62.5784,181.0813],[24.6662,62.5874,197.2384],[24.6565,62.5877,198.9139],[24.6579,62.5966,213.0951],[24.6482,62.597,204.2498],[24.6495,62.6059,214.7351],[24.6398,62.6063,227.9649],[24.6412,62.6152,213.4466],[24.6315,62.6155,212.819],[24.6322,62.62,219.0406],[24.6224,62.6203,227.1608],[24.6238,62.6293,218.4854],[24.6141,62.6296,229.1892],[24.6155,62.6386,213.3456],[24.6057,62.6389,215.4527],[24.6071,62.6478,209.9141],[24.5973,62.6482,201.8014],[24.5987,62.6571,225.7868],[24.589,62.6574,215.5506],[24.5904,62.6664,213.7271],[24.5806,62.6667,206.674],[24.5799,62.6622,211.3681],[24.5702,62.6625,213.9131],[24.5695,62.6581,213.4331],[24.5597,62.6584,217.8087],[24.5583,62.6494,209.8734],[24.5486,62.6497,218.8959],[24.5479,62.6452,212.466],[24.5382,62.6455,215.4413],[24.5375,62.6411,215.8552],[24.5277,62.6414,211.6754],[24.5271,62.6369,218.346],[24.5173,62.6372,212.5065],[24.5166,62.6327,214.2761],[24.5069,62.633,221.6213],[24.5048,62.6196,212.637],[24.573,62.6174,206.2819],[24.5737,62.6219,210.7505],[24.5835,62.6216,197.937],[24.5814,62.6081,200.0028],[24.5522,62.6091,212.3374],[24.5515,62.6046,212.1578],[24.5612,62.6043,208.2688],[24.5592,62.5908,221.7116],[24.5689,62.5905,207.1182],[24.5675,62.5816,218.1111],[24.5578,62.5819,229.4209],[24.5571,62.5774,218.6194],[24.5377,62.578,221.9978],[24.5363,62.5691,205.4155],[24.546,62.5687,213.8931],[24.5447,62.5598,194.0059],[24.5252,62.5604,201.982],[24.5245,62.5559,213.4752],[24.5343,62.5556,193.6233],[24.5336,62.5513,190.6553],[24.5322,62.5422,196.4925],[24.5225,62.5425,209.1674],[24.5211,62.5335,214.9409],[24.5309,62.5332,212.7169],[24.5295,62.5242,198.6704],[24.5101,62.5249,195.1436],[24.5067,62.5025,171.0],[24.5164,62.5022,171.0],[24.5157,62.4977,201.091],[24.4866,62.4986,172.2916],[24.486,62.4941,180.8956],[24.4568,62.495,170.5072],[24.4548,62.4816,161.5],[24.4452,62.4819,161.5],[24.4445,62.4774,161.5],[24.4348,62.4777,161.5],[24.4341,62.4732,161.5],[24.4244,62.4735,161.5],[24.4258,62.4825,161.5],[24.4161,62.4828,161.5],[24.4174,62.4918,173.8653],[24.4077,62.4921,184.6125],[24.4083,62.4965,183.3148],[24.3889,62.4971,194.9581],[24.3883,62.4927,192.6223],[24.3786,62.493,189.3185],[24.3799,62.5019,196.619],[24.3702,62.5022,204.6483],[24.3695,62.4977,201.5039],[24.3501,62.4983,184.9025],[24.3495,62.493899999999996,181.6243],[24.3398,62.4942,176.1822],[24.3391,62.4897,174.6797],[24.3197,62.4903,169.5332],[24.3184,62.4813,172.9967],[24.3281,62.481,155.3395],[24.3268,62.472,182.1082],[24.3365,62.4717,152.1553],[24.3339,62.4538,169.0319],[24.3242,62.4541,178.0586],[24.3236,62.4496,174.4003],[24.3042,62.4502,176.702],[24.3049,62.4547,163.9044],[24.2855,62.4553,194.1163],[24.2861,62.4598,196.7782],[24.2667,62.4604,183.5108],[24.2674,62.4648,195.4372],[24.248,62.4654,181.2224],[24.2486,62.4699,202.1463],[24.2389,62.4702,182.6651],[24.2396,62.4747,192.1733],[24.2202,62.4753,199.3099],[24.2208,62.4797,196.2314],[24.2014,62.4803,180.0467],[24.2008,62.4758,173.5],[24.1911,62.4761,194.8785],[24.1904,62.4716,194.1703],[24.1807,62.4719,198.1577],[24.1795,62.4629,190.3403],[24.1698,62.4632,181.1421],[24.1692,62.4588,193.4788],[24.1595,62.459,178.6459],[24.1582,62.4501,196.0761],[24.1486,62.4504,193.2668],[24.1473,62.4414,193.8169],[24.1376,62.4417,187.992],[24.137,62.4372,185.6681],[24.1273,62.4375,194.6262],[24.1261,62.4285,182.6245],[24.1164,62.4288,190.0251],[24.1158,62.4243,185.1241],[24.1061,62.4246,181.7321],[24.1049,62.4156,188.5914],[24.0952,62.4159,177.4128],[24.094,62.4069,187.4872],[24.0843,62.4072,180.4332],[24.0837,62.4027,174.398],[24.074,62.403,183.0629],[24.0728,62.394,178.0391],[24.0631,62.3943,178.2341],[24.0625,62.3898,177.9837],[24.0528,62.3901,187.2254],[24.0522,62.3856,189.8264],[24.0426,62.3859,198.6595],[24.0414,62.3769,200.4951],[24.0317,62.3772,201.0893],[24.0311,62.3727,196.8607],[24.0214,62.373,192.9484],[24.0172,62.3416,179.6227],[24.0269,62.3414,181.8628],[24.0233,62.3144,139.222],[24.033,62.3142,142.2],[24.0312,62.3007,119.555],[24.0505,62.3002,134.864],[24.0511,62.3047,130.198],[24.0703,62.3041,125.5],[24.0697,62.2996,125.5],[24.0794,62.2993,125.5],[24.077,62.2814,130.791],[24.0866,62.2811,127.4407],[24.0854,62.2722,137.7296],[24.1047,62.2716,170.2251],[24.1041,62.2671,158.6374],[24.1137,62.2668,157.9742],[24.1131,62.2624,151.1331],[24.1323,62.2618,157.3504],[24.1317,62.2573,157.7801],[24.1414,62.257,157.6781],[24.1407,62.2526,154.4122],[24.2274,62.25,193.5435],[24.228,62.2545,194.4924],[24.2761,62.253,193.2186],[24.2736,62.2351,174.2653],[24.2832,62.2348,176.8317],[24.2813,62.2214,164.9538],[24.2909,62.2211,172.3574],[24.2884,62.2031,127.4698],[24.298,62.2028,157.5867],[24.2967,62.1939,157.3117],[24.3063,62.1936,134.9201],[24.3051,62.1846,117.5],[24.3147,62.1843,121.8181],[24.314,62.1798,132.3427],[24.3236,62.1795,119.8512],[24.323,62.1751,145.5404],[24.3326,62.1748,139.1053],[24.332,62.1703,142.1485],[24.3416,62.17,108.0],[24.3409,62.1655,131.2452],[24.4081,62.1634,105.0],[24.4074,62.1589,105.0],[24.417,62.1586,124.1221],[24.4164,62.1542,105.0],[24.4356,62.1535,115.1289],[24.4362,62.158,122.6236],[24.4458,62.1577,131.8597],[24.4465,62.1622,122.6353],[24.4369,62.1625,120.253],[24.4382,62.1715,132.2718],[24.4286,62.1718,151.5949],[24.4293,62.1763,149.8116],[24.4389,62.176,138.0847],[24.4395,62.1804,150.3147],[24.4587,62.1798,128.0074],[24.4594,62.1843,143.3263],[24.469,62.184,146.0949],[24.4696,62.1885,160.2941],[24.4792,62.1882,160.4359],[24.4799,62.1927,154.8499],[24.4895,62.1924,160.0632],[24.4902,62.1968,167.7595],[24.5094,62.1962,154.697],[24.5101,62.2007,153.8898],[24.5197,62.2004,158.1219],[24.519,62.1959,156.1634],[24.5382,62.1953,150.1337],[24.5375,62.1908,161.5656],[24.5567,62.1902,154.4325],[24.5561,62.1857,156.4098],[24.5657,62.1854,172.3138],[24.565,62.1809,176.1821],[24.5746,62.1806,146.1295],[24.5732,62.1716,140.5743],[24.5828,62.1713,128.3248],[24.5815,62.1624,128.9012],[24.5911,62.1621,130.5685],[24.5904,62.1576,131.9811],[24.6,62.1573,114.6525],[24.5986,62.1483,116.9284],[24.6082,62.148,118.0404],[24.6069,62.139,107.5],[24.6165,62.1387,111.6461],[24.6151,62.1298,115.0133],[24.6247,62.1295,121.185],[24.624,62.125,105.9054],[24.6528,62.124,109.2406],[24.6521,62.1195,120.117],[24.6712,62.118899999999996,105.0],[24.6637,62.0696,105.0],[24.6732,62.0693,105.0],[24.6705,62.0514,105.0],[24.6896,62.0508,118.3233],[24.6889,62.0463,109.6932],[24.708,62.0456,110.4172],[24.7073,62.0411,119.1379],[24.7169,62.0408,132.0106],[24.7155,62.0319,135.4576],[24.7251,62.0315,159.4909],[24.7244,62.0271,146.2171],[24.753,62.0261,167.213],[24.7537,62.0306,170.1424],[24.7728,62.0299,151.9815],[24.7735,62.0344,148.0216],[24.7831,62.0341,160.308],[24.7838,62.0386,158.4492],[24.8029,62.0379,143.9304],[24.8036,62.0424,160.4306],[24.8227,62.0417,153.8291],[24.8234,62.0462,152.0588],[24.833,62.0459,138.2592],[24.8337,62.0504,142.7087],[24.8528,62.0497,156.7963],[24.8535,62.0542,150.3379],[24.8726,62.0535,177.8562],[24.8733,62.058,160.2579],[24.8829,62.0577,200.6447],[24.8836,62.0621,180.392],[24.874,62.0625,172.7483],[24.8747,62.067,178.5503],[24.8652,62.0673,183.8691],[24.8666,62.0762,177.2075],[24.8571,62.0766,160.6272],[24.8585,62.0855,165.7345],[24.8489,62.0859,154.2204],[24.8503,62.0948,160.4667],[24.8408,62.0951,139.1136],[24.8422,62.1041,163.0128],[24.8326,62.1044,142.365],[24.8355,62.1223,145.1743],[24.8451,62.122,154.9058],[24.8465,62.131,153.9528],[24.8561,62.1306,150.8015],[24.8575,62.1396,148.761],[24.8671,62.1393,140.8951],[24.8685,62.1482,143.8272],[24.8781,62.1479,146.7878],[24.8795,62.1568,153.897],[24.8891,62.1565,138.5373],[24.8899,62.161,134.287],[24.8995,62.1607,161.2493],[24.9009,62.1696,183.0105],[24.9105,62.1693,148.9272],[24.9119,62.1782,154.5406],[24.9215,62.1779,140.5],[24.923,62.1869,144.3093],[24.9326,62.1865,178.847],[24.9341,62.1955,176.7461],[24.9437,62.1951,168.6369],[24.9444,62.1996,161.9823],[24.954,62.1993,181.0355],[24.9547,62.2038,166.8316],[24.9643,62.2034,154.4924],[24.9651,62.2079,148.9283]]],
[[[25.2352,62.5406,195.9758],[25.2449,62.5402,191.3439],[25.2457,62.5447,188.6918],[25.236,62.545,190.2484],[25.2352,62.5406,195.9758]]]]}}