{"type":"Feature","properties":{"GID_3":"FIN.5.9.1_1","GID_0":"FIN","country":"Finland","GID_1":"FIN.5_1","province":"WesternFinland","NL_NAME_1":"NA","GID_2":"FIN.5.9_1","county":"TavastiaProper","NL_NAME_2":"NA","city":"Forssa","VARNAME_3":"NA","NL_NAME_3":"NA","TYPE_3":"Seutukunta|Ekonomiskregion","ENGTYPE_3":"Sub-Region","CC_3":"NA","HASC_3":"FI.ES.FS","name":"Forssa.city"},
"geometry":{"type": "MultiPolygon","coordinates": [[[[24.0339,60.6448,111.0],[24.0522,60.6442,118.6875],[24.0545,60.6622,120.5575],[24.0453,60.6624,119.141],[24.0543,60.7341,119.5099],[24.0452,60.7344,145.4009],[24.0491,60.7658,127.8016],[24.0583,60.7655,132.5326],[24.0628,60.8014,132.5794],[24.0537,60.8017,125.8032],[24.0548,60.8106,124.2735],[24.0456,60.8109,136.129],[24.0479,60.8288,141.2289],[24.0571,60.8286,135.7684],[24.0582,60.8375,135.8485],[24.049,60.8378,131.1926],[24.0501,60.8468,139.7906],[24.0409,60.847,136.2586],[24.0415,60.8515,133.9384],[24.0323,60.8518,143.6648],[24.0329,60.8563,133.4338],[24.0237,60.8566,128.1269],[24.0242,60.861,142.4968],[24.015,60.8613,123.6385],[24.0156,60.8658,138.2742],[24.0064,60.8661,140.3168],[24.0069,60.8705,143.9038],[23.9977,60.8708,135.093],[23.9983,60.8753,133.9338],[23.9891,60.8756,142.4831],[23.9902,60.8845,134.1717],[23.9994,60.8843,135.3389],[24.0017,60.9022,144.0979],[24.0109,60.9019,126.9018],[24.0131,60.9198,164.8298],[24.0224,60.9196,155.9069],[24.0235,60.9286,162.5492],[24.0142,60.9288,136.5],[24.0148,60.9333,136.5],[23.9964,60.9338,158.5743],[23.9969,60.9383,140.6521],[23.9692,60.9391,147.8624],[23.9698,60.9436,156.274],[23.9513,60.9442,148.1546],[23.9519,60.9487,145.3975],[23.9611,60.9484,147.4187],[23.9617,60.9529,150.3582],[23.9709,60.9526,149.3666],[23.9715,60.9571,150.6601],[23.953,60.9576,147.9311],[23.9536,60.9621,151.8824],[23.9166,60.9632,153.9518],[23.9172,60.9677,158.0779],[23.8709,60.969,151.3529],[23.8715,60.9735,158.5078],[23.8622,60.9737,155.2042],[23.8601,60.9558,142.2939],[23.8693,60.9555,139.5208],[23.8688,60.951,140.1075],[23.8595,60.9513,127.0],[23.859,60.9468,140.0482],[23.8498,60.9471,139.7019],[23.8492,60.9426,137.3409],[23.84,60.9429,136.562],[23.8405,60.9473,142.0795],[23.8313,60.9476,145.9277],[23.8324,60.9566,143.966],[23.8231,60.9568,135.0892],[23.8242,60.9658,131.5813],[23.815,60.9661,133.0959],[23.816,60.975,137.329],[23.8068,60.9753,154.5688],[23.8079,60.9842,140.2184],[23.7986,60.9845,149.2463],[23.7992,60.989,135.8183],[23.7899,60.9893,143.5885],[23.7904,60.9937,113.3257],[23.772,60.9943,111.8183],[23.7725,60.9987,112.1256],[23.7632,60.999,116.9269],[23.7627,60.9945,109.6825],[23.7442,60.995,109.1299],[23.7437,60.9905,146.9499],[23.7344,60.9908,133.6332],[23.736,61.0042,106.5],[23.6898,61.0055,109.5905],[23.6892,61.001,117.6257],[23.6152,61.003,128.8121],[23.6142,60.994,131.4184],[23.605,60.9943,131.9865],[23.6039,60.9853,157.8712],[23.5762,60.986,128.6314],[23.5772,60.995,146.0793],[23.568,60.9953,140.8959],[23.5402,60.996,139.87],[23.5392,60.987,130.0239],[23.53,60.9873,136.9334],[23.5305,60.9917,142.8102],[23.5212,60.992,142.3136],[23.5217,60.9965,142.7681],[23.5124,60.9967,116.8207],[23.512,60.9922,134.5297],[23.4935,60.9927,112.5658],[23.493,60.9882,139.1305],[23.4745,60.9887,108.0],[23.474,60.9842,152.1607],[23.4555,60.9847,117.7932],[23.455,60.9802,115.7132],[23.4642,60.9799,131.9162],[23.4633,60.971,115.2011],[23.4725,60.9708,125.4248],[23.4715,60.9618,105.5414],[23.4623,60.962,122.8198],[23.4628,60.9665,105.4479],[23.4073,60.9679,103.8665],[23.4083,60.9769,137.266],[23.399,60.9771,137.3137],[23.3995,60.9816,151.1542],[23.3903,60.9818,138.0875],[23.3917,60.9953,129.8768],[23.3825,60.9955,131.9784],[23.3834,61.0045,129.8029],[23.3741,61.0047,129.7181],[23.3746,61.0092,139.5483],[23.3654,61.0094,136.134],[23.3659,61.0139,132.1284],[23.3566,61.0141,130.7493],[23.3561,61.0096,148.1293],[23.3191,61.0106,116.1884],[23.3196,61.015,108.1681],[23.2825,61.0159,114.5251],[23.283,61.0204,106.79],[23.2645,61.0209,90.9933],[23.2631,61.0074,91.9551],[23.2168,61.0085,120.226],[23.2164,61.004,118.2929],[23.1978,61.0045,119.8245],[23.1974,61.0,123.6446],[23.2067,60.9998,128.51],[23.2057,60.9908,110.3746],[23.215,60.9906,120.3887],[23.2145,60.9861,108.6578],[23.2238,60.9859,117.9468],[23.2233,60.9814,110.517],[23.2326,60.9812,120.4725],[23.2321,60.9767,113.4691],[23.2414,60.9765,107.8654],[23.2409,60.972,100.964],[23.2502,60.9718,99.0255],[23.2497,60.9673,97.8704],[23.259,60.967,98.1235],[23.2585,60.9626,102.0865],[23.2677,60.9623,98.1142],[23.2673,60.9579,98.662],[23.295,60.9572,96.633],[23.2908,60.9168,91.7882],[23.2539,60.9177,96.2835],[23.2535,60.9132,105.3531],[23.2627,60.913,107.8582],[23.2609,60.8951,113.8139],[23.2701,60.8948,102.7516],[23.2696,60.8903,101.4177],[23.1497,60.8932,89.572],[23.1493,60.8887,101.465],[23.1401,60.8889,86.3269],[23.1361,60.8485,86.898],[23.1453,60.8483,87.2053],[23.1444,60.8394,82.9735],[23.1628,60.8389,94.2183],[23.1624,60.8344,93.5994],[23.2084,60.8334,86.1949],[23.208,60.8289,84.3328],[23.2264,60.8284,84.1356],[23.2255,60.8195,81.9198],[23.2071,60.8199,82.0553],[23.2066,60.8154,81.4746],[23.1974,60.8156,82.6284],[23.1965,60.8067,110.4108],[23.1873,60.8069,101.6294],[23.1864,60.7979,116.3969],[23.1773,60.7981,117.555],[23.1764,60.7891,109.0048],[23.1672,60.7894,111.5392],[23.1658,60.7759,99.1864],[23.1566,60.7761,110.3737],[23.1562,60.7716,101.7566],[23.1654,60.7714,99.4565],[23.165,60.7669,101.5521],[23.1741,60.7667,109.8605],[23.1737,60.7622,113.6159],[23.1921,60.7618,95.0297],[23.1916,60.7573,104.202],[23.2008,60.7571,95.385],[23.2004,60.7526,101.0801],[23.2095,60.7524,118.7335],[23.2091,60.7479,95.1946],[23.2183,60.7477,92.7611],[23.2178,60.7432,92.5919],[23.227,60.743,94.7039],[23.2266,60.7385,99.9103],[23.2449,60.738,90.3019],[23.2445,60.7336,90.6295],[23.2536,60.7333,91.2868],[23.2532,60.7289,109.6467],[23.2624,60.7286,92.7789],[23.2615,60.7197,102.738],[23.2706,60.7195,96.6661],[23.2702,60.715,104.3367],[23.2793,60.7147,95.0889],[23.2798,60.7192,94.4678],[23.289,60.719,109.3335],[23.2894,60.7235,95.214],[23.3169,60.7228,97.9453],[23.3165,60.7183,108.1874],[23.344,60.7177,100.0869],[23.3445,60.7221,102.2054],[23.3536,60.7219,98.6406],[23.3541,60.7264,104.0168],[23.3724,60.7259,118.9626],[23.3729,60.7304,115.9094],[23.3821,60.7302,110.996],[23.3826,60.7347,101.4986],[23.4009,60.7342,107.3576],[23.4014,60.7387,99.209],[23.4198,60.7382,92.5964],[23.4202,60.7427,91.6534],[23.4386,60.7422,99.0214],[23.4391,60.7467,106.6123],[23.4574,60.7463,109.1922],[23.4579,60.7508,103.626],[23.4671,60.7505,98.4198],[23.4666,60.746,128.907],[23.5033,60.7451,99.9045],[23.5014,60.7271,129.3995],[23.5105,60.7269,108.1745],[23.51,60.7224,126.5993],[23.5284,60.722,130.3574],[23.5279,60.7175,113.7909],[23.5371,60.7172,126.5023],[23.5356,60.7038,134.0483],[23.5539,60.7033,97.1788],[23.5534,60.6988,131.8761],[23.5718,60.6983,121.8805],[23.5713,60.6938,100.0095],[23.6537,60.6916,131.1581],[23.653199999999998,60.6871,107.2137],[23.6807,60.6864,114.469],[23.6781,60.664,84.158],[23.6873,60.6637,90.2174],[23.6868,60.6592,96.392],[23.7051,60.6587,146.1662],[23.7056,60.6632,129.9512],[23.7239,60.6627,149.9885],[23.7234,60.6582,127.4845],[23.7417,60.6577,143.9756],[23.7412,60.6532,129.6049],[23.7686,60.6525,143.7724],[23.7691,60.657,141.2923],[23.8698,60.6541,118.9582],[23.8693,60.6496,117.7119],[23.9059,60.6486,118.644],[23.9064,60.653,107.5],[23.9338,60.6522,136.7751],[23.9333,60.6478,114.148],[23.9516,60.6472,133.2165],[23.951,60.6427,115.8998],[23.9693,60.6422,138.0254],[23.9688,60.6377,116.0463],[23.9871,60.6372,131.7518],[23.9876,60.6417,128.315],[24.0059,60.6411,127.8267],[24.0065,60.6456,121.9965],[24.0339,60.6448,111.0]]]]}}