{"type": "Feature","id": "3188","bbox": [26.96851,60.66423,30.14565,61.8508],"geometry": {"type": "Polygon","coordinates": [[[30.14565,61.85047,79.5],[30.14496,61.85057,79.5],[30.14331,61.8508,79.5],[30.05721,61.84881,106.5627],[29.56401,61.72414,110.37],[29.53239,61.68479,94.5831],[29.46645,61.65815,115.239],[29.34108,61.62151,109.0619],[29.27204,61.57206,116.6533],[29.2461,61.55991,119.8252],[29.19019,61.54821,133.9646],[29.05335,61.53423,128.848],[28.89315,61.53345,91.8257],[28.83817,61.53924,83.1733],[28.8207,61.538,98.3747],[28.81502,61.53082,101.4866],[28.81698,61.50842,101.1141],[28.80933,61.498,136.4822],[28.75052,61.48157,117.0192],[28.65317,61.46958,120.0771],[28.56294,61.47289,106.8682],[28.53834,61.48134,88.9958],[28.51013,61.50836,72.5],[28.494,61.5118,81.1515],[28.46889,61.50922,89.6749],[28.44687,61.49793,95.2428],[28.42486,61.48136,102.6887],[28.42011,61.47558,90.5],[28.41587,61.46762,112.5504],[28.40905,61.4579,86.5],[28.39654,61.4469,107.9579],[28.34156,61.41858,72.5],[28.18146,61.37331,72.5],[27.54026,61.36034,115.6519],[27.30338,61.40057,114.7144],[27.25025,61.40375,76.9966],[27.2024,61.39966,129.619],[27.11311,61.37305,96.2451],[27.09171,61.3714,105.3184],[27.01843,61.37527,105.2033],[26.98526,61.36917,111.5043],[26.96851,61.35982,119.5873],[26.97637,61.34388,82.5],[27.14339,61.3284,81.5],[27.24075,61.32987,102.5692],[27.25573,61.32437,96.3373],[27.24343,61.319,99.7428],[27.22607,61.3161,115.7188],[27.24126,61.30504,97.1201],[27.27733,61.28877,117.374],[27.33108,61.25282,87.7892],[27.33314,61.23668,85.2061],[27.32498,61.22892,84.9867],[27.33583,61.21833,81.0578],[27.36095,61.2127,87.9407],[27.38575,61.21301,83.0165],[27.38627,61.21017,81.9034],[27.38833,61.20557,78.6108],[27.38988,61.20376,78.9239],[27.38275,61.19952,85.3098],[27.37428,61.19678,83.784],[27.36746,61.19257,79.7705],[27.36632,61.1866,85.2206],[27.36663,61.18138,88.072],[27.34865,61.17141,100.1352],[27.33035,61.16831,95.5541],[27.21315,61.1618,119.3736],[27.21501,61.14459,100.0],[27.20757,61.13273,121.3919],[27.18762,61.11343,107.8951],[27.18969,61.10565,117.5652],[27.19796,61.10593,97.0],[27.2115,61.10459,101.1842],[27.21749,61.10283,114.7097],[27.22927,61.09687,118.2042],[27.21863,61.0903,106.63],[27.20261,61.08643,110.0213],[27.1683,61.07286,96.6304],[27.14969,61.05333,106.1623],[27.15331,61.03914,124.7634],[27.16127,61.02713,113.5699],[27.14473,61.01372,99.0588],[27.14897,61.00873,83.0],[27.15672,61.00666,83.0],[27.1901,61.00315,123.2409],[27.20426,60.99969,93.3893],[27.21594,60.99152,82.7057],[27.22225,60.98307,106.5637],[27.23186,60.9755,87.2232],[27.2424,60.97196,97.998],[27.2393,60.96214,68.5436],[27.2239,60.95698,82.1756],[27.19258,60.95401,63.5],[27.16116,60.95835,77.7273],[27.14628,60.96238,78.2059],[27.1313,60.96393,107.9985],[27.13026,60.9585,83.5412],[27.14297,60.94687,88.8784],[27.21181,60.90925,116.0813],[27.24633,60.89809,95.7343],[27.37149,60.87293,102.2379],[27.40425,60.85789,79.1446],[27.45252,60.82306,60.2],[27.48011,60.80701,73.6641],[27.51081,60.79779,75.752],[27.68837,60.79869,64.3861],[27.71793,60.77779,78.919],[27.73043,60.76523,60.4015],[27.76764,60.76053,62.6411],[27.8128,60.76327,55.5252],[27.8529,60.75567,36.7794],[27.86241,60.74632,62.9367],[27.87833,60.71908,49.5779],[27.88753,60.70844,37.5],[27.90406,60.69986,34.7627],[27.9546,60.68193,36.3545],[27.96153,60.67593,27.1867],[27.95708,60.67322,20.5],[27.95429,60.67113,25.7492],[27.95295,60.66984,27.7497],[27.95605,60.66816,43.0093],[27.9791,60.66614,28.2554],[27.98809,60.66632,28.3028],[28.00297,60.66433,53.8618],[28.00378,60.66423,53.8618],[28.14813,60.75771,46.5127],[28.24394,60.79159,52.2746],[28.33592,60.85939,61.2598],[28.48093,60.93347,50.434],[28.5264,60.95023,66.8878],[28.61456,60.96194,98.1021],[28.65373,60.99168,80.9871],[28.65373,60.99176,80.9871],[28.65384,60.99186,80.9871],[28.65384,60.99189,80.9871],[28.67068,61.01248,75.2003],[28.68898,61.02739,64.1203],[28.75016,61.06136,60.4883],[28.78132,61.08697,68.2987],[28.7976,61.09684,38.6464],[28.85548,61.11268,43.9674],[28.92638,61.14795,74.0709],[28.98085,61.1681,78.9772],[29.13009,61.21342,95.4767],[29.20316,61.2459,113.8786],[29.26228,61.29052,69.52],[29.27706,61.3046,68.542],[29.28925,61.31621,108.5604],[29.3184,61.33843,112.3872],[29.4634,61.41382,86.468],[29.48087,61.43478,75.8182],[29.49906,61.45925,108.096],[29.51704,61.47506,97.1223],[29.53973,61.48496,89.7975],[29.60427,61.49919,91.8613],[29.63512,61.5111,87.698],[29.77914,61.59311,77.4543],[29.79806,61.60965,82.1641],[29.82188,61.64458,133.9691],[29.84224,61.66017,117.8784],[29.97768,61.72817,106.8839],[30.14565,61.85047,79.5]]]}
,"properties": {"ISO3166-1-Alpha-3": "FIN","country": "Finland","fill": "#FF0","name": "South Karelia","area_km2": 7265.795,"hist_schema_id": "Elevation0-9000","hist_area_km2": {"0": 0.082,"25": 52.522,"50": 646.663,"75": 3174.664,"100": 2562.223,"125": 788.075,"150": 41.008,"175": 0.476}}}