{"type": "Feature","bbox": [26.9543,60.6664,30.1463,61.8655],"geometry": {"type": "MultiPolygon","coordinates": [[[[27.9881,60.6664,28.3028],[27.9892,60.6708,30.0166],[27.9983,60.6703,45.7594],[27.998,60.669,45.7347],[28.0001,60.6702,40.0638],[28.0074,60.6697,30.6888],[28.0087,60.6749,37.3311],[28.0652,60.707,37.7915],[28.0721,60.7066,46.3898],[28.0733,60.7114,43.4454],[28.1119,60.7332,56.6785],[28.1456,60.742,33.1235],[28.1494,60.7449,57.9937],[28.162,60.7634,35.9034],[28.1746,60.7758,33.0],[28.1826,60.7768,37.3651],[28.1835,60.7801,40.7875],[28.1873,60.782,43.5383],[28.2409,60.7868,50.0584],[28.2422,60.792,49.7442],[28.2493,60.7989,57.619],[28.2535,60.7996,42.3686],[28.254,60.8017,50.883],[28.2575,60.8039,56.8686],[28.2638,60.8035,31.4453],[28.2651,60.8085,55.8381],[28.2764,60.8162,42.4108],[28.2775,60.8207,53.6865],[28.2867,60.8202,30.5],[28.2876,60.8238,49.7863],[28.2955,60.8287,39.4731],[28.2981,60.8285,53.5835],[28.2986,60.8302,42.6025],[28.3044,60.8327,48.281],[28.3084,60.8324,62.6886],[28.3092,60.8353,47.1273],[28.3141,60.839,59.4715],[28.3269,60.8539,42.8619],[28.3326,60.8536,70.9713],[28.3338,60.8584,51.0081],[28.3415,60.8629,62.8757],[28.3599,60.8656,64.832],[28.3673,60.8695,63.757],[28.3739,60.8691,77.4339],[28.3751,60.8737,65.0287],[28.3822,60.8776,71.6889],[28.3854,60.8774,78.8325],[28.386,60.8796,86.2208],[28.3934,60.8837,76.3982],[28.3983,60.8886,55.652],[28.4072,60.8896,82.4703],[28.4078,60.8917,74.0376],[28.4118,60.8939,69.8402],[28.4176,60.8935,74.4497],[28.4187,60.8976,70.7706],[28.4268,60.902,75.2042],[28.4291,60.9019,76.8932],[28.4295,60.9035,72.3419],[28.4682,60.9249,55.4269],[28.4715,60.9264,79.4579],[28.4821,60.9257,71.3144],[28.5004,60.9381,46.4967],[28.504,60.9379,46.0772],[28.5047,60.9407,41.7222],[28.5075,60.9422,49.2449],[28.5144,60.9418,70.6992],[28.5157,60.9467,82.088],[28.5223,60.9503,36.9574],[28.5259,60.9501,66.8878],[28.5277,60.9533,59.4584],[28.5363,60.954,60.1836],[28.5375,60.9584,66.9814],[28.6018,60.9543,70.4784],[28.6025,60.9572,79.5196],[28.6174,60.9579,92.377],[28.6391,60.9542,64.1126],[28.6385,60.952,76.0459],[28.6568,60.9508,82.0608],[28.6576,60.9535,68.2655],[28.6677,60.9579,63.3283],[28.6768,60.9676,72.0123],[28.6801,60.9674,81.2287],[28.6813,60.9721,77.276],[28.6899,60.9804,55.5073],[28.6929,60.9802,61.0569],[28.7076,61.0336,33.0],[28.7168,61.033,33.0],[28.7208,61.0474,79.4215],[28.7293,61.0551,59.8016],[28.7376,61.0588,50.2486],[28.7426,61.0585,45.6593],[28.7434,61.0614,63.2961],[28.7465,61.0628,61.1896],[28.753,61.0624,40.7074],[28.7543,61.0671,35.7879],[28.7686,61.0749,47.7295],[28.7752,61.0745,63.4446],[28.7759,61.0774,71.3832],[28.7928,61.087,87.8192],[28.7973,61.0867,91.2863],[28.7982,61.0901,82.9601],[28.809,61.095,42.8234],[28.8139,61.0992,71.7333],[28.8195,61.0988,69.4549],[28.8259,61.1219,64.7332],[28.8289,61.1258,51.5579],[28.8404,61.1315,61.2783],[28.8576,61.1371,89.3929],[28.8676,61.1365,96.5384],[28.8686,61.1401,94.8066],[28.8855,61.1443,50.1464],[28.8978,61.1435,63.0307],[28.8984,61.1458,67.0546],[28.936,61.1456,78.3673],[28.9363,61.1469,81.158],[28.9465,61.1484,88.3554],[28.9541,61.1517,89.8873],[28.9844,61.1771,100.0689],[28.9923,61.1781,93.8393],[29.0064,61.1862,114.68],[29.0133,61.1858,112.5147],[29.0146,61.1902,67.0],[29.0238,61.1896,96.6604],[29.025,61.1937,105.6582],[29.0343,61.1934,92.5014],[29.0353,61.1968,82.4136],[29.066,61.2049,72.3203],[29.0751,61.2043,114.698],[29.0761,61.2077,107.1656],[29.0857,61.2081,79.7724],[29.087,61.2126,75.5191],[29.0962,61.212,79.8216],[29.097,61.2148,84.7199],[29.1005,61.2162,86.9239],[29.1067,61.2158,110.1435],[29.1077,61.2192,96.2008],[29.1195,61.224,102.3531],[29.1278,61.2234,94.418],[29.1292,61.2279,95.7891],[29.1768,61.2473,70.5],[29.1819,61.247,84.7235],[29.1826,61.2496,87.7543],[29.1866,61.2512,82.1906],[29.1924,61.2508,74.4338],[29.1933,61.2538,86.9886],[29.1964,61.2551,70.9749],[29.203,61.2546,69.5],[29.204,61.2581,77.9858],[29.2062,61.2589,86.4243],[29.2135,61.2585,94.629],[29.2146,61.2623,75.4772],[29.2217,61.2668,72.8452],[29.2456,61.2734,55.3728],[29.2489,61.2849,64.7479],[29.2661,61.2957,93.0067],[29.2717,61.2953,73.0244],[29.2735,61.3012,67.4054],[29.302,61.325,108.0172],[29.3088,61.3245,92.1431],[29.3101,61.3291,77.0],[29.3156,61.3331,106.3534],[29.3207,61.3328,113.1861],[29.3226,61.3392,94.3503],[29.3284,61.3441,114.72],[29.3262,61.3466,111.2726],[29.334,61.353,86.966],[29.3431,61.3585,105.8013],[29.3472,61.3582,85.0015],[29.3482,61.3615,90.7859],[29.3634,61.3707,83.0762],[29.3698,61.3702,99.4499],[29.3713,61.3753,79.6923],[29.3937,61.3867,73.6371],[29.3967,61.3903,80.1785],[29.4044,61.3905,107.9305],[29.4056,61.3945,109.0023],[29.432,61.4113,70.8781],[29.439,61.4108,59.6157],[29.4408,61.4167,55.8662],[29.4457,61.4194,66.5774],[29.451,61.4191,57.4602],[29.4522,61.4231,76.395],[29.4596,61.4275,100.6189],[29.463,61.4273,77.8704],[29.4638,61.43,72.1738],[29.4664,61.4316,79.0323],[29.4736,61.4311,77.3477],[29.4754,61.4369,81.7567],[29.5016,61.4533,98.9101],[29.5058,61.4586,91.9354],[29.5051,61.4717,93.4981],[29.5072,61.4786,100.2061],[29.503,61.4789,79.5674],[29.5028,61.4885,68.5],[29.5319,61.4905,68.5],[29.5486,61.4894,98.8196],[29.5493,61.4918,83.603],[29.5643,61.4928,81.5],[29.5779,61.4919,101.2304],[29.5785,61.4938,92.7639],[29.629,61.4977,105.6053],[29.6363,61.5011,105.7704],[29.6522,61.5175,101.5489],[29.6507,61.5218,110.7393],[29.6611,61.5269,104.7371],[29.6649,61.5266,99.5014],[29.6682,61.5325,104.4064],[29.6827,61.539,88.9353],[29.6877,61.5386,83.7587],[29.689,61.5426,78.213],[29.7037,61.5511,89.5865],[29.7106,61.5506,96.1932],[29.7125,61.5568,70.0],[29.7247,61.5636,70.0],[29.7473,61.5724,101.8375],[29.7554,61.6018,90.4533],[29.7736,61.6142,105.3605],[29.7783,61.6139,110.3299],[29.7795,61.6176,97.7808],[29.7905,61.6221,73.2815],[29.7977,61.6305,72.8085],[29.8106,61.6363,78.7641],[29.814,61.6451,86.0853],[29.8204,61.6521,110.584],[29.8273,61.6555,112.5188],[29.8371,61.6641,110.0351],[29.842,61.6638,98.6139],[29.8433,61.6678,105.096],[29.8465,61.6694,113.1298],[29.8637,61.6715,92.0905],[29.8679,61.6846,101.4518],[29.8773,61.684,116.773],[29.8788,61.6888,134.7793],[29.8854,61.6925,116.3896],[29.8895,61.6922,112.0263],[29.8905,61.6953,118.0178],[29.9017,61.7004,103.9096],[29.9061,61.7046,95.6892],[29.9125,61.7041,99.2275],[29.9135,61.7072,96.9732],[29.9297,61.712,112.4495],[29.9342,61.7117,107.9675],[29.9353,61.7152,101.3529],[29.9397,61.718,101.025],[29.9467,61.7197,101.2105],[29.9613,61.7279,117.9618],[29.968,61.7274,111.7503],[29.9694,61.7316,132.0501],[29.9803,61.7356,94.7561],[29.9867,61.7396,83.368],[29.9911,61.7393,81.9777],[29.9921,61.7421,94.1401],[29.9985,61.7458,94.8323],[30.0209,61.7553,84.1222],[30.0251,61.755,98.2876],[30.0259,61.7575,79.5],[30.0299,61.7592,79.5],[30.0359,61.7588,79.5],[30.0371,61.7623,79.5],[30.0507,61.7693,79.5],[30.0573,61.7912,79.5],[30.0582,61.8015,79.5],[30.0629,61.8073,79.5],[30.0798,61.8192,79.5],[30.0846,61.8188,79.5],[30.0855,61.8217,79.5],[30.0887,61.8231,79.5],[30.0954,61.8226,79.5],[30.0969,61.827,79.5],[30.1145,61.8348,79.5],[30.1187,61.8345,79.5],[30.1195,61.8371,79.5],[30.1431,61.8502,79.5],[30.1463,61.8597,79.5],[30.1369,61.8604,79.5],[30.1384,61.8648,79.5],[30.129,61.8655,79.5],[30.1275,61.8611,79.5],[30.1181,61.8618,79.5],[30.1166,61.8574,79.5],[30.0978,61.8587,79.5],[30.0963,61.8543,100.8548],[30.0869,61.855,79.5],[30.0854,61.8506,79.5],[30.0666,61.8519,111.6903],[30.0651,61.8475,101.4713],[30.0557,61.8482,121.7764],[30.0542,61.8437,115.6685],[30.0448,61.8444,115.3264],[30.0434,61.84,116.4388],[30.0245,61.8414,93.0507],[30.0231,61.8369,79.5],[30.0137,61.8376,79.5],[30.0122,61.8332,79.5],[30.0028,61.8338,79.5],[30.0013,61.8294,79.5],[29.9919,61.8301,94.4972],[29.9905,61.8256,79.5],[29.9811,61.8263,79.5],[29.9796,61.8219,79.5],[29.9608,61.8232,91.4586],[29.9594,61.8188,79.5],[29.9499,61.8195,79.5],[29.9485,61.8151,89.38],[29.9391,61.8157,79.5],[29.9376,61.8113,79.5],[29.9188,61.8126,108.1077],[29.9174,61.8082,79.5],[29.908,61.8089,79.5],[29.9066,61.8044,79.5],[29.8877,61.8058,79.5],[29.8863,61.8013,79.5],[29.8769,61.802,79.5],[29.8755,61.7976,79.5],[29.8661,61.7983,79.5],[29.8646,61.7938,93.9562],[29.8458,61.7952,79.5],[29.8444,61.7907,90.2083],[29.835,61.7914,94.449],[29.8336,61.7869,88.0086],[29.8242,61.7876,83.7553],[29.8228,61.7832,87.4531],[29.8039,61.7845,90.5003],[29.8025,61.7801,93.5821],[29.7931,61.7807,95.9588],[29.7917,61.7763,110.1657],[29.7823,61.777,111.8905],[29.7809,61.7725,98.7367],[29.7621,61.7739,91.4323],[29.7607,61.7694,89.4674],[29.7513,61.7701,95.7825],[29.7499,61.7657,107.8001],[29.7405,61.7663,105.9156],[29.7391,61.7619,107.0932],[29.7203,61.7632,100.6359],[29.7189,61.7588,105.4678],[29.7095,61.7594,97.1875],[29.7081,61.755,94.2019],[29.6893,61.7563,97.7268],[29.6879,61.7519,96.9025],[29.6785,61.7525,97.5341],[29.6771,61.7481,110.6641],[29.6677,61.7487,103.5046],[29.6663,61.7443,99.8975],[29.6475,61.7456,111.8469],[29.6461,61.7412,100.2403],[29.6367,61.7418,110.6222],[29.6353,61.7374,101.6884],[29.6259,61.738,102.6035],[29.6245,61.7336,104.6817],[29.6057,61.7349,108.8351],[29.6044,61.7305,125.4779],[29.595,61.7311,106.1373],[29.5936,61.7267,104.8755],[29.5748,61.728,110.4052],[29.5734,61.7235,108.1243],[29.564,61.7242,110.37],[29.553,61.6887,92.0365],[29.5436,61.6893,88.5289],[29.5408,61.6804,93.7829],[29.5221,61.6817,113.7433],[29.5207,61.6773,112.4442],[29.5113,61.6779,102.3533],[29.51,61.6735,101.3759],[29.4912,61.6748,105.1183],[29.4898,61.6703,131.1796],[29.4711,61.6716,117.753],[29.4697,61.6672,105.0738],[29.451,61.6685,110.3112],[29.4496,61.664,115.9746],[29.4403,61.6647,109.7387],[29.4389,61.6602,119.083],[29.4295,61.6609,112.4389],[29.4282,61.6564,102.4948],[29.4094,61.6577,114.6815],[29.4081,61.6533,107.1415],[29.3987,61.6539,152.6886],[29.396,61.645,103.3665],[29.3866,61.6457,113.9504],[29.3853,61.6412,106.3425],[29.3759,61.6419,108.2358],[29.3732,61.633,110.969],[29.3638,61.6336,107.7957],[29.3625,61.6292,115.9685],[29.3531,61.6298,103.2337],[29.3504,61.6209,102.6799],[29.3411,61.6216,109.0619],[29.3397,61.6171,106.6976],[29.3304,61.6178,109.177],[29.3277,61.6089,121.8614],[29.3183,61.6095,127.3215],[29.317,61.6051,107.6379],[29.3076,61.6057,103.0586],[29.3049,61.5968,91.7363],[29.2956,61.5974,82.4773],[29.2929,61.5886,102.8142],[29.2835,61.5892,104.1501],[29.2769,61.567,136.1503],[29.2675,61.5676,119.756],[29.2649,61.5587,110.5163],[29.2181,61.5619,141.2579],[29.2168,61.5574,149.0055],[29.1981,61.5587,118.6947],[29.1968,61.5542,137.857],[29.1781,61.5555,109.6287],[29.1768,61.551,115.5684],[29.1581,61.5523,108.9331],[29.1568,61.5478,103.0044],[29.1381,61.5491,106.767],[29.1368,61.5446,108.3344],[29.1181,61.5459,122.2344],[29.1168,61.5414,111.9325],[29.0981,61.5427,129.8816],[29.0968,61.5382,139.2399],[29.0781,61.5394,112.6614],[29.0768,61.535,119.5262],[29.0581,61.5362,117.1123],[29.0568,61.5318,124.1067],[28.9447,61.5391,93.402],[28.9435,61.5347,105.3779],[28.9248,61.5359,113.5188],[28.9235,61.5314,123.7557],[28.9048,61.5327,128.7321],[28.9035,61.5282,122.5082],[28.8381,61.5324,87.9213],[28.8394,61.5369,86.372],[28.8207,61.5381,98.3747],[28.8144,61.5158,116.6167],[28.8237,61.5152,122.0835],[28.8199,61.5019,113.4499],[28.8106,61.5025,115.5912],[28.8093,61.498,136.4822],[28.8,61.4986,109.3592],[28.7937,61.4764,121.1979],[28.7097,61.4818,99.7241],[28.7085,61.4773,107.3411],[28.6991,61.4779,105.5223],[28.6979,61.4734,116.2789],[28.6886,61.474,113.252],[28.6873,61.4696,118.4489],[28.6687,61.4708,113.5077],[28.6674,61.4663,103.9615],[28.5835,61.4716,95.3888],[28.5847,61.4761,89.2798],[28.5287,61.4795,72.5],[28.5312,61.4884,95.007],[28.5218,61.489,102.6299],[28.5255,61.5024,81.2336],[28.5068,61.5035,72.5],[28.508,61.508,72.5],[28.4987,61.5086,72.5],[28.4999,61.513,72.5],[28.4906,61.5136,72.5],[28.4894,61.5091,105.1147],[28.48,61.5097,86.0498],[28.4788,61.5053,105.0811],[28.4694,61.5058,120.7872],[28.4682,61.5014,83.1599],[28.4589,61.502,87.2993],[28.4601,61.5064,72.5],[28.4508,61.507,82.542],[28.452,61.5114,72.5],[28.4426,61.512,72.5],[28.4402,61.5031,88.9754],[28.4309,61.5037,124.9473],[28.426,61.4859,113.6135],[28.4212,61.4681,127.4165],[28.4305,61.4675,100.6071],[28.4269,61.4541,97.0719],[28.4082,61.4553,86.5],[28.4058,61.4464,101.7874],[28.3965,61.4469,107.9579],[28.3953,61.4425,90.0534],[28.3767,61.4436,86.0],[28.3755,61.4392,99.2393],[28.3568,61.4403,86.0],[28.3544,61.431399999999996,93.183],[28.3451,61.432,80.7452],[28.3403,61.4142,72.5],[28.3124,61.4159,72.5],[28.3112,61.4114,72.5],[28.3019,61.412,72.5],[28.2971,61.3942,94.0006],[28.2878,61.3947,72.5],[28.2866,61.3903,72.5],[28.2773,61.3909,72.5],[28.2761,61.3864,72.5],[28.2668,61.387,72.5],[28.2656,61.3825,88.6007],[28.2563,61.3831,72.5],[28.2552,61.3786,72.5],[28.2365,61.3797,92.193],[28.2354,61.3753,72.5],[28.2167,61.3764,72.5],[28.2156,61.3719,72.5],[28.1877,61.3736,72.5],[28.1865,61.3692,72.5],[28.1679,61.3703,72.5],[28.1667,61.3658,72.5],[28.1481,61.3669,72.5],[28.1469,61.3625,72.5],[28.1097,61.3647,72.5],[28.1086,61.3602,72.5],[28.0899,61.3613,72.5],[28.0888,61.3569,72.5],[28.0702,61.358,72.5],[28.069,61.3535,72.5],[28.0132,61.3568,72.5],[28.0121,61.3523,72.5],[27.9562,61.3556,72.5],[27.9551,61.3511,72.5],[27.9272,61.3528,72.5],[27.9261,61.3483,72.5],[27.8237,61.3542,72.5],[27.8248,61.3587,72.5],[27.7876,61.3608,72.5],[27.7887,61.3652,72.5],[27.7328,61.3684,72.5],[27.7317,61.3639,72.5],[27.7131,61.365,72.5],[27.712,61.3605,93.1625],[27.6934,61.3616,72.5],[27.6923,61.3571,88.5689],[27.6643,61.3587,86.3824],[27.6633,61.3542,72.5],[27.626,61.3563,92.8112],[27.6249,61.3518,72.5],[27.5597,61.3555,105.5011],[27.5608,61.3599,115.13],[27.5329,61.3615,101.9699],[27.534,61.3659,112.6898],[27.506,61.3675,105.8008],[27.5071,61.3719,88.418],[27.4884,61.3729,96.5],[27.4895,61.3774,105.5468],[27.4522,61.3794,102.2751],[27.4533,61.3839,84.3977],[27.416,61.3859,124.8277],[27.4171,61.3904,106.7529],[27.3798,61.3924,118.8576],[27.3808,61.3969,107.0413],[27.2222,61.4053,96.5067],[27.2212,61.4008,117.916],[27.1652,61.4038,95.3099],[27.1621,61.3904,102.1917],[27.1528,61.3909,90.0],[27.1498,61.3775,92.6233],[27.1404,61.378,85.3629],[27.1384,61.369,80.5],[27.0918,61.3714,105.3184],[27.0928,61.3759,103.9082],[27.0741,61.3769,129.3548],[27.0752,61.3813,125.2033],[27.0192,61.3842,108.5381],[27.0182,61.3797,119.6546],[27.0089,61.3802,120.7749],[27.0079,61.3758,106.7748],[26.9985,61.3762,103.9766],[26.9975,61.3718,108.5043],[26.9882,61.3722,105.6413],[26.9872,61.3678,110.8697],[26.9779,61.3683,114.2265],[26.9759,61.3593,132.6784],[26.9666,61.3598,117.4135],[26.9656,61.3554,84.5],[26.9563,61.3558,84.5],[26.9543,61.3469,82.5],[27.0009,61.3445,110.1799],[27.0019,61.349,85.6879],[27.0205,61.348,90.8012],[27.0215,61.3525,83.5],[27.0401,61.3515,83.5],[27.0391,61.3471,83.5],[27.0578,61.3461,83.5],[27.0567,61.3417,83.5],[27.0754,61.3407,83.5],[27.0744,61.3362,83.5],[27.093,61.3353,119.9385],[27.092,61.3308,83.5],[27.1106,61.3298,98.4199],[27.1096,61.3254,103.5172],[27.1282,61.3244,97.1176],[27.1272,61.3199,83.0],[27.1458,61.319,83.0],[27.1478,61.3279,81.5],[27.1851,61.3259,96.0133],[27.1861,61.3304,102.0515],[27.2047,61.3294,100.4199],[27.2057,61.3339,85.5],[27.2337,61.3324,102.9443],[27.2326,61.3279,113.9308],[27.2606,61.3265,93.8028],[27.2575,61.3131,104.5048],[27.2296,61.3146,118.6122],[27.2306,61.319,103.7028],[27.2213,61.3195,96.2318],[27.2192,61.3106,130.9147],[27.2285,61.3101,119.4078],[27.2275,61.3056,118.2872],[27.274,61.3032,98.0738],[27.273,61.2987,92.5892],[27.2916,61.2977,87.2708],[27.2905,61.2933,87.3683],[27.2998,61.2928,104.7122],[27.2977,61.2838,87.3398],[27.307,61.2834,92.5099],[27.3039,61.27,96.2942],[27.3132,61.2695,99.2317],[27.3122,61.265,101.1519],[27.3214,61.2645,91.1857],[27.3204,61.26,99.5349],[27.3297,61.2595,83.4825],[27.3286,61.2551,86.9314],[27.3379,61.2546,83.6296],[27.3369,61.2501,85.9168],[27.3462,61.2496,83.5784],[27.3441,61.2407,86.5274],[27.3255,61.2417,89.254],[27.3214,61.2239,83.0055],[27.3306,61.2234,86.388],[27.3296,61.2189,82.2344],[27.3389,61.2184,89.2556],[27.3378,61.2139,80.8372],[27.3564,61.2129,89.3245],[27.3553,61.2085,93.1684],[27.3739,61.2075,84.7816],[27.376,61.2164,78.6029],[27.3852,61.2159,85.3412],[27.3831,61.207,79.0398],[27.3924,61.2065,96.2859],[27.3914,61.202,78.5691],[27.3821,61.2025,87.3909],[27.3811,61.198,80.3751],[27.3718,61.1986,79.4871],[27.3707,61.1941,79.6389],[27.3615,61.1946,79.9735],[27.3583,61.1812,82.4946],[27.3676,61.1807,84.3504],[27.3666,61.1762,87.1759],[27.3573,61.1767,99.9747],[27.3562,61.1723,104.5723],[27.3377,61.1733,100.7406],[27.3367,61.1688,96.0909],[27.3089,61.1703,95.3676],[27.3099,61.1748,106.0309],[27.2914,61.1758,126.6516],[27.2904,61.1713,102.2314],[27.2811,61.1718,110.0637],[27.2801,61.1673,97.0],[27.2708,61.1678,97.0],[27.2698,61.1634,119.5463],[27.2142,61.1663,127.5687],[27.2102,61.1485,122.7089],[27.2194,61.148,126.8418],[27.2163,61.1346,127.5339],[27.2071,61.1351,123.5212],[27.2061,61.1306,117.4035],[27.1968,61.1311,107.1742],[27.1948,61.1222,106.7762],[27.1855,61.1227,110.0646],[27.1815,61.1048,102.6224],[27.1999,61.1039,97.0],[27.201,61.1083,97.0],[27.2102,61.1078,116.1751],[27.2092,61.1034,97.0],[27.2184,61.1029,114.7097],[27.2174,61.0984,125.7572],[27.2267,61.0979,107.2663],[27.2256,61.0934,118.3219],[27.2349,61.093,110.2903],[27.2338,61.0885,97.5],[27.2061,61.09,122.1359],[27.2051,61.0855,108.88],[27.1866,61.0865,110.4025],[27.1856,61.082,111.9662],[27.1764,61.0825,114.4776],[27.1754,61.078,117.7672],[27.1661,61.0785,120.5005],[27.1641,61.0696,96.7488],[27.1549,61.0701,92.0926],[27.1488,61.0433,122.4843],[27.158,61.0428,126.3496],[27.155,61.0294,112.3885],[27.1642,61.029,121.6967],[27.1632,61.0245,107.3378],[27.154,61.025,120.0527],[27.152,61.0161,95.6687],[27.1428,61.0165,89.3444],[27.1418,61.0121,83.0],[27.151,61.0116,100.1318],[27.15,61.0071,83.0],[27.1592,61.0066,83.0],[27.1582,61.0022,113.237],[27.1858,61.0007,117.6338],[27.1868,61.0052,106.251],[27.2053,61.0042,86.081],[27.2032,60.9953,114.2809],[27.2124,60.9948,77.3052],[27.2114,60.9903,74.7575],[27.2207,60.9898,72.8274],[27.2176,60.9765,85.6417],[27.2268,60.976,91.343],[27.2258,60.9715,82.0007],[27.2534,60.97,102.802],[27.2524,60.9656,73.0],[27.2432,60.966,80.0814],[27.2422,60.9616,82.4206],[27.233,60.9621,64.5],[27.2319,60.9576,79.973],[27.2135,60.9586,91.5112],[27.2125,60.9541,83.7281],[27.1941,60.9551,71.181],[27.1931,60.9506,82.0089],[27.1747,60.9516,63.0],[27.1757,60.9561,81.7327],[27.1573,60.9571,80.9373],[27.1583,60.9615,83.1985],[27.1399,60.9625,67.7291],[27.1409,60.967,80.6205],[27.1317,60.9674,86.7944],[27.1287,60.9541,73.0],[27.1379,60.9536,84.8486],[27.1369,60.9491,88.5163],[27.1461,60.9486,86.7555],[27.1451,60.9442,87.7712],[27.1543,60.9437,93.4389],[27.1533,60.9392,83.7486],[27.1625,60.9387,108.5691],[27.1615,60.9343,83.2798],[27.1707,60.9338,85.8676],[27.1697,60.9293,76.0],[27.1789,60.9288,79.6988],[27.1779,60.9244,78.2058],[27.1871,60.9239,79.7607],[27.186,60.9194,78.0062],[27.1952,60.9189,86.2527],[27.1942,60.9145,82.7477],[27.2034,60.914,74.8869],[27.2024,60.9095,96.1918],[27.2116,60.909,116.0813],[27.2106,60.9046,116.4493],[27.2381,60.9031,85.4236],[27.2371,60.8986,77.8474],[27.3106,60.8947,100.2773],[27.3095,60.8902,69.0063],[27.3463,60.8882,97.5932],[27.3452,60.8838,100.7456],[27.3728,60.8823,89.6952],[27.3717,60.8778,109.9022],[27.3809,60.8773,95.4298],[27.3799,60.8728,110.325],[27.389,60.8723,118.3795],[27.387,60.8634,92.5022],[27.3961,60.8629,92.5922],[27.3951,60.8585,88.4386],[27.4043,60.858,79.682],[27.403199999999998,60.8535,92.1586],[27.4124,60.853,84.5158],[27.4114,60.8485,79.3806],[27.4205,60.848,82.0241],[27.4195,60.8436,68.6943],[27.4287,60.8431,75.3055],[27.4276,60.8386,73.3178],[27.4368,60.8381,82.9901],[27.4357,60.8336,84.994],[27.4449,60.8331,89.665],[27.4439,60.8287,79.9433],[27.453,60.8282,85.4342],[27.4509,60.8192,79.1717],[27.4693,60.8182,63.7108],[27.4682,60.8138,83.2722],[27.4774,60.8132,64.1312],[27.4763,60.8088,82.2833],[27.4946,60.8078,80.6658],[27.4936,60.8033,90.2898],[27.5027,60.8028,75.1301],[27.5017,60.7984,62.7174],[27.5474,60.7958,67.3452],[27.5485,60.8002,82.4117],[27.5759,60.7987,69.7132],[27.577,60.8032,70.5239],[27.5953,60.8021,67.171],[27.5964,60.8066,69.2343],[27.6879,60.8014,73.3659],[27.6868,60.797,66.0068],[27.7142,60.7954,57.456],[27.711,60.782,63.6285],[27.7202,60.7815,70.9243],[27.718,60.7726,73.4351],[27.7271,60.772,79.2685],[27.725,60.7631,58.726],[27.7433,60.7621,65.2476],[27.7422,60.7576,55.5],[27.7696,60.756,62.856],[27.7707,60.7605,72.3514],[27.7798,60.76,66.7554],[27.7809,60.7644,66.3718],[27.79,60.7639,61.5684],[27.7911,60.7683,49.4017],[27.8551,60.7646,44.8564],[27.8529,60.7557,36.7794],[27.862,60.7552,58.6021],[27.8576,60.7374,30.0],[27.8667,60.7368,59.6995],[27.8657,60.7324,49.7509],[27.8748,60.7318,69.1955],[27.8726,60.7229,46.2575],[27.8817,60.7224,54.6916],[27.8795,60.7135,59.3321],[27.8886,60.7129,52.9099],[27.8875,60.7085,37.5],[27.8967,60.708,58.1395],[27.8945,60.699,50.2271],[27.9036,60.6985,29.7841],[27.9025,60.694,29.0],[27.9298,60.6924,37.8504],[27.9287,60.688,29.0],[27.9561,60.6864,20.5],[27.9539,60.6775,25.2408],[27.963,60.6769,20.5],[27.9618,60.6725,20.5],[27.9527,60.673,27.3719],[27.9516,60.6685,29.7657],[27.9881,60.6664,28.3028]]]]}
,"properties": {"GID_2": "FIN.4.4_1","GID_0": "FIN","country": "Finland","GID_1": "FIN.4_1","province": "SouthernFinland","NL_NAME_1": "NA","county": "SouthKarelia","VARNAME_2": "Etelä-Karjala|SödraKarelen","NL_NAME_2": "NA","TYPE_2": "Maakunta|landskap","ENGTYPE_2": "Region","CC_2": "NA","HASC_2": "NA","name": "South_Karelia.county","area_km2": 7197.262,"hist_schema_id": "Elevation0-9000","hist_area_km2": {"0": 0.082,"25": 52.721,"50": 646.343,"75": 3122.096,"100": 2543.092,"125": 791.11,"150": 41.24,"175": 0.496}}}