{"type":"Feature","properties":{"featurecla":"Lake","scalerank":5,"name":"null338","name_abb":null,"name_alt":null,"note":"_untitled_23","delta":null,"dam_name":null,"year":-99,"admin":null,"min_zoom":4.7,"min_label":6.0},
"geometry":{"type": "Polygon","coordinates": [[[23.223420275739159,61.445387311409604,82.8319],[23.240787759239936,61.451274593952235,123.2669],[23.326447720235251,61.451274593952235,141.4751],[23.342049018973228,61.453923871096436,91.7956],[23.372662888194924,61.452746414587892,97.1118],[23.387969822805758,61.458044968876266,62.7788],[23.387969822805758,61.464815343800296,62.504],[23.168962912219797,61.464815343800296,111.267],[23.158071439515936,61.460399881893323,89.6058],[23.153067249354677,61.45098022982512,90.4161],[23.146591238557789,61.441266213629774,86.417],[23.13157866807407,61.4368507517228,71.5815],[23.116271733463236,61.43508456696,56.5],[23.080653674080281,61.423898730129,106.3654],[23.060048185181074,61.423015637747596,83.2884],[23.053277810257043,61.429491648544484,56.5],[23.051511625494271,61.438322572358459,56.5],[23.045918707078755,61.444209854901089,69.515],[23.024430125798148,61.439794392994116,98.8688],[23.002647180390397,61.421543817111939,74.2905],[22.956432012430724,61.365908997084063,65.7331],[22.947601088616778,61.358255529778631,56.5],[22.936120887658632,61.355017524380173,60.8419],[22.904623926055564,61.352956975490258,65.3175],[22.888139534936187,61.3497189700918,67.6747],[22.877836790486583,61.34471477993057,56.5],[22.80895558473776,61.348247149456142,80.0951],[22.7980641120339,61.345009144057713,88.5602],[22.775103710117634,61.331468394209651,68.6801],[22.738602558353307,61.322637470395705,86.8485],[22.660596064663395,61.274067389418974,48.4784],[22.626744190043269,61.245808433214336,62.0358],[22.620268179246352,61.237271873527504,61.9387],[22.617324537975037,61.230795862730616,48.7349],[22.618796358610695,61.223142395425185,43.4152],[22.626744190043269,61.21107346621281,44.5126],[22.579057201447938,61.21107346621281,49.2556],[22.62262309226341,61.202831270653121,44.5746],[22.647349678942476,61.20106508589032,44.988],[22.651470776722334,61.207541096687208,44.3787],[22.64028493989133,61.224614216060843,48.2288],[22.644111673544018,61.235505688764732,46.7263],[22.668543896095969,61.252578808138367,44.0491],[22.68620574372386,61.276422302436032,49.5846],[22.692681754520748,61.279954671961605,41.5],[22.720351982471129,61.287313775139893,51.875],[22.741251835497479,61.2984996119709,56.4483],[22.775986802499006,61.309979812929043,49.0],[22.788644459965667,61.317338916107332,52.5375],[22.804540122830787,61.323520562777105,49.5],[22.96025874608344,61.341182410405,56.5],[22.981747327364047,61.356783709142974,56.5],[23.005296457534598,61.385925757729012,56.5],[23.030906136595036,61.405059425992562,56.5],[23.059459456926817,61.38916376312747,68.5156],[23.0538665385113,61.375328649152266,110.3638],[23.062108734070989,61.369735730736778,104.4819],[23.074472027410536,61.371207551372436,72.3648],[23.085952228368654,61.386220121856127,56.5],[23.111856271556263,61.405353790119705,56.5],[23.120981559497324,61.410357980280935,73.9787],[23.15748271126165,61.415950898696451,69.8071],[23.228130101773274,61.403881969484047,126.9363],[23.264336889410458,61.402704512975504,99.1412],[23.23107374304459,61.432140925688685,73.1855],[23.223420275739159,61.445387311409604,82.8319]]]}}