{"type": "Feature","bbox": [23.750332063304853,61.018264962941544,24.780017780011434,61.738573982032761],"geometry": {"type": "Polygon","coordinates": [[[24.70436619933858,61.6499703797661,83.0],[24.682877618057972,61.655268934054476,95.4885],[24.662860857413023,61.663511129614164,106.4245],[24.676401607261084,61.670870232792453,98.5105],[24.664627042175795,61.694419362963,82.0],[24.690236721236261,61.710903754082381,114.6032],[24.730858970780446,61.717379764879269,117.0676],[24.765888301909115,61.711198118209495,99.3661],[24.780017780011434,61.732392335362988,121.9913],[24.765888301909115,61.738573982032761,108.8859],[24.740867351102906,61.736513433142818,118.1612],[24.693474726634719,61.727388145201758,114.9752],[24.626359705648696,61.7223839550405,121.1671],[24.609580950402176,61.715907944243611,137.038],[24.587503640867311,61.70501647153975,106.5687],[24.60075002658823,61.70501647153975,99.8753],[24.60075002658823,61.697657368361433,109.6009],[24.587503640867311,61.684999710894772,89.4624],[24.575434711654907,61.679701156606427,82.0],[24.560716505298331,61.679995520733542,82.0],[24.540405380526238,61.683233526132,105.4184],[24.475350908430158,61.684705346767657,161.0597],[24.457394696675124,61.690886993437431,165.9083],[24.457394696675124,61.683233526132,131.8961],[24.470052354141785,61.679112428352141,116.5],[24.483593103989818,61.677346243589369,146.5524],[24.511852060194485,61.677051879462226,96.3458],[24.511852060194485,61.670870232792453,83.0],[24.477705821447188,61.656740754690134,127.6282],[24.489480386532477,61.639961999443642,87.6152],[24.478294549701474,61.629659254994039,99.1797],[24.45533414778518,61.624066336578522,128.5629],[24.433256838250315,61.622594515942865,158.8326],[24.421187909037911,61.620239602925807,149.4199],[24.412945713478223,61.615529776891719,133.7473],[24.403820425537162,61.612880499747519,82.0],[24.37850511060384,61.618473418163035,82.0],[24.371440371552666,61.621122695307207,82.0],[24.369674186789865,61.62642124959558,82.0],[24.374678376951124,61.636135265790926,82.0],[24.356427801068946,61.647615466749073,96.3576],[24.340532138203827,61.652914021037446,118.618],[24.324636475338735,61.648204195003331,128.7602],[24.306385899456558,61.628776162612638,105.9587],[24.296671883261212,61.608465037840546,122.991],[24.3075633559651,61.60552139656923,108.356],[24.328168844864308,61.609348130221946,91.8108],[24.348185605509258,61.608759401967689,131.2419],[24.340532138203827,61.6014002987894,84.8497],[24.360254534721662,61.590803190212654,148.2174],[24.367908002027093,61.589037005449853,156.6422],[24.3458306924922,61.56283859813513,130.0784],[24.310506997236416,61.552535853685526,93.3304],[24.272239660709289,61.545471114634381,133.2898],[24.152139096839562,61.479239186029758,109.0598],[24.155671466365163,61.464815343800296,129.7539],[24.126235053651982,61.445976039663861,95.3631],[24.087378988870597,61.426842371400312,106.0223],[24.074426967276821,61.418305811713481,92.9986],[24.06677349997139,61.416245262823566,82.0],[24.057059483776044,61.418305811713481,82.0],[24.05087783710627,61.423310001874739,82.0],[24.04675673932644,61.42831419203597,82.0],[24.042635641546582,61.430669105053028,82.0],[24.004368305019483,61.436556387595658,102.4486],[23.98405718024739,61.435378931087143,86.8533],[23.970810794526471,61.423898730129,111.9898],[23.971988251034986,61.411241072662335,103.3888],[23.980230446594675,61.395345409797216,122.9075],[23.990533191044278,61.381215931694896,127.5557],[23.998186658349709,61.375623013279409,114.2924],[24.027623071062862,61.368558274228235,122.7223],[24.047934195834955,61.350013334218943,92.2754],[24.055293299013243,61.32381492690422,119.04],[24.046462375199297,61.293495421809666,82.0],[24.027034342808605,61.274656117673231,90.806],[24.012904864706286,61.264059009096485,80.0],[24.001719027875282,61.2593491830624,95.774],[23.994065560569851,61.257288634172482,95.357],[23.978758625959017,61.247868982104251,78.5],[23.970810794526471,61.245808433214336,78.5],[23.960802414203982,61.246691525595736,78.5],[23.952854582771437,61.248163346231394,78.5],[23.945789843720263,61.248457710358508,86.9735],[23.936664555779203,61.245808433214336,89.0299],[23.950794033881522,61.2157832922469,82.9308],[23.961979870712526,61.203419998907378,78.5],[23.977581169450502,61.197238352237605,82.7599],[23.95815313705981,61.191351069694974,78.5],[23.935781463397802,61.19694398811049,78.5],[23.914881610371452,61.206069276051551,84.6241],[23.898691583379218,61.21107346621281,78.5],[23.847472225258286,61.21107346621281,82.1082],[23.833342747155967,61.213134015102725,79.3412],[23.826866736359079,61.218138205263955,79.5923],[23.823628730960621,61.224908580187986,83.8253],[23.798019051900184,61.259054818935255,79.28],[23.775353014111033,61.311745997691816,79.5914],[23.757691166483141,61.341182410405,96.6991],[23.750332063304853,61.314984003090274,86.2759],[23.757396802356,61.282603949105805,88.1491],[23.778885383636606,61.224614216060843,82.9359],[23.764461541407172,61.2184325693911,92.1096],[23.791543041103267,61.203125634780235,89.9341],[23.988767006281506,61.168096303651566,120.5526],[24.00495703327374,61.159559743964763,94.7947],[24.00907813105357,61.154849917930648,88.2348],[24.032627261224121,61.161325928727535,82.188],[24.046168011072183,61.159559743964763,93.4186],[24.081197342200852,61.1460189941167,116.5763],[24.090616994269055,61.139542983319814,116.5395],[24.102980287608574,61.134538793158555,143.7894],[24.133005428576013,61.132772608395783,130.1828],[24.145663086042674,61.125707869344609,102.8325],[24.161853113034908,61.111284027115175,111.2199],[24.223375215605444,61.075960331859363,101.5703],[24.252222900064339,61.06565758740976,83.7073],[24.272239660709289,61.067718136299675,80.4201],[24.273122753090689,61.073899782969448,80.4404],[24.270179111819374,61.098037641394228,88.1085],[24.272239660709289,61.108634749970975,82.4418],[24.281070584523235,61.11658258140352,104.0967],[24.294611334371297,61.122764228073294,89.0229],[24.307268991837958,61.122764228073294,84.9941],[24.323459018830192,61.094210907741513,81.3484],[24.370851643298408,61.070367413443847,82.7017],[24.381448751875155,61.057121027722928,90.1676],[24.392634588706159,61.03386626167952,92.46],[24.419127360147996,61.022091696594259,84.9699],[24.45121305000535,61.018264962941544,116.7085],[24.477705821447188,61.0197367835772,120.727],[24.46710871287047,61.032688805171006,94.2352],[24.44944686524255,61.039164815967894,96.9181],[24.416183718876681,61.046523919146182,78.5],[24.386452942036385,61.071250505825248,88.8256],[24.374384012823981,61.08567434805471,86.2704],[24.358782714086004,61.096271456631456,86.5152],[24.341415230585227,61.104808016318259,85.6793],[24.330523757881366,61.108634749970975,78.5],[24.326402660101508,61.11334457600509,87.126],[24.318160464541819,61.135421885539955,78.5],[24.312567546126331,61.142780988718243,78.5],[24.324636475338735,61.153966825549247,88.0824],[24.344653235983685,61.146313358243816,91.5654],[24.36761363789995,61.133655700777155,87.4755],[24.3885134909263,61.128945874743067,78.5],[24.36761363789995,61.162797749363193,78.5],[24.352306703289116,61.17339485793994,78.5],[24.315216823270504,61.180459596991113,83.3421],[24.289607144210066,61.19429471096629,78.5],[24.261936916259685,61.199593265254663,87.6629],[24.242803247996136,61.209012917322866,100.9327],[24.231323047037989,61.21107346621281,103.7196],[24.245158161013165,61.183697602389543,78.5],[24.2248470362411,61.177810319846913,78.5],[24.207773916867467,61.181048325245371,87.9301],[24.19128952574809,61.187524336042259,97.5701],[24.173038949865912,61.191056705567831,102.3562],[24.164502390179109,61.187229971915144,94.2593],[24.15037291207679,61.168979396032967,78.5],[24.142719444771359,61.163092113490336,78.5],[24.135654705720185,61.163386477617479,78.5],[24.077959336802394,61.177810319846913,78.5],[24.017025962486144,61.207246732560094,78.5],[23.991121919298536,61.224614216060843,78.5],[24.000541571366767,61.239332422417448,78.5],[24.013493592960543,61.250223895121309,81.3384],[24.028800527571406,61.25699427004534,102.2439],[24.102391559354317,61.261704096079455,122.5886],[24.107984477769833,61.2593491830624,126.582],[24.128884330796183,61.259643547189512,106.2657],[24.1412476241357,61.265236465605028,82.0],[24.179809324789943,61.304092530386413,82.0],[24.187757156222517,61.307919264039128,82.0],[24.193055710510862,61.30379816625927,82.0],[24.198059900672121,61.297322155462382,137.4702],[24.203947183214751,61.293495421809666,139.9884],[24.261348188005428,61.292612329428266,82.0],[24.278421307379062,61.287313775139893,84.7818],[24.287840959447266,61.280249036088748,102.3943],[24.29578879087984,61.272301204656173,130.0087],[24.307268991837958,61.266413922113543,145.7749],[24.326991388355793,61.265530829732143,92.3806],[24.317277372160447,61.280249036088748,83.9493],[24.301381709295327,61.289374324029808,91.5437],[24.230145590529474,61.314395274836016,82.0],[24.224552672113958,61.317338916107332,82.0],[24.224258307986844,61.327347296429821,82.0],[24.2221977590969,61.332057122463908,82.0],[24.210717558138782,61.341182410405,108.3325],[24.189228976858175,61.330585301828251,97.8757],[24.139187075245786,61.317927644361589,121.2085],[24.114754852693864,61.307330535784843,101.0541],[24.101802831100059,61.315867095471674,82.0],[24.096209912684543,61.324992383412763,82.0],[24.098270461574486,61.333823307226709,82.0],[24.107984477769833,61.341182410405,82.0],[24.120936499363609,61.34147677453214,82.0],[24.137420890482986,61.338238769133682,82.0],[24.153022189220962,61.340004953896482,82.0],[24.163030569543452,61.355017524380173,82.0],[24.161853113034908,61.368852638355378,93.5077],[24.145368721915531,61.385925757729012,82.0],[24.142719444771359,61.395934138051473,82.0],[24.150078547949647,61.402704512975504,82.0],[24.19717680829072,61.416245262823566,83.0],[24.165385482560509,61.416245262823566,82.0],[24.158026379382193,61.421249452984796,82.0],[24.155671466365163,61.433907110451457,82.0],[24.162441841289194,61.442738034265432,84.0367],[24.193938802892262,61.448919680935177,82.0],[24.203947183214751,61.458044968876266,82.0],[24.20129790607055,61.4656984361817,82.0],[24.204830275596152,61.472468811105728,82.0],[24.21307247115584,61.477178637139815,82.0],[24.224552672113958,61.479239186029758,82.0],[24.233383595927904,61.493368664132078,82.0],[24.285486046430208,61.499844674928966,82.0],[24.272239660709289,61.513385424777027,82.0],[24.294316970244154,61.520155799701058,82.0],[24.364375632501492,61.513385424777027,98.5031],[24.387336034417785,61.514857245412685,82.0],[24.408824615698393,61.5195670714468,82.0],[24.41441753411388,61.522805076845231,82.0],[24.417361175385196,61.530458544150662,82.0],[24.422659729673569,61.53369654954912,82.0],[24.444442675081319,61.53781764732895,82.0],[24.471524174777443,61.53781764732895,82.0],[24.49713385383788,61.533402185421977,84.0029],[24.532457549093692,61.515445973666942,100.3388],[24.580144537689023,61.516329066048343,82.0],[24.60075002658823,61.513385424777027,91.6779],[24.57661216816345,61.536051462566149,95.4017],[24.422659729673569,61.582266630525822,82.0],[24.4694636258875,61.615824141018834,86.3974],[24.484476196371219,61.622594515942865,85.7068],[24.497428217965023,61.62141705943435,89.8491],[24.510380239558827,61.616707233400234,88.2207],[24.523332261152603,61.614057956256062,92.7447],[24.536284282746408,61.619062146417292,97.8226],[24.540994108780495,61.624066336578522,121.411],[24.548058847831669,61.636135265790926,82.0],[24.5530630379929,61.6423169124607,82.0],[24.560127777044073,61.655857662308762,82.0],[24.566015059586704,61.661156216597107,82.0],[24.577200896417708,61.663511129614164,82.0],[24.608697858020804,61.665571678504108,82.0],[24.621944243741723,61.663511129614164,89.1157],[24.662860857413023,61.645849281986273,111.873],[24.684938166947887,61.641139455952157,100.5068],[24.70436619933858,61.6499703797661,83.0]]]}
,"properties": {"featurecla": "Lake","scalerank": 5,"name": "null337","name_abb": null,"name_alt": null,"note": "_untitled_24","delta": null,"dam_name": null,"year": -99,"admin": null,"min_zoom": 4.7,"min_label": 6.0,"area_km2": 592.2879,"hist_schema_id": "Elevation0-9000","hist_area_km2": {"75": 386.0146,"100": 162.1563,"125": 36.326,"150": 6.9324,"175": 0.8586}}}