{"type":"Feature","properties":{"id":79760.0,"name":null,"lge_id":null,"pfafstette":64411.0,"lke_type":"N","altitude":0,"objectid":42744,"scalerank":11,"featurecla":"Lake","note":"_untitled_42744","funkyname":0,"min_zoom":6.7,"min_label":7.7},
"geometry":{"type": "Polygon","coordinates": [[[24.428721550396233,61.403204657025327,107.8007],[24.428721550396233,61.403204657025327,107.8007],[24.418467644146233,61.397711492962827,91.147],[24.411875847271233,61.394049383587827,82.0],[24.401866081646233,61.390387274212827,97.3191],[24.376475456646233,61.389227606244077,97.8854],[24.356211784771233,61.403204657025327,82.0],[24.344981316021233,61.418097235150327,113.9596],[24.324839714458733,61.415961004681577,92.6863],[24.310313347271233,61.409247137494077,99.6968],[24.302744987896233,61.403448797650327,114.3379],[24.296641472271233,61.400458074994077,94.0154],[24.284678581646233,61.384649969525327,82.0],[24.285655144146233,61.366095282025327,82.0],[24.289317253521233,61.359381414837827,82.0],[24.304698112896233,61.353338934369077,82.0],[24.323008659771233,61.356085516400327,82.0],[24.351817253521233,61.356695867962827,82.0],[24.393565300396233,61.357611395306577,82.0],[24.410166862896233,61.365240789837827,89.2308],[24.405039909771233,61.370672918744077,93.579],[24.397227409771233,61.376105047650327,82.0],[24.419932487896233,61.380377508587827,82.0],[24.451304558208733,61.375860907025327,82.0],[24.486582878521233,61.367315985150327,82.0],[24.513926628521233,61.370611883587827,113.8921],[24.502085808208733,61.380072332806577,126.9103],[24.490000847271233,61.386786199994077,118.6993],[24.480235222271233,61.390448309369077,95.3472],[24.455577019146233,61.397101141400327,125.3398],[24.428721550396233,61.403204657025327,107.8007]]]}}