{"type":"Feature","properties":{"featurecla":"River","scalerank":8,"rivernum":960,"dissolve":"960River","name":"Oulu","name_alt":null,"note":null,"min_zoom":7.0,"strokeweig":0.25,"name_en":"Oulu","min_label":8.0},
"geometry":{"type": "LineString","coordinates": [[26.801025390625,64.56207916874412,132.1828],[26.7744140625,64.57648346561912,118.0775],[26.744384765625,64.574823309369123,119.5926],[26.71142578125,64.568622137494117,114.3477],[26.683691406250006,64.56952545780662,118.375],[26.67578125,64.574090887494123,114.2196],[26.660400390625,64.59345123905662,92.7325],[26.648193359375,64.59845612186912,105.8235],[26.631103515625,64.60162994999412,107.2358],[26.615820312500006,64.60748932499412,100.4436],[26.609277343750023,64.62042877811912,105.6816],[26.605566406250006,64.63080475468162,104.3745],[26.596582031250023,64.63556549686912,104.8313],[26.585205078125,64.638690496869117,103.7409],[26.574462890625,64.64398834843162,86.0],[26.567285156250023,64.653338934369117,98.8653],[26.559326171875,64.67609284061912,86.0],[26.553955078125,64.68561432499412,92.9131],[26.534912109375,64.69879791874412,103.1036],[26.488037109375,64.71564362186912,96.512],[26.41748046875,64.763446356244117,81.2348],[26.29052734375,64.777606512494117,77.0916],[26.231835937500023,64.79486725468162,82.7281],[26.193359375,64.82208893436912,76.7022],[26.172753906250023,64.831903387494123,81.4966],[26.14306640625,64.835809637494123,83.6841],[26.005859375,64.829608465619117,38.7134],[26.014550781250023,64.814227606244117,12.0],[26.019628906250006,64.80914948124412,21.8108],[25.9990234375,64.80219147343162,38.11],[25.975,64.80267975468162,36.1613],[25.95078125,64.808124090619117,33.9596],[25.93017578125,64.815936590619117,40.2222],[25.903564453125,64.835809637494123,41.8071],[25.893457031250023,64.840692449994123,48.4172],[25.863183593750023,64.850116278119117,46.2543],[25.830322265625,64.864862371869123,38.7446],[25.745214843750006,64.918329168744123,37.6871],[25.467480468750011,65.01093170780662,11.0215],[25.423095703125,65.01459381718162,10.1025]]}}