{"type":"Feature","properties":{"GID_3":"FIN.5.6.5_1","GID_0":"FIN","country":"Finland","GID_1":"FIN.5_1","province":"WesternFinland","NL_NAME_1":"NA","GID_2":"FIN.5.6_1","county":"Pirkanmaa","NL_NAME_2":"NA","city":"SouthernPirkanmaa","VARNAME_3":"NA","NL_NAME_3":"NA","TYPE_3":"Seutukunta|Ekonomiskregion","ENGTYPE_3":"Sub-Region","CC_3":"NA","HASC_3":"NA","name":"Southern_Pirkanmaa.city"},
"geometry":{"type": "MultiPolygon","coordinates": [[[[23.2654,61.0298,96.818],[23.2645,61.0209,90.9933],[23.283,61.0204,106.79],[23.2825,61.0159,114.5251],[23.3196,61.015,108.1681],[23.3191,61.0106,116.1884],[23.3561,61.0096,148.1293],[23.3566,61.0141,130.7493],[23.3659,61.0139,132.1284],[23.3654,61.0094,136.134],[23.3746,61.0092,139.5483],[23.3741,61.0047,129.7181],[23.3834,61.0045,129.8029],[23.3825,60.9955,131.9784],[23.3917,60.9953,129.8768],[23.3903,60.9818,138.0875],[23.3995,60.9816,151.1542],[23.399,60.9771,137.3137],[23.4083,60.9769,137.266],[23.4073,60.9679,103.8665],[23.4628,60.9665,105.4479],[23.4623,60.962,122.8198],[23.4715,60.9618,105.5414],[23.4725,60.9708,125.4248],[23.4633,60.971,115.2011],[23.4642,60.9799,131.9162],[23.455,60.9802,115.7132],[23.4555,60.9847,117.7932],[23.474,60.9842,152.1607],[23.4745,60.9887,108.0],[23.493,60.9882,139.1305],[23.4935,60.9927,112.5658],[23.512,60.9922,134.5297],[23.5124,60.9967,116.8207],[23.5217,60.9965,142.7681],[23.5212,60.992,142.3136],[23.5305,60.9917,142.8102],[23.53,60.9873,136.9334],[23.5392,60.987,130.0239],[23.5402,60.996,139.87],[23.568,60.9953,140.8959],[23.5772,60.995,146.0793],[23.5762,60.986,128.6314],[23.6039,60.9853,157.8712],[23.605,60.9943,131.9865],[23.6142,60.994,131.4184],[23.6152,61.003,128.8121],[23.6892,61.001,117.6257],[23.6898,61.0055,109.5905],[23.736,61.0042,106.5],[23.7344,60.9908,133.6332],[23.7437,60.9905,146.9499],[23.7442,60.995,109.1299],[23.7627,60.9945,109.6825],[23.7632,60.999,116.9269],[23.7725,60.9987,112.1256],[23.772,60.9943,111.8183],[23.7904,60.9937,113.3257],[23.7899,60.9893,143.5885],[23.7992,60.989,135.8183],[23.7986,60.9845,149.2463],[23.8079,60.9842,140.2184],[23.8068,60.9753,154.5688],[23.816,60.975,137.329],[23.815,60.9661,133.0959],[23.8242,60.9658,131.5813],[23.8231,60.9568,135.0892],[23.8324,60.9566,143.966],[23.8313,60.9476,145.9277],[23.8405,60.9473,142.0795],[23.84,60.9429,136.562],[23.8492,60.9426,137.3409],[23.8498,60.9471,139.7019],[23.859,60.9468,140.0482],[23.8595,60.9513,127.0],[23.8688,60.951,140.1075],[23.8693,60.9555,139.5208],[23.8601,60.9558,142.2939],[23.8622,60.9737,155.2042],[23.853,60.974,143.0858],[23.8541,60.983,156.9672],[23.8448,60.9832,136.1713],[23.8454,60.9877,143.4166],[23.8361,60.9879,144.8824],[23.8367,60.9924,120.834],[23.8274,60.9927,113.9001],[23.828,60.9972,129.9955],[23.8187,60.9974,128.7098],[23.8193,61.0019,116.1304],[23.8285,61.0017,109.0],[23.8291,61.0061,109.0],[23.8476,61.0056,128.3182],[23.8481,61.0101,114.4573],[23.8574,61.0098,115.716],[23.8579,61.0143,112.8611],[23.8672,61.0141,116.8169],[23.8677,61.0186,123.6085],[23.877,61.0183,109.2437],[23.878,61.0272,127.2853],[23.8688,61.0275,109.1002],[23.8699,61.0365,108.0],[23.8514,61.037,150.8175],[23.8508,61.0325,132.619],[23.8323,61.0331,157.7409],[23.8318,61.0285,150.4748],[23.8133,61.0291,142.9034],[23.8127,61.0246,130.4732],[23.7942,61.0251,135.0045],[23.7958,61.0386,162.517],[23.8051,61.0383,160.8309],[23.8067,61.0518,130.5674],[23.7789,61.0525,124.5],[23.7794,61.057,136.7349],[23.7609,61.0575,124.5],[23.7614,61.062,135.7029],[23.7707,61.0617,145.6271],[23.7712,61.0662,142.9076],[23.7805,61.066,140.4026],[23.781,61.0705,155.081],[23.7903,61.0702,123.0154],[23.7908,61.0747,126.8055],[23.8001,61.0744,125.8043],[23.8006,61.0789,143.4872],[23.8192,61.0784,144.4557],[23.8197,61.0829,140.5347],[23.829,61.0826,132.5],[23.8284,61.0781,143.1438],[23.847,61.0776,140.412],[23.8464,61.0731,137.2908],[23.8557,61.0729,118.8859],[23.8563,61.0774,143.4674],[23.8748,61.0768,127.127],[23.8754,61.0813,121.3332],[23.8939,61.0808,119.1806],[23.8945,61.0853,119.668],[23.913,61.0847,100.8797],[23.9136,61.0892,106.9714],[23.9228,61.089,91.9906],[23.9234,61.0934,88.3595],[23.9327,61.0932,90.4313],[23.9332,61.0976,88.5287],[23.9518,61.0971,105.902],[23.9523,61.1016,107.377],[23.9616,61.1013,110.1658],[23.9622,61.1058,104.8068],[23.9807,61.1053,102.8879],[23.9813,61.1098,124.5263],[23.9999,61.1092,119.3904],[24.0004,61.1137,114.5358],[24.0097,61.1134,107.8559],[24.0103,61.1179,115.2297],[24.0288,61.1174,87.7844],[24.0294,61.1218,82.6371],[24.0665,61.1207,94.4532],[24.0671,61.1252,115.8197],[24.095,61.1244,119.7359],[24.0955,61.1289,109.4084],[24.1327,61.1278,119.2882],[24.1321,61.1233,113.2248],[24.1414,61.123,110.0711],[24.1426,61.132,98.1546],[24.1333,61.1322,130.1828],[24.1344,61.1412,78.5],[24.153,61.1406,78.5],[24.1536,61.1451,78.5],[24.1908,61.144,78.5],[24.1914,61.1485,78.5],[24.2192,61.1476,78.5],[24.2198,61.1521,78.5],[24.2384,61.1515,78.5],[24.239,61.156,78.5],[24.2483,61.1557,78.5],[24.2489,61.1602,78.5],[24.2582,61.1599,78.5],[24.2594,61.1689,78.5],[24.2687,61.1686,78.5],[24.2699,61.1775,78.5],[24.2792,61.1772,78.5],[24.2798,61.1817,93.5822],[24.2891,61.181399999999996,78.5],[24.2903,61.1904,78.5],[24.2996,61.1901,78.5],[24.3002,61.1946,78.5],[24.2909,61.1949,78.5],[24.2915,61.1994,78.5],[24.2822,61.1996,78.5],[24.2829,61.2041,78.5],[24.2736,61.2044,78.5],[24.2742,61.2089,85.052],[24.2648,61.2092,78.5],[24.2679,61.2316,86.6919],[24.2772,61.2313,89.3665],[24.279,61.2448,97.2967],[24.2604,61.2453,99.9522],[24.261,61.2498,96.4545],[24.2424,61.2504,129.3189],[24.243,61.2549,139.244],[24.2337,61.2552,109.0709],[24.2342,61.2596,97.94],[24.1783,61.2614,91.8885],[24.1789,61.2658,82.0],[24.1602,61.2664,82.0],[24.1608,61.2709,82.0],[24.1422,61.2715,82.0],[24.1428,61.2759,82.0],[24.1335,61.2762,82.0],[24.134,61.2807,82.0],[24.1247,61.281,82.0],[24.1253,61.2855,82.0],[24.1066,61.286,82.0],[24.1072,61.2905,82.0],[24.0886,61.2911,82.0],[24.0915,61.3135,82.0],[24.1008,61.3132,82.0],[24.102,61.3222,82.0],[24.0926,61.3224,82.0],[24.0932,61.3269,84.5925],[24.0839,61.3272,82.0],[24.0845,61.3317,82.0],[24.0751,61.332,92.3212],[24.0757,61.3364,95.9381],[24.0664,61.3367,97.6576],[24.0669,61.3412,83.5],[24.0576,61.3415,89.3756],[24.0564,61.3325,117.9443],[24.0471,61.3328,120.6405],[24.0459,61.3238,110.6196],[24.0366,61.3241,146.5367],[24.036,61.3196,132.588],[24.0267,61.3199,113.8416],[24.0278,61.3289,132.1372],[24.0185,61.3291,113.025],[24.0191,61.3336,134.2952],[24.0097,61.3339,120.3594],[24.0103,61.3384,129.2567],[24.0009,61.3386,119.1756],[24.0004,61.3342,117.1195],[23.991,61.3344,128.1047],[23.9904,61.33,129.9815],[23.9811,61.3302,126.0346],[23.98,61.3213,117.0629],[23.9706,61.3215,108.5112],[23.9701,61.3171,105.5545],[23.9607,61.3173,130.3348],[23.9596,61.3083,110.2374],[23.9502,61.3086,111.8828],[23.9497,61.3041,109.874],[23.9403,61.3044,108.2082],[23.9398,61.2999,97.3096],[23.9304,61.3002,118.349],[23.9293,61.2912,99.4295],[23.92,61.2915,98.2257],[23.9194,61.287,110.3391],[23.9101,61.2873,98.9812],[23.909,61.2783,102.1922],[23.8996,61.2786,102.5919],[23.8985,61.2696,102.5169],[23.8892,61.2699,120.2661],[23.8887,61.2654,104.4123],[23.8793,61.2657,104.0192],[23.8788,61.2612,115.6068],[23.8694,61.2614,95.2896],[23.8683,61.2525,97.713],[23.859,61.2527,96.1809],[23.8585,61.2482,98.5416],[23.8492,61.2485,106.5645],[23.8486,61.244,103.4612],[23.8393,61.2443,97.8979],[23.8387,61.2398,99.4485],[23.8294,61.2401,89.1489],[23.8289,61.2356,83.6985],[23.8196,61.2358,79.807],[23.819,61.2314,79.5532],[23.7911,61.2321,84.4894],[23.7916,61.2366,85.1324],[23.7636,61.2374,87.2835],[23.7642,61.2419,88.07],[23.7549,61.2421,100.3502],[23.7559,61.2511,103.3237],[23.7466,61.2514,103.1735],[23.7471,61.2558,101.5088],[23.7285,61.2564,79.7954],[23.7279,61.2519,93.9219],[23.7186,61.2521,78.9833],[23.7181,61.2476,76.5],[23.7088,61.2479,76.5],[23.7083,61.2434,76.5],[23.6989,61.2437,96.394],[23.6984,61.2392,109.7444],[23.6891,61.2394,110.3438],[23.6886,61.2349,109.8032],[23.6792,61.2352,110.30029999999999],[23.6787,61.2307,107.7933],[23.6694,61.231,107.813],[23.6689,61.2265,118.2557],[23.6782,61.2262,116.065],[23.6777,61.2217,112.7751],[23.687,61.2215,107.1876],[23.6859,61.2125,129.9529],[23.6766,61.2128,132.497],[23.6761,61.2083,128.9521],[23.6482,61.209,145.5119],[23.6476,61.2046,137.2236],[23.6104,61.2055,135.7272],[23.6099,61.201,139.8928],[23.582,61.2018,139.3509],[23.5814,61.1973,139.2976],[23.5721,61.1975,128.7921],[23.5726,61.202,139.8971],[23.5075,61.2037,108.9415],[23.4702,61.2047,132.1346],[23.4697,61.2002,126.7574],[23.4232,61.2014,122.6362],[23.4237,61.2058,125.0588],[23.3957,61.2065,132.7669],[23.3977,61.2245,124.6317],[23.3883,61.2247,126.4023],[23.3893,61.2337,134.6761],[23.38,61.2339,151.5573],[23.3795,61.2294,146.6839],[23.3236,61.2308,132.9539],[23.324,61.2353,132.1247],[23.2774,61.2364,136.8747],[23.2742,61.205,110.786],[23.2649,61.2052,105.5615],[23.2621,61.1783,112.8557],[23.2807,61.1779,104.435],[23.2802,61.1734,106.7152],[23.2988,61.1729,107.8693],[23.2984,61.1684,104.6782],[23.3077,61.1682,103.8356],[23.3072,61.1637,112.7584],[23.3165,61.1635,108.9265],[23.316,61.159,116.1252],[23.3346,61.1586,114.9843],[23.3342,61.1541,113.6965],[23.3434,61.1539,123.8701],[23.343,61.1494,127.6483],[23.3523,61.1492,124.1564],[23.3518,61.1447,117.5683],[23.3611,61.1444,112.722],[23.3606,61.1399,127.1807],[23.3699,61.1397,108.9971],[23.3694,61.1352,113.6169],[23.3787,61.135,107.7085],[23.3778,61.126,124.8477],[23.3499,61.1267,114.8009],[23.3494,61.1222,112.0285],[23.3308,61.1227,113.7003],[23.3304,61.1182,101.3197],[23.3118,61.1187,96.5725],[23.3113,61.1142,120.4103],[23.2556,61.1155,90.5901],[23.2561,61.12,91.6203],[23.2468,61.1202,102.8568],[23.2463,61.1157,93.8066],[23.237,61.116,85.9657],[23.2357,61.1025,83.2978],[23.2542,61.1021,88.5202],[23.2524,61.0841,111.5803],[23.2895,61.0832,117.7276],[23.2886,61.0742,120.465],[23.2607,61.0749,108.9481],[23.2603,61.0704,109.6449],[23.2325,61.0711,98.0127],[23.232,61.0666,120.1613],[23.2505,61.0662,111.8208],[23.2501,61.0617,106.5038],[23.2686,61.0612,108.633],[23.2682,61.0568,103.1731],[23.2867,61.0563,119.4842],[23.2858,61.0474,122.5],[23.2765,61.0476,144.1749],[23.2751,61.0341,95.8078],[23.2659,61.0343,98.1517],[23.2654,61.0298,96.818]]]]}}