{"type":"Feature","properties":{"GID_3":"FIN.2.1.3_1","GID_0":"FIN","country":"Finland","GID_1":"FIN.2_1","province":"Lapland","NL_NAME_1":"NA","GID_2":"FIN.2.1_1","county":"Lapland","NL_NAME_2":"NA","city":"NorthernLapland","VARNAME_3":"NA","NL_NAME_3":"NA","TYPE_3":"Seutukunta|Ekonomiskregion","ENGTYPE_3":"Sub-Region","CC_3":"NA","HASC_3":"NA","name":"Northern_Lapland.city"},
"geometry":{"type": "MultiPolygon","coordinates": [[[[26.5248,66.9408,319.3346],[26.5271,66.9498,260.1364],[26.5385,66.9493,275.4637],[26.5397,66.9538,248.3184],[26.5511,66.9534,246.5085],[26.5535,66.9623,224.6839],[26.5649,66.9619,216.2961],[26.5661,66.9663,210.4424],[26.5775,66.9659,210.9823],[26.5787,66.9704,219.183],[26.5901,66.9699,226.5554],[26.5925,66.9789,220.7958],[26.6039,66.9784,214.4114],[26.6051,66.9829,213.5207],[26.6165,66.9824,208.4763],[26.6189,66.9914,205.4572],[26.6303,66.9909,205.9687],[26.6315,66.9954,205.1443],[26.643,66.9949,208.0967],[26.6442,66.9994,211.0234],[26.6556,66.9989,215.12],[26.658,67.0079,212.8401],[26.6694,67.0074,214.8846],[26.6706,67.0119,216.5089],[26.6821,67.0114,219.6568],[26.6845,67.0204,226.7629],[26.6959,67.0199,228.1156],[26.6971,67.0244,227.3972],[26.7086,67.0239,228.7468],[26.711,67.0329,230.8806],[26.7225,67.0324,238.817],[26.7237,67.0369,243.7622],[26.7351,67.0364,246.3346],[26.7363,67.0409,234.073],[26.7478,67.0404,224.0314],[26.7502,67.0494,219.6015],[26.7617,67.0489,223.444],[26.7629,67.0534,216.0419],[26.7743,67.0529,217.4044],[26.7768,67.0619,227.7019],[26.7883,67.0614,230.7698],[26.7895,67.0659,246.0619],[26.801,67.0654,263.8352],[26.8034,67.0743,253.7229],[26.8149,67.0739,273.1674],[26.8161,67.0784,283.4519],[26.8276,67.0779,269.0426],[26.8288,67.0823,262.4851],[26.8403,67.0819,247.8823],[26.8428,67.0908,249.8793],[26.8542,67.0903,249.9252],[26.8555,67.0948,255.927],[26.867,67.0944,258.2751],[26.8695,67.1033,257.2371],[26.8809,67.1028,262.0797],[26.8822,67.1073,258.9247],[26.8937,67.1068,260.7329],[26.8962,67.1158,250.4533],[26.9076,67.1153,256.4338],[26.9089,67.1198,272.569],[26.9204,67.1193,290.244],[26.9216,67.1237,318.6336],[26.9331,67.1233,324.7084],[26.9357,67.1322,290.716],[26.9471,67.1317,283.5372],[26.9484,67.1362,268.7362],[26.9599,67.1357,250.35059999999999],[26.9624,67.1447,236.9105],[26.9739,67.1442,247.0473],[26.9752,67.1487,257.9518],[26.9867,67.1482,234.4931],[26.9879,67.1526,220.9139],[26.9994,67.1522,206.8014],[27.002,67.1611,198.2778],[27.0135,67.1606,203.9614],[27.0161,67.1696,212.3296],[27.0275,67.1691,206.6248],[27.0327,67.187,185.6397],[27.0442,67.1865,181.6537],[27.0886,67.3385,231.042],[27.1001,67.338,265.1847],[27.1028,67.3469,318.32],[27.1143,67.3465,334.3802],[27.1157,67.3509,310.638],[27.1388,67.3499,337.0529],[27.1401,67.3544,308.3851],[27.1748,67.3529,283.2446],[27.1762,67.3574,286.432],[27.2109,67.3559,237.3847],[27.2122,67.3604,251.8703],[27.2354,67.3594,257.7727],[27.2367,67.3639,255.5753],[27.2599,67.3628,247.1362],[27.268,67.3897,314.6527],[27.2564,67.3902,327.3118],[27.2591,67.3991,207.8611],[27.2475,67.3996,219.9175],[27.2502,67.4086,206.3189],[27.2386,67.409,209.9494],[27.2399,67.4135,215.3181],[27.2283,67.414,213.2015],[27.231,67.423,268.1389],[27.2194,67.4234,238.3799],[27.2207,67.4279,285.4308],[27.2323,67.4274,284.2513],[27.235,67.4364,248.715],[27.2466,67.4359,250.4462],[27.2507,67.4493,292.5678],[27.2623,67.4488,327.4699],[27.2664,67.4622,278.1645],[27.278,67.4617,296.4894],[27.2807,67.4706,247.4153],[27.2923,67.4701,240.7813],[27.2964,67.4835,229.9448],[27.3081,67.483,227.9435],[27.3121,67.4964,227.4361],[27.3238,67.4959,228.8939],[27.3265,67.5049,226.7027],[27.3382,67.5044,225.97559999999999],[27.3423,67.5178,236.3455],[27.3539,67.5173,228.5644],[27.358,67.5307,224.6799],[27.3697,67.5302,220.2981],[27.3724,67.5391,225.1325],[27.3841,67.5386,220.312],[27.3882,67.552,206.5063],[27.3999,67.5515,199.6181],[27.4068,67.5738,199.1238],[27.4302,67.5728,218.8997],[27.4274,67.5639,197.6598],[27.4507,67.5628,208.7907],[27.4521,67.5673,225.8344],[27.4638,67.5668,232.9888],[27.4652,67.5713,231.9052],[27.4769,67.5707,221.858],[27.4783,67.5752,212.1061],[27.5016,67.5742,225.0317],[27.503,67.5786,236.039],[27.5147,67.5781,229.1716],[27.5161,67.5826,245.5644],[27.5278,67.5821,240.8456],[27.5292,67.5865,249.5699],[27.5525,67.5855,216.2667],[27.554,67.59,219.1923],[27.5656,67.5894,235.8676],[27.5671,67.5939,249.2022],[27.5787,67.5934,238.9847],[27.5801,67.5978,245.9048],[27.5918,67.5973,242.2981],[27.5933,67.6018,250.1999],[27.6166,67.6007,247.5601],[27.6181,67.6052,256.1611],[27.6297,67.6047,248.4556],[27.6312,67.6091,244.714],[27.6429,67.6086,236.54],[27.6443,67.6131,239.3919],[27.656,67.6125,248.6727],[27.6574,67.617,248.10059999999999],[27.6808,67.616,252.655],[27.6822,67.6204,253.455],[27.6939,67.6199,257.9106],[27.6954,67.6244,259.5494],[27.7071,67.6238,262.1812],[27.7085,67.6283,258.4149],[27.7202,67.6277,260.5163],[27.7217,67.6322,269.6896],[27.7451,67.6311,280.8385],[27.7465,67.6356,292.967],[27.7582,67.6351,295.4777],[27.7596,67.6395,290.8532],[27.7713,67.639,297.5576],[27.7728,67.6435,308.1745],[27.7845,67.6429,325.269],[27.786,67.6474,331.837],[27.8094,67.6463,386.9282],[27.8138,67.6597,326.243],[27.8255,67.6592,332.6436],[27.8314,67.677,280.0233],[27.8431,67.6765,290.0933],[27.8475,67.6899,294.8845],[27.8592,67.6894,298.6171],[27.8652,67.7072,331.9883],[27.8769,67.7067,318.1884],[27.8799,67.7156,315.9334],[27.8916,67.715,308.3025],[27.8946,67.724,298.0563],[27.9063,67.7234,302.4913],[27.9108,67.7368,328.9657],[27.9226,67.7363,319.5912],[27.9256,67.7452,300.3997],[27.9373,67.7447,304.0856],[27.9403,67.7536,275.2302],[27.952,67.753,271.0328],[27.9565,67.7664,248.2698],[27.9683,67.7659,247.2198],[27.9713,67.7748,266.6381],[27.9831,67.7743,270.7721],[27.9861,67.7832,279.745],[27.9979,67.7826,321.2642],[28.0024,67.796,289.5354],[28.0142,67.7955,320.303],[28.0172,67.8044,293.0622],[28.029,67.8038,308.4923],[28.032,67.8128,307.7561],[28.0438,67.8122,315.0075],[28.0484,67.8256,341.8151],[28.0602,67.8251,352.6688],[28.0632,67.834,400.6691],[28.075,67.8334,427.1299],[28.0781,67.8424,325.4753],[28.0899,67.8418,326.4861],[28.0945,67.8552,309.09],[28.1063,67.8546,314.6857],[28.1094,67.8635,314.3389],[28.1211,67.863,320.9879],[28.1242,67.8719,348.8082],[28.136,67.8714,322.4082],[28.1407,67.8847,334.5102],[28.1525,67.8842,352.9233],[28.1556,67.8931,293.0213],[28.1674,67.8925,287.1676],[28.1705,67.9015,270.279],[28.1823,67.9009,273.75],[28.1855,67.9098,269.2726],[28.1973,67.9093,276.2264],[28.202,67.9226,276.4898],[28.2138,67.9221,259.693],[28.2169,67.931,258.7263],[28.2288,67.9304,265.9095],[28.2319,67.9394,265.8978],[28.2437,67.9388,298.1306],[28.2484,67.9522,270.7897],[28.2603,67.9516,268.2031],[28.2634,67.9605,251.1006],[28.2753,67.9599,256.063],[28.2784,67.9689,246.6998],[28.2903,67.9683,248.264],[28.295,67.9817,256.1388],[28.3069,67.9811,256.198],[28.3101,67.99,252.7971],[28.3219,67.9895,253.0674],[28.3251,67.9984,260.4662],[28.337,67.9978,268.735],[28.3418,68.0112,282.6338],[28.3536,68.0106,289.8602],[28.3568,68.0195,264.291],[28.3687,68.019,266.0717],[28.3719,68.0279,275.7704],[28.3838,68.0273,284.6544],[28.3886,68.0407,276.6743],[28.4005,68.0401,286.7651],[28.4037,68.049,289.2622],[28.4156,68.0484,300.4933],[28.4188,68.0574,309.6184],[28.4307,68.0568,310.7888],[28.434,68.0657,287.1616],[28.4459,68.0651,297.5981],[28.4507,68.0785,268.5862],[28.4626,68.0779,282.3857],[28.4659,68.0868,269.1962],[28.4778,68.0862,276.6602],[28.481,68.0952,243.132],[28.4929,68.0946,227.1734],[28.4978,68.108,279.4276],[28.5097,68.1074,264.9608],[28.513,68.1163,292.6312],[28.5249,68.1157,286.9712],[28.5282,68.1246,227.2439],[28.5401,68.124,202.166],[28.5434,68.1329,289.6403],[28.5554,68.1323,287.1928],[28.5586,68.1413,357.3519],[28.5706,68.1407,315.3437],[28.5739,68.1496,356.1515],[28.5858,68.149,356.2672],[28.5891,68.1579,515.8611],[28.6011,68.1573,480.7993],[28.6044,68.1662,305.7663],[28.6163,68.1656,249.1322],[28.6197,68.1746,354.5215],[28.6316,68.174,415.1723],[28.6349,68.1829,470.5835],[28.6469,68.1823,468.2278],[28.6502,68.1912,543.3484],[28.6622,68.1906,558.749],[28.6636,68.1944,565.7493],[28.6598,68.1951,582.564],[28.6548,68.2035,524.1983],[28.6569,68.209,390.4205],[28.6514,68.2093,424.3972],[28.6324,68.2412,310.2108],[28.6344,68.2465,251.4751],[28.6291,68.2468,273.0037],[28.6174,68.2665,226.4855],[28.6204,68.2745,230.8883],[28.6124,68.2749,277.4365],[28.6099,68.2791,309.1776],[28.6117,68.284,322.1913],[28.6069,68.2842,361.6898],[28.6024,68.2917,330.4731],[28.6048,68.298,314.0644],[28.5985,68.2983,358.6371],[28.5648,68.355,352.9821],[28.568,68.3634,344.4056],[28.5596,68.3638,322.3828],[28.5573,68.3676,301.8989],[28.5593,68.3729,313.5863],[28.554,68.3731,319.4417],[28.5498,68.3803,234.5483],[28.5522,68.3868,291.9114],[28.5457,68.3872,316.5224],[28.512,68.4439,219.2187],[28.5152,68.4523,248.6341],[28.5068,68.4527,230.6812],[28.4969,68.4693,144.3533],[28.4993,68.4757,130.2386],[28.4929,68.4761,125.1401],[28.4893,68.4821,134.7844],[28.4922,68.4897,142.4243],[28.4846,68.4901,144.9444],[28.4666,68.5203,270.9177],[28.4691,68.5272,283.5346],[28.4623,68.5275,319.887],[28.4504,68.5477,294.0983],[28.5073,68.5844,201.9991],[28.5152,68.584,188.4334],[28.5178,68.5911,184.3401],[28.5454,68.6098,143.9983],[28.5496,68.6096,161.8198],[28.5512,68.6138,154.797],[28.5576,68.6183,147.4861],[28.5651,68.6179,141.8641],[28.568,68.6255,138.2858],[28.6096,68.6566,283.643],[28.617,68.6563,288.9932],[28.6202,68.6647,217.4156],[28.6488,68.6865,285.676],[28.6533,68.6863,296.1688],[28.6553,68.6914,256.3223],[28.6825,68.7121,219.8978],[28.6881,68.7118,212.5095],[28.6906,68.7182,225.3663],[28.7161,68.7377,332.7454],[28.7229,68.7374,309.7715],[28.7315,68.7597,196.1208],[28.7481,68.7861,194.4645],[28.7542,68.7858,201.8068],[28.7649,68.8131,197.515],[28.7811,68.8391,192.8616],[28.7875,68.8387,203.6799],[28.7987,68.8672,194.8855],[28.8035,68.8749,176.1824],[28.7655,68.8786,208.4144],[28.7664,68.8807,196.2907],[28.7187,68.8831,190.1206],[28.6759,68.8871,171.4662],[28.5816,68.8897,230.4015],[28.5808,68.8878,204.9327],[28.5591,68.8863,199.8165],[28.5429,68.887,159.8961],[28.5421,68.8851,159.9579],[28.5208,68.8836,165.9955],[28.4916,68.885,190.5443],[28.4591,68.8978,176.904],[28.46,68.9001,164.6825],[28.453,68.9004,163.7789],[28.4483,68.9025,130.1761],[28.4493,68.9052,129.5546],[28.4414,68.9055,117.5],[28.4347,68.9084,130.8773],[28.5311,68.9376,169.7611],[28.537,68.9373,144.8092],[28.5379,68.9396,148.2594],[28.5829,68.9533,174.6028],[28.5933,68.9528,169.6348],[28.5949,68.9569,164.1229],[28.8029,69.0198,169.0528],[28.8087,69.0196,176.1055],[28.8096,69.0219,172.971],[28.9061,69.0511,113.8414],[28.9097,69.0509,112.0159],[28.9103,69.0524,133.4183],[28.9248,69.0567,166.2591],[28.9257,69.0592,156.69],[28.9133,69.0598,162.1378],[28.9151,69.0643,146.6254],[28.8903,69.0655,140.0966],[28.8921,69.07,135.621],[28.8673,69.0712,155.7412],[28.8691,69.0757,153.937],[28.8566,69.0763,167.4227],[28.8584,69.0807,137.2889],[28.846,69.0814,126.6198],[28.8478,69.0858,119.5533],[28.8354,69.0864,126.3235],[28.8372,69.0909,127.8572],[28.8247,69.0915,146.6364],[28.8283,69.1004,150.3684],[28.8159,69.101,146.6269],[28.8176,69.1055,153.4847],[28.8052,69.1061,163.6586],[28.8374,69.1864,192.6662],[28.8249,69.187,199.1973],[28.8429,69.2316,218.1207],[28.8554,69.231,202.8143],[28.859,69.2399,202.3239],[28.8715,69.2393,192.8627],[28.8733,69.2437,192.4472],[28.8858,69.2431,186.0933],[28.8894,69.252,189.4898],[28.902,69.2514,191.5937],[28.9056,69.2603,188.4901],[28.9181,69.2597,189.431],[28.9217,69.2686,191.1905],[28.9343,69.268,191.5498],[28.9361,69.2725,192.4212],[28.9486,69.2719,174.6302],[28.9523,69.2808,192.3084],[28.9648,69.2802,174.2293],[28.9685,69.2891,180.7087],[28.981,69.2884,174.6638],[28.9828,69.2929,177.2514],[28.9954,69.2923,188.3085],[28.9991,69.3012,191.1909],[29.0116,69.3006,185.5],[29.0153,69.3095,198.8139],[29.0278,69.3089,204.6882],[29.0315,69.3178,224.7544],[29.0441,69.3171,235.345],[29.0459,69.3216,314.1549],[29.0585,69.321,313.7807],[29.0622,69.3299,308.7889],[29.0747,69.3292,281.9482],[29.0785,69.3382,228.5276],[29.091,69.3375,233.6244],[29.0929,69.342,224.2568],[29.1055,69.3414,216.6325],[29.1092,69.3503,213.5591],[29.1218,69.3496,209.4987],[29.1255,69.3586,228.4832],[29.1381,69.3579,233.5316],[29.1418,69.3668,232.0425],[29.1544,69.3662,217.746],[29.1563,69.3707,231.3292],[29.1688,69.37,213.5158],[29.1726,69.3789,224.9304],[29.1852,69.3783,215.8866],[29.189,69.3872,223.2208],[29.2015,69.3866,217.3045],[29.2034,69.391,223.7414],[29.216,69.3904,231.0375],[29.2217,69.4038,207.7635],[29.2343,69.4031,212.2644],[29.24,69.4165,192.57],[29.2526,69.4158,185.3853],[29.2583,69.4292,220.5463],[29.2709,69.4286,218.123],[29.2766,69.4419,212.2567],[29.2893,69.4413,223.2232],[29.295,69.4546,197.7884],[29.3076,69.454,209.3225],[29.3134,69.4674,244.7587],[29.326,69.4667,238.3904],[29.3356,69.489,228.0],[29.323,69.4896,234.5244],[29.3249,69.4941,228.8407],[29.3123,69.4947,211.5724],[29.3161,69.5037,186.0596],[29.3035,69.5043,182.5],[29.3073,69.5132,173.9655],[29.2946,69.5139,174.0849],[29.2985,69.5228,163.3689],[29.2858,69.5234,182.5089],[29.2897,69.5323,157.6838],[29.277,69.533,142.5618],[29.2808,69.5419,135.2591],[29.2682,69.5425,130.8833],[29.2701,69.547,133.8645],[29.2574,69.5476,132.786],[29.2612,69.5565,148.3069],[29.2485,69.5572,155.2892],[29.2524,69.5661,103.3002],[29.2397,69.5667,101.9022],[29.2435,69.5756,96.0511],[29.2308,69.5763,118.9541],[29.2347,69.5852,94.8418],[29.222,69.5859,94.4466],[29.2258,69.5948,71.3867],[29.2131,69.5954,91.7382],[29.2169,69.6043,76.2015],[29.2042,69.605,117.8486],[29.2061,69.6094,118.7351],[29.1934,69.6101,107.6757],[29.1972,69.619,137.9581],[29.1845,69.6196,157.4032],[29.1883,69.6285,137.5683],[29.1756,69.6292,196.991],[29.1794,69.6381,178.0378],[29.1666,69.6387,194.0954],[29.1705,69.6476,139.8999],[29.1577,69.6483,128.0236],[29.1634,69.6616,139.8308],[29.1507,69.6623,108.9222],[29.1545,69.6712,89.2497],[29.1418,69.6718,90.9311],[29.1475,69.6852,81.4991],[29.1347,69.6858,88.9879],[29.1385,69.6947,114.0808],[29.113,69.696,127.3772],[29.1149,69.7005,92.1056],[29.0766,69.7024,91.1199],[29.0784,69.7068,90.9966],[29.0401,69.7087,68.2533],[29.042,69.7132,71.0865],[28.9909,69.7157,99.7284],[28.9928,69.7202,128.2551],[28.9544,69.722,84.8049],[28.9563,69.7265,84.8606],[28.9051,69.729,129.5091],[28.9069,69.7334,133.4241],[28.8814,69.7347,128.5],[28.8832,69.7391,128.5],[28.8448,69.741,183.0922],[28.8466,69.7454,173.7705],[28.8082,69.7473,203.8195],[28.8101,69.7517,199.5085],[28.7716,69.7536,189.7757],[28.7735,69.758,190.1966],[28.735,69.7599,203.8952],[28.7368,69.7643,204.5],[28.6984,69.7662,257.0717],[28.7002,69.7706,260.6772],[28.6617,69.7724,264.6797],[28.6635,69.7769,287.1084],[28.625,69.7787,288.8331],[28.6268,69.7832,295.8577],[28.5883,69.785,328.4046],[28.5901,69.7894,309.947],[28.5516,69.7912,303.7196],[28.5534,69.7957,310.9461],[28.5149,69.7975,336.4628],[28.5167,69.8019,353.8297],[28.4781,69.8037,282.6861],[28.4799,69.8082,288.3011],[28.4413,69.8099,274.9207],[28.4431,69.8144,270.4438],[28.4045,69.8162,318.8421],[28.4063,69.8206,317.0814],[28.3934,69.8212,278.4786],[28.3952,69.8257,276.7744],[28.3823,69.8263,268.4406],[28.3841,69.8307,268.7221],[28.3712,69.8313,268.5979],[28.373,69.8358,268.7554],[28.3601,69.8364,268.8002],[28.3619,69.8408,270.3907],[28.349,69.8414,289.3904],[28.3507,69.8459,298.2025],[28.325,69.847,353.8283],[28.3285,69.856,341.6905],[28.3414,69.8554,331.8115],[28.3519,69.8822,277.546],[28.3261,69.8834,245.7955],[28.3279,69.8878,256.4587],[28.3021,69.889,244.6381],[28.3038,69.8934,252.9561],[28.2651,69.8952,231.015],[28.2668,69.8996,226.2333],[28.241,69.9008,254.5176],[28.2427,69.9053,225.1886],[28.2169,69.9064,224.1895],[28.2186,69.9109,224.4505],[28.1928,69.912,223.6669],[28.1945,69.9165,252.0013],[28.1687,69.9176,211.3721],[28.1704,69.9221,229.3318],[28.1575,69.9227,265.6915],[28.1592,69.9271,229.3382],[28.1463,69.9277,188.7807],[28.148,69.9322,191.433],[28.135,69.9327,178.4895],[28.1368,69.9372,178.3069],[28.1238,69.9378,154.7874],[28.1255,69.9422,151.1632],[28.1126,69.9428,148.4877],[28.1143,69.9473,145.4728],[28.1014,69.9478,128.5329],[28.1031,69.9523,152.7378],[28.0901,69.9529,181.0673],[28.0936,69.9618,145.557],[28.0806,69.9624,145.5769],[28.0823,69.9669,171.5177],[28.0693,69.9674,192.4385],[28.0711,69.9719,210.859],[28.0581,69.9724,208.5137],[28.0598,69.9769,226.905],[28.0468,69.9775,152.8764],[28.0485,69.9819,142.6173],[28.0356,69.9825,101.5405],[28.0373,69.987,119.2211],[28.0243,69.9875,87.0235],[28.0277,69.9965,101.9936],[28.0147,69.997,36.5111],[28.0164,70.0015,12.5954],[28.0035,70.0021,12.5613],[28.0052,70.0065,12.7047],[27.9922,70.0071,12.7922],[27.9939,70.0116,12.7989],[27.9809,70.0121,29.0081],[27.9894,70.0345,129.2805],[27.9764,70.035,116.7266],[27.9848,70.0574,205.0341],[27.9718,70.0579,246.6237],[27.9769,70.0714,139.2012],[27.9639,70.0719,159.7732],[27.969,70.0853,31.2814],[27.956,70.0859,81.2309],[27.9576,70.0903,25.218],[27.9316,70.0915,19.9747],[27.9299,70.087,36.1989],[27.9038,70.0881,31.6122],[27.9021,70.0836,20.936],[27.863,70.0853,13.5],[27.8613,70.0808,27.0291],[27.8353,70.0819,20.0468],[27.8336,70.0774,20.9541],[27.7945,70.079,58.0121],[27.7928,70.0746,16.0],[27.7798,70.0751,45.904],[27.7781,70.0706,17.0],[27.7651,70.0712,28.2056],[27.7634,70.0667,17.5],[27.7504,70.0673,48.7299],[27.7488,70.0628,18.5],[27.7357,70.0633,19.0],[27.7374,70.0678,48.6892],[27.7113,70.0689,20.5],[27.713,70.0733,51.843],[27.6999,70.0739,53.4822],[27.7016,70.0784,102.1353],[27.6755,70.0794,51.3709],[27.6739,70.075,68.8815],[27.6217,70.0771,60.7741],[27.6201,70.0726,55.2116],[27.607,70.0731,36.0],[27.6054,70.0687,71.5739],[27.5794,70.0697,38.5],[27.5761,70.0608,62.5913],[27.5631,70.0613,40.0],[27.5615,70.0568,59.7055],[27.5485,70.0574,40.5],[27.5356,70.0216,77.9121],[27.4836,70.0237,54.8035],[27.482,70.0192,59.2303],[27.43,70.0213,48.9853],[27.4284,70.0168,66.302],[27.4154,70.0173,45.0],[27.4138,70.0128,71.4871],[27.4008,70.0133,47.1615],[27.3977,70.0044,78.5279],[27.3847,70.0049,59.6793],[27.3815,69.996,108.6649],[27.3685,69.9965,46.5],[27.367,69.992,92.3609],[27.354,69.9925,56.5195],[27.3524,69.988,85.8991],[27.3005,69.9901,58.2055],[27.2989,69.9856,50.6328],[27.2859,69.9861,60.5184],[27.2813,69.9727,51.1399],[27.2943,69.9722,64.4206],[27.2912,69.9632,89.9442],[27.3041,69.9627,56.9128],[27.3011,69.9538,61.183],[27.2881,69.9543,54.709],[27.2865,69.9498,117.0586],[27.2476,69.9513,58.4559],[27.2461,69.9468,55.8051],[27.2202,69.9478,60.1035],[27.2186,69.9434,55.9752],[27.2057,69.9439,63.746],[27.2041,69.9394,94.8524],[27.1785,69.9404,73.491],[27.1767,69.9359,62.0975],[27.1637,69.9364,63.9298],[27.1622,69.9319,101.6656],[27.1233,69.9334,82.9537],[27.1188,69.92,105.0156],[27.1059,69.9205,62.5679],[27.1044,69.916,127.4521],[27.0525,69.918,79.1541],[27.0496,69.909,65.8813],[27.0237,69.91,93.2853],[27.0252,69.9145,64.2143],[27.0122,69.915,80.9697],[27.0152,69.9239,157.6682],[27.0022,69.9244,77.3851],[27.0037,69.9289,136.9886],[26.9907,69.9294,104.7297],[26.9922,69.9339,102.624],[26.9792,69.9343,85.9421],[26.9807,69.9388,106.123],[26.9288,69.9408,94.9778],[26.9274,69.9363,80.0006],[26.9144,69.9368,72.7101],[26.9129,69.9323,123.5318],[26.874,69.9337,73.0118],[26.8755,69.9382,126.5618],[26.8625,69.9387,74.1077],[26.864,69.9432,91.3256],[26.851,69.9437,106.9208],[26.8568,69.9616,82.74],[26.8308,69.9625,86.9188],[26.8294,69.958,81.6811],[26.7774,69.96,102.2095],[26.776,69.9555,88.9651],[26.763,69.9559,79.9063],[26.7616,69.9515,95.1291],[26.7486,69.9519,83.3445],[26.7472,69.9474,108.368],[26.7342,69.9479,80.9672],[26.7328,69.9434,117.4039],[26.7068,69.9444,125.6406],[26.7082,69.9489,107.6213],[26.6953,69.9493,91.5315],[26.6981,69.9583,121.9135],[26.6851,69.9587,90.9458],[26.6865,69.9632,102.8645],[26.6606,69.9642,123.3092],[26.6591,69.9597,105.1388],[26.6202,69.9611,119.4993],[26.6188,69.9566,105.7985],[26.5928,69.9575,150.1023],[26.5914,69.953,122.176],[26.5654,69.9539,183.1272],[26.564,69.9495,119.4194],[26.5511,69.9499,112.7473],[26.5497,69.9454,120.8608],[26.4977,69.9473,163.1499],[26.4964,69.9428,129.9878],[26.4834,69.9432,100.7416],[26.482,69.9387,115.1234],[26.469,69.9392,107.3886],[26.4677,69.9347,133.5417],[26.4547,69.9352,107.8357],[26.4519,69.9262,115.1154],[26.4649,69.9257,232.2778],[26.4635,69.9213,191.2582],[26.4506,69.9217,111.899],[26.4479,69.9127,161.7776],[26.4349,69.9132,130.3492],[26.4322,69.9042,199.1616],[26.4192,69.9047,103.0863],[26.4179,69.9002,156.6242],[26.4049,69.9006,106.2911],[26.4035,69.8962,109.8862],[26.4165,69.8957,166.0962],[26.4084,69.8688,107.946],[26.3954,69.8693,110.0869],[26.3914,69.8558,141.0557],[26.3785,69.8562,108.2114],[26.3758,69.8473,159.6893],[26.3628,69.8477,107.8406],[26.3615,69.8432,122.7626],[26.3486,69.8437,112.7765],[26.3473,69.8392,112.679],[26.3343,69.8396,105.8911],[26.333,69.8352,114.0157],[26.3201,69.8356,121.4217],[26.3187,69.8311,142.4294],[26.3058,69.8316,125.0726],[26.3045,69.8271,141.3744],[26.2916,69.8275,107.962],[26.2903,69.823,159.663],[26.2773,69.8235,107.0443],[26.276,69.819,180.013],[26.2502,69.8199,115.537],[26.2423,69.7929,118.5702],[26.2294,69.7934,107.165],[26.2268,69.7844,111.784],[26.2139,69.7848,136.0514],[26.2126,69.7804,108.0109],[26.1997,69.7808,171.4581],[26.1984,69.7763,108.7575],[26.1855,69.7767,157.4318],[26.1804,69.7588,108.9687],[26.1675,69.7592,114.1563],[26.1662,69.7547,127.6222],[26.1533,69.7552,109.8729],[26.1494,69.7417,148.0069],[26.1366,69.7421,116.7177],[26.1353,69.7377,110.5717],[26.1224,69.7381,111.1868],[26.1199,69.7291,152.3182],[26.0813,69.7304,111.9187],[26.08,69.7259,113.9905],[26.0672,69.7263,110.9411],[26.0659,69.7218,111.0063],[26.0273,69.7231,113.0138],[26.026,69.7186,132.044],[26.0132,69.719,111.4002],[26.0145,69.7235,111.4751],[26.0016,69.724,155.0075],[25.9991,69.715,139.1752],[25.9862,69.7154,112.4467],[25.9837,69.7064,168.5457],[25.9709,69.7068,111.638],[25.9696,69.7023,128.5379],[25.9568,69.7028,113.7986],[25.9531,69.6893,139.8748],[25.9402,69.6897,113.8599],[25.9377,69.6807,116.669],[25.9249,69.6812,112.2739],[25.9237,69.6767,113.0052],[25.9108,69.6771,112.9074],[25.9096,69.6726,116.4947],[25.8968,69.673,170.024],[25.8931,69.6596,115.3912],[25.9187,69.6587,145.5722],[25.9175,69.6542,117.246],[25.9431,69.6534,125.0457],[25.9419,69.6489,117.4857],[25.9547,69.6485,123.1001],[25.9522,69.6395,141.6803],[25.965,69.6391,126.2471],[25.9588,69.6167,168.8087],[25.9716,69.6163,115.6732],[25.9704,69.6118,164.3277],[25.9832,69.6114,123.84],[25.9819,69.6069,127.3213],[25.9691,69.6073,131.4489],[25.9666,69.5983,116.2197],[25.9538,69.5988,143.9533],[25.9477,69.5763,120.0382],[25.9349,69.5767,120.014],[25.9324,69.5678,218.8146],[25.9197,69.5682,117.9692],[25.9184,69.5637,258.8811],[25.9057,69.5641,118.3777],[25.9044,69.5596,137.6784],[25.8917,69.56,118.3671],[25.8905,69.5555,119.3979],[25.8777,69.556,118.6718],[25.8765,69.5515,131.6617],[25.8382,69.5527,119.7363],[25.837,69.5482,119.5826],[25.8498,69.5478,161.4707],[25.8473,69.5388,119.4825],[25.8601,69.5384,144.6173],[25.8589,69.5339,119.7787],[25.8716,69.5335,128.7081],[25.8704,69.529,119.456],[25.8831,69.5286,151.6447],[25.8807,69.5197,123.9292],[25.868,69.5201,141.8141],[25.8631,69.5021,133.9947],[25.8504,69.5025,120.8223],[25.8492,69.498,119.2986],[25.8468,69.4891,119.4586],[25.8595,69.4887,156.5131],[25.8583,69.4842,120.0139],[25.871,69.4838,157.549],[25.8686,69.4748,140.8877],[25.8558,69.4752,125.5162],[25.8546,69.4707,128.6813],[25.8419,69.4711,121.1114],[25.8371,69.4532,193.0961],[25.8244,69.4536,121.2744],[25.8196,69.4356,143.4357],[25.8069,69.436,121.4139],[25.8057,69.4315,121.4888],[25.8184,69.4311,137.844],[25.8172,69.4267,136.8672],[25.8045,69.4271,124.6975],[25.8033,69.4226,124.7878],[25.7906,69.423,159.447],[25.7894,69.4185,148.8858],[25.8275,69.4173,155.3392],[25.8263,69.4128,124.1782],[25.8136,69.4132,125.7345],[25.8112,69.4042,127.0192],[25.8239,69.4038,123.5799],[25.8251,69.4083,130.7012],[25.8378,69.4079,152.1546],[25.8354,69.3989,128.2983],[25.848,69.3985,133.2546],[25.8468,69.3941,125.7365],[25.8342,69.3944,141.4966],[25.8306,69.381,131.4083],[25.8179,69.3814,197.1929],[25.8131,69.3634,162.9382],[25.8258,69.363,257.6172],[25.8246,69.3586,193.622],[25.7993,69.3594,154.6743],[25.7981,69.3549,162.3938],[25.7854,69.3553,141.853],[25.7819,69.3418,165.6904],[25.7566,69.3426,161.9376],[25.7554,69.3381,161.7787],[25.7681,69.3377,171.4514],[25.7645,69.3243,202.0281],[25.7519,69.3247,149.6613],[25.7507,69.3202,150.5421],[25.7381,69.3206,227.5153],[25.7346,69.3071,231.7484],[25.7472,69.3067,146.9546],[25.7448,69.2978,164.374],[25.7322,69.2982,153.4204],[25.731,69.2937,175.0793],[25.7436,69.2933,151.5169],[25.7425,69.2888,160.4183],[25.7551,69.2884,180.0845],[25.7539,69.2839,247.8148],[25.7413,69.2843,150.2233],[25.7389,69.2753,148.7311],[25.7263,69.2757,151.9475],[25.724,69.2668,173.8373],[25.7366,69.2663,195.5118],[25.7354,69.2619,160.0409],[25.7228,69.2623,168.9158],[25.7217,69.2578,146.4454],[25.7091,69.2582,208.4874],[25.7009,69.2268,175.2148],[25.7135,69.2264,151.2738],[25.7077,69.2039,179.5436],[25.6951,69.2043,153.7408],[25.6928,69.1954,158.4866],[25.7053,69.195,197.4037],[25.703,69.186,180.1361],[25.7156,69.1856,173.7536],[25.7121,69.1721,189.5591],[25.7246,69.1717,175.4949],[25.7223,69.1628,160.7684],[25.7348,69.1624,184.1672],[25.7314,69.1489,179.1407],[25.7439,69.1485,189.9325],[25.7369,69.1216,181.2594],[25.7244,69.122,184.2329],[25.7232,69.1175,178.2347],[25.7209,69.1085,164.7894],[25.7334,69.1081,196.343],[25.7253,69.0767,173.5493],[25.7378,69.0763,193.1016],[25.7355,69.0674,172.0246],[25.7479,69.067,192.8281],[25.7456,69.058,196.8877],[25.7581,69.0576,195.3513],[25.7546,69.0441,190.3125],[25.7421,69.0445,189.6293],[25.741,69.04,212.3135],[25.7534,69.0396,180.8872],[25.7511,69.0307,177.232],[25.776,69.0299,192.4039],[25.7691,69.003,197.6033],[25.7566,69.0034,178.0923],[25.7554,68.9989,203.3115],[25.743,68.9993,188.4403],[25.7419,68.9948,197.2626],[25.7294,68.9952,194.1308],[25.7271,68.9862,199.8044],[25.7147,68.9866,196.3374],[25.7066,68.9552,205.1954],[25.6942,68.9556,201.231],[25.6896,68.9377,223.7609],[25.6772,68.9381,197.0167],[25.6738,68.9246,226.4614],[25.6614,68.925,197.1217],[25.6568,68.9071,195.1259],[25.6444,68.9074,207.1132],[25.6433,68.903,192.8075],[25.6309,68.9034,207.0822],[25.6275,68.8899,201.8505],[25.6028,68.8907,207.9731],[25.6005,68.8817,216.0861],[25.5758,68.8825,205.7517],[25.5769,68.887,209.7184],[25.5273,68.8885,209.1135],[25.5284,68.893,210.4679],[25.516,68.8934,210.9041],[25.5171,68.8979,223.0579],[25.4924,68.8986,216.9883],[25.4935,68.9031,209.1664],[25.4687,68.9039,222.0478],[25.4676,68.8994,242.3469],[25.4552,68.8998,215.4478],[25.4541,68.8953,242.5143],[25.4293,68.896,222.7803],[25.4282,68.8916,222.902],[25.4034,68.8923,225.7076],[25.4013,68.8833,232.7767],[25.3765,68.8841,228.3589],[25.3743,68.8751,248.1897],[25.3496,68.8759,239.0193],[25.3485,68.8714,231.8264],[25.3361,68.8717,240.5788],[25.335,68.8672,239.5995],[25.3227,68.8676,238.472],[25.3216,68.8631,268.9551],[25.2969,68.8639,255.2318],[25.2947,68.8549,292.5948],[25.2824,68.8553,227.3552],[25.2813,68.8508,313.6838],[25.2689,68.8511,228.9596],[25.2679,68.8466,255.0948],[25.2555,68.847,235.0084],[25.2545,68.8425,252.4757],[25.2421,68.8429,255.4863],[25.2379,68.8249,334.258],[25.2255,68.8253,244.1536],[25.2245,68.8208,251.8159],[25.2121,68.8212,258.0717],[25.2101,68.8122,263.1926],[25.1977,68.8126,265.806],[25.1967,68.8081,254.8285],[25.1843,68.8084,249.0218],[25.1833,68.8039,298.7489],[25.1709,68.8043,250.2436],[25.1699,68.7998,266.1611],[25.1576,68.8002,254.3406],[25.1555,68.7912,299.9478],[25.1432,68.7916,274.974],[25.135,68.7556,333.2705],[25.1227,68.756,294.0394],[25.1196,68.7425,324.4456],[25.1319,68.7422,331.697],[25.1238,68.7063,337.4195],[25.1115,68.7066,313.34],[25.1084,68.6932,322.0414],[25.1207,68.6928,344.2384],[25.1197,68.6883,331.5378],[25.1074,68.6887,323.1337],[25.1044,68.6752,332.5966],[25.1167,68.6748,326.6842],[25.1116,68.6524,313.9357],[25.1239,68.652,321.0364],[25.1208,68.6386,318.4968],[25.0963,68.6393,327.3062],[25.0933,68.6258,327.0736],[25.081,68.6262,333.8787],[25.08,68.6217,331.0345],[25.0555,68.6224,338.3806],[25.0565,68.6269,346.735],[25.0443,68.6272,353.8814],[25.0433,68.6227,357.7253],[25.0188,68.6234,351.354],[25.0168,68.6144,351.5623],[25.0045,68.6148,351.593],[25.0036,68.6103,353.3194],[24.9913,68.6107,354.3118],[24.9923,68.6152,353.4203],[24.9555,68.6162,361.9328],[24.9546,68.6117,368.6106],[24.9301,68.6124,377.2797],[24.9291,68.6079,383.282],[24.9169,68.6083,394.6543],[24.9043,68.5499,447.9538],[24.9165,68.5495,435.6157],[24.9136,68.5361,428.6677],[24.9258,68.5357,420.6112],[24.9229,68.5223,426.1594],[24.9351,68.5219,434.6874],[24.9331,68.5129,396.2228],[24.9453,68.5126,385.1248],[24.9424,68.4991,379.4007],[24.9546,68.4988,358.3702],[24.9517,68.4853,370.9266],[24.9639,68.485,364.7626],[24.9619,68.476,368.9399],[24.9741,68.4756,354.9347],[24.9712,68.4622,351.7521],[24.9833,68.4618,348.4266],[24.9804,68.4484,336.0751],[24.9926,68.448,336.7209],[24.9906,68.439,334.9001],[25.0027,68.4387,333.5278],[24.9998,68.4252,339.7886],[25.012,68.4249,323.1542],[25.009,68.4114,324.3618],[25.0212,68.4111,308.4306],[25.0192,68.4021,341.3489],[25.0313,68.4017,375.1724],[25.0294,68.3928,440.1878],[25.0658,68.3917,317.7343],[25.0648,68.3872,317.3995],[25.089,68.3865,328.5369],[25.088,68.382,316.4055],[25.1244,68.381,316.7406],[25.1234,68.3765,319.4259],[25.1597,68.3754,310.7981],[25.1587,68.3709,327.4531],[25.1951,68.3698,319.3322],[25.194,68.3653,316.2126],[25.2183,68.3646,317.9119],[25.2172,68.3602,330.4625],[25.2536,68.359,335.6705],[25.2526,68.3546,363.1591],[25.2889,68.3535,362.14],[25.2878,68.349,345.6501],[25.3241,68.3479,318.6069],[25.3231,68.3434,309.6117],[25.3473,68.3426,304.6169],[25.3462,68.3382,304.2686],[25.3825,68.337,297.6339],[25.3815,68.3326,297.2509],[25.4178,68.3314,295.0401],[25.4167,68.327,294.0495],[25.453,68.3258,297.0134],[25.4519,68.3213,296.9183],[25.4761,68.3206,318.6529],[25.475,68.3161,315.7304],[25.5112,68.3149,356.0829],[25.5102,68.3105,363.3719],[25.5826,68.3081,334.8946],[25.5815,68.3037,333.5294],[25.7023,68.2997,290.2843],[25.7012,68.2953,293.6084],[25.8097,68.2917,315.7392],[25.8086,68.2872,311.8892],[25.9292,68.2831,318.1141],[25.928,68.2786,299.4037],[25.9763,68.277,312.0415],[25.9693,68.2501,292.7162],[25.9573,68.2505,289.9424],[25.9457,68.2057,271.5479],[25.9337,68.2061,271.3593],[25.9234,68.1657,271.1215],[25.9114,68.1662,271.8912],[25.9,68.1213,259.0255],[25.8881,68.1217,271.4909],[25.8801,68.0904,277.6891],[25.8921,68.09,272.3553],[25.8898,68.081,270.2269],[25.9018,68.0806,268.408],[25.8984,68.0671,266.9809],[25.9103,68.0667,271.9051],[25.908,68.0578,269.6816],[25.92,68.0574,277.8125],[25.9166,68.0439,285.2207],[25.9285,68.0435,277.5576],[25.9262,68.0345,249.452],[25.9382,68.0341,264.0997],[25.9359,68.0252,290.7828],[25.9478,68.0247,306.19],[25.9444,68.0113,303.9821],[25.9563,68.0109,290.2508],[25.954,68.0019,298.3007],[25.9659,68.0015,293.3502],[25.9625,67.9881,290.6502],[25.9744,67.9877,286.6159],[25.9721,67.9787,293.8776],[25.984,67.9783,287.2866],[25.9817,67.9693,292.8784],[25.9936,67.9689,290.5943],[25.9902,67.9555,310.2464],[26.0021,67.955,313.2693],[25.9998,67.9461,328.0645],[26.0117,67.9457,334.3114],[26.006,67.9233,332.4568],[25.9941,67.9237,319.1879],[25.9861,67.8923,312.3052],[25.9742,67.8927,311.5051],[25.9674,67.8658,318.8049],[25.9556,67.8662,321.4718],[25.9488,67.8394,335.1958],[25.9369,67.8398,357.3041],[25.9302,67.8129,283.8891],[25.9184,67.8133,287.3802],[25.9116,67.7864,292.6765],[25.8998,67.7868,277.1357],[25.892,67.7555,352.6748],[25.8802,67.7559,314.8896],[25.8736,67.729,234.5141],[25.8618,67.7294,245.2715],[25.8551,67.7025,245.2381],[25.8434,67.7029,247.9836],[25.8368,67.676,245.7427],[25.825,67.6764,255.232],[25.8184,67.6495,311.7756],[25.8067,67.6499,304.1962],[25.7991,67.6186,251.8282],[25.7873,67.6189,247.2564],[25.7808,67.5921,236.5425],[25.7691,67.5925,229.3041],[25.7626,67.5656,213.1453],[25.7509,67.566,204.0651],[25.7391,67.5167,227.6614],[25.7508,67.5163,217.2334],[25.7443,67.4894,221.957],[25.756,67.489,223.8911],[25.7506,67.4666,307.3426],[25.7623,67.4662,265.0495],[25.7558,67.4393,247.938],[25.7675,67.4389,247.8263],[25.7664,67.4344,234.1096],[25.7547,67.4348,234.074],[25.7526,67.4258,218.0385],[25.741,67.4262,218.699],[25.7388,67.4173,205.5499],[25.7272,67.4177,204.6889],[25.7251,67.4087,205.4224],[25.7134,67.4091,206.276],[25.7124,67.4046,206.5449],[25.7008,67.405,210.231],[25.6987,67.3961,210.944],[25.687,67.3965,222.7145],[25.6849,67.3875,221.568],[25.6733,67.3879,239.211],[25.6712,67.3789,220.0288],[25.6596,67.3793,215.0769],[25.6585,67.3748,211.0681],[25.6469,67.3752,211.6362],[25.6448,67.3663,198.3255],[25.6332,67.3667,196.1996],[25.6343,67.3711,200.5331],[25.6227,67.3715,196.5958],[25.6248,67.3805,203.2522],[25.6131,67.3809,199.2454],[25.6142,67.3854,202.7677],[25.6026,67.3857,197.0331],[25.6015,67.3813,195.53],[25.5899,67.3817,207.0044],[25.5868,67.3682,199.7937],[25.61,67.3674,192.1156],[25.609,67.363,201.7404],[25.6206,67.3626,192.4692],[25.6174,67.3491,193.9642],[25.6059,67.3495,192.718],[25.6048,67.345,192.6594],[25.5932,67.3454,191.8769],[25.5922,67.3409,192.4998],[25.5806,67.3413,198.492],[25.5785,67.3323,195.1332],[25.5669,67.3327,193.8866],[25.5659,67.3282,192.4438],[25.5543,67.3286,193.2313],[25.5533,67.3242,193.024],[25.5417,67.3245,193.1043],[25.5427,67.329,193.3125],[25.5311,67.3294,193.6922],[25.5322,67.3339,195.1303],[25.5206,67.3343,194.1],[25.5216,67.3388,196.3643],[25.51,67.3391,196.805],[25.511,67.3436,199.0638],[25.4878,67.3444,196.2337],[25.4868,67.3399,196.3519],[25.4752,67.3403,205.3244],[25.4742,67.3358,208.1331],[25.4626,67.3362,209.1418],[25.4616,67.3317,208.519],[25.4732,67.3313,205.356],[25.4722,67.3268,210.5167],[25.4838,67.3264,202.8561],[25.4827,67.322,211.6225],[25.4943,67.3216,215.1448],[25.4933,67.3171,210.5082],[25.5049,67.3167,228.8467],[25.5029,67.3077,198.7831],[25.4913,67.3081,202.3333],[25.4903,67.3036,195.2288],[25.4671,67.3044,197.5731],[25.4661,67.2999,193.3663],[25.4545,67.3003,204.9386],[25.4555,67.3048,200.7149],[25.444,67.3052,199.3606],[25.446,67.3141,217.5519],[25.4344,67.3145,209.0013],[25.4354,67.319,223.1869],[25.4122,67.3197,213.985],[25.4092,67.3063,207.4546],[25.3976,67.3067,205.1612],[25.3957,67.2977,199.0606],[25.3841,67.2981,199.0284],[25.3831,67.2936,204.25],[25.3946,67.2932,198.012],[25.3937,67.2887,200.0924],[25.4052,67.2884,198.2445],[25.403199999999998,67.2794,198.581],[25.4495,67.2779,193.6893],[25.4485,67.2734,192.8639],[25.46,67.273,190.8294],[25.458,67.2641,201.7458],[25.4465,67.2644,201.0568],[25.4424,67.2465,195.6794],[25.4309,67.2469,190.2194],[25.4269,67.2289,194.9723],[25.4154,67.2293,209.9295],[25.4114,67.2114,216.8624],[25.3998,67.2118,224.3729],[25.3958,67.1938,217.7688],[25.3843,67.1942,214.177],[25.3804,67.1763,211.8341],[25.3688,67.1766,211.3307],[25.3649,67.1587,221.4106],[25.3534,67.1591,218.8517],[25.3514,67.1501,285.8279],[25.4895,67.1456,277.9702],[25.4884,67.1411,263.2707],[25.6149,67.1369,184.7802],[25.6098,67.1145,203.7369],[25.6213,67.1141,183.2446],[25.6192,67.1051,189.8029],[25.6422,67.1044,208.1849],[25.6411,67.0999,198.397],[25.6641,67.0991,218.494],[25.6724,67.135,179.6503],[25.6839,67.1346,195.2881],[25.6829,67.1301,203.1705],[25.8896,67.1229,217.1303],[25.8885,67.1184,208.2344],[25.923,67.1172,226.4164],[25.9219,67.1127,229.1255],[25.9334,67.1123,214.8279],[25.9323,67.1078,209.2262],[25.9553,67.107,242.655],[25.9542,67.1025,242.1475],[25.9656,67.1021,244.19],[25.9646,67.0976,225.7519],[25.9875,67.0968,221.7897],[25.9864,67.0923,215.3999],[25.9979,67.0919,217.4053],[25.9968,67.0874,207.6326],[26.0197,67.0866,215.2081],[26.0186,67.0821,212.7316],[26.0301,67.0817,209.9435],[26.029,67.0772,209.107],[26.0519,67.0764,214.6649],[26.0508,67.0719,240.2955],[26.0622,67.0715,218.3133],[26.0611,67.067,227.0254],[26.084,67.0661,230.1524],[26.0829,67.0617,225.7767],[26.0944,67.0613,232.1299],[26.0933,67.0568,233.7704],[26.1162,67.0559,316.4247],[26.115,67.0515,323.3833],[26.1265,67.051,309.043],[26.1254,67.0465,273.847],[26.1483,67.0457,255.706],[26.1471,67.0412,241.7011],[26.1586,67.0408,254.0213],[26.1574,67.0363,276.7982],[26.1803,67.0355,210.3786],[26.1792,67.031,213.1098],[26.1906,67.0306,212.2628],[26.1895,67.0261,210.183],[26.2124,67.0252,199.0689],[26.2112,67.0208,200.8765],[26.2227,67.0203,199.2006],[26.2215,67.0159,200.5169],[26.2444,67.015,206.7665],[26.2433,67.0105,202.524],[26.2547,67.0101,223.7509],[26.2535,67.0056,200.3774],[26.2764,67.0047,214.3373],[26.2753,67.0003,217.5183],[26.2867,66.9998,218.4399],[26.2855,66.9954,211.1593],[26.2969,66.9949,222.1207],[26.2958,66.9904,209.8277],[26.3072,66.99,218.404],[26.3061,66.9855,199.2552],[26.3175,66.9851,208.4601],[26.3163,66.9806,200.2932],[26.3277,66.9802,194.5563],[26.3266,66.9757,185.2915],[26.338,66.9753,181.0436],[26.3368,66.9708,177.0754],[26.3482,66.9703,179.3116],[26.3471,66.9659,175.5055],[26.3585,66.9654,177.7375],[26.3573,66.961,176.1339],[26.3687,66.9605,180.4312],[26.3676,66.956,181.1702],[26.3904,66.9551,172.7139],[26.3892,66.9507,172.8785],[26.5032,66.9462,252.2262],[26.502,66.9417,265.4122],[26.5248,66.9408,319.3346]]]]}}