{"type":"Feature","properties":{"ISO3166-1-Alpha-3":"FIN","country":"Finland","fill":"#00F","id":"3184","name":"Päijät-Häme"},
"geometry":{"type": "Polygon","coordinates": [[[25.88507,61.75879,191.5676],[25.87494,61.76021,152.9731],[25.8706,61.7692,154.2025],[25.87556,61.77623,156.5779],[25.87794,61.78713,138.862],[25.87091,61.79504,121.8604],[25.86202,61.79804,134.3617],[25.85117,61.7862,139.1616],[25.84507,61.7738,147.0958],[25.81644,61.73504,151.6023],[25.77954,61.70143,144.2039],[25.76404,61.69303,136.2793],[25.74843,61.69329,147.4446],[25.75732,61.70238,124.1626],[25.73934,61.7045,94.2109],[25.69087,61.7059,76.5],[25.6643,61.70373,178.092],[25.63351,61.69587,86.4832],[25.59764,61.67913,76.5],[25.58224,61.67541,76.5],[25.53088,61.68145,76.5],[25.5162,61.67804,76.5],[25.50245,61.65368,76.5],[25.47703,61.56436,76.5],[25.46101,61.52705,76.5],[25.44375,61.50353,76.5],[25.42649,61.49036,76.5],[25.40334,61.48405,76.5],[24.96688,61.45113,160.9914],[24.9582,61.45594,150.7855],[24.86973,61.47413,106.5],[24.86001,61.4654,106.5],[24.86528,61.45416,112.2523],[24.88017,61.43584,113.5],[24.89546,61.42106,123.6194],[24.90363,61.40837,134.567],[24.90301,61.38488,122.9346],[24.89918,61.36145,129.7214],[24.90115,61.33998,108.7396],[24.9183,61.3223,99.2523],[24.91748,61.31109,105.7686],[24.9213,61.29171,106.5344],[24.93567,61.28799,122.5585],[24.94952,61.28724,93.0],[24.97029,61.28194,96.7147],[24.99044,61.27902,93.0],[25.00357,61.28166,130.8141],[25.0167,61.27471,153.0042],[25.02021,61.26277,153.4392],[25.03241,61.25394,150.4167],[25.07612,61.25347,176.7959],[25.18774,61.24003,145.5],[25.20562,61.22882,185.4958],[25.20945,61.21864,170.8215],[25.2234,61.2052,167.4724],[25.25213,61.19208,155.7004],[25.26071,61.18097,147.8254],[25.25957,61.1741,145.8842],[25.25637,61.16314,140.6402],[25.24945,61.15358,143.7532],[25.24294,61.14828,133.8979],[25.23808,61.13854,138.0877],[25.24004,61.13306,154.0558],[25.24107,61.12828,127.078],[25.24056,61.12056,173.5004],[25.26547,61.11366,153.5585],[25.28758,61.10304,109.2673],[25.28665,61.0757,129.267],[25.25182,61.02852,122.7335],[25.23663,61.01385,115.5173],[25.23095,61.01416,118.2927],[25.22195,61.01328,128.2112],[25.20914,61.01062,108.8847],[25.21245,61.00734,135.3187],[25.22661,61.00217,115.921],[25.24376,60.99351,132.4832],[25.25007,60.98953,147.1268],[25.25534,60.98212,127.0201],[25.2543,60.97659,117.0129],[25.23725,60.96902,117.0383],[25.2204,60.96341,99.3501],[25.19074,60.94873,114.5495],[25.16459,60.92987,100.3437],[25.14165,60.90871,113.6984],[25.09762,60.85523,95.805],[25.08832,60.84776,87.9419],[25.08419,60.83784,108.0721],[25.08625,60.82885,86.4822],[25.09338,60.82138,83.9169],[25.09638,60.82166,83.7803],[25.10279,60.82135,83.7969],[25.10889,60.81985,84.3383],[25.19374,60.83014,98.1294],[25.20707,60.82709,109.0266],[25.20966,60.82533,111.0024],[25.21524,60.81608,92.5292],[25.22681,60.80637,96.2298],[25.2789,60.77397,86.8323],[25.30443,60.76239,89.9071],[25.32954,60.75727,93.713],[25.3744,60.76368,75.1718],[25.44199,60.79257,87.4071],[25.47383,60.79205,136.7514],[25.49284,60.7797,86.6418],[25.5099,60.7581,84.4857],[25.52137,60.73154,73.8537],[25.52343,60.70441,72.8006],[25.5718,60.68932,66.7124],[25.61046,60.68844,53.0452],[25.88827,60.73402,77.123],[25.91132,60.73051,52.9791],[25.92372,60.72337,69.2224],[25.93333,60.71526,61.1052],[25.94821,60.70885,70.9936],[25.97622,60.70544,40.0982],[26.03369,60.70586,40.6549],[26.12609,60.69454,43.6888],[26.17332,60.69723,58.6693],[26.19544,60.70402,50.5617],[26.21456,60.71557,66.2807],[26.22489,60.7334,40.9181],[26.22086,60.73578,39.9499],[26.21859,60.7412,47.2752],[26.21828,60.74792,41.7527],[26.21549,60.75541,51.0076],[26.20773,60.77929,80.2998],[26.19688,60.7997,61.1796],[26.18035,60.81562,91.5691],[26.15513,60.82585,58.464],[26.09312,60.83065,70.1448],[26.0834,60.8381,89.2376],[26.08578,60.85251,71.7882],[26.09684,60.86205,67.7846],[26.11193,60.86698,67.5765],[26.11895,60.86786,69.6223],[26.12319,60.87631,58.9356],[26.12422,60.8853,61.4458],[26.13508,60.89882,85.4524],[26.15141,60.91215,100.6518],[26.15936,60.91998,119.6009],[26.14572,60.93008,107.3624],[26.0771,60.93886,86.8142],[26.04278,60.95509,82.4748],[26.04619,60.98406,75.6814],[26.05632,60.98532,76.1187],[26.0957,60.98181,114.6688],[26.11162,60.98563,73.5],[26.11854,60.99359,73.5],[26.13663,61.02491,73.5],[26.13105,61.03188,74.8594],[26.12443,61.03633,86.479],[26.11844,61.04656,83.8011],[26.11503,61.05762,99.3669],[26.10872,61.06692,125.3039],[26.09673,61.07534,142.089],[26.08371,61.08222,119.3296],[26.0681,61.08772,114.552],[26.05818,61.0902,132.4098],[26.05208,61.10761,129.346],[26.06066,61.121,146.44],[26.08547,61.13784,100.5937],[26.13022,61.15136,76.5],[26.1667,61.1357,92.9106],[26.19792,61.13301,76.5],[26.30065,61.15492,80.4022],[26.39542,61.19983,118.8202],[26.41816,61.21921,122.3915],[26.43315,61.25368,98.5142],[26.44276,61.25916,103.2339],[26.46539,61.26608,98.8424],[26.51511,61.27368,94.0018],[26.49847,61.30003,91.5],[26.47924,61.31163,113.1821],[26.40328,61.32406,87.5],[26.37207,61.33481,144.8554],[26.31832,61.36209,129.9462],[26.30406,61.36532,118.0286],[26.29362,61.3708,103.8785],[26.30489,61.38574,94.5],[26.31315,61.39357,94.5],[26.31863,61.39713,94.5],[26.31481,61.40271,141.3765],[26.2836,61.41403,148.8748],[26.26571,61.42498,144.6182],[26.25693,61.43907,133.2887],[26.26044,61.44563,127.3314],[26.27812,61.46881,128.7993],[26.2838,61.47842,108.5],[26.28091,61.48431,108.5],[26.27698,61.48816,108.5],[26.26406,61.49834,114.0176],[26.26024,61.50209,109.0],[26.26592,61.51351,120.1197],[26.27698,61.52136,141.6735],[26.28783,61.52482,137.8957],[26.29073,61.52482,131.8963],[26.29228,61.53268,150.718],[26.29166,61.54221,138.9355],[26.28949,61.55562,154.4227],[26.28463,61.5665,123.3538],[26.28039,61.57247,117.1768],[26.28204,61.57691,121.7869],[26.31667,61.57281,129.1767],[26.32029,61.57596,132.4899],[26.31967,61.58074,140.1527],[26.32111,61.59686,130.2135],[26.31946,61.60764,102.5],[26.31171,61.6167,102.5],[26.30695,61.62415,102.5],[26.30788,61.63239,114.9331],[26.31212,61.63846,112.0],[26.30396,61.64993,134.3673],[26.28938,61.65208,145.8136],[26.25259,61.64967,111.4283],[26.16422,61.63133,91.0],[26.15554,61.62663,104.0134],[26.14614,61.62632,102.8151],[26.11906,61.6429,91.0],[26.07782,61.65153,110.8022],[26.06738,61.6566,113.279],[26.05756,61.66564,104.7835],[26.05725,61.66823,115.1199],[26.06201,61.67014,91.0],[26.06738,61.67706,91.0],[26.07172,61.68683,110.6213],[26.07989,61.70019,91.0],[26.08164,61.70502,91.0],[26.07792,61.70967,91.0],[26.07017,61.71355,95.7873],[26.06542,61.71918,91.0],[26.05239,61.7275,112.6212],[26.03028,61.71817,112.748],[26.0093,61.72068,120.0081],[25.99958,61.72732,91.0],[25.98656,61.74874,100.5851],[25.97839,61.75809,117.7388],[25.96444,61.76662,119.3023],[25.92486,61.78372,134.8132],[25.91587,61.77876,146.1867],[25.91214,61.77039,133.9354],[25.90109,61.76101,156.0017],[25.88507,61.75879,191.5676]]]}}