{"type":"Feature","properties":{"GID_3":"FIN.2.1.2_1","GID_0":"FIN","country":"Finland","GID_1":"FIN.2_1","province":"Lapland","NL_NAME_1":"NA","GID_2":"FIN.2.1_1","county":"Lapland","NL_NAME_2":"NA","city":"Kemi-Tornio","VARNAME_3":"NA","NL_NAME_3":"NA","TYPE_3":"Seutukunta|Ekonomiskregion","ENGTYPE_3":"Sub-Region","CC_3":"NA","HASC_3":"FI.LP.KT","name":"Kemi-Tornio.city"},
"geometry":{"type": "MultiPolygon","coordinates": [[[[24.8099,65.5516,0.3293],[24.8125,65.55,0.0],[24.8161,65.5505,0.2676],[24.8104,65.5542,2.819],[24.8026,65.5537,0.12],[24.8042,65.5521,0.0946],[24.8099,65.5516,0.3293]]],
[[[24.7,65.6208,0.0],[24.7016,65.6224,0.596],[24.6943,65.6234,3.4966],[24.6953,65.6266,0.0],[24.6901,65.6266,4.8413],[24.6901,65.6234,2.988],[24.6922,65.6214,2.2203],[24.7,65.6208,0.0]]],
[[[24.5964,65.6276,1.9525],[24.6,65.6271,2.9992],[24.6016,65.6286,0.0],[24.5964,65.6318,4.6689],[24.5974,65.6349,0.0],[24.5922,65.6349,4.6723],[24.5901,65.6328,0.8639],[24.5901,65.6297,2.7899],[24.5964,65.6276,1.9525]]],
[[[24.8438,65.6396,0.0],[24.8333,65.6396,0.0],[24.8292,65.6417,2.376],[24.8214,65.6412,0.0],[24.8229,65.6396,8.8085],[24.8286,65.6391,10.2994],[24.8276,65.6359,0.0],[24.8292,65.6354,0.0],[24.8438,65.6354,2.3594],[24.8479,65.6333,0.0],[24.8521,65.6333,0.0],[24.862,65.6359,8.8078],[24.8521,65.6396,9.0267],[24.8438,65.6396,0.0]]],
[[[25.0245,65.5807,0.0],[25.0172,65.5818,4.147],[25.0083,65.5875,0.0],[25.0005,65.587,0.0],[25.0047,65.5839,0.0],[25.012,65.5828,5.6878],[25.0167,65.5792,3.0408],[25.0229,65.5792,0.0],[25.0245,65.5807,0.0]]],
[[[25.0125,65.5938,0.0],[25.0083,65.5938,3.4389],[25.0068,65.5922,1.97],[25.0161,65.5922,0.0],[25.0125,65.5938,0.0]]],
[[[24.9609,65.6141,0.0],[24.9583,65.6125,0.3785],[24.9526,65.613,6.1095],[24.9557,65.6182,0.0],[24.9526,65.6203,0.0],[24.9646,65.6229,0.4619],[24.9661,65.6245,1.5218],[24.9604,65.6271,0.0],[24.9562,65.625,0.0],[24.9438,65.625,0.0],[24.938,65.6203,2.3812],[24.9391,65.6172,7.103],[24.9318,65.6088,0.0],[24.9391,65.6078,6.3176],[24.9432,65.6057,6.2054],[24.9422,65.6026,0.0],[24.9495,65.6016,8.6744],[24.9526,65.5984,0.0],[24.9562,65.5979,0.0],[24.9661,65.6026,0.0],[24.9589,65.6099,0.3067],[24.9708,65.6104,6.578],[24.9724,65.6088,8.9176],[24.9693,65.6047,0.0],[24.9776,65.5984,0.0],[24.9849,65.5974,3.2981],[24.9839,65.5943,0.0],[24.9974,65.5943,0.0],[24.988,65.5984,0.5368],[24.9932,65.6005,0.8368],[24.9891,65.6057,0.0],[24.9818,65.6068,0.0],[24.9729,65.6125,0.0],[24.9609,65.6141,0.0]]],
[[[24.975,65.6208,2.3368],[24.9734,65.6193,3.3774],[24.9755,65.6172,4.2002],[24.9807,65.6172,0.0],[24.9807,65.6182,0.0],[24.975,65.6208,2.3368]]],
[[[24.8432,65.6432,1.8189],[24.8396,65.6438,8.7387],[24.838,65.6422,4.0845],[24.8417,65.6417,2.386],[24.8432,65.6432,1.8189]]],
[[[24.5266,65.6505,1.6849],[24.5266,65.6516,0.783],[24.5234,65.6516,4.1969],[24.5234,65.6505,4.097],[24.5266,65.6505,1.6849]]],
[[[24.7557,65.6578,0.0],[24.7521,65.6583,0.0],[24.7505,65.6568,0.0],[24.7542,65.6563,6.8121],[24.7557,65.6578,0.0]]],
[[[24.6,65.6771,0.0],[24.5901,65.6797,8.1802],[24.5911,65.6828,0.0],[24.5859,65.687,2.8679],[24.5995,65.6901,0.21],[24.6078,65.6984,0.0],[24.6057,65.7016,0.0],[24.6026,65.7026,3.5849],[24.6036,65.7057,0.0],[24.6021,65.7063,1.5071],[24.5922,65.7037,0.1419],[24.588,65.6995,0.0],[24.5911,65.6974,2.3938],[24.588,65.6932,0.0701],[24.5891,65.6901,7.9167],[24.5839,65.6891,0.2199],[24.5766,65.6818,6.5251],[24.5667,65.6813,0.0],[24.5563,65.6771,0.0],[24.5479,65.6771,0.0],[24.5438,65.675,0.6998],[24.5271,65.6771,0.0],[24.5229,65.675,2.5222],[24.5151,65.6745,3.2402],[24.513,65.6713,0.0],[24.5182,65.6682,2.9919],[24.5172,65.6651,0.0],[24.5193,65.663,0.0],[24.5396,65.6563,0.0],[24.5667,65.6583,6.5152],[24.5708,65.6563,0.1613],[24.5771,65.6563,0.0],[24.5849,65.6589,0.9291],[24.5828,65.662,11.8206],[24.5797,65.663,8.5425],[24.5839,65.6682,9.4516],[24.6036,65.6672,0.0],[24.6057,65.6703,0.0],[24.6005,65.6734,8.2727],[24.6016,65.6766,0.0],[24.6,65.6771,0.0]]],
[[[24.5349,65.7234,0.0],[24.5333,65.725,0.0],[24.5234,65.7266,11.242],[24.5172,65.7203,0.6742],[24.5182,65.7151,0.0958],[24.5109,65.7078,0.0],[24.512,65.7047,0.0],[24.5078,65.7005,0.0],[24.5026,65.6995,0.0],[24.5036,65.6964,0.0],[24.4964,65.6922,0.0],[24.5021,65.6896,0.0],[24.5141,65.6901,0.5303],[24.5286,65.7047,0.0],[24.5276,65.7099,7.201],[24.5297,65.712,7.6935],[24.5349,65.713,0.4673],[24.5339,65.7161,5.4117],[24.537,65.7203,5.9934],[24.5339,65.7214,3.6721],[24.5349,65.7234,0.0]]],
[[[24.5792,65.7146,5.7536],[24.5776,65.713,3.0616],[24.5797,65.7109,4.975],[24.5849,65.7109,0.0],[24.5849,65.712,0.0],[24.5792,65.7146,5.7536]]],
[[[24.4974,65.7161,0.2156],[24.4938,65.7167,0.4311],[24.4922,65.7151,0.7117],[24.4958,65.7146,0.6136],[24.4974,65.7161,0.2156]]],
[[[24.1958,65.6083,1.8603],[24.1922,65.6047,1.3501],[24.2,65.6042,0.3771],[24.2036,65.6068,0.0],[24.2021,65.6083,0.0],[24.1958,65.6083,1.8603]]],
[[[24.1828,65.6182,0.7434],[24.1792,65.6188,4.3937],[24.1776,65.6172,5.0885],[24.1813,65.6167,1.5859],[24.1828,65.6182,0.7434]]],
[[[24.2021,65.6208,4.9083],[24.1984,65.6172,0.2651],[24.2078,65.6172,0.1453],[24.2057,65.6203,0.7203],[24.2021,65.6208,4.9083]]],
[[[24.2193,65.6787,0.9137],[24.225,65.675,0.3115],[24.2286,65.6776,3.8129],[24.2271,65.6792,3.6602],[24.2193,65.6787,0.9137]]],
[[[24.3036,65.6818,0.0],[24.3036,65.6828,0.0],[24.3005,65.6828,0.0],[24.3005,65.6818,0.694],[24.3036,65.6818,0.0]]],
[[[24.5,65.6813,0.0],[24.5016,65.6828,0.0],[24.4943,65.6839,2.2304],[24.4953,65.687,5.0213],[24.4938,65.6875,2.2609],[24.4901,65.687,0.4984],[24.4854,65.6833,5.2623],[24.4813,65.6854,0.0],[24.4776,65.6849,0.0],[24.4854,65.6792,0.4079],[24.5,65.6813,0.0]]],
[[[24.4953,65.7349,0.0],[24.4917,65.7354,2.5143],[24.4901,65.7338,4.0155],[24.4938,65.7333,1.4197],[24.4953,65.7349,0.0]]],
[[[24.4203,65.7359,1.4325],[24.4203,65.737,3.1853],[24.4172,65.737,0.8213],[24.4172,65.7359,0.0],[24.4203,65.7359,1.4325]]],
[[[24.2958,65.6875,0.9376],[24.2839,65.6922,6.8473],[24.2792,65.6958,0.0],[24.2755,65.6953,4.4022],[24.2714,65.6911,0.0],[24.2729,65.6896,0.0],[24.2786,65.6891,3.2379],[24.2875,65.6833,2.0854],[24.2995,65.6839,0.0],[24.2958,65.6875,0.9376]]],
[[[24.2057,65.6911,7.3531],[24.2021,65.6917,4.3686],[24.2005,65.6901,0.0],[24.2042,65.6896,5.498],[24.2057,65.6911,7.3531]]],
[[[24.2703,65.7109,3.6168],[24.2703,65.712,4.8164],[24.2672,65.712,6.4207],[24.2672,65.7109,3.2837],[24.2703,65.7109,3.6168]]],
[[[24.2375,65.75,4.067],[24.2359,65.7484,0.0],[24.2396,65.7458,0.0],[24.2536,65.7464,0.0],[24.2479,65.75,4.7737],[24.2375,65.75,4.067]]],
[[[24.4562,65.7458,0.0],[24.4521,65.7458,3.9325],[24.4505,65.7443,0.0],[24.4578,65.7443,0.0],[24.4562,65.7458,0.0]]],
[[[24.4458,65.7583,3.4853],[24.4474,65.7599,0.0],[24.4401,65.7609,0.6497],[24.4411,65.7641,3.4699],[24.4396,65.7646,4.4831],[24.4333,65.7646,0.0],[24.4255,65.762,0.0],[24.4234,65.7589,0.6571],[24.4286,65.7547,5.8624],[24.4255,65.7516,0.0],[24.4266,65.7484,0.4112],[24.4214,65.7422,0.7014],[24.4375,65.7438,0.0],[24.4453,65.7464,0.0],[24.4474,65.7484,0.0],[24.4464,65.7516,0.0],[24.4474,65.7557,0.0],[24.4375,65.7562,0.7128],[24.4359,65.7578,0.8494],[24.4458,65.7583,3.4853]]],
[[[24.4,65.7562,6.3837],[24.3964,65.7526,0.5913],[24.4,65.7521,0.0],[24.4036,65.7547,4.4591],[24.4,65.7562,6.3837]]],
[[[24.3391,65.7672,0.0],[24.338,65.7651,3.7159],[24.3401,65.763,9.1959],[24.3438,65.7625,4.0374],[24.3453,65.7641,3.2755],[24.3422,65.7662,6.7014],[24.3479,65.7667,0.4661],[24.3495,65.7682,0.0],[24.3464,65.7693,0.0],[24.3474,65.7724,0.1997],[24.3396,65.7729,5.8513],[24.338,65.7714,0.925],[24.3411,65.7693,2.3762],[24.3391,65.7672,0.0]]],
[[[24.988,65.6203,1.4361],[24.9901,65.6172,0.0],[24.9953,65.6172,0.0],[24.9911,65.6203,3.2759],[24.988,65.6203,1.4361]]],
[[[24.8667,65.6229,3.7916],[24.863,65.6224,0.5532],[24.863,65.6214,0.0],[24.8682,65.6214,3.925],[24.8667,65.6229,3.7916]]],
[[[24.8797,65.6214,9.1643],[24.8833,65.6188,0.0],[24.887,65.6193,0.0],[24.8922,65.6266,0.0],[24.8979,65.6271,3.0403],[24.8995,65.6286,4.8878],[24.8943,65.6318,0.0],[24.8953,65.6349,0.0],[24.8859,65.6349,0.9089],[24.887,65.6318,8.3858],[24.8849,65.6276,13.5722],[24.8776,65.6266,7.7378],[24.8755,65.6245,9.4218],[24.8797,65.6214,9.1643]]],
[[[24.6714,65.6589,0.0],[24.6745,65.6578,0.0],[24.6724,65.6547,0.0],[24.6568,65.6536,0.0],[24.6589,65.6505,0.0],[24.662,65.6495,0.0],[24.6609,65.6464,0.0],[24.662,65.6443,0.7375],[24.6589,65.6401,0.9607],[24.6646,65.6375,0.0],[24.6792,65.6375,0.0],[24.7021,65.6292,0.0],[24.7083,65.6333,1.3144],[24.7182,65.6339,2.329],[24.7245,65.6401,0.0],[24.7214,65.6422,0.0],[24.7234,65.6453,0.0],[24.7349,65.6464,0.0],[24.7339,65.6495,0.2408],[24.7391,65.6547,0.9139],[24.7359,65.6578,7.6102],[24.7411,65.6589,0.0],[24.7464,65.6641,0.0],[24.7563,65.6667,0.0],[24.7604,65.6646,0.0],[24.7703,65.6641,0.0],[24.7714,65.6609,1.4064],[24.7807,65.6578,3.1459],[24.7917,65.65,0.97],[24.7953,65.6505,6.8324],[24.8026,65.6578,0.0],[24.812,65.6589,0.0],[24.8141,65.662,0.3046],[24.8068,65.663,1.1579],[24.8104,65.6667,0.0],[24.8224,65.6641,0.9396],[24.8271,65.6604,0.0],[24.8375,65.6604,0.0],[24.8438,65.6646,2.3068],[24.8563,65.6646,4.537],[24.8604,65.6625,0.0],[24.8667,65.6667,3.9617],[24.8854,65.6646,1.9701],[24.887,65.6641,0.1174],[24.8859,65.6609,0.0],[24.9016,65.6578,0.2439],[24.9005,65.6547,0.0],[24.9036,65.6526,7.9442],[24.8984,65.6474,0.0],[24.9005,65.6443,0.0],[24.9063,65.6417,0.0],[24.912,65.6412,7.5988],[24.9151,65.638,1.1876],[24.9224,65.637,5.2563],[24.9271,65.6333,0.0],[24.9375,65.6333,6.1132],[24.9417,65.6312,0.0],[24.9479,65.6312,0.0],[24.9521,65.6333,7.9409],[24.9562,65.6312,0.0],[24.9667,65.6312,0.0],[24.9708,65.6333,4.8399],[24.9771,65.6333,1.0312],[24.9813,65.6312,0.0],[24.9896,65.6312,0.0],[24.9964,65.6276,0.0],[25.0063,65.625,0.0],[25.0146,65.625,0.0767],[25.0187,65.6229,0.0],[25.0271,65.6229,0.0],[25.0313,65.6208,0.0],[25.0474,65.6203,0.0],[25.0396,65.6167,0.0],[25.0333,65.6188,0.0],[25.0271,65.6167,2.5193],[25.0255,65.6172,0.0],[25.0266,65.6203,2.3807],[25.025,65.6208,5.1158],[25.0208,65.6188,0.0],[25.0146,65.6188,0.0],[25.0104,65.6208,0.261],[25.0089,65.6203,0.0],[25.0099,65.6172,0.5093],[25.0047,65.6151,3.341],[25.0083,65.6125,0.0],[25.0391,65.6057,0.0],[25.0479,65.6,0.0],[25.0536,65.6005,0.0],[25.0583,65.6042,0.0],[25.0682,65.6057,0.1327],[25.0849,65.5943,0.0],[25.0812,65.5917,0.0],[25.075,65.5917,2.4423],[25.0688,65.5938,0.0],[25.0651,65.5901,0.0],[25.075,65.5875,0.0],[25.0812,65.5896,0.0],[25.0828,65.5891,0.0],[25.0818,65.5859,0.0],[25.0851,65.5854,5.1557],[25.0857,65.5884,6.493],[25.0964,65.588,9.2825],[25.0981,65.597,10.694],[25.109,65.5966,11.7771],[25.1098,65.6011,11.9981],[25.1206,65.6008,14.2322],[25.1215,65.6053,18.8402],[25.1324,65.6049,15.0748],[25.1341,65.6139,19.316],[25.145,65.6135,21.4527],[25.1476,65.627,30.3171],[25.1584,65.6266,21.7213],[25.1602,65.6356,27.1251],[25.171,65.6352,25.7875],[25.1728,65.6442,32.7441],[25.1836,65.6438,30.845],[25.1845,65.6483,34.9398],[25.1954,65.6479,34.6969],[25.1963,65.6524,36.0586],[25.2071,65.6521,36.7207],[25.2089,65.661,35.0124],[25.2198,65.6607,44.4828],[25.2206,65.6652,39.2156],[25.2315,65.6648,41.0657],[25.2324,65.6693,38.9072],[25.2433,65.6689,49.2913],[25.2441,65.6734,53.5636],[25.2659,65.6727,53.5454],[25.2668,65.6771,56.5677],[25.2776,65.6768,58.4301],[25.2785,65.6813,60.802],[25.3002,65.6805,66.1422],[25.3012,65.685,65.5228],[25.312,65.6846,71.7181],[25.3138,65.6936,66.7666],[25.3247,65.6933,66.2231],[25.3265,65.7022,77.3228],[25.3374,65.7018,71.1246],[25.3392,65.7108,75.2534],[25.3501,65.7104,69.2426],[25.3529,65.7239,78.8287],[25.3637,65.7235,76.3002],[25.3647,65.728,81.3881],[25.3755,65.7276,77.5127],[25.3765,65.7321,75.1973],[25.3873,65.7317,73.9318],[25.3883,65.7362,78.4653],[25.41,65.7355,79.1932],[25.411,65.7399,79.9715],[25.4218,65.7396,80.9956],[25.4228,65.744,80.6529],[25.5533,65.7395,89.9033],[25.5543,65.744,90.8708],[25.7066,65.7386,100.1836],[25.7076,65.743,102.7669],[25.7946,65.7399,103.9447],[25.7956,65.7443,111.1501],[25.8174,65.7436,104.8055],[25.8184,65.748,113.3297],[25.8292,65.7476,113.6484],[25.8302,65.7521,116.2756],[25.852,65.7513,110.1399],[25.853,65.7558,111.0105],[25.8639,65.7554,112.8084],[25.8649,65.7598,116.3784],[25.8867,65.759,112.5445],[25.8877,65.7635,117.2442],[25.8986,65.7631,116.2029],[25.8996,65.7676,114.3171],[25.9213,65.7668,113.358],[25.9224,65.7712,113.8779],[25.9333,65.7708,120.0097],[25.9353,65.7798,115.5771],[25.9244,65.7802,114.2179],[25.9254,65.7847,116.2702],[25.9146,65.7851,119.5106],[25.9156,65.7896,117.7092],[25.9047,65.79,118.1594],[25.9057,65.7944,123.3344],[25.8948,65.7949,120.6284],[25.8958,65.7993,122.5251],[25.8849,65.7997,124.1461],[25.8859,65.8042,126.5664],[25.875,65.8046,138.3442],[25.876,65.8091,128.2145],[25.8542,65.8099,132.5334],[25.8552,65.8144,134.6382],[25.8443,65.8148,129.9045],[25.8453,65.8193,133.2831],[25.8344,65.8197,130.9005],[25.8354,65.8241,131.6752],[25.8245,65.8245,126.5438],[25.8255,65.829,129.252],[25.8146,65.8294,122.091],[25.8156,65.8339,127.2549],[25.8047,65.8343,115.2716],[25.8057,65.8388,124.8466],[25.7948,65.8392,116.5392],[25.7958,65.8437,116.81],[25.7849,65.844,114.8448],[25.7859,65.8485,110.2804],[25.7749,65.8489,107.829],[25.7759,65.8534,111.5093],[25.765,65.8538,109.0783],[25.766,65.8583,109.8364],[25.7551,65.8587,108.3909],[25.7561,65.8632,108.035],[25.7452,65.8635,109.534],[25.7461,65.868,111.338],[25.7243,65.8688,109.8294],[25.7253,65.8733,108.1618],[25.7144,65.8737,110.9754],[25.7153,65.8782,110.8562],[25.7044,65.8786,109.8996],[25.7054,65.883,110.151],[25.6944,65.8834,110.4209],[25.6954,65.8879,117.1023],[25.6845,65.8883,114.1216],[25.6865,65.8973,117.9534],[25.6974,65.8969,117.6516],[25.7004,65.9103,117.5006],[25.7113,65.9099,117.3358],[25.7133,65.9189,122.7375],[25.7242,65.9185,120.4462],[25.7262,65.9274,117.6734],[25.7372,65.927,115.5622],[25.7392,65.936,117.259],[25.7501,65.9356,116.34],[25.7531,65.949,121.6294],[25.7641,65.9486,126.9501],[25.7661,65.9576,119.5532],[25.7771,65.9572,122.872],[25.7791,65.9661,130.6221],[25.79,65.9658,120.905],[25.7931,65.9792,122.0215],[25.8041,65.9788,124.9821],[25.8061,65.9877,139.2825],[25.817,65.9873,143.9107],[25.8191,65.9963,150.3322],[25.8301,65.9959,142.0292],[25.8331,66.0093,171.4874],[25.8441,66.0089,167.5119],[25.8471,66.0224,162.7675],[25.8361,66.0228,167.3602],[25.8372,66.0272,167.4653],[25.8262,66.0276,155.0646],[25.8282,66.0366,164.1688],[25.8172,66.037,143.6156],[25.8192,66.046,147.4982],[25.8082,66.0464,141.361],[25.8102,66.0553,139.7825],[25.7992,66.0557,139.3697],[25.8003,66.0602,141.0054],[25.7892,66.0606,139.6629],[25.7913,66.0695,141.6612],[25.7803,66.07,142.2198],[25.7823,66.0789,140.2787],[25.7712,66.0793,145.0766],[25.7743,66.0927,147.7865],[25.7963,66.0919,140.8554],[25.7973,66.0964,142.8293],[25.8194,66.0956,145.1104],[25.8204,66.1001,148.9026],[25.8425,66.0993,147.7124],[25.8435,66.1038,154.0008],[25.8545,66.1034,149.0643],[25.8555,66.1078,150.4227],[25.8776,66.107,149.2799],[25.8786,66.1115,151.904],[25.9007,66.1107,148.7237],[25.9017,66.1152,148.2518],[25.9238,66.1144,145.1779],[25.9248,66.1188,148.52],[25.9359,66.1184,145.7583],[25.9369,66.1229,148.0157],[25.959,66.1221,149.6584],[25.96,66.1266,147.9329],[25.9821,66.1257,160.1652],[25.9831,66.1302,159.1477],[26.0052,66.1294,169.9804],[26.0063,66.1339,172.966],[26.0173,66.1335,164.6323],[26.0183,66.1379,179.4162],[26.0404,66.1371,191.1936],[26.0415,66.1416,218.2939],[26.0636,66.1407,176.6452],[26.0646,66.1452,187.9297],[26.0757,66.1448,217.815],[26.0789,66.1582,192.5056],[26.0568,66.1591,200.8023],[26.0578,66.1635,201.5914],[26.0247,66.1648,228.8467],[26.0257,66.1693,217.8972],[25.9926,66.1705,182.4589],[25.9936,66.175,186.4953],[25.9604,66.1762,133.0635],[25.9615,66.1807,137.7826],[25.9394,66.1815,128.1883],[25.9404,66.186,133.8767],[25.9072,66.1872,118.5985],[25.9083,66.1917,117.7867],[25.8751,66.1929,125.0816],[25.8761,66.1974,113.784],[25.8429,66.1986,112.4873],[25.8439,66.2031,118.7665],[25.8107,66.2043,111.8465],[25.8117,66.2088,112.4113],[25.7896,66.2096,110.2985],[25.7906,66.2141,115.0997],[25.7574,66.2152,110.3382],[25.7564,66.2108,114.0971],[25.6677,66.2139,120.7369],[25.6667,66.2094,121.6833],[25.5781,66.2125,100.0882],[25.5771,66.2081,97.2081],[25.4774,66.2115,120.5284],[25.4764,66.207,113.5664],[25.3213,66.2122,61.2525],[25.3223,66.2167,53.1258],[25.3001,66.2175,61.4115],[25.301,66.2219,60.4755],[25.2788,66.2227,61.2096],[25.2798,66.2271,62.0186],[25.2576,66.2279,63.3704],[25.2585,66.2324,60.1156],[25.2363,66.2331,66.2874],[25.2372,66.2376,65.6136],[25.215,66.2383,74.0014],[25.216,66.2428,76.8122],[25.1938,66.2435,85.3332],[25.1947,66.248,82.2585],[25.1725,66.2487,94.7774],[25.1734,66.2532,92.5524],[25.1512,66.2539,108.44],[25.1521,66.2584,95.241],[25.1299,66.2591,89.8429],[25.1308,66.2635,89.9963],[25.1086,66.2643,111.4777],[25.1095,66.2687,157.3115],[25.0873,66.2694,234.07],[25.0881,66.2739,222.1242],[25.0659,66.2746,187.3594],[25.0668,66.2791,174.8559],[25.0446,66.2798,100.4921],[25.0455,66.2843,96.9133],[25.0232,66.285,77.8393],[25.0241,66.2895,77.4823],[25.0019,66.2902,77.8362],[25.0028,66.2946,79.9117],[24.9694,66.2957,87.7449],[24.9703,66.3001,92.1507],[24.948,66.3008,91.0849],[24.9489,66.3053,90.6838],[24.9266,66.306,103.7111],[24.9275,66.3105,106.5702],[24.9052,66.3112,110.6613],[24.9061,66.3157,113.526],[24.8839,66.3163,119.5949],[24.8847,66.3208,122.2678],[24.8624,66.3215,125.7898],[24.8633,66.326,128.2057],[24.841,66.3266,132.5222],[24.8419,66.3311,130.6116],[24.8196,66.3318,127.2572],[24.8205,66.3363,131.0629],[24.7982,66.3369,135.2526],[24.7973,66.3325,139.3645],[24.7862,66.3328,135.1681],[24.7853,66.3283,139.4287],[24.763,66.329,133.4597],[24.7622,66.3245,132.4249],[24.7288,66.3254,146.1718],[24.7279,66.321,145.0658],[24.7057,66.3216,139.6433],[24.7048,66.3171,147.0612],[24.6826,66.3178,143.5574],[24.6817,66.3133,136.4876],[24.6483,66.3143,154.4486],[24.6475,66.3098,147.4645],[24.6252,66.3104,148.1985],[24.6244,66.3059,157.3142],[24.6022,66.3066,135.7034],[24.6013,66.3021,137.863],[24.5791,66.3027,122.1316],[24.5783,66.2982,118.9344],[24.5449,66.2992,115.2012],[24.5441,66.2947,127.5557],[24.5218,66.2953,118.4141],[24.521,66.2908,119.8065],[24.4988,66.2915,130.1884],[24.498,66.287,132.5354],[24.4646,66.2879,126.185],[24.4638,66.2834,120.5812],[24.4416,66.284,121.6637],[24.4408,66.2795,125.1348],[24.4185,66.2801,134.8143],[24.4177,66.2757,137.1861],[24.3955,66.2763,138.9679],[24.3947,66.2718,137.4051],[24.3614,66.2727,130.2238],[24.3606,66.2682,122.1604],[24.3384,66.2688,118.4357],[24.3376,66.2643,120.6662],[24.3154,66.2649,120.0264],[24.3146,66.2604,120.7455],[24.2813,66.2613,128.0695],[24.2805,66.2568,118.5147],[24.2583,66.2574,118.8],[24.2575,66.2529,106.0093],[24.2353,66.2535,102.1708],[24.236,66.258,112.4678],[24.2249,66.2583,105.8546],[24.2257,66.2628,100.9313],[24.2145,66.2631,95.5147],[24.2153,66.2676,97.9995],[24.193,66.2681,95.9593],[24.1908,66.2547,91.4369],[24.2019,66.2544,93.5511],[24.2012,66.2499,94.5345],[24.2123,66.2496,96.5287],[24.2116,66.2451,97.0293],[24.1782,66.246,97.0466],[24.1775,66.2415,92.8478],[24.1553,66.2421,92.3025],[24.1545,66.2376,90.5222],[24.1323,66.2382,90.9642],[24.1316,66.2337,95.4907],[24.1094,66.2342,86.7055],[24.1087,66.2298,86.4094],[24.0754,66.2306,72.6926],[24.0746,66.2261,73.502],[24.0524,66.2267,73.0176],[24.0517,66.2222,73.7895],[24.0295,66.2227,69.7881],[24.0288,66.2183,70.7827],[24.0066,66.2188,67.219],[24.0059,66.2143,82.2855],[23.9837,66.2149,66.3671],[23.983,66.2104,65.3149],[23.9497,66.2112,62.6819],[23.949,66.2067,75.1133],[23.9268,66.2073,74.9808],[23.9261,66.2028,99.3657],[23.9039,66.2033,57.6666],[23.903199999999998,66.1988,57.6509],[23.8922,66.1991,48.05],[23.8874,66.1676,30.5],[23.8985,66.1674,32.2192],[23.8964,66.1539,37.2651],[23.9296,66.1531,33.2147],[23.9289,66.1486,27.0727],[23.94,66.1484,47.5398],[23.9372,66.1304,29.8631],[23.9262,66.1307,24.0],[23.9255,66.1262,32.9873],[23.9365,66.1259,24.0],[23.9345,66.1125,24.9728],[23.9455,66.1122,32.1479],[23.94,66.0763,21.0],[23.9509,66.076,21.0],[23.9497,66.067,23.1216],[23.9607,66.0667,21.0],[23.96,66.0623,22.522],[23.9711,66.062,22.0358],[23.969,66.0485,23.8923],[23.98,66.0482,21.7026],[23.9786,66.0393,21.0],[23.9896,66.039,21.0],[23.9889,66.0345,21.0],[24.0,66.0342,21.0],[23.9986,66.0253,21.0],[24.0096,66.025,21.0],[24.0082,66.016,25.2049],[24.0192,66.0157,21.0],[24.0185,66.0112,24.2423],[24.0295,66.0109,21.0],[24.0288,66.0065,23.1184],[24.0398,66.0062,21.0],[24.0391,66.0017,21.0],[24.0501,66.0014,21.0],[24.0424,65.952,24.1547],[24.0534,65.9518,12.5014],[24.052,65.9428,42.1684],[24.063,65.9425,22.7634],[24.0622,65.938,28.6285],[24.0732,65.9378,13.227],[24.0725,65.9333,32.8451],[24.0835,65.933,6.7689],[24.0821,65.924,15.1429],[24.104,65.9234,12.6739],[24.1033,65.919,12.0309],[24.1143,65.9187,4.5466],[24.1136,65.9142,3.0848],[24.1245,65.9139,8.8359],[24.1238,65.9094,6.5963],[24.1129,65.9097,2.5618],[24.1107,65.8962,2.4064],[24.1217,65.896,2.0141],[24.121,65.8915,2.1119],[24.1319,65.8912,2.1602],[24.1298,65.8777,1.4974],[24.1407,65.8774,1.6155],[24.1386,65.864,3.7118],[24.1495,65.8637,1.3836],[24.1481,65.8547,8.5426],[24.159,65.8544,0.9689],[24.154,65.823,0.5694],[24.1557,65.8224,6.7471],[24.1547,65.8193,0.195],[24.1599,65.8161,1.0624],[24.1547,65.8089,0.0],[24.1578,65.8078,9.8374],[24.1599,65.8047,1.9787],[24.1578,65.8026,0.0],[24.1464,65.7995,0.0],[24.1391,65.7922,10.1944],[24.1318,65.7911,0.145],[24.1297,65.7891,4.1582],[24.1396,65.7854,2.2533],[24.1557,65.7849,0.0],[24.15,65.7792,12.0355],[24.1458,65.7813,0.0],[24.1422,65.7807,0.0],[24.1453,65.7786,0.0],[24.1443,65.7755,0.0],[24.1495,65.7724,7.5421],[24.1464,65.7672,0.0],[24.1495,65.7662,7.7594],[24.1484,65.763,0.0],[24.1536,65.7599,6.6025],[24.1526,65.7568,1.2213],[24.1547,65.7547,0.0],[24.1599,65.7547,2.5947],[24.163,65.7578,3.0977],[24.1771,65.7625,8.5496],[24.187,65.763,1.5],[24.189,65.7662,7.077],[24.1833,65.7667,18.9374],[24.1818,65.7682,37.7645],[24.1938,65.775,0.0],[24.1974,65.7745,0.3574],[24.2005,65.7714,2.6419],[24.2104,65.7688,0.0],[24.2182,65.7703,0.0],[24.2224,65.7682,3.876],[24.2214,65.7651,0.0],[24.2229,65.7646,0.0],[24.2297,65.7703,0.7217],[24.2349,65.7714,2.3703],[24.2339,65.7745,2.862],[24.237,65.7786,3.0075],[24.2307,65.7828,0.0],[24.2234,65.7839,0.0],[24.2255,65.787,0.0],[24.2307,65.788,1.2771],[24.2328,65.7901,0.0],[24.2318,65.7932,4.6521],[24.2354,65.7958,0.0],[24.25,65.7937,0.0],[24.2599,65.7963,0.0],[24.2568,65.7984,0.0],[24.2578,65.8016,0.0],[24.2505,65.8026,14.366],[24.2536,65.8078,0.0],[24.2516,65.8099,0.0],[24.2443,65.8109,0.0],[24.2458,65.8125,0.0],[24.262,65.812,7.9903],[24.2609,65.8089,0.0],[24.2641,65.8078,0.1851],[24.2667,65.8042,0.0],[24.2651,65.8016,2.0195],[24.2661,65.7984,8.4909],[24.2651,65.7963,0.0],[24.2807,65.7932,1.8614],[24.2755,65.7911,0.0],[24.2771,65.7896,0.0],[24.2911,65.7922,0.0],[24.288,65.7943,0.0],[24.2896,65.7958,3.2077],[24.2932,65.7953,3.255],[24.2953,65.7932,0.0],[24.2943,65.7901,0.0],[24.2958,65.7896,0.0],[24.3021,65.7917,0.0],[24.3104,65.7917,0.0],[24.312,65.7932,4.9402],[24.3089,65.7953,0.7489],[24.3146,65.8,0.5252],[24.3234,65.7943,0.0],[24.3333,65.7917,4.3392],[24.3437,65.7917,5.0443],[24.3542,65.7854,0.0],[24.3583,65.7854,6.4247],[24.3625,65.7833,1.8072],[24.3708,65.7833,0.0],[24.375,65.7813,3.9963],[24.3833,65.7813,0.0],[24.3932,65.7786,0.0],[24.4,65.775,0.0],[24.4042,65.775,0.9721],[24.4083,65.7729,0.0],[24.4167,65.7729,3.5353],[24.4208,65.7708,2.6051],[24.4271,65.7708,0.0],[24.4313,65.7729,3.6958],[24.4604,65.7729,0.0],[24.4646,65.775,10.7391],[24.4917,65.7792,0.0],[24.5083,65.7854,0.0],[24.5167,65.7854,0.0],[24.5229,65.7896,3.75],[24.5354,65.7896,1.9948],[24.5401,65.7932,8.5177],[24.5474,65.7943,11.0973],[24.5516,65.7984,12.0055],[24.5484,65.8005,21.5791],[24.5495,65.8037,19.2089],[24.5484,65.8057,19.2566],[24.5516,65.8099,12.0953],[24.5484,65.812,17.6883],[24.5536,65.813,12.2036],[24.5589,65.8182,14.7976],[24.5661,65.8193,12.4368],[24.5766,65.8297,11.7756],[24.5714,65.8339,13.4493],[24.5724,65.837,12.2438],[24.5693,65.838,12.3721],[24.5703,65.8411,12.0319],[24.5693,65.8453,14.9868],[24.5766,65.8464,13.2206],[24.5818,65.8516,15.3111],[24.5953,65.8547,12.4535],[24.5984,65.8578,26.8371],[24.6036,65.8588,11.9918],[24.6057,65.8609,12.2676],[24.6026,65.863,21.3378],[24.6036,65.8703,12.4557],[24.6005,65.8724,23.0204],[24.6078,65.8797,12.179],[24.6068,65.8828,14.1232],[24.613,65.8891,16.1163],[24.6208,65.8896,12.3977],[24.625,65.8917,27.1035],[24.6333,65.8917,12.3122],[24.6458,65.8958,21.8323],[24.6667,65.8958,12.3101],[24.6682,65.8943,16.8624],[24.6458,65.8917,12.403],[24.6354,65.8875,17.4905],[24.6271,65.8875,12.4531],[24.6193,65.8807,12.3796],[24.6224,65.8786,13.1056],[24.6214,65.8755,12.1493],[24.6224,65.8734,13.9522],[24.6172,65.8682,12.1941],[24.6203,65.8662,25.5375],[24.6193,65.863,12.263],[24.6203,65.8609,13.2726],[24.6161,65.8568,12.3852],[24.6047,65.8536,17.7299],[24.5901,65.8391,12.201599999999999],[24.5953,65.8339,19.6287],[24.5932,65.8318,12.934],[24.5859,65.8307,12.2198],[24.5839,65.8287,12.088],[24.587,65.8266,23.1857],[24.5859,65.8234,12.3024],[24.5911,65.8193,14.4674],[24.5839,65.812,11.9864],[24.587,65.8089,11.244],[24.5828,65.8047,12.4048],[24.5729,65.8042,12.0108],[24.5682,65.8005,11.3255],[24.563,65.7995,12.0785],[24.5536,65.7901,6.0308],[24.5443,65.7911,0.0],[24.5401,65.787,4.6663],[24.5411,65.7839,0.7291],[24.5375,65.7813,0.8662],[24.5333,65.7833,0.7046],[24.5271,65.7833,-0.011],[24.5229,65.7813,0.0],[24.5146,65.7813,0.0],[24.5078,65.7755,0.0],[24.5026,65.7745,4.5094],[24.4995,65.7714,4.3005],[24.4917,65.7688,0.0],[24.4813,65.7729,0.0],[24.475,65.7688,0.0],[24.4568,65.7682,0.0],[24.4526,65.763,0.0],[24.4599,65.762,4.7854],[24.4547,65.7557,2.8095],[24.4557,65.7526,4.712],[24.4547,65.7505,0.0],[24.462,65.7495,1.4566],[24.4688,65.7458,0.0],[24.4729,65.7479,0.3649],[24.4854,65.7479,0.0],[24.4917,65.7438,1.3793],[24.5104,65.7438,6.5931],[24.5146,65.7417,0.0],[24.5224,65.7422,2.1002],[24.5214,65.7453,1.5],[24.5229,65.7458,1.5],[24.5354,65.7417,0.0],[24.5542,65.7417,2.9511],[24.5557,65.7401,2.4468],[24.5505,65.7338,2.042],[24.5536,65.7328,5.7364],[24.5526,65.7297,3.4041],[24.5547,65.7276,0.0],[24.5688,65.7271,2.6519],[24.5729,65.7292,0.0],[24.5818,65.7234,0.0],[24.5891,65.7224,3.0205],[24.588,65.7193,0.0],[24.5974,65.7161,5.1421],[24.5964,65.713,0.0],[24.6042,65.7125,3.4329],[24.6104,65.7146,3.2037],[24.6146,65.7125,0.0],[24.6229,65.7125,2.7043],[24.6297,65.7089,0.3486],[24.637,65.7078,3.5666],[24.6391,65.7057,1.1244],[24.638,65.7026,3.0468],[24.6411,65.7016,8.7965],[24.6401,65.6984,2.6362],[24.6458,65.7,2.5],[24.6578,65.6995,2.5],[24.662,65.6974,5.0177],[24.6589,65.6922,0.0],[24.6641,65.6891,0.0],[24.6583,65.6833,3.1859],[24.6505,65.6839,6.0327],[24.6516,65.687,0.0],[24.65,65.6875,0.0],[24.6401,65.688,0.0],[24.6417,65.6896,0.0],[24.6542,65.6896,1.1891],[24.6557,65.6911,0.0],[24.6354,65.6917,4.4913],[24.6297,65.6943,2.9269],[24.6307,65.6974,0.0],[24.6234,65.6984,14.9401],[24.6188,65.7021,0.0],[24.6151,65.7016,0.0],[24.613,65.6995,0.0],[24.6089,65.6922,0.8082],[24.6109,65.6901,0.0],[24.6182,65.6891,2.0775],[24.6203,65.687,4.3603],[24.6193,65.6839,0.0],[24.6208,65.6833,0.0],[24.6432,65.6828,0.5542],[24.6453,65.6807,0.0],[24.6443,65.6776,0.0],[24.6661,65.6641,0.5234],[24.6714,65.6589,0.0]]],
[[[24.2516,65.7672,2.4927],[24.2505,65.7651,5.3056],[24.2542,65.7646,0.0],[24.2578,65.7682,0.0],[24.2542,65.7688,1.5743],[24.2516,65.7672,2.4927]]],
[[[24.2714,65.7828,0.0],[24.2693,65.7797,0.0],[24.2833,65.7792,1.8622],[24.287,65.7818,0.0],[24.2813,65.7854,0.0],[24.2714,65.7828,0.0]]],
[[[24.2646,65.7937,0.2563],[24.2609,65.7932,0.0],[24.2609,65.7922,0.0],[24.2661,65.7922,0.0],[24.2646,65.7937,0.2563]]],
[[[24.3818,65.7734,1.2079],[24.3854,65.7708,0.0],[24.3917,65.7708,0.0],[24.3953,65.7745,0.0],[24.3833,65.775,0.6674],[24.3818,65.7734,1.2079]]],
[[[24.3484,65.7776,0.7447],[24.3542,65.775,0.0],[24.3557,65.7755,1.3264],[24.3521,65.7792,3.552],[24.3484,65.7776,0.7447]]]]}}