{"type":"Feature","properties":{"GID_3":"FIN.5.1.3_1","GID_0":"FIN","country":"Finland","GID_1":"FIN.5_1","province":"WesternFinland","NL_NAME_1":"NA","GID_2":"FIN.5.1_1","county":"CentralFinland","NL_NAME_2":"NA","city":"Jyväskylä","VARNAME_3":"NA","NL_NAME_3":"NA","TYPE_3":"Seutukunta|Ekonomiskregion","ENGTYPE_3":"Sub-Region","CC_3":"NA","HASC_3":"FI.LS.JY","name":"Jyväskylä.city"},
"geometry":{"type": "MultiPolygon","coordinates": [[[[25.7499,62.0653,76.5],[25.769,62.0645,76.5],[25.7699,62.069,76.5],[25.7794,62.0686,76.5],[25.7803,62.0731,76.5],[25.7898,62.0727,76.5],[25.7915,62.0816,76.5],[25.8011,62.0812,76.5],[25.802,62.0857,76.5],[25.7924,62.0861,76.5],[25.8001,62.1264,76.5],[25.8192,62.1256,76.5],[25.8201,62.1301,76.5],[25.8392,62.1292,87.8453],[25.8401,62.1337,92.9161],[25.8688,62.1325,86.3504],[25.8679,62.1281,123.592],[25.8775,62.1277,99.8755],[25.8758,62.1187,131.7418],[25.8853,62.1183,100.4414],[25.8845,62.1138,112.1174],[25.894,62.1134,134.3337],[25.8923,62.1045,140.3266],[25.9019,62.1041,143.8499],[25.901,62.0996,133.3275],[25.9105,62.0992,161.841],[25.9088,62.0903,134.5],[25.9184,62.0899,166.3043],[25.9175,62.0854,191.7654],[25.9366,62.0846,206.5443],[25.9357,62.0801,188.7842],[25.9548,62.0793,159.8335],[25.954,62.0748,169.7383],[25.9635,62.0744,207.0323],[25.9653,62.0834,178.0757],[25.9557,62.0838,159.495],[25.9583,62.0972,191.9369],[25.9488,62.0976,185.0476],[25.9523,62.1155,114.2774],[25.9427,62.1159,151.5898],[25.9489,62.1472,80.0],[25.9584,62.1468,95.6955],[25.9602,62.1557,119.9013],[25.9698,62.1553,130.8973],[25.9724,62.1687,141.345],[26.0012,62.1675,117.9231],[26.002,62.172,129.2076],[26.0499,62.1699,125.1258],[26.0526,62.1833,112.9573],[26.0622,62.1829,116.066],[26.0631,62.1874,113.6672],[26.0823,62.1866,123.9157],[26.085,62.2,124.8344],[26.0946,62.1996,121.728],[26.0973,62.213,132.7411],[26.1069,62.2126,110.0],[26.1087,62.2215,118.722],[26.1183,62.2211,124.8295],[26.1201,62.23,124.3601],[26.1297,62.2296,116.3685],[26.1306,62.2341,110.995],[26.1594,62.2328,125.7848],[26.1585,62.2284,140.7933],[26.1873,62.2271,124.427],[26.1864,62.2226,157.6627],[26.2247,62.221,102.6884],[26.2257,62.2254,104.646],[26.264,62.2237,108.3685],[26.2631,62.2192,114.7846],[26.3207,62.2167,146.6447],[26.3225,62.2256,118.0579],[26.3129,62.2261,115.3688],[26.3157,62.2394,121.0464],[26.3061,62.2399,116.8521],[26.3089,62.2533,123.3929],[26.2993,62.2537,114.222],[26.3012,62.2626,102.5849],[26.3204,62.2618,99.7122],[26.3232,62.2752,104.9308],[26.3136,62.2756,90.5],[26.3155,62.2846,104.6202],[26.3059,62.285,97.9503],[26.3077,62.2939,96.0654],[26.2981,62.2944,100.2551],[26.2991,62.2989,103.7112],[26.2894,62.2993,86.5],[26.2904,62.3037,86.5],[26.2808,62.3042,90.2882],[26.2817,62.3086,89.304],[26.2721,62.3091,95.4508],[26.273,62.3135,100.042],[26.2634,62.314,113.6055],[26.2643,62.3184,106.588],[26.2547,62.3189,107.2021],[26.2556,62.3233,104.1027],[26.246,62.3238,129.797],[26.2469,62.3282,134.238],[26.2373,62.3287,162.8844],[26.2391,62.3376,141.0645],[26.2295,62.338,146.1743],[26.2304,62.3425,125.9224],[26.2208,62.3429,151.3526],[26.2217,62.3474,140.9488],[26.2121,62.3478,186.8167],[26.213,62.3523,160.5242],[26.2034,62.3527,190.2535],[26.2043,62.3572,184.7227],[26.2332,62.3559,118.9785],[26.2341,62.3604,86.5],[26.2534,62.3595,95.7575],[26.2525,62.355,97.8679],[26.2621,62.3546,110.8163],[26.2612,62.3502,86.5],[26.2708,62.3497,86.5],[26.2699,62.3453,86.5],[26.2795,62.3448,86.5],[26.2879,62.3851,86.5],[26.2976,62.3846,86.5],[26.2995,62.3936,108.4513],[26.3091,62.3931,86.5],[26.311,62.4021,97.7655],[26.282,62.4034,86.5],[26.283,62.4078,86.5],[26.254,62.4091,86.5],[26.2568,62.4225,86.5],[26.2471,62.423,86.5],[26.2499,62.4364,86.5],[26.2403,62.4368,86.5],[26.2431,62.4502,107.0036],[26.2334,62.4506,86.5],[26.2362,62.4641,86.5],[26.2265,62.4645,86.5],[26.2293,62.4779,86.5],[26.2196,62.4783,86.5],[26.2224,62.4917,86.5],[26.2031,62.4926,86.5],[26.2021,62.4881,101.085],[26.1925,62.4885,131.615],[26.1906,62.4796,132.9421],[26.1616,62.4808,155.3143],[26.1625,62.4853,106.7162],[26.1431,62.4861,128.7608],[26.1441,62.4906,99.0],[26.1344,62.491,99.0],[26.1353,62.4955,99.0],[26.1256,62.4959,99.0],[26.1274,62.5049,99.0],[26.1178,62.5053,99.0],[26.1187,62.5098,99.0],[26.109,62.5102,99.0],[26.1099,62.5147,99.0],[26.1002,62.5151,99.0],[26.102,62.524,129.589],[26.0923,62.5244,99.0],[26.0933,62.5289,116.042],[26.0835,62.5293,112.6939],[26.0854,62.5383,110.9178],[26.0757,62.5387,101.8027],[26.0775,62.5476,125.9797],[26.0678,62.548,121.9201],[26.0696,62.557,123.4383],[26.0599,62.5574,119.2116],[26.0608,62.5619,134.5613],[26.0511,62.5623,130.1254],[26.0529,62.5712,160.2596],[26.0432,62.5716,154.1628],[26.045,62.5806,168.637],[26.0353,62.581,189.8436],[26.0344,62.5765,168.3163],[26.0247,62.5769,170.3136],[26.0238,62.5724,153.5226],[26.0141,62.5729,159.4124],[26.0123,62.5639,164.2044],[26.0026,62.5643,149.5596],[26.0017,62.5599,139.9856],[25.992,62.5603,138.1431],[25.9902,62.5513,150.1931],[25.9805,62.5517,154.0827],[25.9796,62.5473,165.6761],[25.9699,62.5477,190.3913],[25.9681,62.5387,167.3173],[25.9584,62.5391,161.6233],[25.9575,62.5347,155.2875],[25.9478,62.5351,148.0653],[25.946,62.5261,131.9663],[25.9169,62.5273,128.8935],[25.9178,62.5318,129.7276],[25.8984,62.5326,127.2175],[25.8993,62.5371,132.7309],[25.8799,62.5379,129.17],[25.8808,62.5424,145.0107],[25.8323,62.5444,116.391],[25.8314,62.5399,91.5],[25.8411,62.5395,103.8974],[25.8402,62.535,112.2618],[25.8499,62.5346,112.8269],[25.8473,62.5212,88.5],[25.8279,62.522,98.9538],[25.827,62.5175,107.4251],[25.8173,62.5179,117.7054],[25.8156,62.509,154.5081],[25.7768,62.5106,167.658],[25.776,62.5061,169.8136],[25.7469,62.5073,152.9365],[25.746,62.5028,172.1485],[25.7363,62.5032,200.612],[25.7355,62.4987,220.7956],[25.7258,62.4991,193.102],[25.7224,62.4812,242.7547],[25.6933,62.4824,169.0748],[25.6976,62.5047,136.3884],[25.6879,62.5051,112.4167],[25.6896,62.5141,127.2587],[25.6702,62.5149,180.9811],[25.671,62.5193,163.5257],[25.6904,62.5186,118.2355],[25.6921,62.5275,97.4754],[25.6824,62.5279,122.0478],[25.6833,62.5324,117.6568],[25.6639,62.5331,136.7682],[25.6445,62.5339,140.0078],[25.6436,62.5294,162.2329],[25.6339,62.5298,142.9737],[25.6365,62.5432,133.5879],[25.6268,62.5436,120.7064],[25.6285,62.5526,108.0008],[25.541,62.556,171.9861],[25.5402,62.5515,162.8097],[25.5305,62.5519,169.2526],[25.5297,62.5474,151.3149],[25.52,62.5478,147.2323],[25.5192,62.5433,141.1572],[25.49,62.5445,123.7075],[25.4909,62.5489,130.4374],[25.4811,62.5493,121.9227],[25.4803,62.5448,146.5596],[25.4706,62.5452,142.12],[25.4698,62.5407,185.7511],[25.4504,62.5415,111.5],[25.4479,62.5281,111.5],[25.4382,62.5284,115.0143],[25.4374,62.524,121.7525],[25.418,62.5247,141.3764],[25.4172,62.5202,167.7005],[25.3978,62.521,159.6983],[25.3986,62.5254,156.8122],[25.3695,62.5265,157.6839],[25.3703,62.531,161.7801],[25.3606,62.5314,168.939],[25.3614,62.5359,162.2873],[25.2352,62.5406,195.9758],[25.236,62.545,190.2484],[25.2166,62.5457,189.9421],[25.2158,62.5413,193.5801],[25.2061,62.5416,191.3334],[25.2053,62.5372,202.1263],[25.1956,62.5375,188.4664],[25.1824,62.4614,213.6447],[25.1727,62.4617,224.0495],[25.1719,62.4573,232.0705],[25.1623,62.4576,241.0632],[25.1615,62.4531,241.0665],[25.1518,62.4535,241.8533],[25.1503,62.4445,243.9937],[25.1406,62.4449,241.2707],[25.1391,62.4359,251.3778],[25.1294,62.4363,222.7108],[25.1279,62.4273,233.1483],[25.1665,62.4259,212.0015],[25.1658,62.4214,209.1962],[25.2335,62.419,191.0573],[25.2327,62.4145,187.0],[25.2617,62.4134,201.7024],[25.2609,62.4089,212.5704],[25.2706,62.4086,197.5],[25.2698,62.4041,212.4754],[25.2795,62.4037,197.5],[25.2779,62.3948,215.051],[25.2875,62.3944,205.4931],[25.286,62.3855,197.2441],[25.2956,62.3851,195.4168],[25.294,62.3762,213.487],[25.3037,62.3758,207.3446],[25.3021,62.3669,205.9629],[25.3214,62.3661,218.0604],[25.3222,62.3706,211.4684],[25.3415,62.3699,210.5673],[25.3423,62.3743,211.2675],[25.3616,62.3736,199.4886],[25.3624,62.3781,191.7907],[25.3721,62.3777,175.7802],[25.3713,62.3733,180.7579],[25.3906,62.3725,182.9322],[25.3898,62.368,176.2623],[25.4091,62.3673,183.6567],[25.4083,62.3628,186.8388],[25.4372,62.3617,178.4368],[25.4364,62.3572,176.5752],[25.4461,62.3569,176.4052],[25.4436,62.3434,214.6972],[25.4533,62.3431,199.195],[25.4541,62.3475,195.1601],[25.4927,62.3461,211.0094],[25.4918,62.3416,201.9353],[25.4822,62.3419,199.615],[25.4798,62.3285,199.7896],[25.4701,62.3289,199.5458],[25.4669,62.311,211.5782],[25.4572,62.3114,206.1403],[25.4548,62.2979,193.4296],[25.4452,62.2983,203.8608],[25.4436,62.2894,160.6092],[25.434,62.2897,156.4673],[25.4315,62.2763,166.0928],[25.4219,62.2767,178.9895],[25.4171,62.2498,167.8098],[25.4267,62.2495,142.5364],[25.4259,62.245,147.8135],[25.474,62.2431,121.7818],[25.4732,62.2386,134.2487],[25.4924,62.2379,126.8004],[25.4891,62.22,100.5],[25.4795,62.2204,120.0469],[25.4746,62.1935,114.656],[25.4842,62.1931,115.6819],[25.4834,62.1887,114.4052],[25.493,62.1883,100.1271],[25.4914,62.1793,90.0],[25.501,62.179,90.0],[25.4994,62.17,95.4939],[25.509,62.1696,90.0],[25.5065,62.1562,90.0],[25.5161,62.1558,90.0],[25.5169,62.1603,112.7219],[25.5457,62.1592,90.0],[25.5424,62.1413,90.0],[25.5328,62.1417,90.0],[25.5312,62.1327,90.0],[25.5216,62.1331,90.0],[25.52,62.1241,90.0],[25.5104,62.1245,90.0],[25.5088,62.1156,133.666],[25.4992,62.1159,148.1755],[25.496,62.098,190.2582],[25.4864,62.0984,165.0345],[25.484,62.085,195.8082],[25.5318,62.0831,160.799],[25.5302,62.0742,155.9838],[25.6544,62.0692,146.5647],[25.6552,62.0737,127.5],[25.6743,62.0729,100.3347],[25.6752,62.0774,76.5],[25.7038,62.0762,76.5],[25.703,62.0717,76.5],[25.7412,62.0702,76.5],[25.7404,62.0657,76.5],[25.7499,62.0653,76.5]]]]}}