{"type":"Feature","properties":{"featurecla":"Lake","scalerank":9,"name":"null520","name_abb":null,"name_alt":null,"note":"_untitled_223","delta":null,"dam_name":null,"year":-99,"admin":null,"min_zoom":7.0,"min_label":8.0},
"geometry":{"type": "Polygon","coordinates": [[[23.764461541407172,63.102362983033771,66.5],[23.766522090297087,63.113843183991918,66.5],[23.761517900135857,63.120613558915949,66.5],[23.754453161084683,63.126206477331436,66.5],[23.750920791559111,63.133565580509725,66.5],[23.751215155686225,63.156820346553133,66.5],[23.74915460679631,63.175365286562425,66.5],[23.739146226473849,63.1909665853004,66.5],[23.716774552811842,63.205979155784121,66.5],[23.628170950545211,63.239242302149989,80.1563],[23.616102021332807,63.246307041201163,97.3025],[23.609331646408776,63.247778861836821,103.3769],[23.601383814976231,63.246895769455421,97.7522],[23.601383814976231,63.239242302149989,92.7663],[23.608154189900233,63.234238111988759,86.3852],[23.624932945146753,63.216576264360867,78.6406],[23.628170950545211,63.212160802453894,79.4961],[23.62140057562118,63.199503144987233,66.5],[23.608742918154519,63.195970775461632,66.5],[23.580189597822738,63.19832568847869,73.0404],[23.559878473050645,63.192438405936059,73.6521],[23.542216625422753,63.177131471325225,91.5486],[23.530147696210349,63.155937254171732,99.5308],[23.525732234303376,63.133565580509725,104.0016],[23.533974429863065,63.115315004627575,100.4779],[23.594024711797914,63.067922380159359,104.7632],[23.614041472442892,63.036131054429148,91.5238],[23.630231499435126,63.0264170382338,73.0517],[23.656135542622707,63.033187413157833,71.2969],[23.661728461038223,63.040546516336121,87.5018],[23.66643828707231,63.060857641108214,87.0536],[23.669676292470768,63.067922380159359,73.4985],[23.681745221683173,63.07469275508339,83.8171],[23.709709813760668,63.079991309371763,106.5667],[23.730020938532761,63.08970532556711,79.8426],[23.755630617593226,63.094120787474083,72.8305],[23.764461541407172,63.102362983033771,66.5]]]}}