{"type": "Feature","id": "3187","bbox": [26.04278,60.27729,28.00378,61.28706],"geometry": {"type": "MultiPolygon","coordinates": [[[[27.31829,60.28604,0.0],[27.31227,60.28819,0.0],[27.3012,60.28758,0.0],[27.2977,60.28311,0.0],[27.31023,60.27729,7.2679],[27.31829,60.28604,0.0]]],
[[[26.78199,60.34683,0.0],[26.78663,60.34837,0.0],[26.78761,60.35257,0.0],[26.78728,60.35489,0.0],[26.78386,60.36209,0.0],[26.77597,60.36522,0.0],[26.76092,60.37206,0.0],[26.74383,60.36457,4.9805],[26.76271,60.35057,4.5609],[26.77394,60.34463,0.0],[26.78012,60.34276,0.0],[26.78199,60.34683,0.0]]],
[[[27.06878,60.37832,0.0],[27.07325,60.40156,0.0],[27.06332,60.40477,0.0],[27.02752,60.4125,0.0],[27.02174,60.4099,0.0],[27.02036,60.40685,8.9356],[27.02605,60.39574,16.921],[27.04078,60.38044,24.2596],[27.05266,60.3769,17.1766],[27.06422,60.37576,11.4915],[27.06878,60.37832,0.0]]],
[[[26.54859,60.37836,0.0],[26.55893,60.39741,0.0],[26.57309,60.40534,13.8217],[26.63649,60.41486,23.0667],[26.64967,60.42154,13.6173],[26.6526,60.42691,7.1777],[26.64405,60.43187,17.583],[26.60206,60.44652,0.0],[26.59344,60.44595,3.1681],[26.58497,60.44107,7.7598],[26.58025,60.43464,4.9719],[26.58074,60.42739,0.0],[26.57472,60.42178,0.0],[26.56088,60.41682,3.3528],[26.51344,60.41128,13.1435],[26.50717,60.40347,0.0],[26.52613,60.38516,0.0],[26.53834,60.37808,13.4502],[26.54859,60.37836,0.0]]],
[[[26.64915,61.21197,74.5],[26.64027,61.22148,74.5],[26.64512,61.22531,74.5],[26.6659,61.24815,74.5],[26.66114,61.25691,74.5],[26.65308,61.26303,80.1725],[26.64481,61.27378,75.5],[26.63468,61.28256,94.3004],[26.61195,61.28706,115.4034],[26.51511,61.27368,94.0018],[26.46539,61.26608,98.8424],[26.44276,61.25916,103.2339],[26.43315,61.25368,98.5142],[26.41816,61.21921,122.3915],[26.39542,61.19983,118.8202],[26.30065,61.15492,80.4022],[26.19792,61.13301,76.5],[26.1667,61.1357,92.9106],[26.13022,61.15136,76.5],[26.08547,61.13784,100.5937],[26.06066,61.121,146.44],[26.05208,61.10761,129.346],[26.05818,61.0902,132.4098],[26.0681,61.08772,114.552],[26.08371,61.08222,119.3296],[26.09673,61.07534,142.089],[26.10872,61.06692,125.3039],[26.11503,61.05762,99.3669],[26.11844,61.04656,83.8011],[26.12443,61.03633,86.479],[26.13105,61.03188,74.8594],[26.13663,61.02491,73.5],[26.11854,60.99359,73.5],[26.11162,60.98563,73.5],[26.0957,60.98181,114.6688],[26.05632,60.98532,76.1187],[26.04619,60.98406,75.6814],[26.04278,60.95509,82.4748],[26.0771,60.93886,86.8142],[26.14572,60.93008,107.3624],[26.15936,60.91998,119.6009],[26.15141,60.91215,100.6518],[26.13508,60.89882,85.4524],[26.12422,60.8853,61.4458],[26.12319,60.87631,58.9356],[26.11895,60.86786,69.6223],[26.11193,60.86698,67.5765],[26.09684,60.86205,67.7846],[26.08578,60.85251,71.7882],[26.0834,60.8381,89.2376],[26.09312,60.83065,70.1448],[26.15513,60.82585,58.464],[26.18035,60.81562,91.5691],[26.19688,60.7997,61.1796],[26.20773,60.77929,80.2998],[26.21549,60.75541,51.0076],[26.23574,60.75234,59.7493],[26.27078,60.75479,60.3328],[26.28866,60.752,38.4628],[26.30189,60.74407,30.9915],[26.32018,60.72244,53.072],[26.32793,60.71722,49.8711],[26.32907,60.70167,25.9765],[26.32866,60.68787,31.279],[26.34829,60.6711,38.7111],[26.4163,60.65129,25.7058],[26.45041,60.63472,18.4664],[26.47438,60.61496,19.7999],[26.50105,60.5994,15.4058],[26.54311,60.59553,26.0406],[26.5533,60.59177,15.0],[26.55331,60.59178,15.0],[26.59181,60.62857,21.3127],[26.61549,60.64305,21.3249],[26.65919,60.6518,31.227],[26.69923,60.6402,41.9139],[26.73178,60.61286,20.2098],[26.75318,60.57416,29.5553],[26.66668,60.60643,16.9426],[26.62501,60.60961,18.9038],[26.57984,60.59138,32.1667],[26.56739,60.58096,15.6802],[26.56446,60.57258,24.5235],[26.56764,60.54995,32.2262],[26.56365,60.54336,33.2335],[26.53663,60.51553,19.4725],[26.51726,60.5058,16.3203],[26.49147,60.49811,9.6032],[26.47486,60.48725,9.3957],[26.48268,60.468,0.0],[26.50196,60.45307,0.0],[26.52735,60.43989,0.0],[26.5534,60.43301,0.0],[26.57447,60.43696,0.0],[26.57716,60.44733,0.0],[26.59441,60.4523,0.0],[26.61704,60.45295,0.0],[26.63592,60.45063,0.0],[26.65089,60.44208,16.1029],[26.66928,60.42841,11.6977],[26.68735,60.41816,0.0],[26.70143,60.41991,0.0],[26.71062,60.42585,0.0],[26.73194,60.43293,0.0],[26.73902,60.43696,0.0],[26.74098,60.44367,0.0],[26.73902,60.46088,7.552],[26.74244,60.468,0.0],[26.75685,60.47663,0.0],[26.77654,60.48286,0.0],[26.79705,60.48591,1.4392],[26.81471,60.48542,4.1091],[26.80649,60.47053,28.8933],[26.80104,60.46369,31.8881],[26.79363,60.45746,20.1138],[26.82309,60.45775,0.0],[26.91472,60.47455,18.2934],[26.92433,60.46699,0.0],[26.9546,60.44941,0.0],[26.96241,60.44721,0.0],[26.96534,60.45848,3.1345],[26.95558,60.46931,7.2613],[26.93141,60.48542,2.3247],[26.9769,60.48355,0.0],[26.99822,60.48802,0.0],[27.01173,60.50947,0.0],[27.02076,60.51435,0.0],[27.02711,60.51992,0.0],[27.02394,60.52949,0.0],[27.02442,60.53608,0.0],[27.03338,60.54182,21.945],[27.04518,60.5458,0.2292],[27.05437,60.54682,13.1749],[27.06284,60.54291,16.7984],[27.07895,60.52863,0.0],[27.08839,60.52578,0.0],[27.09571,60.5292,0.0],[27.10564,60.54361,0.0],[27.11256,60.54682,12.7359],[27.12403,60.54352,20.5398],[27.13771,60.52904,0.0],[27.14991,60.52578,2.1997],[27.16969,60.52863,2.7277],[27.17579,60.52513,0.0],[27.17774,60.51211,0.0],[27.20069,60.52326,34.3676],[27.19703,60.53705,0.0],[27.18385,60.55219,0.0],[27.17774,60.56733,2.3249],[27.19174,60.57974,11.9425],[27.21461,60.58495,0.3125],[27.22771,60.57958,0.7453],[27.21192,60.55988,-0.4217],[27.28492,60.53653,33.5975],[27.30812,60.52578,20.4716],[27.2566,60.52945,22.5679],[27.2308,60.52631,-0.5686],[27.23243,60.51211,0.0],[27.24879,60.50788,0.0],[27.32521,60.50585,0.0],[27.36931,60.49787,0.0],[27.4568,60.46369,0.0],[27.50668,60.45746,0.0],[27.50074,60.46475,0.0],[27.49301,60.4702,0.0],[27.48357,60.47443,9.8407],[27.47267,60.47797,14.5409],[27.47828,60.48168,0.0],[27.48707,60.48945,0.0],[27.49317,60.49225,0.0],[27.48634,60.50194,0.0],[27.48227,60.5043,0.0],[27.47267,60.50585,19.6466],[27.50847,60.51386,19.8626],[27.59246,60.47736,21.7373],[27.62965,60.47114,0.0],[27.61931,60.48408,11.7422],[27.61085,60.49213,8.2625],[27.60825,60.49995,22.5127],[27.61598,60.51211,22.4535],[27.63217,60.52167,0.0],[27.6517,60.52265,1.606],[27.69166,60.51895,2.5317],[27.67661,60.51118,19.7657],[27.64576,60.50357,-0.3792],[27.63649,60.49225,0.0],[27.70541,60.48542,0.0],[27.71844,60.48847,0.0],[27.75318,60.50585,20.4632],[27.74643,60.5065,0.0],[27.73268,60.51211,0.0],[27.73813,60.51333,0.0],[27.75318,60.51895,0.0],[27.74057,60.53059,0.0],[27.73341,60.54426,0.0],[27.73618,60.55557,0.0],[27.75318,60.55988,0.0],[27.74952,60.56314,0.0],[27.74317,60.57095,0.0],[27.73951,60.57416,0.0],[27.76205,60.58015,0.0],[27.7776,60.57368,1.5002],[27.79119,60.5622,18.2952],[27.80787,60.55305,10.2128],[27.89295,60.60426,17.3856],[27.98101,60.64948,41.039],[28.00378,60.66423,53.8618],[28.00297,60.66433,53.8618],[27.98809,60.66632,28.3028],[27.9791,60.66614,28.2554],[27.95605,60.66816,43.0093],[27.95295,60.66984,27.7497],[27.95429,60.67113,25.7492],[27.95708,60.67322,20.5],[27.96153,60.67593,27.1867],[27.9546,60.68193,36.3545],[27.90406,60.69986,34.7627],[27.88753,60.70844,37.5],[27.87833,60.71908,49.5779],[27.86241,60.74632,62.9367],[27.8529,60.75567,36.7794],[27.8128,60.76327,55.5252],[27.76764,60.76053,62.6411],[27.73043,60.76523,60.4015],[27.71793,60.77779,78.919],[27.68837,60.79869,64.3861],[27.51081,60.79779,75.752],[27.48011,60.80701,73.6641],[27.45252,60.82306,60.2],[27.40425,60.85789,79.1446],[27.37149,60.87293,102.2379],[27.24633,60.89809,95.7343],[27.21181,60.90925,116.0813],[27.14297,60.94687,88.8784],[27.13026,60.9585,83.5412],[27.1313,60.96393,107.9985],[27.14628,60.96238,78.2059],[27.16116,60.95835,77.7273],[27.19258,60.95401,63.5],[27.2239,60.95698,82.1756],[27.2393,60.96214,68.5436],[27.2424,60.97196,97.998],[27.23186,60.9755,87.2232],[27.22225,60.98307,106.5637],[27.21594,60.99152,82.7057],[27.20426,60.99969,93.3893],[27.1901,61.00315,123.2409],[27.15672,61.00666,83.0],[27.14897,61.00873,83.0],[27.14473,61.01372,99.0588],[27.16127,61.02713,113.5699],[27.15331,61.03914,124.7634],[27.14969,61.05333,106.1623],[27.1683,61.07286,96.6304],[27.20261,61.08643,110.0213],[27.21863,61.0903,106.63],[27.22927,61.09687,118.2042],[27.21749,61.10283,114.7097],[27.2115,61.10459,101.1842],[27.19796,61.10593,97.0],[27.18969,61.10565,117.5652],[27.18762,61.11343,107.8951],[27.20757,61.13273,121.3919],[27.21501,61.14459,100.0],[27.21315,61.1618,119.3736],[27.00159,61.15154,76.0],[26.94361,61.17131,101.166],[26.92852,61.18469,100.5532],[26.92521,61.19053,128.3556],[26.92242,61.20358,133.2904],[26.9218,61.21027,111.0],[26.91828,61.22675,134.316],[26.90888,61.24045,121.2921],[26.89689,61.2491,117.007],[26.88697,61.26055,128.6455],[26.88397,61.27135,113.5],[26.87188,61.28329,139.1144],[26.83757,61.28256,127.3372],[26.81628,61.27936,109.9455],[26.79695,61.27347,103.8008],[26.78537,61.26587,108.2066],[26.77049,61.24665,88.7527],[26.7614,61.23916,74.5],[26.73287,61.22582,74.5],[26.69887,61.21417,74.5],[26.66445,61.2098,74.5],[26.64915,61.21197,74.5]]]]}
,"properties": {"ISO3166-1-Alpha-3": "FIN","country": "Finland","fill": "#F0F","name": "Kymenlaakso","area_km2": 5460.644,"hist_schema_id": "Elevation0-9000","hist_area_km2": {"0": 285.585,"25": 1192.429,"50": 1186.031,"75": 1470.32,"100": 964.485,"125": 329.895,"150": 31.846,"175": 0.051}}}