{"type": "Feature","bbox": [26.0428,60.2729,27.9983,61.2911],"geometry": {"type": "MultiPolygon","coordinates": [[[[27.3979,60.3042,8.714],[27.3995,60.3057,0.8595],[27.3964,60.3057,1.3598],[27.3964,60.3047,7.3269],[27.3979,60.3042,8.714]]],
[[[27.4599,60.3495,12.5468],[27.4542,60.35,0.0],[27.4526,60.3484,0.0],[27.4583,60.3479,4.9482],[27.4599,60.3495,12.5468]]],
[[[27.4266,60.3536,19.582],[27.4208,60.3542,20.0303],[27.4193,60.3526,12.9597],[27.425,60.3521,8.8483],[27.4266,60.3536,19.582]]],
[[[27.4297,60.387,15.5616],[27.4234,60.3839,0.0],[27.4333,60.3833,10.2507],[27.437,60.3859,7.2636],[27.4333,60.3896,12.6988],[27.4297,60.387,15.5616]]],
[[[27.4214,60.4016,11.9911],[27.4224,60.4036,0.0],[27.4172,60.4057,1.7462],[27.4203,60.4068,6.3544],[27.4266,60.413,5.65],[27.4229,60.4167,0.349],[27.4151,60.4141,6.611],[27.4068,60.4057,10.8301],[27.413,60.4005,10.5703],[27.4208,60.3979,8.1929],[27.4224,60.3984,12.7193],[27.4214,60.4016,11.9911]]],
[[[27.388,60.412,15.3677],[27.3922,60.4068,12.3553],[27.3953,60.4068,15.6174],[27.3974,60.4089,14.8041],[27.3937,60.4125,10.0069],[27.388,60.412,15.3677]]],
[[[27.4505,60.4307,3.7461],[27.4516,60.4276,20.3496],[27.4505,60.4255,8.307],[27.4562,60.425,14.0821],[27.4641,60.4328,9.3003],[27.4625,60.4333,8.3651],[27.4583,60.4313,0.0],[27.4505,60.4307,3.7461]]],
[[[27.5505,60.4349,13.079],[27.5557,60.437,0.0],[27.5438,60.4417,0.0],[27.5359,60.4318,0.0],[27.5479,60.4292,8.8858],[27.5516,60.4318,11.3617],[27.5505,60.4349,13.079]]],
[[[27.7,60.4292,6.3819],[27.7016,60.4307,8.6909],[27.6984,60.4307,7.8203],[27.6984,60.4297,8.8958],[27.7,60.4292,6.3819]]],
[[[27.7062,60.4604,0.0],[27.7026,60.4589,0.0],[27.7062,60.4562,0.0],[27.7099,60.4599,11.1134],[27.7062,60.4604,0.0]]],
[[[27.7188,60.4604,0.0],[27.7266,60.4589,10.1269],[27.7255,60.462,12.896],[27.7286,60.4661,15.6807],[27.7214,60.4661,0.0],[27.7172,60.462,10.1868],[27.7188,60.4604,0.0]]],
[[[27.7646,60.4688,17.1833],[27.7609,60.4672,20.6221],[27.7646,60.4646,0.0],[27.7703,60.4651,15.4788],[27.7693,60.4682,12.2115],[27.7703,60.4703,0.0],[27.7646,60.4688,17.1833]]],
[[[27.5333,60.4521,12.7049],[27.5318,60.4505,10.0559],[27.5339,60.4484,9.4408],[27.5411,60.4484,8.0632],[27.5391,60.4516,9.2547],[27.5333,60.4521,12.7049]]],
[[[27.5292,60.4521,17.7409],[27.5307,60.4536,15.4532],[27.5276,60.4536,16.1668],[27.5276,60.4526,17.7409],[27.5292,60.4521,17.7409]]],
[[[27.575,60.4562,4.0876],[27.5792,60.4562,0.3136],[27.5807,60.4578,8.316],[27.5729,60.4604,22.6181],[27.5693,60.4578,5.4142],[27.5708,60.4562,0.0],[27.575,60.4562,4.0876]]],
[[[27.3958,60.4646,11.0585],[27.3839,60.4672,18.0759],[27.3771,60.4729,10.6069],[27.3672,60.4724,25.432],[27.3734,60.4651,13.7204],[27.3766,60.4641,21.0651],[27.3755,60.4609,18.6967],[27.3807,60.4557,8.2188],[27.3755,60.4526,11.9103],[27.3896,60.4521,13.0996],[27.3943,60.4484,0.0],[27.4,60.4479,0.0],[27.4042,60.45,10.4196],[27.412,60.4505,1.3343],[27.4161,60.4547,7.7749],[27.4161,60.4578,18.8462],[27.4141,60.4599,0.0],[27.4,60.4646,4.8648],[27.3958,60.4646,11.0585]]],
[[[27.775,60.4708,5.378],[27.7766,60.4714,0.0],[27.7766,60.4724,0.0],[27.7734,60.4724,14.529],[27.775,60.4708,5.378]]],
[[[27.6786,60.4766,0.0],[27.6729,60.4771,20.3276],[27.6714,60.4755,0.0],[27.6771,60.475,12.8262],[27.6786,60.4766,0.0]]],
[[[27.7521,60.475,10.0308],[27.7536,60.4755,0.0],[27.7536,60.4766,11.0486],[27.7505,60.4766,0.0],[27.7521,60.475,10.0308]]],
[[[27.6833,60.4792,8.9484],[27.6849,60.4797,18.7906],[27.6849,60.4807,17.8669],[27.6818,60.4807,17.8639],[27.6833,60.4792,8.9484]]],
[[[27.5812,60.4688,0.0],[27.5828,60.4693,0.0],[27.5828,60.4703,9.5748],[27.5797,60.4703,8.8489],[27.5812,60.4688,0.0]]],
[[[27.538,60.4797,12.9505],[27.5458,60.475,11.3478],[27.55,60.4792,6.6017],[27.5417,60.4875,0.0],[27.5359,60.487,0.0],[27.5339,60.4849,12.9834],[27.538,60.4797,12.9505]]],
[[[27.3932,60.4891,0.0],[27.3901,60.4891,10.3395],[27.388,60.4859,10.8613],[27.3911,60.4859,5.8484],[27.3932,60.4891,0.0]]],
[[[27.5432,60.4901,7.1207],[27.5417,60.4917,0.0],[27.5354,60.4917,8.2843],[27.5354,60.4896,0.0],[27.5432,60.4901,7.1207]]],
[[[27.3745,60.4932,18.7682],[27.3646,60.4979,20.7634],[27.3521,60.4979,2.4477],[27.338,60.4922,0.0],[27.3417,60.4896,17.0719],[27.3604,60.4896,15.869],[27.3646,60.4875,0.0],[27.375,60.4875,0.0],[27.3771,60.4896,14.376],[27.3745,60.4932,18.7682]]],
[[[27.4917,60.4979,6.7704],[27.4875,60.4979,0.0],[27.4859,60.4964,10.4098],[27.4932,60.4964,12.62],[27.4917,60.4979,6.7704]]],
[[[27.7521,60.5083,20.3322],[27.7484,60.5068,0.0],[27.7521,60.5042,0.0],[27.7557,60.5078,24.0038],[27.7521,60.5083,20.3322]]],
[[[27.7667,60.5062,0.0],[27.7682,60.5068,0.0],[27.7682,60.5078,7.4185],[27.7651,60.5078,0.0],[27.7667,60.5062,0.0]]],
[[[27.7724,60.512,0.0],[27.7667,60.5125,8.0559],[27.7651,60.5109,0.0],[27.7708,60.5104,0.0],[27.7724,60.512,0.0]]],
[[[27.7938,60.5417,0.0],[27.7901,60.5401,0.0],[27.7938,60.5375,0.0],[27.7979,60.5375,0.0],[27.8016,60.5401,0.0],[27.8,60.5417,0.0],[27.7938,60.5417,0.0]]],
[[[27.7625,60.5583,0.0],[27.7609,60.5578,13.8631],[27.7589,60.5547,0.0],[27.7661,60.5547,13.7545],[27.7625,60.5583,0.0]]],
[[[27.8827,60.6048,29.6165],[27.8909,60.6094,38.0484],[27.8918,60.6133,35.5281],[27.8972,60.613,26.293],[27.9193,60.6252,18.7849],[27.9224,60.6251,17.2668],[27.923,60.6273,42.8446],[27.9872,60.663,50.9097],[27.9881,60.6664,28.3028],[27.9516,60.6685,29.7657],[27.9527,60.673,27.3719],[27.9618,60.6725,20.5],[27.963,60.6769,20.5],[27.9539,60.6775,25.2408],[27.9561,60.6864,20.5],[27.9287,60.688,29.0],[27.9298,60.6924,37.8504],[27.9025,60.694,29.0],[27.9036,60.6985,29.7841],[27.8945,60.699,50.2271],[27.8967,60.708,58.1395],[27.8875,60.7085,37.5],[27.8886,60.7129,52.9099],[27.8795,60.7135,59.3321],[27.8817,60.7224,54.6916],[27.8726,60.7229,46.2575],[27.8748,60.7318,69.1955],[27.8657,60.7324,49.7509],[27.8667,60.7368,59.6995],[27.8576,60.7374,30.0],[27.862,60.7552,58.6021],[27.8529,60.7557,36.7794],[27.8551,60.7646,44.8564],[27.7911,60.7683,49.4017],[27.79,60.7639,61.5684],[27.7809,60.7644,66.3718],[27.7798,60.76,66.7554],[27.7707,60.7605,72.3514],[27.7696,60.756,62.856],[27.7422,60.7576,55.5],[27.7433,60.7621,65.2476],[27.725,60.7631,58.726],[27.7271,60.772,79.2685],[27.718,60.7726,73.4351],[27.7202,60.7815,70.9243],[27.711,60.782,63.6285],[27.7142,60.7954,57.456],[27.6868,60.797,66.0068],[27.6879,60.8014,73.3659],[27.5964,60.8066,69.2343],[27.5953,60.8021,67.171],[27.577,60.8032,70.5239],[27.5759,60.7987,69.7132],[27.5485,60.8002,82.4117],[27.5474,60.7958,67.3452],[27.5017,60.7984,62.7174],[27.5027,60.8028,75.1301],[27.4936,60.8033,90.2898],[27.4946,60.8078,80.6658],[27.4763,60.8088,82.2833],[27.4774,60.8132,64.1312],[27.4682,60.8138,83.2722],[27.4693,60.8182,63.7108],[27.4509,60.8192,79.1717],[27.453,60.8282,85.4342],[27.4439,60.8287,79.9433],[27.4449,60.8331,89.665],[27.4357,60.8336,84.994],[27.4368,60.8381,82.9901],[27.4276,60.8386,73.3178],[27.4287,60.8431,75.3055],[27.4195,60.8436,68.6943],[27.4205,60.848,82.0241],[27.4114,60.8485,79.3806],[27.4124,60.853,84.5158],[27.403199999999998,60.8535,92.1586],[27.4043,60.858,79.682],[27.3951,60.8585,88.4386],[27.3961,60.8629,92.5922],[27.387,60.8634,92.5022],[27.389,60.8723,118.3795],[27.3799,60.8728,110.325],[27.3809,60.8773,95.4298],[27.3717,60.8778,109.9022],[27.3728,60.8823,89.6952],[27.3452,60.8838,100.7456],[27.3463,60.8882,97.5932],[27.3095,60.8902,69.0063],[27.3106,60.8947,100.2773],[27.2371,60.8986,77.8474],[27.2381,60.9031,85.4236],[27.2106,60.9046,116.4493],[27.2116,60.909,116.0813],[27.2024,60.9095,96.1918],[27.2034,60.914,74.8869],[27.1942,60.9145,82.7477],[27.1952,60.9189,86.2527],[27.186,60.9194,78.0062],[27.1871,60.9239,79.7607],[27.1779,60.9244,78.2058],[27.1789,60.9288,79.6988],[27.1697,60.9293,76.0],[27.1707,60.9338,85.8676],[27.1615,60.9343,83.2798],[27.1625,60.9387,108.5691],[27.1533,60.9392,83.7486],[27.1543,60.9437,93.4389],[27.1451,60.9442,87.7712],[27.1461,60.9486,86.7555],[27.1369,60.9491,88.5163],[27.1379,60.9536,84.8486],[27.1287,60.9541,73.0],[27.1317,60.9674,86.7944],[27.1409,60.967,80.6205],[27.1399,60.9625,67.7291],[27.1583,60.9615,83.1985],[27.1573,60.9571,80.9373],[27.1757,60.9561,81.7327],[27.1747,60.9516,63.0],[27.1931,60.9506,82.0089],[27.1941,60.9551,71.181],[27.2125,60.9541,83.7281],[27.2135,60.9586,91.5112],[27.2319,60.9576,79.973],[27.233,60.9621,64.5],[27.2422,60.9616,82.4206],[27.2432,60.966,80.0814],[27.2524,60.9656,73.0],[27.2534,60.97,102.802],[27.2258,60.9715,82.0007],[27.2268,60.976,91.343],[27.2176,60.9765,85.6417],[27.2207,60.9898,72.8274],[27.2114,60.9903,74.7575],[27.2124,60.9948,77.3052],[27.2032,60.9953,114.2809],[27.2053,61.0042,86.081],[27.1868,61.0052,106.251],[27.1858,61.0007,117.6338],[27.1582,61.0022,113.237],[27.1592,61.0066,83.0],[27.15,61.0071,83.0],[27.151,61.0116,100.1318],[27.1418,61.0121,83.0],[27.1428,61.0165,89.3444],[27.152,61.0161,95.6687],[27.154,61.025,120.0527],[27.1632,61.0245,107.3378],[27.1642,61.029,121.6967],[27.155,61.0294,112.3885],[27.158,61.0428,126.3496],[27.1488,61.0433,122.4843],[27.1549,61.0701,92.0926],[27.1641,61.0696,96.7488],[27.1661,61.0785,120.5005],[27.1754,61.078,117.7672],[27.1764,61.0825,114.4776],[27.1856,61.082,111.9662],[27.1866,61.0865,110.4025],[27.2051,61.0855,108.88],[27.2061,61.09,122.1359],[27.2338,61.0885,97.5],[27.2349,61.093,110.2903],[27.2256,61.0934,118.3219],[27.2267,61.0979,107.2663],[27.2174,61.0984,125.7572],[27.2184,61.1029,114.7097],[27.2092,61.1034,97.0],[27.2102,61.1078,116.1751],[27.201,61.1083,97.0],[27.1999,61.1039,97.0],[27.1815,61.1048,102.6224],[27.1855,61.1227,110.0646],[27.1948,61.1222,106.7762],[27.1968,61.1311,107.1742],[27.2061,61.1306,117.4035],[27.2071,61.1351,123.5212],[27.2163,61.1346,127.5339],[27.2194,61.148,126.8418],[27.2102,61.1485,122.7089],[27.2132,61.1619,119.3736],[27.1299,61.1663,98.5522],[27.1289,61.1618,90.0],[27.1011,61.1632,137.2492],[27.1001,61.1588,121.1741],[27.0908,61.1593,111.9787],[27.0898,61.1548,124.4434],[27.0713,61.1558,112.7142],[27.0703,61.1513,106.5276],[27.0425,61.1527,115.5111],[27.024,61.1537,85.9857],[27.025,61.1581,122.8984],[26.9972,61.1596,103.8084],[26.9982,61.164,91.4751],[26.9704,61.1655,100.0],[26.9714,61.1699,112.6074],[26.9436,61.1713,101.166],[26.9446,61.1758,132.954],[26.926,61.1768,97.5],[26.927,61.1812,119.5948],[26.9177,61.1817,113.9017],[26.9217,61.1996,136.2769],[26.9227,61.204,138.5862],[26.9319,61.2036,135.5238],[26.9339,61.2125,144.9542],[26.9246,61.213,111.0],[26.9276,61.2263,129.928],[26.9183,61.2268,134.316],[26.9193,61.2313,145.3967],[26.91,61.2318,112.0],[26.911,61.2362,131.2498],[26.9017,61.2367,112.0],[26.9027,61.2411,129.199],[26.8934,61.2416,112.0],[26.8953,61.2505,127.8092],[26.886,61.251,121.6103],[26.889,61.2644,113.5],[26.8797,61.2649,113.5],[26.8836,61.2827,113.0],[26.8464,61.2846,109.0],[26.8454,61.2801,123.8758],[26.8268,61.2811,126.2654],[26.8259,61.2766,124.0495],[26.8073,61.2775,94.9933],[26.8063,61.2731,104.3574],[26.797,61.2735,114.1267],[26.796,61.2691,98.7836],[26.7774,61.27,77.5],[26.7736,61.2521,97.1234],[26.7643,61.2526,104.9203],[26.7614,61.2392,74.5],[26.7521,61.2397,76.9422],[26.7492,61.2262,74.5],[26.7307,61.2272,74.5],[26.7297,61.2227,74.5],[26.7204,61.2232,74.5],[26.7195,61.2187,80.8474],[26.7009,61.2196,74.5],[26.6999,61.2151,74.5],[26.6907,61.2156,74.5],[26.6897,61.2111,74.5],[26.6712,61.212,74.5],[26.6702,61.2076,74.5],[26.6516,61.2085,74.5],[26.6526,61.2129,74.5],[26.6433,61.2134,74.5],[26.6442,61.2179,74.5],[26.635,61.2183,74.5],[26.6369,61.2272,74.5],[26.6461,61.2268,74.5],[26.6471,61.2313,74.5],[26.6564,61.2308,74.5],[26.6583,61.2397,74.5],[26.6676,61.2393,74.5],[26.6704,61.2527,74.5],[26.6611,61.2531,87.0336],[26.6621,61.2576,74.5],[26.6528,61.2581,74.5],[26.6547,61.267,106.9211],[26.6454,61.2674,87.6702],[26.6482,61.2808,75.5],[26.6389,61.2813,75.5],[26.6408,61.2902,101.7262],[26.6222,61.2911,82.0],[26.6212,61.2867,91.5716],[26.6119,61.2871,116.9608],[26.611,61.2826,111.3826],[26.6017,61.2831,137.6335],[26.6007,61.2786,121.8188],[26.5914,61.2791,124.7157],[26.5905,61.2746,134.0401],[26.5719,61.2755,88.6524],[26.571,61.271,99.6599],[26.5524,61.2719,82.5],[26.5533,61.2764,82.5],[26.5254,61.2777,96.249],[26.5245,61.2733,99.6862],[26.5058,61.2742,109.0755],[26.5049,61.2697,105.5607],[26.4863,61.2706,130.7547],[26.4854,61.2661,101.0],[26.4575,61.2674,102.1063],[26.4566,61.263,109.6163],[26.4473,61.2634,103.686],[26.4464,61.2589,103.5815],[26.4371,61.2594,100.8429],[26.4352,61.2504,101.5152],[26.4259,61.2509,98.5872],[26.425,61.2464,100.0028],[26.4343,61.246,100.0515],[26.4316,61.2326,101.0787],[26.4223,61.233,101.3028],[26.4205,61.224,108.0892],[26.4112,61.2245,118.0039],[26.4093,61.2155,109.1239],[26.4001,61.216,99.3846],[26.3964,61.1981,124.0784],[26.3871,61.1986,128.194],[26.3844,61.1851,117.7453],[26.3751,61.1856,127.7859],[26.3742,61.1811,109.3301],[26.365,61.1815,103.8758],[26.3641,61.1771,75.0],[26.3548,61.1775,75.0],[26.3539,61.173,75.0],[26.3446,61.1735,75.0],[26.3437,61.169,75.0],[26.3159,61.1703,75.0],[26.315,61.1658,92.2845],[26.2872,61.1671,98.3211],[26.2863,61.1626,90.3859],[26.277,61.1631,98.7458],[26.2743,61.1497,108.8621],[26.2651,61.1501,104.1389],[26.2633,61.1411,126.0489],[26.254,61.1416,142.8877],[26.2531,61.1371,121.7021],[26.2439,61.1375,114.9788],[26.2421,61.1286,117.3128],[26.2236,61.1294,116.3669],[26.2245,61.1339,102.8484],[26.1503,61.1373,76.5],[26.1521,61.1462,76.5],[26.1428,61.1466,76.5],[26.1446,61.1556,76.5],[26.1353,61.156,76.5],[26.1344,61.1515,76.5],[26.1251,61.1519,76.5],[26.1243,61.1475,76.5],[26.115,61.1479,76.5],[26.1141,61.1434,76.5],[26.1049,61.1438,86.2755],[26.104,61.1394,76.5],[26.0947,61.1398,84.0767],[26.0939,61.1353,98.1079],[26.0846,61.1357,112.2822],[26.0838,61.1312,113.8774],[26.0745,61.1316,125.1543],[26.0736,61.1272,129.9085],[26.0644,61.1276,136.4326],[26.0635,61.1231,147.6155],[26.0542,61.1235,150.9058],[26.0482,61.0922,147.9201],[26.0667,61.0914,120.029],[26.0659,61.0869,114.2791],[26.0844,61.0861,137.6915],[26.0835,61.0816,113.0948],[26.102,61.0808,138.9796],[26.1012,61.0763,134.2253],[26.1104,61.0759,115.98779999999999],[26.1052,61.0491,89.9842],[26.1145,61.0487,91.4591],[26.1136,61.0442,102.2511],[26.1229,61.0438,101.1814],[26.1211,61.0349,82.1846],[26.1304,61.0344,81.2214],[26.1295,61.03,73.5],[26.1387,61.0296,73.5],[26.1379,61.0251,73.5],[26.1286,61.0255,73.5],[26.1209,60.9853,73.5],[26.1117,60.9857,73.5],[26.1108,60.9812,73.5],[26.1016,60.9816,73.5],[26.1007,60.9771,73.5],[26.0915,60.9776,73.5],[26.0906,60.9731,73.5],[26.0722,60.9739,84.7857],[26.0739,60.9829,84.1607],[26.0462,60.9841,75.6814],[26.0428,60.9662,110.3339],[26.052,60.9658,107.4009],[26.0495,60.9524,101.9688],[26.0587,60.952,118.1026],[26.0562,60.9386,88.4217],[26.0654,60.9382,86.2786],[26.0645,60.9337,81.9738],[26.1658,60.9291,93.84],[26.1632,60.9157,108.4605],[26.154,60.9161,98.482],[26.1523,60.9072,86.6476],[26.1431,60.9076,86.5181],[26.1413,60.8987,99.4057],[26.1321,60.8991,78.7103],[26.1304,60.8901,64.2876],[26.1212,60.8905,60.7931],[26.1178,60.8727,59.8856],[26.127,60.8722,60.4234],[26.1261,60.8678,60.3085],[26.1077,60.8686,60.4849],[26.1069,60.8641,104.5889],[26.0977,60.8646,61.268],[26.096,60.8556,95.633],[26.0868,60.856,73.9982],[26.0825,60.8337,82.4265],[26.0917,60.8333,85.9453],[26.0909,60.8288,70.8638],[26.1092,60.828,62.3514],[26.1101,60.8324,58.8142],[26.1193,60.832,60.7462],[26.1284,60.8316,88.8149],[26.1276,60.8271,51.3371],[26.1551,60.8259,58.464],[26.1542,60.8214,58.2812],[26.1726,60.8206,63.1212],[26.1717,60.8161,77.9022],[26.1809,60.8157,91.5691],[26.18,60.8112,94.5311],[26.1892,60.8108,84.9515],[26.1883,60.8063,93.017],[26.1975,60.8059,96.4631],[26.1966,60.8014,69.859],[26.2058,60.801,66.3737],[26.2023,60.7831,60.0689],[26.2115,60.7827,69.7933],[26.2063,60.7559,68.3879],[26.2246,60.755,45.8218],[26.2237,60.7506,43.1279],[26.2512,60.7493,50.2398],[26.2538,60.7627,39.567],[26.2813,60.7614,46.4368],[26.2804,60.757,49.6631],[26.2896,60.7565,37.0671],[26.2887,60.7521,38.4832],[26.2979,60.7516,31.4307],[26.297,60.7472,31.3754],[26.3061,60.7467,34.2414],[26.3026,60.7289,29.9778],[26.3118,60.7284,60.6473],[26.3109,60.724,41.6001],[26.32,60.7235,56.7675],[26.3191,60.7191,35.02],[26.3283,60.7186,49.1517],[26.3274,60.7142,32.8348],[26.3365,60.7137,57.8023],[26.3348,60.7048,26.5232],[26.3256,60.7052,27.6786],[26.3239,60.6963,40.053],[26.333,60.6959,31.3086],[26.3304,60.6825,30.1378],[26.3395,60.682,29.5112],[26.3377,60.6731,41.4795],[26.356,60.6722,36.2659],[26.3534,60.6588,37.8715],[26.399,60.6567,42.4261],[26.3981,60.6522,47.547],[26.4346,60.6504,43.8397],[26.4337,60.646,25.9257],[26.4519,60.6451,21.874],[26.451,60.6406,19.3319],[26.4602,60.6402,19.563],[26.4593,60.6357,18.5512],[26.4684,60.6353,19.2508],[26.4666,60.6264,18.4856],[26.4757,60.6259,24.3338],[26.4748,60.6214,23.3705],[26.4839,60.621,26.7002],[26.4803,60.6031,15.3773],[26.4894,60.6027,15.6742],[26.4885,60.5982,15.2613],[26.5432,60.5956,26.0406],[26.5423,60.5911,15.0],[26.5514,60.5907,15.0],[26.5532,60.5996,15.0667],[26.5623,60.5991,15.0],[26.5641,60.6081,31.1838],[26.5732,60.6076,28.3137],[26.5751,60.6166,16.505],[26.5842,60.6161,19.7701],[26.586,60.6251,16.9099],[26.5951,60.6246,18.9243],[26.5979,60.638,22.86],[26.607,60.6376,20.5925],[26.6088,60.6465,28.0233],[26.6271,60.6456,44.3519],[26.628,60.6501,34.1355],[26.6462,60.6492,32.6309],[26.6471,60.6536,41.1149],[26.6563,60.6532,30.1135],[26.6745,60.6523,45.9129],[26.6736,60.6478,35.7666],[26.6918,60.6469,25.3683],[26.6899,60.638,34.4739],[26.6991,60.6375,40.5563],[26.6972,60.6286,43.2375],[26.7063,60.6281,38.8004],[26.7054,60.6237,34.6284],[26.7145,60.6232,28.9714],[26.7126,60.6143,27.4907],[26.7217,60.6138,28.4123],[26.7199,60.6049,28.3922],[26.729,60.6044,29.6772],[26.7281,60.6,29.2981],[26.7372,60.5995,30.411],[26.7353,60.5906,26.016],[26.7444,60.5901,31.6959],[26.7435,60.5856,20.2578],[26.7526,60.5852,31.1081],[26.7507,60.5763,26.6346],[26.7325,60.5772,26.8564],[26.7334,60.5816,26.521],[26.7152,60.5826,16.0],[26.7162,60.587,27.374],[26.698,60.5879,16.0],[26.6989,60.5924,20.9449],[26.6807,60.5933,18.5474],[26.6825,60.6022,17.828],[26.6734,60.6027,18.3346],[26.6743,60.6072,17.554],[26.6652,60.6076,15.5],[26.6662,60.6121,20.2295],[26.6206,60.6143,17.8985],[26.6197,60.6099,16.3783],[26.6015,60.6108,29.4994],[26.6006,60.6063,18.213],[26.5915,60.6067,19.0497],[26.5905,60.6023,18.5549],[26.5814,60.6027,21.018],[26.5796,60.5938,18.354],[26.5705,60.5942,19.8568],[26.5687,60.5853,15.0],[26.5596,60.5857,15.0],[26.5577,60.5768,15.0],[26.5486,60.5773,15.0],[26.5441,60.5549,15.195],[26.535,60.5554,36.359],[26.5341,60.5509,18.2963],[26.5159,60.5518,15.0],[26.515,60.5473,22.7704],[26.5059,60.5477,15.0],[26.505,60.5433,24.8244],[26.4868,60.5442,19.4442],[26.486,60.5397,15.0],[26.495,60.5393,15.0],[26.4941,60.5348,26.3571],[26.5032,60.5344,25.0071],[26.5023,60.5299,24.0875],[26.5114,60.5294,11.5],[26.5096,60.5205,17.928],[26.5005,60.521,18.0887],[26.4996,60.5165,14.7606],[26.4905,60.5169,23.4993],[26.4888,60.508,20.2928],[26.4797,60.5084,17.3535],[26.4788,60.504,16.8509],[26.4697,60.5044,9.5],[26.4679,60.4955,9.5],[26.4588,60.4959,9.0],[26.4579,60.4914,11.5562],[26.4535,60.4916,6.4494],[26.4608,60.4884,0.9517],[26.4632,60.4838,0.0],[26.4703,60.4828,0.0],[26.4745,60.4786,10.6105],[26.4734,60.4755,0.0],[26.4828,60.4724,17.7539],[26.4818,60.4693,0.0],[26.4859,60.4651,0.0],[26.4932,60.4641,14.4877],[26.4974,60.4599,0.0],[26.4964,60.4568,0.0],[26.5016,60.4557,1.6816],[26.5026,60.4526,0.0],[26.512,60.4516,3.9219],[26.5182,60.4495,2.7031],[26.5229,60.4458,0.0],[26.5313,60.4521,0.0],[26.5391,60.4495,1.1755],[26.538,60.4464,6.0473],[26.5411,60.4453,2.2428],[26.5484,60.438,5.7175],[26.5547,60.4339,0.0],[26.5661,60.4307,0.0],[26.5745,60.4245,0.0],[26.5708,60.4208,0.0],[26.5625,60.4208,4.7641],[26.5578,60.4245,0.0],[26.5547,60.4245,4.0287],[26.5557,60.4172,0.0],[26.5526,60.412,13.104],[26.5536,60.4089,18.6053],[26.5521,60.4083,23.2876],[26.5438,60.4083,0.0],[26.5271,60.4146,0.0],[26.5151,60.4172,0.0],[26.5104,60.4208,0.0],[26.5068,60.4182,0.6851],[26.5078,60.4151,6.7886],[26.5026,60.4068,0.0],[26.5047,60.4047,0.0],[26.5099,60.4036,1.7337],[26.5151,60.3964,7.3114],[26.5255,60.388,2.0389],[26.5411,60.3828,4.1373],[26.538,60.3776,6.17],[26.5417,60.375,0.0],[26.5495,60.3776,0.0],[26.5484,60.3807,0.0],[26.5536,60.3818,24.0963],[26.5484,60.3859,0.0],[26.5495,60.3932,0.0],[26.5464,60.3943,9.1676],[26.5443,60.3974,0.0],[26.5646,60.4042,0.0],[26.5688,60.4042,3.5407],[26.5729,60.4021,0.0],[26.5807,60.4047,0.0],[26.5776,60.4078,5.0798],[26.5854,60.4104,0.0],[26.5896,60.4083,10.9279],[26.5938,60.4083,4.5381],[26.6,60.4125,19.5134],[26.6188,60.4125,0.0],[26.625,60.4167,0.0],[26.6333,60.4167,0.0],[26.6375,60.4146,23.0667],[26.6417,60.4167,0.0],[26.6563,60.4167,8.9613],[26.6578,60.4182,4.8962],[26.6505,60.4234,9.1408],[26.6516,60.4266,7.1777],[26.6484,60.4307,10.4244],[26.6505,60.4328,0.0],[26.6563,60.4333,7.6764],[26.6641,60.4307,4.5357],[26.6693,60.4255,0.0],[26.675,60.425,0.0],[26.6766,60.4255,6.051],[26.6755,60.4328,5.9011],[26.6833,60.4354,17.1513],[26.7078,60.4318,0.0],[26.7234,60.4516,0.0],[26.7333,60.4521,14.7719],[26.7375,60.45,0.0],[26.7432,60.4505,3.6652],[26.7474,60.4557,0.0],[26.7422,60.4568,9.5054],[26.7438,60.4604,0.0],[26.7401,60.4651,0.7674],[26.7411,60.4724,0.0],[26.738,60.4745,0.0],[26.7432,60.4755,0.0],[26.7401,60.4807,0.0],[26.7438,60.4833,0.0],[26.7516,60.4807,0.0],[26.7484,60.4755,0.0],[26.7536,60.4724,2.0794],[26.7526,60.4693,0.0],[26.7547,60.4672,5.1679],[26.7599,60.4661,10.1603],[26.7729,60.4562,0.0],[26.7771,60.4583,14.912],[26.7854,60.4583,6.6428],[26.7896,60.4562,4.5574],[26.7979,60.4562,0.0],[26.8021,60.4583,23.21],[26.8099,60.4589,0.0],[26.8089,60.462,21.9678],[26.8104,60.4625,19.081],[26.8271,60.4625,0.0],[26.8312,60.4604,6.5886],[26.8354,60.4604,6.0531],[26.8396,60.4625,0.0],[26.8458,60.4625,2.9831],[26.8495,60.4651,0.0],[26.8484,60.4682,0.0],[26.8578,60.4693,0.0],[26.8536,60.4724,7.0218],[26.8484,60.4734,0.0],[26.8521,60.4771,0.0],[26.862,60.4766,3.3573],[26.8688,60.4708,0.0],[26.8771,60.4708,0.0],[26.8833,60.4729,0.0],[26.8875,60.4708,5.9835],[26.8917,60.4708,3.4251],[26.8932,60.4714,10.4861],[26.8932,60.4745,0.0],[26.888,60.4766,0.0],[26.8932,60.4786,0.0],[26.888,60.4807,0.5634],[26.8917,60.4833,0.0],[26.8995,60.4807,0.0],[26.9047,60.4755,0.0],[26.912,60.4745,18.2952],[26.9109,60.4714,14.9227],[26.913,60.4693,0.0],[26.925,60.4667,0.0],[26.9328,60.4693,0.0],[26.9349,60.4724,0.0],[26.9297,60.4766,1.695],[26.9375,60.4771,2.593],[26.9453,60.4797,3.051],[26.9474,60.4828,2.2616],[26.9432,60.487,8.4439],[26.9375,60.4896,2.4602],[26.9318,60.4891,1.9852],[26.9349,60.4859,2.9134],[26.9255,60.4839,2.9837],[26.9266,60.487,2.6972],[26.9172,60.4901,9.4441],[26.9182,60.4932,0.0],[26.9151,60.4974,0.0],[26.9271,60.4938,0.0],[26.9349,60.4964,0.0],[26.938,60.4995,0.0],[26.9438,60.5,0.0],[26.9453,60.4984,6.8488],[26.9401,60.4974,0.0],[26.9432,60.4932,0.0],[26.9536,60.4891,8.3779],[26.9583,60.4854,0.0],[26.963,60.4891,0.0],[26.9703,60.4901,0.0],[26.9724,60.4922,0.0],[26.9714,60.4953,0.0],[26.9729,60.4958,0.0],[26.9792,60.4917,0.0],[26.9849,60.4922,0.8247],[26.9891,60.4974,0.0],[26.9818,60.5026,17.7112],[26.9755,60.5099,0.0],[26.9833,60.5125,0.118],[26.9875,60.5125,0.0],[26.9917,60.5104,7.0609],[27.0083,60.5104,19.336],[27.0161,60.513,0.0],[27.0193,60.5161,2.3422],[27.0245,60.5172,9.0771],[27.0193,60.5214,17.7197],[27.0203,60.5286,0.0],[27.0151,60.5318,0.0],[27.0182,60.537,0.0],[27.013,60.538,11.2199],[27.0068,60.5422,1.2433],[27.0089,60.5453,0.0],[27.0141,60.5464,0.9024],[27.013,60.5495,-0.0189],[27.0167,60.5521,0.0],[27.0245,60.5495,5.8719],[27.0234,60.5464,6.3712],[27.0266,60.5422,22.832],[27.0234,60.5401,9.4591],[27.0276,60.5359,0.0],[27.0328,60.5349,0.0],[27.0276,60.5328,0.0],[27.0255,60.5297,0.0],[27.0391,60.5266,12.0198],[27.0339,60.5203,3.0746],[27.0354,60.5187,0.0],[27.0401,60.5224,6.1345],[27.0526,60.5266,5.6009],[27.0604,60.5292,0.2864],[27.0682,60.5297,0.0],[27.0667,60.5333,0.0],[27.0688,60.5354,6.5248],[27.0833,60.5354,22.0305],[27.0953,60.5318,0.0],[27.0974,60.5349,0.0],[27.0901,60.5359,16.695],[27.0911,60.5391,14.6023],[27.0901,60.5411,4.4079],[27.0943,60.5453,0.0],[27.1,60.5458,2.8222],[27.1078,60.5432,4.5221],[27.1099,60.5411,4.7655],[27.1089,60.538,0.0],[27.1182,60.5349,16.2707],[27.1234,60.5297,2.9592],[27.1286,60.5286,1.167],[27.1339,60.5214,0.0],[27.1396,60.5208,0.0],[27.1437,60.5229,0.0],[27.1479,60.5208,0.0],[27.1625,60.5187,0.0],[27.1661,60.5214,0.0],[27.163,60.5255,4.2286],[27.1651,60.5286,5.6888],[27.1708,60.5271,1.7516],[27.1766,60.5276,13.5892],[27.1745,60.5307,3.2085],[27.1714,60.5318,2.5647],[27.1745,60.537,0.0],[27.1714,60.5411,10.2492],[27.1766,60.5495,0.0],[27.1714,60.5505,6.8135],[27.1745,60.5557,0.0],[27.1714,60.5568,23.0114],[27.1693,60.5599,0.0],[27.175,60.5583,6.245],[27.1792,60.5604,8.8643],[27.1896,60.5604,1.9389],[27.1938,60.5625,0.0],[27.1979,60.5625,0.0],[27.1995,60.5609,2.9805],[27.1943,60.5578,0.204],[27.1974,60.5526,2.3714],[27.1922,60.5516,3.6343],[27.1901,60.5484,10.5446],[27.1953,60.5411,0.0],[27.1943,60.538,0.0],[27.1995,60.537,17.4978],[27.2057,60.5328,0.0],[27.2047,60.5297,3.9821],[27.2057,60.5276,19.9941],[27.1943,60.5245,0.0],[27.1964,60.5214,0.0],[27.1995,60.5203,16.4968],[27.1984,60.5172,10.2471],[27.2146,60.5167,0.0],[27.2188,60.5146,11.6214],[27.2234,60.5182,0.0],[27.2286,60.5193,2.0814],[27.2276,60.5224,12.0108],[27.2297,60.5245,0.0],[27.2458,60.525,0.0],[27.25,60.5271,11.6083],[27.2578,60.5245,15.7662],[27.2568,60.5214,12.9315],[27.2682,60.5182,16.7286],[27.2672,60.513,5.9005],[27.275,60.5062,0.0],[27.2859,60.5161,9.9636],[27.3021,60.5208,0.0],[27.3078,60.5182,2.3266],[27.3026,60.5151,0.0],[27.3083,60.5104,0.0],[27.3146,60.5104,0.0],[27.3271,60.5062,0.0],[27.3312,60.5062,7.0621],[27.3354,60.5083,11.1863],[27.3521,60.5083,1.7218],[27.3599,60.5057,3.4267],[27.362,60.5036,8.1949],[27.3609,60.5005,0.0],[27.3625,60.5,0.0],[27.375,60.5,-0.9193],[27.3792,60.4979,0.0],[27.3833,60.5,0.0],[27.3891,60.4995,0.0],[27.3839,60.4964,4.3399],[27.3875,60.4938,9.2883],[27.3953,60.4932,0.0],[27.3995,60.4911,10.6163],[27.4068,60.4839,0.0],[27.412,60.4828,5.039],[27.4104,60.4792,9.3007],[27.412,60.4766,15.709],[27.4109,60.4734,12.2355],[27.4224,60.4703,0.0],[27.4292,60.4667,11.3921],[27.4318,60.4703,14.032],[27.4396,60.4729,19.5009],[27.4521,60.4729,0.0],[27.4609,60.4672,0.0],[27.4661,60.4661,12.1211],[27.463,60.4609,2.3881],[27.4661,60.4609,16.3437],[27.4708,60.4646,19.1164],[27.4771,60.4604,0.0],[27.4854,60.4604,0.0],[27.4932,60.4641,0.0],[27.4859,60.4714,19.6923],[27.4849,60.4745,0.0],[27.4797,60.4755,13.1273],[27.475,60.4792,0.0],[27.4672,60.4797,10.3126],[27.4609,60.4839,23.090699999999998],[27.4568,60.4891,9.1496],[27.4609,60.4932,17.8111],[27.4661,60.4943,0.0],[27.4682,60.4964,0.0],[27.4651,60.4995,9.8717],[27.4828,60.5005,6.9072],[27.4797,60.5057,0.0],[27.4938,60.5104,4.2051],[27.5026,60.5026,15.4454],[27.5083,60.5021,4.9695],[27.512,60.4995,0.0],[27.5068,60.4974,8.472],[27.5109,60.4922,0.0],[27.5167,60.4917,6.3945],[27.5208,60.4938,0.0],[27.525,60.4917,0.0],[27.5354,60.4917,8.2843],[27.5354,60.4938,13.683],[27.538,60.4953,1.9254],[27.5438,60.4958,0.0],[27.5583,60.4896,0.0],[27.5661,60.4891,0.0],[27.5651,60.4859,0.0],[27.5776,60.4755,33.492],[27.5917,60.4708,0.0],[27.6042,60.4708,11.8481],[27.6083,60.4688,0.0],[27.6167,60.4688,9.8198],[27.6203,60.4724,0.0],[27.6109,60.4755,17.5057],[27.6078,60.4786,17.1313],[27.6,60.4792,5.1746],[27.5922,60.4818,11.8416],[27.588,60.4839,17.2406],[27.5859,60.487,10.8852],[27.5901,60.4911,0.0],[27.5958,60.4917,5.2262],[27.6,60.4896,0.0],[27.6078,60.4891,8.5312],[27.6188,60.4813,0.0],[27.6229,60.4833,15.8099],[27.6292,60.4833,6.8366],[27.6328,60.4859,0.0],[27.6276,60.4901,18.2356],[27.6313,60.4938,7.7321],[27.6396,60.4938,10.6489],[27.6542,60.4896,0.0],[27.6667,60.4896,5.5302],[27.6729,60.4854,0.0],[27.6854,60.4854,0.0],[27.6938,60.4938,13.187],[27.7167,60.4938,17.2348],[27.7229,60.4896,0.0],[27.7292,60.4896,3.9495],[27.7411,60.4859,7.3247],[27.7401,60.4932,0.0],[27.7432,60.4974,0.0],[27.7401,60.4995,7.3822],[27.7432,60.5036,18.3463],[27.7391,60.5078,0.0],[27.7318,60.5089,0.0],[27.7297,60.5109,22.555],[27.7328,60.5161,11.1413],[27.7297,60.5203,0.0],[27.7333,60.5229,0.0],[27.7432,60.5214,4.7469],[27.7453,60.5266,0.0],[27.7313,60.5313,0.0],[27.7234,60.5318,18.939],[27.7245,60.537,16.3108],[27.7151,60.5422,0.0],[27.7203,60.5443,0.0],[27.7229,60.5479,0.0],[27.7214,60.5505,9.092],[27.7224,60.5536,1.3132],[27.7214,60.5557,0.0],[27.7245,60.5599,0.0],[27.7214,60.5609,2.5032],[27.7193,60.5641,0.0],[27.7214,60.5661,6.1289],[27.7328,60.5693,6.926],[27.7349,60.5714,5.0934],[27.7339,60.5766,0.0],[27.738,60.5807,0.0],[27.7479,60.5812,2.6659],[27.7521,60.5792,0.0],[27.7563,60.5792,0.0],[27.7604,60.5812,0.0],[27.7646,60.5812,0.0],[27.7703,60.5786,0.0612],[27.7672,60.5745,10.6187],[27.7682,60.5714,0.0],[27.7672,60.5693,0.0],[27.7766,60.562,0.0],[27.7755,60.5589,0.0],[27.7792,60.5542,0.0],[27.7776,60.5505,5.2254],[27.7979,60.5438,0.0],[27.8036,60.5432,25.3634],[27.8068,60.5401,0.0],[27.812,60.5391,18.2892],[27.8105,60.5366,0.0],[27.8133,60.5356,9.2985],[27.8204,60.5375,29.3868],[27.8213,60.5403,31.8031],[27.8018,60.5494,15.6172],[27.8291,60.5538,35.8154],[27.8402,60.553,25.2463],[27.8411,60.556399999999996,33.6551],[27.8495,60.5667,10.8464],[27.8483,60.5715,8.0054],[27.8621,60.5879,51.6948],[27.8671,60.5876,55.5855],[27.8689,60.5948,52.7446],[27.8827,60.6048,29.6165]]],
[[[27.762,60.5693,10.2383],[27.7599,60.5724,0.0],[27.7521,60.575,0.0],[27.7484,60.5724,0.0],[27.7583,60.5667,0.0],[27.762,60.5693,10.2383]]],
[[[27.9919,60.6661,42.3756],[27.9983,60.6703,45.7594],[27.9892,60.6708,30.0166],[27.9881,60.6664,28.3028],[27.9919,60.6661,42.3756]]],
[[[27.1771,60.5083,14.503],[27.1734,60.5078,12.6024],[27.1734,60.5068,12.217],[27.1807,60.5068,16.373],[27.1771,60.5083,14.503]]],
[[[27.0646,60.5167,-0.5],[27.0609,60.5151,9.4852],[27.0682,60.5151,5.1354],[27.0682,60.5161,0.0],[27.0646,60.5167,-0.5]]],
[[[27.2984,60.2807,12.7223],[27.3005,60.2776,3.1489],[27.3063,60.275,4.2231],[27.3089,60.2786,18.9725],[27.3141,60.2797,4.4155],[27.3104,60.2833,0.0],[27.3021,60.2833,9.2335],[27.2984,60.2807,12.7223]]],
[[[27.1953,60.288,1.8844],[27.1938,60.2896,4.2997],[27.188,60.2891,17.7734],[27.1896,60.2875,5.8749],[27.1953,60.288,1.8844]]],
[[[27.2266,60.3047,8.9073],[27.225,60.3063,0.0],[27.2193,60.3057,15.0505],[27.2208,60.3042,0.0],[27.2266,60.3047,8.9073]]],
[[[27.2641,60.3443,0.0],[27.2641,60.3474,3.3732],[27.2609,60.3474,0.0],[27.2609,60.3443,0.0],[27.2641,60.3443,0.0]]],
[[[27.1589,60.2734,0.0],[27.1604,60.2729,0.0],[27.162,60.2745,2.0178],[27.1604,60.275,15.6591],[27.1589,60.2734,0.0]]],
[[[27.1792,60.2771,15.7877],[27.1708,60.2771,0.0],[27.1693,60.2755,11.395],[27.1807,60.2755,0.0],[27.1792,60.2771,15.7877]]],
[[[27.1495,60.288,13.0732],[27.1479,60.2896,0.0],[27.1422,60.2891,16.2503],[27.1437,60.2875,6.4152],[27.1495,60.288,13.0732]]],
[[[27.0458,60.4021,10.9201],[27.0313,60.4083,3.2246],[27.0187,60.4083,10.6627],[27.0151,60.4057,9.9445],[27.0172,60.4026,12.4034],[27.0203,60.4016,17.2108],[27.0172,60.3964,0.0],[27.0297,60.3859,11.6819],[27.038,60.3755,7.3591],[27.0458,60.375,0.0],[27.05,60.3729,0.0],[27.0583,60.3729,0.0],[27.0661,60.3755,11.1791],[27.0651,60.3786,8.2427],[27.0661,60.3807,5.0442],[27.063,60.3828,10.0202],[27.0661,60.387,8.4173],[27.0589,60.3932,15.4016],[27.0609,60.3953,0.0],[27.0661,60.3964,0.0],[27.0651,60.3995,16.6074],[27.0661,60.4016,9.4165],[27.0625,60.4042,0.0],[27.0583,60.4042,18.5641],[27.0542,60.4021,7.4308],[27.0458,60.4021,10.9201]]],
[[[27.3089,60.3672,9.0308],[27.3104,60.3667,3.6302],[27.312,60.3682,0.0],[27.3104,60.3688,0.0],[27.3089,60.3672,9.0308]]],
[[[27.3047,60.4318,8.1682],[27.3005,60.4328,6.3002],[27.3042,60.4292,9.924],[27.3057,60.4297,6.1831],[27.3047,60.4318,8.1682]]],
[[[27.2943,60.4464,1.5201],[27.2974,60.4464,5.9475],[27.2974,60.4474,9.3494],[27.2943,60.4474,14.9553],[27.2943,60.4464,1.5201]]],
[[[27.2859,60.4464,17.6691],[27.2891,60.4464,0.0],[27.2891,60.4474,7.0949],[27.2859,60.4474,0.0],[27.2859,60.4464,17.6691]]],
[[[27.0453,60.412,7.1484],[27.0422,60.412,14.9484],[27.0401,60.4089,8.2757],[27.0474,60.4089,14.2564],[27.0453,60.412,7.1484]]],
[[[27.0771,60.4167,0.0],[27.0693,60.4193,0.0],[27.0646,60.4229,19.0901],[27.0589,60.4224,13.8835],[27.0609,60.4193,6.8233],[27.0661,60.4182,12.0325],[27.0693,60.413,2.277],[27.0771,60.4104,13.2235],[27.0786,60.4109,14.7879],[27.0776,60.4141,17.6058],[27.0786,60.4161,0.0],[27.0771,60.4167,0.0]]],
[[[27.1109,60.4203,0.0],[27.112,60.4151,21.9302],[27.1109,60.413,13.0115],[27.1167,60.4125,2.08],[27.1203,60.4151,0.0],[27.1193,60.4182,3.4452],[27.1203,60.4203,0.0],[27.1146,60.4229,15.4517],[27.1109,60.4203,0.0]]],
[[[27.0422,60.4214,20.2759],[27.0438,60.4208,17.2219],[27.0453,60.4224,18.5986],[27.0438,60.4229,21.8489],[27.0422,60.4214,20.2759]]],
[[[26.8047,60.3141,6.6996],[26.8026,60.3109,0.0],[26.8083,60.3083,5.6929],[26.8141,60.3089,4.5785],[26.8141,60.312,15.4924],[26.812,60.3141,17.7684],[26.8047,60.3141,6.6996]]],
[[[26.7807,60.362,0.9257],[26.7771,60.3646,0.0],[26.7672,60.3651,21.6519],[26.7604,60.3708,0.0],[26.7563,60.3688,11.8792],[26.7484,60.3682,0.0],[26.7443,60.3641,4.9805],[26.7474,60.362,8.911],[26.7464,60.3589,10.0491],[26.7516,60.3578,9.6802],[26.7505,60.3547,0.0],[26.7599,60.3536,5.1546],[26.7672,60.3484,4.2961],[26.775,60.3458,2.7235],[26.7807,60.3464,0.0],[26.7797,60.3495,1.5253],[26.7849,60.3505,3.9854],[26.7818,60.3536,15.223],[26.7849,60.3578,4.3485],[26.7807,60.362,0.9257]]],
[[[26.5964,60.362,0.0],[26.5974,60.3589,22.1403],[26.5964,60.3568,0.0],[26.5979,60.3563,6.7239],[26.6057,60.3589,7.5496],[26.6099,60.3641,3.7166],[26.6068,60.3651,0.8465],[26.6016,60.3703,0.3433],[26.5958,60.3708,0.0],[26.5943,60.3703,0.0],[26.5953,60.3672,0.0],[26.5943,60.3651,0.0],[26.5974,60.3641,13.4893],[26.5964,60.362,0.0]]],
[[[26.5833,60.375,1.2794],[26.5797,60.3724,0.0],[26.5818,60.3693,0.0],[26.5891,60.3693,1.3122],[26.5849,60.3745,4.6385],[26.5833,60.375,1.2794]]],
[[[26.9604,60.375,11.0045],[26.9568,60.3734,9.104],[26.9604,60.3708,11.0982],[26.9641,60.3745,0.0],[26.9604,60.375,11.0045]]],
[[[26.9547,60.3752,7.1689],[26.9557,60.3766,9.2993],[26.9526,60.3766,6.8759],[26.9526,60.3755,5.5216],[26.9547,60.3752,7.1689]]],
[[[27.0151,60.3839,12.0394],[27.0182,60.3839,0.0],[27.0182,60.3849,0.0],[27.0151,60.3849,11.2302],[27.0151,60.3839,12.0394]]],
[[[26.9245,60.4026,8.8781],[26.9193,60.3964,2.4598],[26.925,60.3958,10.3203],[26.9286,60.3984,3.9512],[26.9276,60.4016,0.0],[26.9286,60.4036,0.0],[26.9245,60.4026,8.8781]]],
[[[26.6307,60.3703,0.0],[26.6375,60.3688,0.0],[26.6516,60.3734,4.1029],[26.6599,60.3786,0.0],[26.6437,60.3792,0.0],[26.6349,60.3734,14.1796],[26.6255,60.3724,0.0],[26.6234,60.3693,0.0],[26.6271,60.3667,0.0],[26.6286,60.3672,0.0],[26.6276,60.3703,8.5862],[26.6307,60.3703,0.0]]],
[[[26.6964,60.3974,16.6693],[26.6943,60.3943,4.9829],[26.6964,60.3922,12.1457],[26.6995,60.3922,0.0],[26.6984,60.3953,3.4513],[26.6995,60.3974,13.0384],[26.6964,60.3974,16.6693]]],
[[[26.6875,60.4021,10.0371],[26.6839,60.4005,11.8314],[26.6875,60.3979,5.2774],[26.6932,60.3984,12.0438],[26.6911,60.4016,12.9101],[26.6875,60.4021,10.0371]]],
[[[26.6776,60.4089,11.2473],[26.6734,60.4099,12.4086],[26.6771,60.4063,12.4351],[26.6786,60.4068,9.6547],[26.6776,60.4089,11.2473]]],
[[[26.9193,60.4047,5.6326],[26.9208,60.4042,11.3208],[26.9224,60.4057,2.6753],[26.9193,60.4057,1.8678],[26.9193,60.4047,5.6326]]],
[[[26.9818,60.412,10.3126],[26.9896,60.4063,0.0],[26.9974,60.4089,0.0],[26.9953,60.412,0.0],[26.9922,60.413,15.0928],[26.9932,60.4161,0.0],[26.9854,60.4229,22.1038],[26.9839,60.4224,20.7661],[26.9849,60.4193,18.8003],[26.9818,60.4161,3.7463],[26.9828,60.413,17.4598],[26.9818,60.412,10.3126]]],
[[[26.8792,60.4188,4.6626],[26.8734,60.4182,11.2097],[26.8714,60.4151,2.7643],[26.8786,60.4151,3.192],[26.8807,60.4172,17.2965],[26.8792,60.4188,4.6626]]],
[[[26.9047,60.4193,2.7528],[26.9078,60.4193,3.3932],[26.9078,60.4203,2.7757],[26.9047,60.4203,2.7285],[26.9047,60.4193,2.7528]]],
[[[27.0833,60.4333,24.2241],[27.0797,60.4328,14.3288],[27.0776,60.4297,0.0],[27.087,60.4318,0.0],[27.0891,60.4349,10.1112],[27.0833,60.4333,24.2241]]],
[[[27.0417,60.4396,19.4383],[27.037,60.4432,21.2423],[27.0318,60.4443,1.2465],[27.0354,60.45,0.4875],[27.0339,60.4526,12.1211],[27.0349,60.4557,0.0],[27.0292,60.4562,0.0],[27.0109,60.4516,9.4603],[27.0068,60.4453,0.0],[27.0078,60.4422,12.2617],[27.0057,60.4401,0.0],[26.9964,60.4391,0.0],[26.988,60.4339,0.0],[26.9953,60.4286,7.3756],[26.9943,60.4255,0.0],[27.0016,60.4266,6.4843],[27.0005,60.4234,10.5214],[27.0036,60.4224,20.6202],[27.0089,60.4172,11.9364],[27.0229,60.4125,3.4619],[27.0307,60.413,8.021],[27.0307,60.4161,1.5893],[27.0214,60.4172,3.9191],[27.0193,60.4203,0.8996],[27.0276,60.4245,0.0],[27.0349,60.4255,6.1581],[27.0318,60.4307,0.0],[27.0349,60.4339,0.0],[27.0339,60.437,0.0],[27.0354,60.4375,0.0],[27.0396,60.4354,0.0],[27.0438,60.4375,0.0],[27.0563,60.4375,4.0049],[27.0578,60.4359,0.0],[27.0547,60.4318,0.0],[27.0599,60.4307,5.6771],[27.0589,60.4276,5.5921],[27.0646,60.425,0.0],[27.0688,60.425,4.0768],[27.0724,60.4276,0.0],[27.0651,60.4339,13.474],[27.0661,60.437,16.855],[27.0609,60.438,15.2198],[27.0578,60.4432,25.7174],[27.0479,60.4437,10.932],[27.0464,60.4432,10.932],[27.0474,60.4401,19.1109],[27.0417,60.4396,19.4383]]],
[[[27.1859,60.4464,22.041],[27.1891,60.4464,18.6335],[27.1891,60.4474,10.784],[27.1859,60.4474,10.8416],[27.1859,60.4464,22.041]]],
[[[27.1776,60.4578,19.6206],[27.175,60.4562,12.5372],[27.1625,60.4604,11.9373],[27.1568,60.4599,17.8238],[27.163,60.4547,16.0133],[27.1682,60.4536,11.4038],[27.1729,60.45,0.0],[27.1812,60.45,12.1614],[27.1891,60.4526,7.3634],[27.1807,60.4578,6.8745],[27.1776,60.4578,19.6206]]],
[[[27.3557,60.4516,11.8519],[27.3526,60.4516,7.803],[27.3505,60.4464,13.5933],[27.3536,60.4464,16.6334],[27.3557,60.4484,12.5429],[27.3557,60.4516,11.8519]]],
[[[27.2234,60.4505,0.0],[27.2266,60.4505,0.0],[27.2266,60.4516,0.0],[27.2234,60.4516,6.1639],[27.2234,60.4505,0.0]]],
[[[27.2193,60.4526,0.0],[27.2208,60.4521,0.0],[27.2224,60.4536,0.0],[27.2208,60.4542,0.0],[27.2193,60.4526,0.0]]],
[[[27.2411,60.4589,17.2953],[27.238,60.4599,16.64],[27.2359,60.4568,2.3178],[27.2391,60.4568,0.0],[27.2411,60.4589,17.2953]]],
[[[27.1646,60.4708,20.0065],[27.163,60.4703,10.6665],[27.1641,60.4672,19.0876],[27.163,60.4651,0.0],[27.1688,60.4646,18.2907],[27.1724,60.4672,6.1582],[27.1703,60.4703,18.4101],[27.1646,60.4708,20.0065]]],
[[[27.0818,60.4839,0.0],[27.0833,60.4833,4.7341],[27.0849,60.4849,16.0909],[27.0833,60.4854,16.0909],[27.0818,60.4839,0.0]]],
[[[27.1563,60.4875,15.5838],[27.1526,60.4839,0.0],[27.1563,60.4813,15.7551],[27.1599,60.4818,13.0068],[27.1568,60.4839,21.0083],[27.1578,60.487,15.8746],[27.1563,60.4875,15.5838]]],
[[[27.0891,60.5047,15.1094],[27.0839,60.5036,4.2222],[27.0818,60.5005,8.7318],[27.0911,60.5026,6.8665],[27.0932,60.5057,21.1415],[27.0891,60.5047,15.1094]]],
[[[27.2193,60.4682,9.9332],[27.2208,60.4646,10.8297],[27.2193,60.4609,0.0],[27.2266,60.4609,0.0],[27.225,60.4646,16.2995],[27.2266,60.4682,26.9991],[27.2229,60.4708,19.6771],[27.2193,60.4682,9.9332]]],
[[[27.3333,60.4708,11.8646],[27.3318,60.4693,14.8653],[27.3359,60.4651,0.0],[27.3432,60.4651,10.9644],[27.3422,60.4682,7.7586],[27.3432,60.4703,0.0],[27.3333,60.4708,11.8646]]],
[[[27.325,60.4813,0.2908],[27.3234,60.4807,12.4619],[27.3245,60.4776,11.8336],[27.3234,60.4755,0.0],[27.325,60.475,0.0],[27.3286,60.4786,13.5827],[27.325,60.4813,0.2908]]],
[[[27.225,60.5125,10.8504],[27.2208,60.5125,19.874],[27.2193,60.5109,25.3784],[27.2214,60.5089,16.1774],[27.2271,60.5083,0.0],[27.2307,60.5109,4.8313],[27.2292,60.5125,3.7335],[27.225,60.5125,10.8504]]],
[[[26.763,60.4151,9.7267],[26.7661,60.4151,11.1808],[26.7661,60.4161,6.3881],[26.763,60.4161,13.3157],[26.763,60.4151,9.7267]]],
[[[26.7589,60.4255,15.0988],[26.7557,60.4286,12.3932],[26.7484,60.4297,26.2624],[26.7464,60.4318,16.42],[26.7474,60.4349,5.3191],[26.7401,60.4349,0.0],[26.7411,60.4318,0.0],[26.737,60.4255,12.4029],[26.7255,60.4224,0.0],[26.7307,60.4193,19.1903],[26.7255,60.4109,6.5746],[26.7292,60.4083,12.6134],[26.7328,60.4109,26.2001],[26.7318,60.4141,0.0],[26.7349,60.4193,0.0],[26.7339,60.4224,0.0],[26.7521,60.4229,9.6389],[26.7563,60.4208,5.4612],[26.7599,60.4234,13.6185],[26.7589,60.4255,15.0988]]],
[[[26.7526,60.4401,6.2213],[26.7557,60.4401,13.2221],[26.7578,60.4432,12.1888],[26.7484,60.4453,0.0],[26.7484,60.4443,6.2898],[26.7526,60.4401,6.2213]]],
[[[26.8438,60.4562,2.8481],[26.8422,60.4547,6.3524],[26.8464,60.4505,0.0],[26.8536,60.4505,13.778],[26.8526,60.4536,0.0],[26.8536,60.4557,0.0],[26.8516,60.4578,0.0],[26.8438,60.4562,2.8481]]],
[[[26.9797,60.4234,0.0],[26.9828,60.4234,22.1264],[26.9828,60.4245,15.0516],[26.9797,60.4245,2.7913],[26.9797,60.4234,0.0]]],
[[[26.9,60.4604,9.7792],[26.8937,60.4604,11.2897],[26.8859,60.463,0.0],[26.8812,60.4667,9.7334],[26.8729,60.4667,0.0],[26.8672,60.462,10.5582],[26.8703,60.4599,7.4144],[26.8693,60.4568,0.0],[26.8703,60.4547,0.0],[26.8672,60.4547,0.0],[26.8625,60.4583,4.7018],[26.8583,60.4583,6.9966],[26.8568,60.4568,9.5493],[26.862,60.4505,0.0],[26.8542,60.4479,0.0],[26.8438,60.4479,6.1291],[26.8422,60.4464,0.0],[26.8484,60.4422,0.0],[26.8536,60.4411,20.6572],[26.85,60.4354,11.889099999999999],[26.8542,60.4313,15.6412],[26.8599,60.4318,0.0],[26.8646,60.4354,0.0],[26.8875,60.4333,3.6088],[26.8891,60.4318,4.2614],[26.8859,60.4276,14.4345],[26.8922,60.4234,2.7454],[26.9125,60.4229,1.4958],[26.9182,60.4214,3.7079],[26.9224,60.4255,2.3018],[26.9203,60.4307,3.5625],[26.9083,60.4313,3.3959],[26.9036,60.4349,2.583],[26.8984,60.4359,2.1443],[26.9,60.4375,3.2215],[26.9042,60.4375,3.1564],[26.9083,60.4354,9.5169],[26.9125,60.4354,6.9542],[26.9161,60.438,0.0],[26.9182,60.4422,10.0893],[26.9141,60.4474,20.5554],[26.9089,60.4484,11.3273],[26.9104,60.4521,0.0],[26.9089,60.4557,10.6294],[26.9141,60.4578,0.0],[26.9,60.4604,9.7792]]],
[[[26.9474,60.4505,0.0],[26.9547,60.4599,4.242],[26.9599,60.4609,0.0],[26.9589,60.4641,3.5124],[26.9641,60.4672,0.0],[26.9599,60.4724,0.0],[26.9458,60.4729,5.9658],[26.9411,60.4693,4.6523],[26.9255,60.4641,6.4683],[26.9214,60.4599,2.9514],[26.9266,60.4578,0.0],[26.9286,60.4557,5.6994],[26.9276,60.4526,1.9756],[26.9307,60.4516,3.3288],[26.9359,60.4464,0.0],[26.9453,60.4484,0.0],[26.9474,60.4505,0.0]]],
[[[26.9771,60.4688,0.0],[26.9833,60.4646,6.1214],[26.9891,60.4651,0.0],[26.9807,60.4724,0.0],[26.9734,60.4724,0.0],[26.9771,60.4688,0.0]]],
[[[26.9651,60.4828,0.0],[26.9693,60.4755,0.0],[26.9766,60.4755,2.3311],[26.9724,60.4828,5.8154],[26.9651,60.4828,0.0]]],
[[[27.0203,60.4984,0.0],[27.0172,60.4995,14.1641],[27.0151,60.4964,0.0],[27.0182,60.4964,4.5998],[27.0203,60.4984,0.0]]],
[[[27.0172,60.5026,15.445],[27.0203,60.5026,10.7245],[27.0203,60.5036,8.2993],[27.0187,60.5042,14.7387],[27.0172,60.5026,15.445]]]]}
,"properties": {"GID_2": "FIN.4.2_1","GID_0": "FIN","country": "Finland","GID_1": "FIN.4_1","province": "SouthernFinland","NL_NAME_1": "NA","county": "Kymenlaakso","VARNAME_2": "Kymenlaakso|Kymmenedalen","NL_NAME_2": "NA","TYPE_2": "Maakunta|landskap","ENGTYPE_2": "Region","CC_2": "NA","HASC_2": "NA","name": "Kymenlaakso.county","area_km2": 5547.071,"hist_schema_id": "Elevation0-9000","hist_area_km2": {"0": 298.958,"25": 1254.281,"50": 1187.354,"75": 1477.44,"100": 967.133,"125": 329.619,"150": 32.236,"175": 0.051}}}