{"type": "Feature","id": "3183","bbox": [21.53236,61.98531,24.58251,63.48977],"geometry": {"type": "Polygon","coordinates": [[[23.69936,63.38063,86.0752],[23.65244,63.39634,72.9731],[23.61327,63.41427,81.9875],[23.59363,63.42711,75.198],[23.56417,63.45504,75.337],[23.54919,63.46535,77.3621],[23.50609,63.47861,72.8272],[23.45028,63.48669,74.3701],[23.39437,63.48977,63.9661],[23.35054,63.48801,70.9591],[23.29794,63.47473,60.9984],[23.26218,63.45256,72.6415],[23.19893,63.39241,61.3304],[23.15696,63.36735,65.3784],[23.118,63.36068,61.4385],[23.01206,63.37094,56.3347],[22.9884,63.36975,57.2265],[22.97506,63.3583,57.6762],[22.97599,63.34347,63.8218],[22.95584,63.33892,64.9372],[22.92917,63.34549,62.509],[22.86592,63.35425,56.1491],[22.76639,63.35758,30.6046],[22.73611,63.35572,38.0158],[22.75058,63.3444,28.7228],[22.66356,63.32032,41.8339],[22.65374,63.31552,48.3908],[22.67059,63.29986,44.174],[22.6742,63.29717,41.4897],[22.66242,63.29304,45.2062],[22.60961,63.28417,47.8246],[22.57819,63.27082,48.4575],[22.56837,63.26079,48.8585],[22.56961,63.24712,51.5797],[22.59224,63.24265,51.9662],[22.59783,63.24224,56.0845],[22.59814,63.23459,52.0261],[22.58387,63.22433,46.4434],[22.57478,63.21503,39.1776],[22.57447,63.21247,38.5079],[22.5848,63.21428,43.8109],[22.59638,63.21516,50.7472],[22.59783,63.21095,46.0895],[22.58501,63.18767,71.7423],[22.5817,63.18348,63.2672],[22.58925,63.18374,60.9767],[22.60103,63.18581,62.6699],[22.6649,63.18865,56.8534],[22.6773,63.1717,56.2145],[22.67627,63.14421,58.0443],[22.6742,63.13718,47.744],[22.66242,63.1332,56.9113],[22.64743,63.12974,56.9475],[22.6403,63.12163,51.2951],[22.6464,63.11625,58.951],[22.64588,63.10548,58.2001],[22.63224,63.08124,50.2443],[22.61736,63.07574,55.2705],[22.59534,63.07899,62.0247],[22.58439,63.07822,53.8864],[22.55008,63.07088,58.4588],[22.53984,63.06178,39.1081],[22.54377,63.05682,44.4749],[22.55452,63.05098,47.7383],[22.53292,63.04801,38.1245],[22.5138,63.04,45.65],[22.49799,63.02825,51.5047],[22.42843,62.95667,26.0688],[22.42244,62.9397,25.4699],[22.42037,62.93037,26.4387],[22.40363,62.90169,39.7948],[22.40425,62.87596,42.0],[22.39401,62.85802,49.2288],[22.37644,62.85038,48.6663],[22.2888,62.79358,66.2288],[22.24787,62.77454,90.2631],[22.2149,62.76464,82.4262],[22.17904,62.76198,90.284],[21.99125,62.78229,86.0141],[21.9157,62.79906,72.7522],[21.87342,62.81343,47.9298],[21.79178,62.85663,28.964],[21.7678,62.85172,33.2791],[21.76087,62.84092,31.8265],[21.74651,62.82648,50.2072],[21.7339,62.80836,27.2949],[21.72759,62.77449,53.3316],[21.72852,62.76005,42.7006],[21.73938,62.73514,47.7723],[21.74795,62.72563,57.2978],[21.76894,62.71013,86.188],[21.7802,62.70359,81.5448],[21.77059,62.68336,71.3172],[21.69628,62.64109,68.1151],[21.64078,62.61716,48.5879],[21.59096,62.60083,45.0267],[21.59272,62.58499,62.8111],[21.59644,62.56631,77.5785],[21.60057,62.56021,82.3179],[21.61525,62.56011,84.1803],[21.61236,62.54409,86.4688],[21.60543,62.52882,84.7611],[21.58662,62.49706,87.0107],[21.55448,62.4557,44.5729],[21.54807,62.43676,38.8724],[21.55117,62.42862,52.5793],[21.55251,62.41097,41.4112],[21.54611,62.39531,57.3746],[21.53929,62.38924,61.0968],[21.53236,62.37909,62.4938],[21.5367,62.37415,49.9864],[21.54332,62.37289,45.0758],[21.55489,62.37224,32.2972],[21.55913,62.37004,30.3489],[21.55758,62.35728,27.0299],[21.55768,62.35557,26.5132],[21.63602,62.3657,51.4805],[21.67199,62.36012,56.7318],[21.68491,62.35196,60.5831],[21.68832,62.33873,69.5968],[21.66734,62.33539,86.0386],[21.66941,62.3254,81.6618],[21.67643,62.31687,86.8541],[21.68222,62.30121,98.7477],[21.68233,62.28098,45.8048],[21.68088,62.26953,38.0532],[21.69514,62.25734,39.1743],[21.71157,62.25568,40.7184],[21.73762,62.2499,39.2106],[21.75777,62.23902,63.6462],[21.76625,62.2308,73.3404],[21.76118,62.21951,53.2038],[21.7185,62.21377,80.7367],[21.69049,62.20664,65.2384],[21.6753,62.19543,67.1583],[21.67788,62.18158,74.1103],[21.6909,62.17197,85.9557],[21.7,62.15944,85.5644],[21.69773,62.14742,60.0737],[21.65246,62.14233,89.6256],[21.64026,62.11027,64.2375],[21.63571,62.05177,80.9739],[21.63241,62.03763,78.2696],[21.63602,62.0357,80.4454],[21.63974,62.0311,77.7312],[21.64233,62.02575,77.9444],[21.64657,62.0205,71.3206],[21.93296,61.98531,88.4441],[22.01822,61.99317,96.5544],[22.0637,62.01043,104.296],[22.1777,62.08332,134.7493],[22.22948,62.10192,132.5975],[22.33882,62.12404,141.5421],[22.38419,62.1468,148.3302],[22.40269,62.1598,161.4141],[22.5078,62.21127,145.3223],[22.54563,62.2363,169.1711],[22.55896,62.25114,157.8654],[22.57178,62.27067,156.5399],[22.58697,62.30183,154.6778],[22.61891,62.30405,150.4305],[22.70449,62.28411,157.0835],[22.83833,62.27119,166.3595],[22.94499,62.27473,157.8295],[23.06074,62.29,155.3895],[23.16678,62.31842,149.3003],[23.24419,62.36141,132.8635],[23.28864,62.40684,137.6718],[23.31613,62.41939,143.9432],[23.35706,62.41725,137.136],[23.37008,62.4104,142.7437],[23.40119,62.38694,138.6055],[23.42072,62.37976,140.8303],[23.49317,62.37666,150.4044],[23.50506,62.37345,147.0805],[23.51477,62.37495,153.6105],[23.51136,62.39319,156.4668],[23.50836,62.40384,147.32],[23.50568,62.40901,146.9678],[23.52914,62.41304,143.8933],[23.65771,62.41702,132.163],[23.69812,62.42673,126.8493],[23.75434,62.45045,157.4308],[23.78421,62.4596,160.2439],[23.80178,62.462649999999996,150.9504],[23.81739,62.46968,166.4269],[23.81574,62.47541,174.656],[23.81729,62.48156,167.4295],[23.82555,62.48554,169.0404],[23.83403,62.48802,158.5],[23.84188,62.48652,168.3278],[23.83909,62.46291,163.0705],[23.84736,62.46218,155.7334],[23.85584,62.46663,178.6979],[23.87062,62.47621,172.4027],[23.88457,62.48244,166.7157],[23.89945,62.47986,164.3523],[23.9101,62.46942,162.3772],[23.90958,62.45898,158.9591],[23.90514,62.4488,156.4825],[23.9039,62.43924,140.7949],[23.92209,62.40699,151.156],[23.94916,62.39043,175.1985],[24.02027,62.364,197.4694],[24.04962,62.39069,188.9066],[24.132,62.44087,183.8581],[24.1692,62.45869,188.7234],[24.19814,62.4688,186.7155],[24.22078,62.47058,189.6062],[24.30366,62.4567,164.5969],[24.3263,62.45872,170.7671],[24.33467,62.4689,156.068],[24.32878,62.48055,155.3395],[24.32785,62.49133,168.7858],[24.37229,62.49996,202.8746],[24.38655,62.49629,199.2749],[24.39544,62.49564,179.1212],[24.40888,62.49334,177.8264],[24.41859,62.48601,172.7235],[24.42211,62.48009,161.5],[24.4343,62.47856,161.5],[24.45466,62.48818,161.5],[24.47688,62.49546,173.8391],[24.48877,62.49758,173.3706],[24.50231,62.49841,172.6165],[24.51357,62.50394,171.0],[24.51109,62.51014,175.5114],[24.51047,62.51448,183.877],[24.52277,62.52032,195.7625],[24.52608,62.53414,217.1626],[24.5267,62.5443,203.9762],[24.5297,62.54781,201.1815],[24.52939,62.55086,200.6479],[24.52722,62.55561,206.4475],[24.52742,62.56094,195.1158],[24.5298,62.56101,194.4967],[24.53993,62.55959,186.9373],[24.54231,62.55949,193.1059],[24.54272,62.563,201.3781],[24.5391,62.5637,197.4654],[24.53683,62.56752,203.2045],[24.53703,62.57422,218.8304],[24.53735,62.57605,216.8523],[24.5421,62.57825,224.5153],[24.5637,62.58088,218.9438],[24.56515,62.58481,219.8359],[24.56329,62.58843,222.3225],[24.55905,62.59923,211.131],[24.55729,62.60269,204.9841],[24.55502,62.6061,207.8982],[24.55564,62.60936,209.099],[24.57786,62.60843,218.0644],[24.58168,62.611579999999996,206.7421],[24.58251,62.61721,200.4428],[24.57445,62.61977,218.4159],[24.54613,62.61775,212.6564],[24.51502,62.61856,214.3907],[24.51171,62.62822,221.1922],[24.52029,62.63535,218.7492],[24.57114,62.66057,213.0868],[24.55802,62.67574,221.798],[24.53652,62.68731,228.152],[24.50448,62.7125,223.6827],[24.42717,62.79575,204.0479],[24.36516,62.84348,208.8554],[24.36547,62.86185,189.3685],[24.37994,62.86435,192.0245],[24.44112,62.86797,192.9819],[24.45094,62.88309,191.4535],[24.4436,62.8958,182.6303],[24.41994,62.9111,187.4814],[24.38552,62.91732,184.8688],[24.36423,62.91787,188.2721],[24.34656,62.9342,189.4545],[24.34738,62.95161,190.3659],[24.33932,62.96536,194.5633],[24.32537,62.97101,197.238],[24.31255,62.98112,190.5913],[24.3047,62.99486,184.3663],[24.30098,63.00566,182.4157],[24.30005,63.01776,183.9733],[24.30025,63.02664,193.956],[24.29674,63.03496,201.2149],[24.29281,63.03424,199.184],[24.28661,63.03233,199.2679],[24.27834,63.03471,200.9313],[24.26615,63.06034,182.3324],[24.30129,63.06507,189.4561],[24.32651,63.07682,187.8826],[24.34542,63.09586,182.3881],[24.36278,63.1192,177.7611],[24.21943,63.15211,178.4458],[24.1783,63.1516,155.143],[24.18977,63.16007,162.1411],[24.20331,63.16669,158.9759],[24.22491,63.17454,164.0271],[24.20176,63.19149,157.4305],[24.11153,63.2381,138.8612],[24.04321,63.26306,138.2907],[23.87051,63.28162,99.4214],[23.83362,63.28947,93.2859],[23.79941,63.30156,92.5612],[23.76954,63.31696,99.2842],[23.74297,63.33562,92.7103],[23.71962,63.35699,85.7896],[23.69936,63.38063,86.0752]]]}
,"properties": {"ISO3166-1-Alpha-3": "FIN","country": "Finland","fill": "#F00","name": "Southern Ostrobothnia","area_km2": 13911.38,"hist_schema_id": "Elevation0-9000","hist_area_km2": {"25": 410.59,"50": 1650.15,"75": 2594.33,"100": 2935.21,"125": 2398.2,"150": 1821.0,"175": 1303.01,"200": 670.24,"225": 127.66,"250": 0.98}}}