{"type":"Feature","properties":{"GID_2":"FIN.5.8_1","GID_0":"FIN","country":"Finland","GID_1":"FIN.5_1","province":"WesternFinland","NL_NAME_1":"NA","county":"SouthernOstrobothnia","VARNAME_2":"Etelä-Pohjanmaa|Sydösterbotten","NL_NAME_2":"NA","TYPE_2":"Maakunta|landskap","ENGTYPE_2":"Region","CC_2":"NA","HASC_2":"NA","name":"Southern_Ostrobothnia.county"},
"geometry":{"type": "MultiPolygon","coordinates": [[[[21.6375,62.0297,75.914],[21.647,62.0295,74.5498],[21.6465,62.0206,71.3206],[21.7422,62.0194,66.1736],[21.742,62.0149,72.081],[21.7707,62.0145,76.3933],[21.7704,62.0101,69.1568],[21.8087,62.0096,79.8151],[21.8084,62.0051,79.2625],[21.8371,62.0047,76.8197],[21.8368,62.0002,75.4182],[21.8655,61.9998,75.8934],[21.8653,61.9953,75.8178],[21.8939,61.995,82.0915],[21.8937,61.9905,88.7824],[21.9319,61.99,87.3802],[21.9316,61.9855,86.0438],[21.9603,61.9851,85.3379],[21.96,61.9806,94.0879],[21.9791,61.9803,86.2988],[21.9794,61.9848,86.471],[21.9985,61.9845,87.5647],[21.9988,61.989,98.6308],[22.0084,61.9889,87.7685],[22.0086,61.9934,88.6148],[22.0182,61.9932,96.5544],[22.0185,61.9977,96.8485],[22.0281,61.9976,94.3466],[22.0284,62.0021,96.9599],[22.0379,62.0019,94.7068],[22.0382,62.0064,102.6694],[22.0478,62.0063,95.1317],[22.0481,62.0108,102.8387],[22.0577,62.0106,102.9494],[22.058,62.0151,103.9493],[22.0771,62.0148,101.2718],[22.0774,62.0193,102.8055],[22.087,62.0192,110.7887],[22.0873,62.0237,112.0062],[22.0968,62.0235,111.1748],[22.0971,62.028,109.7577],[22.1067,62.0279,108.1],[22.107,62.0324,96.5575],[22.1166,62.0322,92.174],[22.1172,62.0412,106.6951],[22.1268,62.0411,106.1407],[22.1274,62.05,111.617],[22.137,62.0499,120.9579],[22.1376,62.0589,120.27],[22.1472,62.0587,132.4415],[22.1475,62.0632,116.0866],[22.1571,62.0631,125.388],[22.1577,62.0721,115.3302],[22.1673,62.0719,124.5858],[22.1679,62.0809,134.2815],[22.1775,62.0807,137.6635],[22.1782,62.0897,146.4613],[22.1878,62.0896,142.5786],[22.1884,62.0985,144.1221],[22.198,62.0984,144.8168],[22.1983,62.1029,150.2298],[22.3038,62.1012,137.3696],[22.3042,62.1057,139.2265],[22.3234,62.1054,141.6241],[22.3237,62.1098,144.7629],[22.3333,62.1097,139.4268],[22.3337,62.1142,140.8114],[22.3432,62.114,132.2133],[22.3439,62.123,139.0491],[22.3535,62.1228,134.0294],[22.3542,62.1318,148.8591],[22.3638,62.1317,144.6306],[22.3642,62.1362,145.9021],[22.3738,62.136,151.2678],[22.3745,62.145,149.0874],[22.3841,62.1448,148.1456],[22.3848,62.1538,156.3573],[22.3944,62.1536,156.2853],[22.3947,62.1581,162.6317],[22.4044,62.1579,157.4906],[22.4051,62.1669,162.8478],[22.4147,62.1668,167.3299],[22.4154,62.1757,160.1552],[22.425,62.1756,165.4861],[22.4254,62.18,168.1523],[22.435,62.1799,170.3775],[22.4357,62.1889,167.4525],[22.4453,62.1887,167.2426],[22.4461,62.1977,169.5363],[22.4557,62.1975,170.9702],[22.456,62.202,167.0123],[22.4753,62.2017,153.6831],[22.4756,62.2062,155.6492],[22.4853,62.206,154.0902],[22.4856,62.2105,154.12],[22.5049,62.2101,150.8331],[22.5053,62.2146,148.3292],[22.5149,62.2145,139.8988],[22.5152,62.2189,146.4258],[22.5345,62.2186,154.2036],[22.5353,62.2276,164.313],[22.5449,62.2274,177.6465],[22.5464,62.2453,165.9238],[22.556,62.2452,156.0635],[22.5575,62.2631,156.792],[22.5672,62.263,156.3101],[22.5683,62.2764,158.312],[22.578,62.2762,160.6689],[22.5795,62.2942,157.2012],[22.5892,62.294,158.3762],[22.590699999999998,62.312,155.0775],[22.6003,62.3118,161.3077],[22.6,62.3073,157.755],[22.6193,62.3069,155.8153],[22.6189,62.3025,148.7798],[22.6382,62.3021,158.91],[22.6378,62.2976,161.3271],[22.6571,62.2973,161.6538],[22.6567,62.2928,161.2803],[22.676,62.2924,163.0215],[22.6756,62.2879,158.8159],[22.6949,62.2876,147.2646],[22.6945,62.2831,146.154],[22.7138,62.2827,158.7233],[22.7134,62.2782,155.8023],[22.7423,62.2776,137.4818],[22.7419,62.2732,142.0303],[22.9155,62.2697,157.7219],[22.9159,62.2742,156.083],[22.9352,62.2738,153.3463],[22.9357,62.2783,154.1521],[22.955,62.2779,146.0],[22.9554,62.2823,155.5988],[22.9747,62.2819,150.5983],[22.9751,62.2864,147.3069],[22.9944,62.286,151.7786],[22.9949,62.2905,149.0491],[23.0142,62.2901,177.7035],[23.0146,62.2946,181.7283],[23.0339,62.2942,175.3932],[23.0344,62.2986,171.406],[23.0537,62.2982,158.2779],[23.0541,62.3027,155.7043],[23.0734,62.3023,170.6648],[23.0739,62.3068,184.7839],[23.0932,62.306399999999996,153.6004],[23.0936,62.3109,159.1031],[23.1129,62.3104,152.6306],[23.1134,62.3149,142.5391],[23.1327,62.3145,174.759],[23.1332,62.319,152.7233],[23.1525,62.3186,155.5441],[23.153,62.323,150.7472],[23.1723,62.3226,147.7439],[23.1728,62.3271,147.2408],[23.1921,62.3266,144.3369],[23.1925,62.3312,143.0398],[23.2119,62.3307,131.6929],[23.2123,62.3352,140.655],[23.222,62.335,133.1714],[23.2229,62.344,129.7723],[23.2326,62.3437,138.241],[23.2341,62.3572,129.7582],[23.2437,62.357,135.2963],[23.2457,62.3749,137.1147],[23.2553,62.3747,142.1668],[23.2568,62.3881,140.3282],[23.2665,62.3879,129.9829],[23.2679,62.4014,134.3772],[23.2776,62.4012,133.8641],[23.2786,62.4101,134.0467],[23.2883,62.4099,136.4775],[23.2888,62.4144,136.7504],[23.3081,62.414,143.4683],[23.3086,62.4184,137.116],[23.328,62.418,138.6335],[23.3285,62.4225,146.3448],[23.3479,62.422,136.0465],[23.3474,62.4175,139.5351],[23.3571,62.4173,137.136],[23.3561,62.4083,147.021],[23.3657,62.4081,139.8528],[23.3652,62.4036,146.6636],[23.3749,62.4034,146.4065],[23.3744,62.3989,147.2465],[23.3841,62.3987,146.9895],[23.3831,62.3897,138.985],[23.4024,62.3892,138.8824],[23.4019,62.3847,139.0522],[23.4116,62.3845,138.8755],[23.4111,62.38,142.9796],[23.4304,62.3796,147.7718],[23.4299,62.3751,153.6071],[23.4493,62.3746,150.4294],[23.4498,62.3791,150.8844],[23.4691,62.3786,150.6353],[23.4697,62.3831,152.2264],[23.4793,62.3829,150.6241],[23.4788,62.3784,154.7887],[23.4982,62.3779,153.1237],[23.4976,62.3734,149.704],[23.5073,62.3732,151.2493],[23.5068,62.3687,152.9489],[23.5164,62.3684,147.8938],[23.5185,62.3864,149.5002],[23.5089,62.3866,150.3125],[23.5115,62.4091,146.8866],[23.5018,62.4093,147.275],[23.5023,62.4138,147.4891],[23.6766,62.4094,128.894],[23.6772,62.4139,127.7571],[23.6868,62.4136,126.9991],[23.688,62.4226,138.3067],[23.6976,62.4223,127.4321],[23.6982,62.4268,126.8493],[23.7079,62.4266,128.1744],[23.7084,62.431,151.9509],[23.7181,62.4308,146.0258],[23.7187,62.4353,144.2375],[23.7284,62.435,140.5843],[23.7295,62.444,160.5051],[23.7391,62.4437,153.8654],[23.7397,62.4482,157.0437],[23.7494,62.448,154.4217],[23.75,62.4524,152.775],[23.7597,62.4522,161.5143],[23.7602,62.4567,162.4039],[23.7796,62.4562,154.4147],[23.7802,62.4606,157.4275],[23.7996,62.4601,143.6768],[23.8001,62.4646,149.3356],[23.8195,62.4641,160.4958],[23.8201,62.4686,163.1162],[23.8104,62.4688,154.7699],[23.8121,62.4823,170.7281],[23.8218,62.482,166.0354],[23.8224,62.4865,166.6732],[23.8321,62.4863,170.0952],[23.8327,62.4907,167.819],[23.8424,62.4905,171.6711],[23.8384,62.4591,163.0231],[23.8674,62.4583,164.5052],[23.8709,62.4852,171.639],[23.9,62.4844,150.417],[23.8995,62.4799,164.3523],[23.9091,62.4796,159.1909],[23.9068,62.4617,160.3414],[23.9165,62.4614,157.7415],[23.9148,62.448,149.9446],[23.9051,62.4483,151.7529],[23.9027,62.4303,133.1172],[23.9124,62.4301,136.0673],[23.9101,62.4121,139.6406],[23.9198,62.4119,145.8688],[23.918,62.3984,149.8158],[23.9277,62.3981,168.7353],[23.9265,62.3892,154.6552],[23.9555,62.3884,181.9207],[23.9549,62.3839,195.0765],[23.984,62.3831,173.5044],[23.9834,62.3786,175.7193],[23.993,62.3783,176.4803],[23.9924,62.3738,181.4126],[24.0021,62.3736,188.9736],[24.0015,62.3691,188.4514],[24.0112,62.3688,192.0981],[24.0106,62.3643,190.5674],[24.0202,62.364,197.4694],[24.0214,62.373,192.9484],[24.0311,62.3727,196.8607],[24.0317,62.3772,201.0893],[24.0414,62.3769,200.4951],[24.0426,62.3859,198.6595],[24.0522,62.3856,189.8264],[24.0528,62.3901,187.2254],[24.0625,62.3898,177.9837],[24.0631,62.3943,178.2341],[24.0728,62.394,178.0391],[24.074,62.403,183.0629],[24.0837,62.4027,174.398],[24.0843,62.4072,180.4332],[24.094,62.4069,187.4872],[24.0952,62.4159,177.4128],[24.1049,62.4156,188.5914],[24.1061,62.4246,181.7321],[24.1158,62.4243,185.1241],[24.1164,62.4288,190.0251],[24.1261,62.4285,182.6245],[24.1273,62.4375,194.6262],[24.137,62.4372,185.6681],[24.1376,62.4417,187.992],[24.1473,62.4414,193.8169],[24.1486,62.4504,193.2668],[24.1582,62.4501,196.0761],[24.1595,62.459,178.6459],[24.1692,62.4588,193.4788],[24.1698,62.4632,181.1421],[24.1795,62.4629,190.3403],[24.1807,62.4719,198.1577],[24.1904,62.4716,194.1703],[24.1911,62.4761,194.8785],[24.2008,62.4758,173.5],[24.2014,62.4803,180.0467],[24.2208,62.4797,196.2314],[24.2202,62.4753,199.3099],[24.2396,62.4747,192.1733],[24.2389,62.4702,182.6651],[24.2486,62.4699,202.1463],[24.248,62.4654,181.2224],[24.2674,62.4648,195.4372],[24.2667,62.4604,183.5108],[24.2861,62.4598,196.7782],[24.2855,62.4553,194.1163],[24.3049,62.4547,163.9044],[24.3042,62.4502,176.702],[24.3236,62.4496,174.4003],[24.3242,62.4541,178.0586],[24.3339,62.4538,169.0319],[24.3365,62.4717,152.1553],[24.3268,62.472,182.1082],[24.3281,62.481,155.3395],[24.3184,62.4813,172.9967],[24.3197,62.4903,169.5332],[24.3391,62.4897,174.6797],[24.3398,62.4942,176.1822],[24.3495,62.493899999999996,181.6243],[24.3501,62.4983,184.9025],[24.3695,62.4977,201.5039],[24.3702,62.5022,204.6483],[24.3799,62.5019,196.619],[24.3786,62.493,189.3185],[24.3883,62.4927,192.6223],[24.3889,62.4971,194.9581],[24.4083,62.4965,183.3148],[24.4077,62.4921,184.6125],[24.4174,62.4918,173.8653],[24.4161,62.4828,161.5],[24.4258,62.4825,161.5],[24.4244,62.4735,161.5],[24.4341,62.4732,161.5],[24.4348,62.4777,161.5],[24.4445,62.4774,161.5],[24.4452,62.4819,161.5],[24.4548,62.4816,161.5],[24.4568,62.495,170.5072],[24.486,62.4941,180.8956],[24.4866,62.4986,172.2916],[24.5157,62.4977,201.091],[24.5164,62.5022,171.0],[24.5067,62.5025,171.0],[24.5101,62.5249,195.1436],[24.5295,62.5242,198.6704],[24.5309,62.5332,212.7169],[24.5211,62.5335,214.9409],[24.5225,62.5425,209.1674],[24.5322,62.5422,196.4925],[24.5336,62.5513,190.6553],[24.5343,62.5556,193.6233],[24.5245,62.5559,213.4752],[24.5252,62.5604,201.982],[24.5447,62.5598,194.0059],[24.546,62.5687,213.8931],[24.5363,62.5691,205.4155],[24.5377,62.578,221.9978],[24.5571,62.5774,218.6194],[24.5578,62.5819,229.4209],[24.5675,62.5816,218.1111],[24.5689,62.5905,207.1182],[24.5592,62.5908,221.7116],[24.5612,62.6043,208.2688],[24.5515,62.6046,212.1578],[24.5522,62.6091,212.3374],[24.5814,62.6081,200.0028],[24.5835,62.6216,197.937],[24.5737,62.6219,210.7505],[24.573,62.6174,206.2819],[24.5048,62.6196,212.637],[24.5069,62.633,221.6213],[24.5166,62.6327,214.2761],[24.5173,62.6372,212.5065],[24.5271,62.6369,218.346],[24.5277,62.6414,211.6754],[24.5375,62.6411,215.8552],[24.5382,62.6455,215.4413],[24.5479,62.6452,212.466],[24.5486,62.6497,218.8959],[24.5583,62.6494,209.8734],[24.5597,62.6584,217.8087],[24.5695,62.6581,213.4331],[24.5702,62.6625,213.9131],[24.5799,62.6622,211.3681],[24.5806,62.6667,206.674],[24.5709,62.667,217.1453],[24.5715,62.6715,224.5087],[24.552,62.6721,227.0186],[24.5527,62.6766,224.8803],[24.5429,62.6769,223.3575],[24.5436,62.681399999999996,227.3591],[24.5241,62.682,234.9717],[24.5248,62.6865,236.2604],[24.515,62.6868,219.9941],[24.5171,62.7002,230.871],[24.5073,62.7006,227.8006],[24.5093,62.714,229.6544],[24.4996,62.7143,219.8822],[24.5016,62.7277,216.8196],[24.4918,62.7281,218.319],[24.4932,62.737,241.0869],[24.4834,62.7373,227.464],[24.4848,62.7463,217.9463],[24.475,62.7466,227.7513],[24.4763,62.7556,214.4726],[24.4665,62.7559,219.5179],[24.4679,62.7648,223.3997],[24.4581,62.7651,216.8679],[24.4595,62.7741,220.3164],[24.4497,62.7744,214.0113],[24.451,62.7834,212.8914],[24.4412,62.7837,216.1698],[24.4419,62.7881,229.146],[24.4321,62.7884,215.3536],[24.4334,62.7974,208.2447],[24.4236,62.7977,207.7473],[24.425,62.8067,223.8246],[24.4152,62.807,205.4244],[24.4158,62.8115,206.7558],[24.406,62.8118,209.2109],[24.4067,62.8162,214.809],[24.3969,62.8165,200.0928],[24.3982,62.8255,211.5421],[24.3884,62.8258,205.1835],[24.3891,62.8303,200.5],[24.3793,62.8306,204.9495],[24.3806,62.8396,202.9657],[24.3708,62.8399,212.9881],[24.3715,62.8443,209.405],[24.3616,62.8446,213.8085],[24.363,62.8536,202.6448],[24.3531,62.8539,212.7828],[24.3545,62.8629,187.998],[24.3839,62.862,198.3603],[24.3846,62.8664,188.5383],[24.4239,62.8652,195.6386],[24.4246,62.8697,193.5],[24.454,62.8688,196.5998],[24.4547,62.8733,191.3743],[24.4449,62.8736,198.2804],[24.4489,62.9005,176.1156],[24.4391,62.9008,179.3398],[24.4405,62.9098,173.7794],[24.4109,62.9107,182.7215],[24.4116,62.9151,183.2295],[24.3427,62.9173,186.4243],[24.3507,62.971,190.3875],[24.3408,62.9713,207.7262],[24.3421,62.9803,192.7921],[24.3224,62.9809,196.5837],[24.3218,62.9764,202.5336],[24.3119,62.9767,192.7799],[24.3126,62.9812,190.5913],[24.3027,62.9815,194.988],[24.304,62.9904,189.2584],[24.2941,62.9907,185.5289],[24.2961,63.0042,188.3637],[24.2968,63.0087,194.0604],[24.3066,63.0084,182.4533],[24.3093,63.0263,189.3582],[24.2994,63.0266,193.956],[24.3007,63.0355,204.2284],[24.2908,63.0358,203.1571],[24.2902,63.0314,198.7166],[24.2803,63.0317,201.5189],[24.2816,63.0406,200.844],[24.2717,63.0409,200.7969],[24.2743,63.0588,190.1393],[24.2644,63.0591,182.2749],[24.2651,63.0636,182.5496],[24.2948,63.0627,190.1848],[24.2954,63.0672,183.7377],[24.3251,63.0663,184.5901],[24.3271,63.0798,184.1836],[24.337,63.0795,183.3676],[24.3396,63.0974,186.9549],[24.3495,63.0971,180.8022],[24.3515,63.1106,170.6648],[24.3615,63.1103,176.4554],[24.3628,63.1192,177.7611],[24.3529,63.1195,170.606],[24.3536,63.124,171.6789],[24.3436,63.1243,172.6564],[24.3443,63.1288,173.8608],[24.3245,63.1294,183.658],[24.3252,63.1339,176.571],[24.3152,63.1342,181.281],[24.3159,63.1386,173.6218],[24.2862,63.1395,172.1034],[24.2855,63.1351,173.3401],[24.2657,63.1356,175.0387],[24.265,63.1311,172.6449],[24.2452,63.1317,173.7302],[24.2458,63.1362,173.0678],[24.2359,63.1365,170.5041],[24.2366,63.141,169.2296],[24.2267,63.1413,170.356],[24.2273,63.1458,176.2608],[24.2174,63.1461,170.4196],[24.218,63.1505,168.7227],[24.2081,63.1508,166.2382],[24.2087,63.1553,172.231],[24.1988,63.1556,163.4129],[24.1982,63.1511,162.4362],[24.1783,63.1517,155.143],[24.179,63.1562,159.2142],[24.1889,63.1559,160.6065],[24.1902,63.1648,166.4886],[24.2001,63.1646,159.8072],[24.2008,63.169,158.2766],[24.2206,63.1685,162.5107],[24.2213,63.173,165.5814],[24.2312,63.1727,166.5554],[24.2318,63.1771,181.0353],[24.2219,63.1774,166.8231],[24.2226,63.1819,165.654],[24.2126,63.1822,167.1852],[24.2133,63.1867,161.5051],[24.2034,63.187,158.0208],[24.2046,63.1959,159.8568],[24.1947,63.1962,160.1477],[24.1954,63.2007,159.1804],[24.1854,63.201,162.0247],[24.1861,63.2055,161.9566],[24.1761,63.2058,174.808],[24.1768,63.2102,166.6671],[24.1668,63.2105,149.7358],[24.1675,63.215,152.2801],[24.1575,63.2153,152.002],[24.1582,63.2198,155.176],[24.1482,63.2201,155.9361],[24.1489,63.2246,152.4219],[24.1389,63.2248,148.3717],[24.1395,63.2293,148.8962],[24.1296,63.2296,144.1578],[24.1302,63.2341,137.5647],[24.1203,63.2344,144.5768],[24.1209,63.2388,140.4191],[24.111,63.2391,136.2561],[24.1116,63.2436,132.4554],[24.0917,63.2442,135.5952],[24.0923,63.2487,144.3489],[24.0724,63.2492,132.3903],[24.073,63.2537,127.7948],[24.0631,63.254,126.4168],[24.0637,63.2585,129.5861],[24.0438,63.259,130.7286],[24.0444,63.2635,143.4797],[24.0245,63.2641,122.0],[24.0251,63.2685,136.6446],[23.9952,63.2694,122.0],[23.9958,63.2738,122.0],[23.8563,63.2776,98.4196],[23.8569,63.2821,99.1134],[23.8469,63.2824,95.793],[23.8475,63.2868,99.9949],[23.8376,63.2871,93.4685],[23.8382,63.2916,93.4524],[23.8182,63.2921,99.9733],[23.8188,63.2966,94.7137],[23.8088,63.2969,95.9312],[23.8094,63.3013,94.1831],[23.7994,63.3016,92.5612],[23.8,63.3061,89.1265],[23.7801,63.3066,96.9296],[23.7806,63.3111,100.7576],[23.7707,63.3114,106.915],[23.7713,63.3158,94.5728],[23.7613,63.3161,103.2034],[23.7624,63.3251,97.2357],[23.7524,63.3253,105.7782],[23.7536,63.3343,92.8177],[23.7436,63.3345,93.296],[23.7442,63.339,91.0405],[23.7342,63.3393,95.7843],[23.7354,63.3483,96.7722],[23.7254,63.3485,85.8931],[23.7265,63.3575,84.8652],[23.7165,63.3577,83.2585],[23.7177,63.3667,85.9058],[23.7077,63.367,79.6728],[23.7088,63.3759,88.2394],[23.6988,63.3762,91.076],[23.6994,63.3807,86.0752],[23.6894,63.3809,84.4891],[23.69,63.3854,93.6744],[23.67,63.3859,79.7109],[23.6705,63.3904,78.5133],[23.6505,63.3909,70.9584],[23.6511,63.3954,72.6626],[23.6411,63.3956,71.9851],[23.6416,63.4001,77.3855],[23.6216,63.4006,76.3573],[23.6222,63.4051,79.5779],[23.6122,63.4054,73.7532],[23.6133,63.4143,81.9875],[23.6033,63.4146,73.3717],[23.6038,63.4191,67.8246],[23.5938,63.4193,69.1431],[23.5944,63.4238,68.5914],[23.5844,63.424,70.4538],[23.5849,63.4285,73.9109],[23.5749,63.4288,76.4235],[23.5754,63.4333,68.1836],[23.5654,63.4335,70.9217],[23.5676,63.4515,65.0251],[23.5576,63.4517,71.4981],[23.5587,63.4607,69.0751],[23.5487,63.4609,68.1083],[23.5492,63.4654,77.3621],[23.5392,63.4656,70.7091],[23.5398,63.4701,63.0],[23.5297,63.4704,79.7074],[23.5292,63.4659,75.7206],[23.4991,63.4666,65.0911],[23.4996,63.4711,74.1664],[23.4695,63.4718,65.2188],[23.47,63.4763,62.4806],[23.4399,63.477,75.4425],[23.4404,63.4815,62.0437],[23.4204,63.482,61.2417],[23.4209,63.4865,62.2712],[23.4109,63.4867,68.4446],[23.4114,63.4912,60.7643],[23.4013,63.4914,61.3273],[23.4019,63.4959,73.1813],[23.3818,63.4963,64.9527],[23.3813,63.4919,63.2401],[23.3612,63.4923,65.7258],[23.3606,63.4878,60.8448],[23.3405,63.4883,73.2741],[23.34,63.4838,65.3631],[23.3199,63.4843,57.194],[23.3194,63.4798,65.7029],[23.3094,63.48,62.3928],[23.3089,63.4755,64.814],[23.2888,63.476,67.0827],[23.2883,63.4715,66.8047],[23.2682,63.4719,63.6492],[23.2672,63.463,68.6601],[23.2571,63.4632,62.4523],[23.2556,63.4497,63.0567],[23.2456,63.4499,62.0164],[23.2441,63.4365,60.7511],[23.234,63.4367,78.0452],[23.232,63.4188,58.9438],[23.222,63.419,61.9122],[23.2205,63.4055,63.2855],[23.2105,63.4057,63.7471],[23.2095,63.3968,65.5183],[23.1995,63.397,62.1259],[23.1985,63.388,65.9996],[23.1885,63.3882,73.5983],[23.188,63.3837,64.5459],[23.178,63.3839,68.4135],[23.1775,63.3795,69.8135],[23.1675,63.3797,66.3968],[23.1665,63.3707,67.0382],[23.1565,63.3709,65.4362],[23.156,63.3665,70.8543],[23.146,63.3666,72.4781],[23.1455,63.3622,70.1824],[23.1355,63.3624,75.145],[23.1345,63.3534,65.1419],[23.1245,63.3536,63.386],[23.124,63.3491,65.6301],[23.114,63.3493,62.4058],[23.1145,63.3538,69.7754],[23.1045,63.354,69.9464],[23.105,63.3585,64.0096],[23.095,63.3587,55.7675],[23.0955,63.3632,60.228],[23.0855,63.3634,54.2078],[23.0859,63.3679,57.5661],[23.0759,63.3681,65.818],[23.0755,63.3637,60.1152],[23.0455,63.3643,47.4525],[23.045,63.3598,61.4909],[23.035,63.36,45.2026],[23.0359,63.369,46.3974],[23.0259,63.3692,54.2526],[23.0269,63.3782,66.8515],[22.9968,63.3788,52.5062],[22.9959,63.3698,53.9137],[22.9759,63.3702,67.057],[22.9736,63.3478,59.1307],[22.9836,63.3476,63.3112],[22.9817,63.3296,63.5308],[22.9717,63.3298,57.3826],[22.9722,63.3343,57.6133],[22.9622,63.3345,61.7652],[22.9627,63.339,64.4059],[22.9427,63.3394,68.3614],[22.9431,63.3439,69.5781],[22.9231,63.3443,65.4569],[22.9236,63.3488,66.9345],[22.9036,63.3492,58.2435],[22.904,63.3537,64.1043],[22.874,63.3543,54.7733],[22.8732,63.3453,64.3386],[22.8632,63.3455,62.7837],[22.7932,63.3468,34.3424],[22.7936,63.3513,29.7976],[22.7736,63.3517,25.7832],[22.774,63.3562,35.3624],[22.734,63.3569,33.681],[22.7336,63.3525,31.4986],[22.7436,63.3523,27.483],[22.7432,63.3478,37.1828],[22.7532,63.3476,25.3245],[22.7527,63.3431,26.0],[22.7327,63.3435,29.6061],[22.7323,63.339,29.8073],[22.7223,63.3392,34.3858],[22.7219,63.3347,33.9212],[22.7019,63.3351,36.3467],[22.7015,63.3306,34.9143],[22.6915,63.3308,36.2544],[22.6911,63.3263,38.2869],[22.6811,63.3265,40.936],[22.6807,63.322,43.2674],[22.6607,63.3223,45.2394],[22.6603,63.3178,45.0591],[22.6503,63.318,46.8757],[22.6499,63.3135,46.6116],[22.6598,63.3134,49.4424],[22.659,63.3044,47.3994],[22.669,63.3042,46.5285],[22.6686,63.2997,46.2218],[22.6786,63.2995,41.359],[22.6782,63.295,42.2689],[22.6582,63.2954,49.3453],[22.6578,63.2909,46.2008],[22.6478,63.2911,48.9847],[22.6474,63.2866,59.5437],[22.6274,63.287,48.1936],[22.627,63.2825,52.0099],[22.6171,63.2826,49.9425],[22.6167,63.2782,46.2206],[22.5867,63.2787,48.9989],[22.5863,63.2742,55.3532],[22.5763,63.2744,53.229],[22.5759,63.2699,50.5778],[22.566,63.2701,48.5305],[22.564,63.2476,48.1485],[22.5839,63.2473,50.8215],[22.5835,63.2428,51.8156],[22.6035,63.2424,49.1536],[22.6027,63.2334,46.4056],[22.5927,63.2336,47.2292],[22.5923,63.2291,53.4423],[22.5823,63.2293,51.6636],[22.5819,63.2248,46.0457],[22.572,63.225,44.0388],[22.5708,63.2115,38.9806],[22.5807,63.2113,39.5048],[22.5811,63.2158,39.1493],[22.601,63.2155,43.1363],[22.5998,63.202,61.6468],[22.5899,63.2022,47.5724],[22.5887,63.1887,65.2597],[22.5787,63.1889,64.0416],[22.578,63.1799,57.7482],[22.5879,63.1797,65.4469],[22.5883,63.1842,64.6281],[22.5982,63.1841,61.5703],[22.5986,63.1885,63.5655],[22.6086,63.1884,61.723],[22.6082,63.1839,64.0272],[22.6181,63.1837,64.7125],[22.6177,63.1792,65.8433],[22.6376,63.1789,61.4075],[22.638,63.1833,59.2156],[22.648,63.1832,62.475],[22.6484,63.1876,63.3728],[22.6683,63.1873,58.0029],[22.6687,63.1918,59.4441],[22.6786,63.1916,57.0751],[22.6749,63.1512,64.7404],[22.6848,63.151,51.332],[22.6824,63.1241,48.8657],[22.6625,63.1245,47.9365],[22.6633,63.1334,60.6514],[22.6435,63.1338,49.5498],[22.6431,63.1293,46.876],[22.6332,63.1295,48.9303],[22.6328,63.125,50.409],[22.6427,63.1248,45.7174],[22.6423,63.1203,48.8392],[22.6522,63.1201,61.0638],[22.6506,63.1022,52.1316],[22.6307,63.1025,43.517],[22.6279,63.0711,52.9172],[22.618,63.0713,56.1324],[22.6184,63.0758,52.8862],[22.6085,63.076,52.3913],[22.6089,63.0805,54.0393],[22.5792,63.081,52.8272],[22.5788,63.0765,61.3542],[22.5689,63.0767,55.2897],[22.5685,63.0722,51.7097],[22.5586,63.0724,53.6348],[22.5582,63.0679,52.0645],[22.5384,63.0682,47.6931],[22.5376,63.0592,37.8016],[22.5475,63.0591,43.5675],[22.5471,63.0546,47.166],[22.557,63.0544,44.1618],[22.5566,63.0499,45.8203],[22.5368,63.0503,46.592],[22.5364,63.0458,38.0096],[22.5166,63.0461,40.6484],[22.5159,63.0371,46.2508],[22.506,63.0373,44.057],[22.5052,63.0283,46.2939],[22.4953,63.0285,51.1293],[22.4945,63.0195,36.2038],[22.4846,63.0197,36.8287],[22.4839,63.0107,27.8994],[22.474,63.0109,28.5613],[22.4713,62.9795,30.9634],[22.4615,62.9796,36.351],[22.4607,62.9706,25.0401],[22.4508,62.9708,24.7645],[22.4505,62.9663,24.8137],[22.4406,62.9665,24.5482],[22.4402,62.962,23.8785],[22.4304,62.9622,19.5],[22.4296,62.9532,26.1804],[22.4198,62.9534,25.2316],[22.4194,62.9489,32.3374],[22.4292,62.9487,30.6966],[22.4281,62.9352,26.0668],[22.4183,62.9354,29.7623],[22.4168,62.9174,27.6264],[22.407,62.9176,28.4864],[22.4062,62.9086,45.1598],[22.3963,62.9088,38.2198],[22.3949,62.8908,43.7481],[22.4047,62.8907,48.2958],[22.4033,62.8727,42.0],[22.4131,62.8726,52.324],[22.4124,62.8636,51.6526],[22.4026,62.8637,52.6559],[22.4022,62.8592,55.6485],[22.3923,62.8594,58.2931],[22.392,62.8549,56.6574],[22.3822,62.8551,55.5875],[22.3818,62.8506,58.2128],[22.372,62.8507,46.5592],[22.3716,62.8463,49.2715],[22.3618,62.8464,48.4466],[22.3614,62.8419,53.3069],[22.3516,62.8421,50.9155],[22.3509,62.8331,63.4669],[22.341,62.8333,64.0855],[22.3403,62.8243,55.7996],[22.3305,62.8245,61.3693],[22.3298,62.8155,65.912],[22.32,62.8156,68.9155],[22.3189,62.8022,64.4023],[22.3091,62.8023,64.8378],[22.3084,62.7934,75.4718],[22.2789,62.7938,69.4294],[22.2786,62.7893,70.6533],[22.2688,62.7895,77.4698],[22.2684,62.785,73.4092],[22.2586,62.7851,76.5128],[22.2583,62.7807,79.857],[22.2485,62.7808,76.842],[22.2478,62.7718,84.4183],[22.238,62.772,82.385],[22.2376,62.7675,93.7037],[22.2278,62.7677,83.6852],[22.2275,62.7632,91.5139],[22.2177,62.7633,94.3169],[22.217,62.7543,102.6811],[22.2072,62.7545,101.9089],[22.2069,62.75,103.338],[22.1971,62.7501,95.2982],[22.1974,62.7546,98.3578],[22.1778,62.7549,92.0049],[22.1782,62.7594,93.7009],[22.1487,62.7599,88.143],[22.1491,62.7644,89.755],[22.051,62.7658,86.7672],[22.0513,62.7703,92.3329],[22.0317,62.7706,86.1137],[22.032,62.7751,77.0],[22.0124,62.7753,77.0],[22.0127,62.7798,77.0],[21.9931,62.7801,90.7462],[21.9934,62.7846,87.6938],[21.9639,62.785,100.9655],[21.9642,62.7895,93.0253],[21.9446,62.7897,103.3326],[21.9449,62.7942,103.952],[21.9252,62.7945,107.737],[21.9255,62.799,96.0678],[21.9059,62.7993,64.3051],[21.9062,62.8037,55.5258],[21.8865,62.804,63.7995],[21.8868,62.8085,58.7637],[21.8672,62.8088,50.0986],[21.8675,62.8132,47.5952],[21.8478,62.8135,45.9062],[21.8481,62.818,45.9142],[21.8383,62.8181,48.2073],[21.8397,62.8406,37.1469],[21.8298,62.8407,38.2665],[21.8301,62.8452,32.5662],[21.8203,62.8453,34.7746],[21.8206,62.8498,35.6182],[21.8107,62.8499,25.9706],[21.811,62.8544,28.5363],[21.7913,62.8547,30.2454],[21.7916,62.8591,36.8126],[21.7818,62.8593,31.9773],[21.782,62.8638,36.6517],[21.7722,62.8639,26.4676],[21.7711,62.8459,32.4186],[21.7613,62.846,28.3694],[21.7607,62.8371,45.2137],[21.7509,62.8372,38.7822],[21.7506,62.8327,54.3702],[21.7408,62.8328,33.7645],[21.7403,62.8238,47.9902],[21.7305,62.824,24.7487],[21.7265,62.7566,37.6388],[21.7363,62.7565,37.1391],[21.7353,62.7385,42.9286],[21.7451,62.7384,42.6316],[21.744,62.7204,52.4564],[21.7538,62.7203,58.5914],[21.7536,62.7158,78.3204],[21.7634,62.7157,77.7336],[21.7631,62.7112,73.8331],[21.7729,62.7111,76.4439],[21.7723,62.7021,76.0397],[21.7821,62.702,81.3244],[21.7819,62.6975,88.2337],[21.7916,62.6974,82.1683],[21.7914,62.6929,76.5605],[21.7816,62.693,83.6476],[21.7813,62.6885,84.811],[21.7715,62.6886,67.4891],[21.7713,62.6841,67.7751],[21.7615,62.6842,66.8359],[21.7612,62.6797,61.4828],[21.7514,62.6799,64.9619],[21.7512,62.6754,49.5923],[21.7414,62.6755,44.0912],[21.7411,62.671,45.7244],[21.7314,62.6711,43.9822],[21.7311,62.6667,44.721],[21.7213,62.6668,49.6658],[21.7211,62.6623,48.3739],[21.7113,62.6624,48.4263],[21.711,62.6579,53.9707],[21.7013,62.658,53.2581],[21.701,62.6535,58.6767],[21.6912,62.6536,54.9617],[21.691,62.6492,50.6759],[21.6812,62.6493,51.6707],[21.6809,62.6448,56.2174],[21.6712,62.6449,57.3588],[21.6709,62.6404,60.7135],[21.6612,62.6405,55.0718],[21.6609,62.636,55.2227],[21.6512,62.6361,51.1039],[21.6501,62.6182,61.4982],[21.6404,62.6183,54.0599],[21.6402,62.6138,48.949],[21.6304,62.6139,47.669],[21.6301,62.6094,47.6326],[21.6106,62.6096,48.6342],[21.6104,62.6051,46.0782],[21.5909,62.6054,43.4777],[21.5902,62.5919,62.221],[21.5999,62.5918,55.6661],[21.5982,62.5603,84.0346],[21.6177,62.5601,85.833],[21.6167,62.5421,85.8068],[21.607,62.5423,86.4096],[21.6063,62.5288,84.7611],[21.5965,62.5289,77.7154],[21.5956,62.5109,77.3568],[21.5859,62.5111,89.3638],[21.5849,62.4931,88.2615],[21.5752,62.4932,86.6581],[21.5745,62.4797,68.0078],[21.5648,62.4798,69.4102],[21.5638,62.4619,49.5721],[21.5541,62.462,51.7724],[21.5534,62.4485,46.2672],[21.5437,62.4486,47.6294],[21.5435,62.4441,33.4276],[21.5532,62.444,50.2086],[21.5504,62.3901,39.8908],[21.5407,62.3902,59.3313],[21.5405,62.3857,60.6281],[21.5308,62.3858,69.4615],[21.5304,62.3769,67.5334],[21.54,62.3768,56.7036],[21.5398,62.3722,44.3807],[21.5592,62.372,31.1216],[21.5583,62.3541,25.2987],[21.5679,62.354,27.7853],[21.5682,62.3585,27.4309],[21.5972,62.3581,49.4652],[21.5974,62.3626,52.7532],[21.6361,62.3622,47.7223],[21.6364,62.3667,54.4654],[21.6557,62.3665,41.7153],[21.6555,62.362,44.5598],[21.6748,62.3617,58.843],[21.6746,62.3572,55.608],[21.6843,62.3571,58.7838],[21.684,62.3526,56.8997],[21.6937,62.3525,65.7403],[21.6929,62.339,63.7751],[21.6736,62.3393,69.3082],[21.6733,62.3348,76.8358],[21.6637,62.3349,86.0897],[21.6632,62.3259,78.6476],[21.6729,62.3258,85.8353],[21.6726,62.3213,82.6536],[21.6823,62.3212,75.3235],[21.6788,62.2583,33.9651],[21.7174,62.2579,44.7013],[21.7171,62.2534,40.1969],[21.746,62.253,59.6681],[21.7455,62.244,40.3979],[21.7551,62.243899999999996,65.5831],[21.7546,62.2349,61.4562],[21.7643,62.2348,79.0845],[21.7637,62.2258,49.6302],[21.7734,62.2257,52.5308],[21.7731,62.2212,53.277],[21.7635,62.2214,50.0602],[21.7632,62.2169,66.8786],[21.7247,62.2173,78.7342],[21.7244,62.2128,80.2288],[21.7052,62.2131,70.2251],[21.7047,62.2041,87.0875],[21.695,62.2042,73.7935],[21.6948,62.1997,88.2733],[21.6852,62.1998,69.2174],[21.6849,62.1954,75.3598],[21.6753,62.1955,67.1583],[21.6745,62.182,75.1717],[21.6842,62.1819,81.4848],[21.6839,62.1774,79.611],[21.6935,62.1773,93.3865],[21.6933,62.1728,88.3164],[21.7029,62.1727,94.8899],[21.7017,62.1502,66.3175],[21.692,62.1503,68.8183],[21.6913,62.1369,60.6459],[21.6817,62.137,56.4207],[21.6819,62.1415,45.9385],[21.6627,62.1417,73.2063],[21.663,62.1462,68.2976],[21.6437,62.1464,78.1241],[21.6416,62.106,64.3086],[21.632,62.1061,78.9326],[21.631,62.0881,76.9781],[21.6406,62.088,75.4143],[21.6399,62.0746,69.1762],[21.6495,62.0744,75.2813],[21.6485,62.0565,71.2087],[21.6389,62.0566,72.5387],[21.6382,62.0431,75.8782],[21.6286,62.0432,68.7741],[21.6284,62.0387,77.6301],[21.6379,62.0386,78.4908],[21.6375,62.0297,75.914]],
[[24.1684,63.152,148.4571],[24.1783,63.1517,155.143],[24.1777,63.1472,155.1848],[24.1678,63.1475,151.2308],[24.1684,63.152,148.4571]]]]}}