{"type":"Feature","properties":{"featurecla":"River","scalerank":6,"rivernum":256,"dissolve":"256River","name":"Vuoksi3","name_alt":null,"note":null,"min_zoom":5.0,"strokeweig":0.2,"name_en":"Vuoksi","min_label":6.0},
"geometry":{"type": "LineString","coordinates": [[28.822021484375,61.12909577030662,50.9421],[28.856542968750006,61.10883209843162,56.9952],[28.8642578125,61.095233465619117,27.5],[28.856835937500023,61.07379791874412,25.5],[28.88916015625,61.06378815311912,84.2123],[28.955957031250023,61.03314850468162,20.176],[29.019921875000023,61.02033112186912,54.1501],[29.052832031250006,61.004754949994123,37.4342],[29.082763671875,60.98456452030662,45.4192],[29.103759765625,60.96454498905662,35.6695],[29.138574218750023,60.923358465619117,38.6959],[29.158398437500011,60.907342840619123,21.565],[29.185791015625,60.892596746869117,32.5414],[29.225,60.88275787968162,19.1882],[29.30224609375,60.877704168744117,20.7274],[29.335351562500023,60.861590887494117,20.2092],[29.34423828125,60.85126373905662,20.3682],[29.355859375000023,60.829950262494123,37.2276],[29.36376953125,60.820575262494117,27.3863],[29.41015625,60.796014715619123,31.2928],[29.434814453125,60.78851959843162,18.1268],[29.464257812500023,60.770624090619123,9.0],[29.497314453125,60.76337311405662,41.2749],[29.585839843750023,60.723407293744117,16.6287],[29.596289062500006,60.71698639530662,9.4392]]}}