{"type": "Feature","bbox": [21.3276,61.3851,22.8588,62.312],"geometry": {"type": "MultiPolygon","coordinates": [[[[22.7053,61.4287,89.4542],[22.7147,61.4285,91.8346],[22.7151,61.433,95.9549],[22.7338,61.4326,89.8122],[22.7342,61.4371,102.0621],[22.7249,61.4373,94.205],[22.726,61.4508,104.9598],[22.7166,61.451,92.8078],[22.7174,61.4599,99.7313],[22.7268,61.4598,104.9022],[22.7284,61.4777,116.2713],[22.653199999999998,61.4792,61.7848],[22.6539,61.4881,63.24],[22.6446,61.4883,74.8015],[22.6453,61.4973,65.7631],[22.6359,61.4975,79.0239],[22.6367,61.5065,78.2683],[22.6273,61.5066,81.7741],[22.6276,61.5111,83.0212],[22.6182,61.5113,74.1018],[22.619,61.5203,74.0175],[22.6096,61.5205,76.6269],[22.6103,61.5294,77.5774],[22.6009,61.5296,65.8837],[22.6017,61.5386,75.9453],[22.5922,61.5388,75.2027],[22.5926,61.5433,76.691],[22.5832,61.5434,78.3973],[22.5836,61.5479,85.8174],[22.593,61.5477,85.9036],[22.5934,61.5522,72.7747],[22.6028,61.552,76.1557],[22.6032,61.5565,77.1709],[22.622,61.5562,74.8757],[22.6224,61.5607,80.8433],[22.6318,61.5605,84.8939],[22.6322,61.565,72.407],[22.6416,61.5648,92.7258],[22.6431,61.5828,78.6768],[22.6526,61.5826,113.7459],[22.653,61.5871,120.2081],[22.6624,61.5869,114.4652],[22.6628,61.5914,119.0949],[22.6816,61.591,110.1329],[22.682,61.5955,107.0053],[22.6915,61.5953,109.5178],[22.693,61.6133,110.4593],[22.6836,61.6134,113.4429],[22.6843,61.6224,123.61],[22.6749,61.6226,114.2355],[22.6757,61.6316,115.4686],[22.6662,61.6318,115.9681],[22.6666,61.6362,116.8544],[22.6855,61.6359,119.0587],[22.6851,61.6314,115.3411],[22.6946,61.6312,118.4617],[22.6942,61.6267,121.5213],[22.713,61.6264,111.3014],[22.7138,61.6353,112.4993],[22.7233,61.6351,102.5434],[22.726,61.6665,107.9643],[22.7166,61.6667,113.4171],[22.717,61.6712,107.2904],[22.6981,61.6716,111.5905],[22.6985,61.6761,127.1732],[22.689,61.6763,112.7486],[22.6875,61.6583,130.8053],[22.6685,61.6587,113.0631],[22.6682,61.6542,110.0],[22.6587,61.6544,109.5],[22.6591,61.6589,118.2061],[22.6496,61.659,125.2971],[22.6527,61.6949,111.6408],[22.6622,61.6948,114.95],[22.6626,61.6992,122.0258],[22.691,61.6987,107.4919],[22.6925,61.7167,125.5129],[22.683,61.7168,117.7665],[22.6842,61.7303,119.3242],[22.6937,61.7301,121.4325],[22.6945,61.7391,106.9981],[22.7324,61.7383,124.1097],[22.7332,61.7473,127.4592],[22.7426,61.7471,126.7913],[22.7431,61.7516,125.7438],[22.7525,61.7514,125.6322],[22.7529,61.7559,134.1159],[22.7909,61.7552,150.6946],[22.7913,61.7597,142.8631],[22.8007,61.7595,145.0645],[22.802,61.7729,130.3421],[22.8115,61.7727,129.978],[22.8131,61.7907,121.9871],[22.8226,61.7905,134.8394],[22.8246,61.8129,138.0778],[22.8341,61.8127,118.1924],[22.8345,61.8172,120.1918],[22.825,61.8174,118.0076],[22.8255,61.8219,141.2657],[22.816,61.8221,120.7429],[22.8164,61.8266,136.2681],[22.8069,61.8268,131.2059],[22.8073,61.8313,135.9923],[22.7978,61.8315,121.2479],[22.7982,61.8359,123.8516],[22.7887,61.8361,129.0414],[22.7891,61.8406,128.3149],[22.7796,61.8408,126.8709],[22.7804,61.8498,131.1935],[22.7709,61.85,122.2657],[22.7713,61.8545,123.3974],[22.7618,61.8547,130.339],[22.7614,61.8502,132.1588],[22.7423,61.8506,121.2112],[22.7435,61.864,124.7248],[22.7626,61.8636,135.6181],[22.763,61.8681,129.2461],[22.7915,61.8676,135.9501],[22.7923,61.8765,153.3304],[22.7828,61.8767,144.6676],[22.7832,61.8812,154.9714],[22.7642,61.8816,141.9559],[22.7646,61.8861,141.6375],[22.7455,61.8865,125.8666],[22.7459,61.8909,137.6786],[22.7364,61.8911,122.9295],[22.7384,61.9136,129.7385],[22.7194,61.9139,134.9444],[22.7198,61.9184,128.6615],[22.6912,61.919,128.3561],[22.6915,61.9235,133.6577],[22.6725,61.9238,131.091],[22.6733,61.9328,141.9499],[22.6637,61.933,135.1454],[22.6645,61.942,135.9329],[22.655,61.9422,140.5081],[22.6569,61.9646,149.8833],[22.6378,61.965,147.6412],[22.6382,61.9694,147.4651],[22.6096,61.97,149.3145],[22.6099,61.9745,149.3749],[22.5908,61.9748,141.6838],[22.5912,61.9793,139.5082],[22.5817,61.9795,140.5551],[22.582,61.984,139.5466],[22.5629,61.9843,140.1685],[22.5633,61.9888,139.7273],[22.5538,61.989,141.9898],[22.5541,61.9935,142.523],[22.535,61.9938,138.7212],[22.5354,61.9983,146.5487],[22.5449,61.9981,141.635],[22.5453,62.0026,143.5341],[22.5549,62.0024,146.8284],[22.5553,62.0069,145.4657],[22.5648,62.0068,146.5457],[22.5656,62.0157,140.3091],[22.5751,62.0156,142.2052],[22.5755,62.0201,140.7627],[22.5851,62.0199,143.6903],[22.5858,62.0289,145.9289],[22.5954,62.0287,149.49],[22.5958,62.0332,153.649],[22.6053,62.033,148.8407],[22.6057,62.0375,148.6942],[22.6153,62.0373,148.6665],[22.6157,62.0418,148.9557],[22.6348,62.0414,157.8115],[22.6352,62.0459,151.2824],[22.6544,62.0456,153.5846],[22.6548,62.05,152.5207],[22.6739,62.0497,153.7178],[22.6743,62.0542,165.2949],[22.6935,62.0538,144.591],[22.6931,62.0493,155.2577],[22.7026,62.0491,141.5],[22.703,62.0536,141.5],[22.7317,62.0531,150.797],[22.7321,62.0575,147.7115],[22.7704,62.0568,152.7967],[22.7709,62.0613,164.2104],[22.7804,62.0611,162.0257],[22.7825,62.0835,162.1345],[22.7729,62.0837,166.501],[22.7758,62.1151,165.4917],[22.7662,62.1153,163.6835],[22.7694,62.1512,156.1502],[22.779,62.151,159.4593],[22.7795,62.1555,154.722],[22.789,62.1553,154.2456],[22.7895,62.1598,161.1101],[22.8087,62.1594,160.3788],[22.8091,62.1639,159.1032],[22.8475,62.1632,160.3197],[22.8479,62.1677,157.7898],[22.8576,62.1674,156.0],[22.8588,62.1809,154.382],[22.8492,62.1811,155.1243],[22.8496,62.1856,155.6532],[22.84,62.1858,156.2579],[22.8438,62.2262,153.0],[22.8342,62.2264,154.2593],[22.8384,62.2713,160.3306],[22.7419,62.2732,142.0303],[22.7423,62.2776,137.4818],[22.7134,62.2782,155.8023],[22.7138,62.2827,158.7233],[22.6945,62.2831,146.154],[22.6949,62.2876,147.2646],[22.6756,62.2879,158.8159],[22.676,62.2924,163.0215],[22.6567,62.2928,161.2803],[22.6571,62.2973,161.6538],[22.6378,62.2976,161.3271],[22.6382,62.3021,158.91],[22.6189,62.3025,148.7798],[22.6193,62.3069,155.8153],[22.6,62.3073,157.755],[22.6003,62.3118,161.3077],[22.590699999999998,62.312,155.0775],[22.5892,62.294,158.3762],[22.5795,62.2942,157.2012],[22.578,62.2762,160.6689],[22.5683,62.2764,158.312],[22.5672,62.263,156.3101],[22.5575,62.2631,156.792],[22.556,62.2452,156.0635],[22.5464,62.2453,165.9238],[22.5449,62.2274,177.6465],[22.5353,62.2276,164.313],[22.5345,62.2186,154.2036],[22.5152,62.2189,146.4258],[22.5149,62.2145,139.8988],[22.5053,62.2146,148.3292],[22.5049,62.2101,150.8331],[22.4856,62.2105,154.12],[22.4853,62.206,154.0902],[22.4756,62.2062,155.6492],[22.4753,62.2017,153.6831],[22.456,62.202,167.0123],[22.4557,62.1975,170.9702],[22.4461,62.1977,169.5363],[22.4453,62.1887,167.2426],[22.4357,62.1889,167.4525],[22.435,62.1799,170.3775],[22.4254,62.18,168.1523],[22.425,62.1756,165.4861],[22.4154,62.1757,160.1552],[22.4147,62.1668,167.3299],[22.4051,62.1669,162.8478],[22.4044,62.1579,157.4906],[22.3947,62.1581,162.6317],[22.3944,62.1536,156.2853],[22.3848,62.1538,156.3573],[22.3841,62.1448,148.1456],[22.3745,62.145,149.0874],[22.3738,62.136,151.2678],[22.3642,62.1362,145.9021],[22.3638,62.1317,144.6306],[22.3542,62.1318,148.8591],[22.3535,62.1228,134.0294],[22.3439,62.123,139.0491],[22.3432,62.114,132.2133],[22.3337,62.1142,140.8114],[22.3333,62.1097,139.4268],[22.3237,62.1098,144.7629],[22.3234,62.1054,141.6241],[22.3042,62.1057,139.2265],[22.3038,62.1012,137.3696],[22.1983,62.1029,150.2298],[22.198,62.0984,144.8168],[22.1884,62.0985,144.1221],[22.1878,62.0896,142.5786],[22.1782,62.0897,146.4613],[22.1775,62.0807,137.6635],[22.1679,62.0809,134.2815],[22.1673,62.0719,124.5858],[22.1577,62.0721,115.3302],[22.1571,62.0631,125.388],[22.1475,62.0632,116.0866],[22.1472,62.0587,132.4415],[22.1376,62.0589,120.27],[22.137,62.0499,120.9579],[22.1274,62.05,111.617],[22.1268,62.0411,106.1407],[22.1172,62.0412,106.6951],[22.1166,62.0322,92.174],[22.107,62.0324,96.5575],[22.1067,62.0279,108.1],[22.0971,62.028,109.7577],[22.0968,62.0235,111.1748],[22.0873,62.0237,112.0062],[22.087,62.0192,110.7887],[22.0774,62.0193,102.8055],[22.0771,62.0148,101.2718],[22.058,62.0151,103.9493],[22.0577,62.0106,102.9494],[22.0481,62.0108,102.8387],[22.0478,62.0063,95.1317],[22.0382,62.0064,102.6694],[22.0379,62.0019,94.7068],[22.0284,62.0021,96.9599],[22.0281,61.9976,94.3466],[22.0185,61.9977,96.8485],[22.0182,61.9932,96.5544],[22.0086,61.9934,88.6148],[22.0084,61.9889,87.7685],[21.9988,61.989,98.6308],[21.9985,61.9845,87.5647],[21.9794,61.9848,86.471],[21.9791,61.9803,86.2988],[21.96,61.9806,94.0879],[21.9603,61.9851,85.3379],[21.9316,61.9855,86.0438],[21.9319,61.99,87.3802],[21.8937,61.9905,88.7824],[21.8939,61.995,82.0915],[21.8653,61.9953,75.8178],[21.8655,61.9998,75.8934],[21.8368,62.0002,75.4182],[21.8371,62.0047,76.8197],[21.8084,62.0051,79.2625],[21.8087,62.0096,79.8151],[21.7704,62.0101,69.1568],[21.7707,62.0145,76.3933],[21.742,62.0149,72.081],[21.7422,62.0194,66.1736],[21.5413,62.0218,38.9959],[21.5415,62.0262,47.2305],[21.5224,62.0265,37.7073],[21.5222,62.022,31.283],[21.4935,62.0223,31.3929],[21.4932,62.0178,31.0233],[21.4645,62.0181,27.3586],[21.4643,62.0136,24.148],[21.4356,62.0139,15.4719],[21.4354,62.0094,14.6327],[21.4258,62.0095,20.5799],[21.4256,62.005,23.1877],[21.416,62.0051,15.8121],[21.4156,61.9961,18.5693],[21.4061,61.9962,15.8286],[21.4056,61.9872,19.7799],[21.3961,61.9873,14.9986],[21.3959,61.9828,10.2371],[21.3863,61.9829,14.7138],[21.3859,61.9739,11.5288],[21.3764,61.974,7.1611],[21.376,61.9651,9.3557],[21.3664,61.9652,17.3437],[21.3662,61.9607,7.0933],[21.3567,61.9608,13.5085],[21.3565,61.9563,6.7044],[21.3374,61.9565,0.0],[21.3372,61.9532,0.0],[21.3328,61.9555,13.1102],[21.3307,61.9523,0.0],[21.337,61.9516,0.0],[21.3505,61.9422,7.7959],[21.3583,61.9417,1.5892],[21.3625,61.9396,5.1926],[21.3703,61.9401,1.5833],[21.3729,61.9437,2.5522],[21.3953,61.9464,0.0],[21.4005,61.9516,0.0],[21.4063,61.9542,1.9399],[21.4161,61.9516,0.0],[21.4109,61.9495,0.0],[21.4078,61.9443,0.4174],[21.4026,61.9432,0.0],[21.4005,61.9401,1.9462],[21.4068,61.9359,0.0],[21.4141,61.9349,6.6312],[21.413,61.9318,0.0],[21.4229,61.9313,5.8987],[21.4349,61.9266,2.2765],[21.4339,61.9234,0.0],[21.437,61.9172,0.0],[21.4307,61.913,0.7891],[21.4255,61.912,2.2189],[21.4214,61.9078,0.0],[21.4229,61.9063,0.0],[21.4286,61.9057,6.7535],[21.4234,61.9026,0.0],[21.4411,61.9036,9.6044],[21.4391,61.9005,5.0413],[21.4313,61.9,3.6614],[21.4297,61.8984,0.0],[21.437,61.8974,6.826],[21.4417,61.8937,5.4546],[21.4458,61.8958,0.0],[21.45,61.8937,0.0],[21.4542,61.8937,10.8378],[21.462,61.8891,5.264],[21.4641,61.887,10.9342],[21.463,61.8839,0.0],[21.4661,61.8828,14.0829],[21.4651,61.8797,1.567],[21.4703,61.8766,12.19],[21.4693,61.8734,0.0],[21.4724,61.8724,7.2777],[21.4682,61.8651,11.3472],[21.463,61.8599,1.2361],[21.463,61.8568,0.0],[21.4682,61.8536,12.7869],[21.4672,61.8505,3.1528],[21.4708,61.8479,0.0],[21.4724,61.8484,0.0],[21.4714,61.8516,10.5021],[21.4734,61.8536,3.0046],[21.4807,61.8536,6.187],[21.4797,61.8505,0.0],[21.4849,61.8474,2.323],[21.4839,61.8443,5.7103],[21.4932,61.8401,9.0447],[21.4854,61.8375,1.6374],[21.4771,61.8438,0.0],[21.4646,61.8438,0.0],[21.4604,61.8458,15.3186],[21.4562,61.8438,0.0],[21.4417,61.85,6.4522],[21.438,61.8495,5.025],[21.4339,61.8464,4.0618],[21.4359,61.8443,0.0],[21.4432,61.8432,12.1641],[21.4422,61.8401,0.0],[21.4438,61.8396,0.0],[21.4521,61.8396,1.2295],[21.4562,61.8417,0.0],[21.4604,61.8396,7.0144],[21.4703,61.8391,0.0],[21.4839,61.8297,0.0],[21.4932,61.8266,4.2261],[21.4964,61.8234,0.0],[21.5036,61.8224,0.357],[21.5057,61.8203,0.0],[21.5047,61.8172,0.0],[21.5141,61.8141,0.0],[21.5063,61.8104,0.0],[21.5021,61.8104,2.8094],[21.5005,61.8109,0.903],[21.5016,61.8141,0.0],[21.4984,61.8151,0.0],[21.4995,61.8182,0.0],[21.4938,61.8187,4.6501],[21.4901,61.8161,7.8491],[21.4953,61.812,4.9596],[21.4932,61.8089,0.0],[21.4813,61.8083,0.0],[21.4771,61.8042,8.7866],[21.4672,61.8068,9.9176],[21.4625,61.8104,0.0],[21.4562,61.8104,3.6539],[21.4521,61.8063,0.0],[21.4458,61.8063,8.8522],[21.4417,61.8083,3.7125],[21.425,61.8083,0.8655],[21.4234,61.8068,3.507],[21.4255,61.8026,4.8897],[21.4313,61.8042,0.3734],[21.4411,61.8036,12.0169],[21.4495,61.7974,10.4478],[21.4516,61.7932,12.9561],[21.4505,61.788,0.0],[21.4547,61.7839,0.0],[21.4661,61.7828,4.7727],[21.4651,61.7797,0.0],[21.4724,61.7786,0.0],[21.4714,61.7755,0.0],[21.4745,61.7745,7.5263],[21.4734,61.7714,3.5515],[21.475,61.7708,0.0],[21.4833,61.7708,0.0],[21.4938,61.7667,0.0],[21.5,61.7667,3.8011],[21.5,61.7687,1.0578],[21.4984,61.7693,0.0],[21.4995,61.7724,0.0],[21.4922,61.7734,4.8633],[21.4901,61.7766,-0.5],[21.4958,61.7792,-0.5],[21.5021,61.7771,0.0],[21.5078,61.7786,3.0789],[21.5047,61.7734,0.0],[21.512,61.7724,3.4638],[21.5276,61.7609,0.0],[21.5349,61.7599,9.0356],[21.538,61.7568,9.7025],[21.5536,61.7516,3.9517],[21.5568,61.7464,0.0],[21.5625,61.7438,21.8006],[21.5654,61.7435,16.4911],[21.5656,61.7474,5.7354],[21.613,61.7469,14.2006],[21.6127,61.7424,9.263],[21.6886,61.7415,30.3908],[21.6884,61.737,37.4195],[21.7073,61.7367,37.7992],[21.7076,61.7412,38.3392],[21.717,61.7411,42.2123],[21.7173,61.7456,39.918],[21.7268,61.7455,42.8057],[21.727,61.75,42.6332],[21.8314,61.7486,34.0],[21.8316,61.7531,44.0241],[21.8506,61.7529,50.5081],[21.8509,61.7574,48.627],[21.8699,61.7571,54.7991],[21.8701,61.7616,45.2843],[21.8986,61.7612,61.5879],[21.8989,61.7657,56.1372],[21.9653,61.7648,56.3624],[21.9656,61.7693,65.7036],[21.9845,61.769,65.0231],[21.9843,61.7645,55.3954],[21.9938,61.7644,48.5],[21.9935,61.7599,48.5],[22.0124,61.7596,48.5],[22.0121,61.7551,48.5],[22.0216,61.755,48.5],[22.0213,61.7505,48.5],[22.0498,61.7501,65.5305],[22.0507,61.7636,54.1148],[22.0602,61.7634,69.799],[22.0608,61.7724,57.9718],[22.0702,61.7723,52.4246],[22.0705,61.7767,70.5242],[22.08,61.7766,53.0899],[22.0803,61.7811,53.4424],[22.1183,61.7805,82.8324],[22.118,61.776,71.1287],[22.156,61.7755,84.651],[22.1557,61.771,79.4152],[22.1652,61.7708,76.0309],[22.1645,61.7619,77.0179],[22.174,61.7617,83.7544],[22.1727,61.7437,62.5726],[22.1917,61.7434,63.8355],[22.1889,61.703,71.3279],[22.2078,61.7027,53.0],[22.2084,61.7117,53.0],[22.2179,61.7116,54.5469],[22.2202,61.743,58.973],[22.2296,61.7428,59.74],[22.2306,61.7563,69.6049],[22.2685,61.7557,89.2026],[22.2682,61.7512,95.9027],[22.3251,61.7503,93.0832],[22.3244,61.7413,100.2518],[22.3339,61.7411,93.98],[22.3336,61.7366,96.6826],[22.3431,61.7365,96.1229],[22.3427,61.732,96.4895],[22.3522,61.7318,89.4866],[22.3518,61.7273,92.1411],[22.3613,61.7272,98.0563],[22.361,61.7227,87.0354],[22.3705,61.7225,94.3081],[22.3698,61.7135,84.5777],[22.3414,61.714,80.265],[22.3403,61.7006,64.4092],[22.3498,61.7004,73.3879],[22.3495,61.6959,79.9633],[22.3589,61.6958,78.545],[22.3586,61.6913,90.8589],[22.368,61.6911,88.0674],[22.3677,61.6866,83.3695],[22.3772,61.6865,80.2995],[22.3765,61.6775,88.8663],[22.386,61.6773,76.4984],[22.3856,61.6728,78.3884],[22.3951,61.6727,87.1502],[22.3947,61.6682,90.861],[22.4042,61.668,87.8591],[22.4035,61.659,93.1115],[22.394,61.6592,86.8599],[22.3933,61.6502,86.748],[22.3839,61.6504,76.1573],[22.3835,61.6459,78.8315],[22.3741,61.646,64.7001],[22.3734,61.6371,68.2247],[22.3639,61.6372,61.7806],[22.3636,61.6328,67.977],[22.3541,61.6329,60.172],[22.3538,61.6284,63.008],[22.3444,61.6286,74.4851],[22.344,61.6241,63.6781],[22.3346,61.6242,71.987799999999993],[22.3342,61.6198,66.8545],[22.3248,61.6199,72.9175],[22.3245,61.6154,72.2474],[22.315,61.6156,73.8919],[22.3147,61.6111,73.354],[22.3052,61.6113,71.2758],[22.3046,61.6023,65.909],[22.2857,61.6026,71.9785],[22.2854,61.5981,68.6709],[22.2665,61.5984,51.2573],[22.2659,61.5895,68.6143],[22.2564,61.5896,64.9927],[22.2554,61.5761,70.0724],[22.246,61.5763,74.4403],[22.2454,61.5673,58.9292],[22.2642,61.567,75.744],[22.2639,61.5625,66.1226],[22.2733,61.5624,70.8332],[22.273,61.5579,69.5648],[22.2824,61.5577,66.4396],[22.2821,61.5532,69.1241],[22.2915,61.5531,65.4345],[22.2912,61.5486,69.5949],[22.3006,61.5484,58.9885],[22.3003,61.5439,58.7792],[22.3097,61.5438,62.3638],[22.3094,61.5393,70.1244],[22.3282,61.539,79.923],[22.3279,61.5345,80.2478],[22.3373,61.5343,77.9509],[22.3369,61.5298,81.683],[22.3463,61.5297,93.396],[22.346,61.5252,102.0654],[22.3554,61.525,102.2869],[22.3551,61.5205,99.0762],[22.3645,61.5204,87.1093],[22.3642,61.5159,88.4202],[22.383,61.5156,84.8796],[22.3826,61.5111,84.9717],[22.392,61.5109,84.0413],[22.3917,61.5064,84.7023],[22.4011,61.5062,92.2978],[22.4008,61.5018,90.9249],[22.4102,61.5016,95.296],[22.4098,61.4971,84.4096],[22.4192,61.497,85.4525],[22.4189,61.4925,90.8155],[22.4283,61.4923,78.9219],[22.4279,61.4878,80.5999],[22.4373,61.4876,81.0253],[22.437,61.4831,76.954],[22.4464,61.483,79.5047],[22.446,61.4785,77.8521],[22.4554,61.4783,86.8389],[22.4547,61.4693,80.1665],[22.4641,61.4692,76.9114],[22.4638,61.4647,72.5154],[22.4732,61.4645,82.097],[22.4725,61.4556,79.6796],[22.4819,61.4554,90.6983],[22.4815,61.4509,84.0167],[22.4909,61.4507,90.6192],[22.4902,61.4417,80.2508],[22.4996,61.4416,84.5244],[22.4988,61.4326,74.4866],[22.5082,61.4324,66.4209],[22.5079,61.4279,67.6966],[22.5266,61.4276,62.0822],[22.5263,61.4231,67.8902],[22.5544,61.4226,52.6755],[22.5541,61.4181,58.8832],[22.5634,61.4179,58.134],[22.5631,61.4134,74.137],[22.5724,61.4133,71.1604],[22.5714,61.3998,77.9989],[22.5807,61.3996,105.9984],[22.5804,61.3951,103.0092],[22.5991,61.3948,104.6754],[22.5987,61.3903,117.092],[22.6268,61.3898,93.6545],[22.6265,61.3853,93.0489],[22.6358,61.3851,83.1687],[22.6374,61.403,94.0582],[22.6561,61.4027,77.361],[22.6565,61.4072,90.9779],[22.6752,61.4068,90.4683],[22.6764,61.4203,92.2535],[22.667,61.4205,80.6635],[22.6674,61.4249,74.4124],[22.6768,61.4248,80.4383],[22.6771,61.4292,91.5453],[22.7053,61.4287,89.4542]]],
[[[21.5391,61.7474,18.2224],[21.5318,61.7484,4.9537],[21.5328,61.7516,0.0],[21.5297,61.7536,1.0748],[21.5328,61.7578,3.3317],[21.5229,61.7583,17.909],[21.5193,61.7557,17.1757],[21.5214,61.7505,15.0687],[21.5297,61.7443,3.0636],[21.5453,61.7443,1.9159],[21.5391,61.7474,18.2224]]],
[[[21.5078,61.7661,0.0],[21.5,61.7667,3.8011],[21.5,61.7646,0.0],[21.5187,61.7583,15.909],[21.5224,61.7609,11.0782],[21.5182,61.7641,0.0],[21.5104,61.7646,10.6041],[21.5078,61.7661,0.0]]],
[[[21.4167,61.7646,0.0],[21.4151,61.763,2.1515],[21.4182,61.763,1.4827],[21.4182,61.7641,0.0],[21.4167,61.7646,0.0]]],
[[[21.3286,61.8443,4.3925],[21.3276,61.8422,2.1318],[21.3292,61.8417,0.0],[21.337,61.8422,0.0],[21.3359,61.8474,3.441],[21.3411,61.8495,0.0],[21.3354,61.8521,3.2498],[21.3276,61.8495,0.0],[21.3307,61.8474,0.0],[21.3286,61.8443,4.3925]]],
[[[21.3604,61.85,6.0717],[21.3589,61.8484,6.3268],[21.362,61.8484,7.5415],[21.362,61.8495,6.1682],[21.3604,61.85,6.0717]]],
[[[21.4542,61.8875,8.3251],[21.4526,61.8859,10.2608],[21.4557,61.8859,8.1048],[21.4557,61.887,7.0038],[21.4542,61.8875,8.3251]]],
[[[21.3521,61.925,4.0776],[21.3578,61.9234,4.7981],[21.3557,61.9286,9.8772],[21.3542,61.9292,9.9971],[21.3505,61.9266,8.6996],[21.3521,61.925,4.0776]]],
[[[21.3651,61.9286,0.0],[21.3651,61.9255,7.5499],[21.3667,61.925,3.5481],[21.3708,61.925,6.8766],[21.3745,61.9276,11.3165],[21.3729,61.9292,5.9675],[21.3651,61.9286,0.0]]]]}
,"properties": {"GID_3": "FIN.5.7.1_1","GID_0": "FIN","country": "Finland","GID_1": "FIN.5_1","province": "WesternFinland","NL_NAME_1": "NA","GID_2": "FIN.5.7_1","county": "Satakunta","NL_NAME_2": "NA","city": "NorthernSatakunta","VARNAME_3": "NA","NL_NAME_3": "NA","TYPE_3": "Seutukunta|Ekonomiskregion","ENGTYPE_3": "Sub-Region","CC_3": "NA","HASC_3": "NA","name": "Northern_Satakunta.city","area_km2": 3205.517,"hist_schema_id": "Elevation0-9000","hist_area_km2": {"0": 73.751,"25": 205.742,"50": 475.648,"75": 659.459,"100": 695.532,"125": 544.482,"150": 492.116,"175": 58.657,"200": 0.12}}}