{"type":"Feature","properties":{"GID_3":"FIN.5.4.2_1","GID_0":"FIN","country":"Finland","GID_1":"FIN.5_1","province":"WesternFinland","NL_NAME_1":"NA","GID_2":"FIN.5.4_1","county":"Ostrobothnia","NL_NAME_2":"NA","city":"Kyrönmaa","VARNAME_3":"NA","NL_NAME_3":"NA","TYPE_3":"Seutukunta|Ekonomiskregion","ENGTYPE_3":"Sub-Region","CC_3":"NA","HASC_3":"FI.LS.KY","name":"Kyrönmaa.city"},
"geometry":{"type": "MultiPolygon","coordinates": [[[[22.2786,62.7893,70.6533],[22.2789,62.7938,69.4294],[22.3084,62.7934,75.4718],[22.3091,62.8023,64.8378],[22.3189,62.8022,64.4023],[22.32,62.8156,68.9155],[22.3298,62.8155,65.912],[22.3305,62.8245,61.3693],[22.3403,62.8243,55.7996],[22.341,62.8333,64.0855],[22.3509,62.8331,63.4669],[22.3516,62.8421,50.9155],[22.3614,62.8419,53.3069],[22.3618,62.8464,48.4466],[22.3716,62.8463,49.2715],[22.372,62.8507,46.5592],[22.3818,62.8506,58.2128],[22.3822,62.8551,55.5875],[22.392,62.8549,56.6574],[22.3923,62.8594,58.2931],[22.4022,62.8592,55.6485],[22.4026,62.8637,52.6559],[22.4124,62.8636,51.6526],[22.4131,62.8726,52.324],[22.4033,62.8727,42.0],[22.4047,62.8907,48.2958],[22.3949,62.8908,43.7481],[22.3963,62.9088,38.2198],[22.4062,62.9086,45.1598],[22.407,62.9176,28.4864],[22.4168,62.9174,27.6264],[22.4183,62.9354,29.7623],[22.4281,62.9352,26.0668],[22.4292,62.9487,30.6966],[22.4194,62.9489,32.3374],[22.4198,62.9534,25.2316],[22.4296,62.9532,26.1804],[22.4304,62.9622,19.5],[22.4402,62.962,23.8785],[22.4406,62.9665,24.5482],[22.4505,62.9663,24.8137],[22.4508,62.9708,24.7645],[22.4607,62.9706,25.0401],[22.4615,62.9796,36.351],[22.4713,62.9795,30.9634],[22.474,63.0109,28.5613],[22.4839,63.0107,27.8994],[22.4846,63.0197,36.8287],[22.4945,63.0195,36.2038],[22.4953,63.0285,51.1293],[22.5052,63.0283,46.2939],[22.506,63.0373,44.057],[22.5159,63.0371,46.2508],[22.5166,63.0461,40.6484],[22.5364,63.0458,38.0096],[22.5368,63.0503,46.592],[22.5566,63.0499,45.8203],[22.557,63.0544,44.1618],[22.5471,63.0546,47.166],[22.5475,63.0591,43.5675],[22.5376,63.0592,37.8016],[22.5384,63.0682,47.6931],[22.5582,63.0679,52.0645],[22.5586,63.0724,53.6348],[22.5685,63.0722,51.7097],[22.5689,63.0767,55.2897],[22.5788,63.0765,61.3542],[22.5792,63.081,52.8272],[22.6089,63.0805,54.0393],[22.6085,63.076,52.3913],[22.6184,63.0758,52.8862],[22.618,63.0713,56.1324],[22.6279,63.0711,52.9172],[22.6307,63.1025,43.517],[22.5812,63.1034,43.5906],[22.5807,63.0989,48.9845],[22.4816,63.1007,41.6157],[22.4812,63.0962,38.3043],[22.4614,63.0965,56.0605],[22.461,63.092,43.2753],[22.4511,63.0922,48.0271],[22.4507,63.0877,49.6091],[22.4309,63.0881,59.6902],[22.4305,63.0836,43.7697],[22.4206,63.0837,44.1576],[22.4202,63.0792,35.8275],[22.4004,63.0796,44.3314],[22.4,63.0751,43.1663],[22.3901,63.0752,57.0152],[22.3898,63.0708,44.2182],[22.3699,63.0711,41.304],[22.3696,63.0666,38.1774],[22.3597,63.0667,25.2866],[22.3593,63.0623,31.8467],[22.3395,63.0626,32.8031],[22.3391,63.0581,32.6667],[22.2599,63.0593,23.5573],[22.2603,63.0638,18.7086],[22.2404,63.0641,37.5549],[22.2408,63.0686,16.886],[22.221,63.0689,16.2644],[22.2213,63.0734,16.7528],[22.2114,63.0736,32.3072],[22.2118,63.0781,18.5471],[22.2018,63.0782,21.2741],[22.2025,63.0872,22.1621],[22.1926,63.0873,27.8048],[22.1929,63.0918,27.5722],[22.1731,63.0921,17.9227],[22.1734,63.0966,22.5325],[22.1635,63.0968,26.9295],[22.1638,63.1013,34.2062],[22.1539,63.1014,31.4233],[22.1543,63.1059,33.6215],[22.1443,63.1061,26.0629],[22.1447,63.1105,28.7956],[22.1347,63.1107,25.3038],[22.1351,63.1152,23.6484],[22.1252,63.1153,21.8034],[22.1258,63.1243,15.7495],[22.1159,63.1245,23.5473],[22.1162,63.1289,15.8815],[22.0963,63.1292,26.392],[22.0967,63.1337,23.8447],[22.0768,63.134,22.7178],[22.0771,63.1385,9.2726],[22.0573,63.1388,13.0926],[22.057,63.1343,21.0148],[22.0272,63.1347,17.8489],[22.0269,63.1302,12.9955],[22.007,63.1305,14.5836],[22.0067,63.126,21.0894],[21.9967,63.1261,24.5608],[21.9958,63.1127,29.0843],[21.9859,63.1128,27.7457],[21.9856,63.1083,25.5508],[21.9757,63.1085,33.8554],[21.9751,63.0995,26.0758],[21.9652,63.0996,35.2717],[21.9648,63.0951,23.689],[21.9549,63.0952,9.1539],[21.9543,63.0863,15.8525],[21.9444,63.0864,8.7097],[21.9441,63.0819,9.9495],[21.9342,63.082,6.3995],[21.9339,63.0775,4.9551],[21.924,63.0777,7.7604],[21.9243,63.0822,6.9611],[21.9144,63.0823,6.0803],[21.9138,63.0733,5.9102],[21.9039,63.0735,12.8393],[21.9036,63.069,10.4868],[21.9135,63.0688,7.1745],[21.9106,63.0239,8.3582],[21.9007,63.0241,7.374],[21.8989,62.9971,8.2143],[21.889,62.9972,8.2391],[21.8879,62.9793,11.6888],[21.878,62.9794,21.729],[21.8774,62.9704,15.1466],[21.8676,62.9706,17.5664],[21.8673,62.9661,20.2419],[21.8574,62.9662,23.3857],[21.8568,62.9572,29.3945],[21.847,62.9573,19.1251],[21.8467,62.9528,18.8133],[21.8368,62.953,33.8337],[21.8363,62.944,27.0292],[21.8264,62.9441,43.3844],[21.8261,62.9396,36.414],[21.8163,62.9397,38.1046],[21.8157,62.9308,39.9604],[21.8058,62.9309,38.6398],[21.8053,62.9219,28.0925],[21.7954,62.922,26.9846],[21.794,62.8996,21.0002],[21.7842,62.8997,25.4427],[21.7826,62.8727,34.7806],[21.7727,62.8729,29.688],[21.7722,62.8639,26.4676],[21.782,62.8638,36.6517],[21.7818,62.8593,31.9773],[21.7916,62.8591,36.8126],[21.7913,62.8547,30.2454],[21.811,62.8544,28.5363],[21.8107,62.8499,25.9706],[21.8206,62.8498,35.6182],[21.8203,62.8453,34.7746],[21.8301,62.8452,32.5662],[21.8298,62.8407,38.2665],[21.8397,62.8406,37.1469],[21.8383,62.8181,48.2073],[21.8481,62.818,45.9142],[21.8478,62.8135,45.9062],[21.8675,62.8132,47.5952],[21.8672,62.8088,50.0986],[21.8868,62.8085,58.7637],[21.8865,62.804,63.7995],[21.9062,62.8037,55.5258],[21.9059,62.7993,64.3051],[21.9255,62.799,96.0678],[21.9252,62.7945,107.737],[21.9449,62.7942,103.952],[21.9446,62.7897,103.3326],[21.9642,62.7895,93.0253],[21.9639,62.785,100.9655],[21.9934,62.7846,87.6938],[21.9931,62.7801,90.7462],[22.0127,62.7798,77.0],[22.0124,62.7753,77.0],[22.032,62.7751,77.0],[22.0317,62.7706,86.1137],[22.0513,62.7703,92.3329],[22.051,62.7658,86.7672],[22.1491,62.7644,89.755],[22.1487,62.7599,88.143],[22.1782,62.7594,93.7009],[22.1778,62.7549,92.0049],[22.1974,62.7546,98.3578],[22.1971,62.7501,95.2982],[22.2069,62.75,103.338],[22.2072,62.7545,101.9089],[22.217,62.7543,102.6811],[22.2177,62.7633,94.3169],[22.2275,62.7632,91.5139],[22.2278,62.7677,83.6852],[22.2376,62.7675,93.7037],[22.238,62.772,82.385],[22.2478,62.7718,84.4183],[22.2485,62.7808,76.842],[22.2583,62.7807,79.857],[22.2586,62.7851,76.5128],[22.2684,62.785,73.4092],[22.2688,62.7895,77.4698],[22.2786,62.7893,70.6533]]]]}}