{"type":"Feature","properties":{"GID_3":"FIN.1.2.1_1","GID_0":"FIN","country":"Finland","GID_1":"FIN.1_1","province":"EasternFinland","NL_NAME_1":"NA","GID_2":"FIN.1.2_1","county":"NorthSavonia","NL_NAME_2":"NA","city":"Kuopio","VARNAME_3":"NA","NL_NAME_3":"NA","TYPE_3":"Seutukunta|Ekonomiskregion","ENGTYPE_3":"Sub-Region","CC_3":"NA","HASC_3":"FI.IS.KP","name":"Kuopio.city"},
"geometry":{"type": "MultiPolygon","coordinates": [[[[28.2517,62.8224,90.0],[28.2322,62.8235,102.2769],[28.2334,62.828,107.0972],[28.2236,62.8286,93.8729],[28.2249,62.833,115.8274],[28.2151,62.8336,111.0617],[28.2164,62.838,112.6318],[28.2066,62.8386,88.7626],[28.2116,62.8564,78.5],[28.2018,62.857,112.9889],[28.2031,62.8614,78.5],[28.1933,62.862,89.2919],[28.1945,62.8664,97.9329],[28.1848,62.867,99.063],[28.186,62.8714,96.7323],[28.1762,62.872,93.9639],[28.1775,62.8765,91.5113],[28.1677,62.877,78.5],[28.1702,62.8859,82.7864],[28.1799,62.8854,82.8699],[28.1812,62.8898,84.362],[28.2008,62.8887,78.5],[28.1995,62.8843,78.5],[28.2191,62.8831,78.5],[28.2178,62.8787,78.5],[28.2374,62.8776,82.413],[28.2361,62.8731,78.5],[28.2557,62.872,78.5],[28.2582,62.8809,104.5644],[28.2484,62.8815,86.8568],[28.2509,62.8904,80.5],[28.2607,62.8898,104.4217],[28.2594,62.8853,101.9639],[28.2985,62.8831,101.5157],[28.3011,62.892,91.5],[28.2717,62.8937,108.3096],[28.2742,62.9026,107.7807],[28.2938,62.9015,114.2723],[28.2925,62.897,108.0914],[28.3023,62.8964,117.1213],[28.3074,62.9142,135.5419],[28.278,62.916,142.3099],[28.2793,62.9204,146.6399],[28.289,62.9198,178.6207],[28.2903,62.9243,150.0788],[28.3001,62.9237,131.3974],[28.3014,62.9282,101.5142],[28.3112,62.9276,109.1972],[28.3124,62.9321,102.3641],[28.2928,62.9332,113.054],[28.2941,62.9376,95.5],[28.2745,62.9388,118.4034],[28.2758,62.9432,101.6286],[28.1974,62.9477,78.0],[28.1986,62.9522,78.0],[28.179,62.9533,78.0],[28.1803,62.9578,90.4214],[28.1607,62.9589,87.4147],[28.1619,62.9633,78.0],[28.1423,62.9645,78.0],[28.1435,62.9689,78.0],[28.1239,62.97,78.0],[28.1301,62.9923,78.0],[28.1203,62.9929,78.0],[28.1215,62.9973,84.7197],[28.1117,62.9979,78.0],[28.1129,63.0023,78.0],[28.1031,63.0029,78.0],[28.1044,63.0073,78.0],[28.0847,63.0084,78.0],[28.086,63.0129,78.0],[28.0761,63.0134,78.0],[28.0774,63.0179,78.0],[28.0675,63.0185,78.0],[28.0688,63.0229,78.0],[28.0196,63.0256,78.0],[28.0209,63.0301,78.0],[28.011,63.0307,78.0],[28.0122,63.0351,78.0],[28.0024,63.0357,78.0],[28.0036,63.0401,78.0],[27.984,63.0412,105.4338],[27.9852,63.0457,93.2398],[27.9754,63.0462,107.9192],[27.9766,63.0507,89.9272],[27.9667,63.0512,82.8585],[27.9655,63.0467,78.0],[27.9557,63.0473,78.0],[27.9508,63.0295,100.4246],[27.9606,63.0289,78.0],[27.9594,63.0245,78.0],[27.9693,63.0239,96.5474],[27.9656,63.0105,78.0],[27.9558,63.0111,78.0],[27.9546,63.0066,90.1205],[27.9349,63.0077,78.0],[27.9361,63.0122,78.0],[27.9263,63.0127,78.0],[27.9251,63.0083,78.0],[27.8661,63.0115,78.0],[27.8673,63.0159,78.0],[27.8477,63.017,78.0],[27.8489,63.0215,78.0],[27.8391,63.022,78.0],[27.8403,63.0265,78.0],[27.8206,63.0275,78.0],[27.8218,63.032,78.0],[27.8119,63.0325,78.0],[27.8132,63.037,78.0],[27.8033,63.0375,78.0],[27.8045,63.042,78.0],[27.7947,63.0425,78.0],[27.7958,63.047,78.0],[27.8155,63.0459,78.0],[27.8167,63.0504,85.2199],[27.8266,63.0498,85.7478],[27.8302,63.0632,98.0532],[27.84,63.0627,115.0665],[27.8448,63.0805,78.0],[27.8842,63.0784,78.0],[27.8854,63.0828,78.0],[27.8756,63.0834,78.0],[27.8768,63.0878,78.0],[27.8571,63.0889,78.0],[27.8643,63.1156,78.0],[27.8544,63.1162,104.4354],[27.8556,63.1206,113.2629],[27.8458,63.1212,88.5672],[27.8482,63.1301,100.7022],[27.8383,63.1306,78.0],[27.8395,63.1351,78.0],[27.8296,63.1356,89.4281],[27.8308,63.1401,104.0132],[27.821,63.1406,82.0],[27.8222,63.1451,103.2527],[27.8123,63.1456,90.3815],[27.8135,63.1501,101.6535],[27.8036,63.1506,89.9981],[27.8048,63.1551,97.7018],[27.8147,63.1545,114.098],[27.8207,63.1768,113.18],[27.8306,63.1763,120.561],[27.8318,63.1807,133.3728],[27.8219,63.1813,113.6931],[27.8279,63.2036,123.2918],[27.818,63.2041,113.4672],[27.8192,63.2085,115.9841],[27.7994,63.2096,136.0225],[27.8006,63.2141,136.7363],[27.7808,63.2151,150.7348],[27.782,63.2196,163.5686],[27.7523,63.2212,188.1986],[27.7535,63.2257,158.2267],[27.7238,63.2272,139.3508],[27.725,63.2317,134.7476],[27.7052,63.2327,127.8013],[27.7076,63.2417,131.3929],[27.6977,63.2422,124.1008],[27.7001,63.2511,121.0],[27.6901,63.2516,121.0],[27.689,63.2472,124.5889],[27.6791,63.2477,121.8503],[27.6779,63.2432,131.9703],[27.6878,63.2427,126.6843],[27.6842,63.2293,130.5249],[27.6743,63.2299,131.384],[27.6755,63.2343,133.0011],[27.6656,63.2349,124.5974],[27.6668,63.2393,124.4188],[27.647,63.2404,121.3884],[27.6446,63.2314,131.0968],[27.6545,63.2309,125.247],[27.6522,63.222,122.7263],[27.6225,63.2236,116.4999],[27.6213,63.2191,129.9113],[27.6312,63.2186,117.3941],[27.63,63.2141,138.4045],[27.6399,63.2136,124.9408],[27.6329,63.1868,123.0109],[27.6131,63.1879,147.6319],[27.6143,63.1923,133.9053],[27.5945,63.1934,142.7001],[27.5933,63.1889,156.9898],[27.5735,63.1899,116.0922],[27.5723,63.1855,120.2802],[27.5526,63.1865,125.1117],[27.5479,63.1687,105.1435],[27.538,63.1692,102.5645],[27.5369,63.1647,100.687],[27.5468,63.1642,116.5452],[27.5456,63.1598,97.3366],[27.5555,63.1593,106.4292],[27.5543,63.1548,115.9926],[27.5346,63.1558,94.8519],[27.5357,63.1603,105.6479],[27.5258,63.1608,97.2176],[27.527,63.1652,118.0237],[27.5171,63.1658,109.484],[27.5183,63.1702,112.0803],[27.5084,63.1707,118.1271],[27.5095,63.1752,115.5484],[27.4996,63.1757,135.4746],[27.502,63.1846,119.8007],[27.4822,63.1857,117.197],[27.481,63.1812,127.4317],[27.4711,63.1817,104.5157],[27.47,63.1772,111.0457],[27.4007,63.1808,88.3455],[27.3996,63.1763,101.7635],[27.3699,63.1779,83.0],[27.3688,63.1734,83.0],[27.3589,63.1739,83.0],[27.3612,63.1828,83.0],[27.3513,63.1833,92.5543],[27.3524,63.1878,83.0],[27.3425,63.1883,83.0],[27.3436,63.1927,83.0],[27.3338,63.1932,83.0],[27.3371,63.2066,83.0],[27.3471,63.2061,83.0],[27.3493,63.2151,83.0],[27.3394,63.2156,83.0],[27.3417,63.2245,83.0],[27.3318,63.225,83.0],[27.3329,63.2295,83.0],[27.323,63.23,83.0],[27.3241,63.2344,83.0],[27.3142,63.2349,83.0],[27.3153,63.2394,83.0],[27.3054,63.2399,83.0],[27.311,63.2622,83.0],[27.3011,63.2627,83.0],[27.3068,63.285,86.8609],[27.2968,63.2855,83.0],[27.298,63.29,83.0],[27.288,63.2905,83.0],[27.2891,63.2949,83.0],[27.2792,63.2954,83.0],[27.2803,63.2999,83.0],[27.2704,63.3004,83.0],[27.2738,63.3138,101.0429],[27.2539,63.3148,83.0],[27.255,63.3192,108.9208],[27.2351,63.3202,95.1996],[27.2363,63.3247,102.7822],[27.2164,63.3257,83.0],[27.2175,63.3301,83.0],[27.1976,63.3311,87.0717],[27.1987,63.3356,104.1225],[27.1689,63.3371,112.1547],[27.1678,63.3326,128.0654],[27.1578,63.3331,129.8474],[27.1567,63.3286,112.8004],[27.1468,63.3291,137.6011],[27.1457,63.3247,127.7965],[27.1357,63.3251,159.7292],[27.1324,63.3117,127.061],[27.1423,63.3112,129.2643],[27.1368,63.2889,118.6098],[27.1468,63.2885,136.6371],[27.1457,63.284,106.5355],[27.1556,63.2835,106.466],[27.1534,63.2746,95.9592],[27.1137,63.2765,103.7679],[27.1126,63.2721,118.2969],[27.1026,63.2725,117.0586],[27.1015,63.2681,133.5282],[27.1115,63.2676,116.3474],[27.1104,63.2631,116.4112],[27.1203,63.2626,124.1435],[27.1195,63.2595,96.2029],[27.1215,63.2581,93.0918],[27.1291,63.2577,95.6438],[27.128,63.2532,100.4921],[27.1181,63.2537,134.5043],[27.1187,63.2563,92.4281],[27.115,63.2584,98.294],[27.0795,63.2601,149.3908],[27.0806,63.2646,140.7279],[27.0508,63.266,177.8935],[27.0497,63.2616,171.9912],[27.0398,63.2621,179.6943],[27.0376,63.2531,167.7927],[27.0575,63.2522,170.6541],[27.0423,63.1896,145.7451],[27.0621,63.1887,150.6438],[27.061,63.1842,134.23],[27.0709,63.1837,125.46],[27.0698,63.1793,130.2866],[27.0797,63.1788,125.0683],[27.0786,63.1743,109.6601],[27.0885,63.1738,111.3258],[27.0874,63.1694,109.1115],[27.1072,63.1684,113.6315],[27.1061,63.1639,93.4867],[27.0468,63.1668,102.5],[27.0478,63.1713,104.7228],[26.9588,63.1756,122.5],[26.9556,63.1622,122.5],[26.9951,63.1603,125.3974],[26.9941,63.1558,124.6689],[27.004,63.1554,129.596],[27.0029,63.1509,124.4809],[27.0128,63.1504,138.3401],[27.0117,63.146,146.1706],[27.0216,63.1455,145.1719],[27.0205,63.141,143.9686],[27.0007,63.142,143.795],[26.9997,63.1375,147.9483],[26.97,63.1389,142.857],[26.9689,63.1345,135.7973],[26.9492,63.1354,126.2867],[26.9481,63.131,129.1659],[26.958,63.1305,130.2279],[26.9548,63.1171,126.4033],[26.9647,63.1166,128.4937],[26.9625,63.1077,132.1819],[26.9724,63.1072,133.5483],[26.9703,63.0983,135.671],[26.9801,63.0978,134.7261],[26.9791,63.0933,134.6616],[26.9889,63.0928,148.9776],[26.9879,63.0884,138.4002],[26.9977,63.0879,160.0424],[26.9956,63.079,140.4709],[27.0153,63.078,156.4055],[27.0142,63.0736,145.2498],[27.0241,63.0731,138.4331],[27.023,63.0686,152.9038],[27.0427,63.0676,134.0],[27.0417,63.0632,185.5189],[27.0614,63.0622,140.8048],[27.0603,63.0578,150.4916],[27.08,63.0568,141.3129],[27.0768,63.0434,131.0636],[27.0866,63.0429,131.3097],[27.0845,63.034,131.4103],[27.0943,63.0335,138.5173],[27.0932,63.029,142.335],[27.1129,63.0281,164.504],[27.1118,63.0236,144.8083],[27.1315,63.0226,146.6259],[27.1304,63.0182,149.6512],[27.1402,63.0177,150.1698],[27.1381,63.0088,147.9661],[27.1282,63.0092,147.6067],[27.1271,63.0048,142.5012],[27.1173,63.0053,134.151],[27.1184,63.0097,140.2917],[27.0987,63.0107,138.5039],[27.0998,63.0152,132.4904],[27.09,63.0156,126.6251],[27.0889,63.0112,136.9866],[27.079,63.0117,124.65],[27.0769,63.0027,114.3947],[27.0277,63.0051,110.6638],[27.0234,62.9873,152.9605],[27.0037,62.9882,117.1165],[27.0027,62.9838,116.7186],[26.9633,62.9857,104.0],[26.9644,62.9902,112.3204],[26.9447,62.9911,104.0],[26.9458,62.9956,104.0],[26.936,62.996,104.0],[26.9349,62.9916,128.0312],[26.9152,62.9925,104.7356],[26.9142,62.988,100.5],[26.8945,62.989,100.5],[26.8934,62.9845,100.5],[26.9033,62.9841,100.5],[26.9012,62.9751,100.5],[26.9001,62.9707,100.5],[26.8903,62.9711,100.5],[26.8882,62.9622,100.5],[26.898,62.9617,100.5],[26.897,62.9573,100.5],[26.9068,62.9568,100.5],[26.9057,62.9523,100.5],[26.9156,62.9519,100.5],[26.9145,62.9474,100.5],[26.9243,62.9469,100.5],[26.9222,62.938,100.5],[26.932,62.9375,100.5],[26.9299,62.9286,100.5],[26.9397,62.9281,100.5],[26.9355,62.9102,113.9497],[26.9257,62.9107,111.9707],[26.9236,62.9018,108.5196],[26.9138,62.9023,113.6122],[26.9128,62.8978,110.9503],[26.9226,62.8973,119.1505],[26.911,62.8482,97.5],[26.9208,62.8477,97.5],[26.9197,62.8433,97.5],[26.9295,62.8428,97.5],[26.9285,62.8383,97.5],[26.9383,62.8378,97.5],[26.9372,62.8334,97.5],[26.947,62.8329,97.5],[26.9459,62.8284,97.5],[26.9557,62.828,97.5],[26.9547,62.8235,97.5],[26.9645,62.823,97.5],[26.9634,62.8186,97.5],[26.9732,62.8181,97.5],[26.9711,62.8092,97.5],[26.9808,62.8087,97.5],[26.9766,62.7908,97.5],[26.9864,62.7903,101.9661],[26.9821,62.7725,154.4576],[26.9919,62.772,130.8078],[26.9909,62.7675,144.3861],[27.0006,62.7671,139.6818],[26.9996,62.7626,153.2697],[27.0093,62.7621,133.3525],[27.0082,62.7576,146.6627],[27.018,62.7572,137.8744],[27.017,62.7527,169.5702],[27.0657,62.7503,106.5],[27.0668,62.7548,110.7871],[27.0765,62.7543,109.7536],[27.0776,62.7588,105.2459],[27.0874,62.7583,103.8105],[27.0884,62.7627,102.9865],[27.1372,62.7603,117.4424],[27.1361,62.7558,116.5021],[27.1459,62.7554,129.0224],[27.1448,62.7509,119.5263],[27.1643,62.7499,128.8865],[27.1632,62.7454,131.5344],[27.1827,62.7445,143.5357],[27.1816,62.74,138.9813],[27.1914,62.7395,137.4228],[27.1903,62.7351,137.1805],[27.2098,62.7341,139.8815],[27.2087,62.7296,137.7951],[27.2282,62.7286,140.4207],[27.2271,62.7242,140.1899],[27.2369,62.7237,145.0706],[27.2358,62.7192,147.3251],[27.2455,62.7187,150.3953],[27.2444,62.7142,152.1015],[27.2542,62.7137,144.8353],[27.2531,62.7093,145.664],[27.2725,62.7083,142.6806],[27.2714,62.7038,149.0508],[27.2909,62.7028,140.6421],[27.292,62.7073,145.7032],[27.3017,62.7068,142.5198],[27.3028,62.7113,144.5578],[27.3223,62.7103,142.195],[27.3234,62.7147,129.0],[27.3526,62.7132,125.332],[27.3515,62.7088,129.0351],[27.371,62.7078,119.9563],[27.3699,62.7033,108.5],[27.3796,62.7028,108.5],[27.3785,62.6983,108.5],[27.4174,62.6963,122.556],[27.4185,62.7008,128.6086],[27.438,62.6998,138.6789],[27.4391,62.7042,156.1677],[27.4489,62.7037,147.0489],[27.4511,62.7126,154.1077],[27.4608,62.7121,142.8719],[27.462,62.7166,152.3111],[27.4814,62.7156,154.3172],[27.4792,62.7066,148.7171],[27.4986,62.7056,148.8424],[27.4975,62.7012,139.3013],[27.5072,62.7006,141.0551],[27.5061,62.6962,144.4156],[27.545,62.6941,155.4386],[27.5462,62.6986,114.1826],[27.5656,62.6976,100.0595],[27.5645,62.6931,101.7295],[27.6034,62.691,78.0],[27.6022,62.6866,78.0],[27.6411,62.6845,78.0],[27.64,62.68,78.0],[27.708,62.6764,78.0],[27.7103,62.6853,78.0],[27.7492,62.6832,78.0],[27.7481,62.6787,78.0],[27.7675,62.6777,78.0],[27.7663,62.6732,78.0],[27.8149,62.6706,93.6946],[27.8161,62.675,92.0],[27.8452,62.6734,113.0454],[27.8464,62.6779,113.5761],[27.8561,62.6773,113.1816],[27.8573,62.6818,100.7466],[27.8768,62.6807,95.7555],[27.8756,62.6763,94.4506],[27.8853,62.6757,113.0677],[27.8865,62.6802,121.8463],[27.9059,62.6791,116.783],[27.9071,62.6836,122.8706],[27.9168,62.683,135.5613],[27.918,62.6875,132.7143],[27.9277,62.6869,123.6817],[27.9289,62.6914,137.289],[27.9581,62.6898,122.2404],[27.9557,62.6809,163.0848],[27.946,62.681399999999996,132.0574],[27.9436,62.6725,160.4712],[27.9727,62.6708,140.595],[27.9715,62.6664,130.0855],[27.9909,62.6653,112.4886],[27.9921,62.6698,104.0],[28.0019,62.6692,120.076],[28.0031,62.6737,115.3281],[28.0128,62.6731,108.5429],[28.014,62.6776,102.8448],[28.0237,62.677,99.8827],[28.0225,62.6726,97.93],[28.0516,62.6709,90.4706],[28.0613,62.6704,87.0],[28.0625,62.6748,108.6041],[28.0917,62.6732,76.0],[28.0905,62.6687,76.0],[28.1196,62.6671,76.0],[28.1184,62.6626,76.0],[28.1378,62.6615,76.0],[28.1366,62.6571,76.0],[28.1948,62.6537,76.0],[28.1936,62.6493,76.0],[28.2033,62.6487,76.0],[28.202,62.6442,76.0],[28.2117,62.6437,76.0],[28.208,62.6303,76.0],[28.2177,62.6298,76.0],[28.2153,62.6208,76.0],[28.2249,62.6203,76.0],[28.22,62.6025,76.0],[28.2297,62.6019,76.0],[28.2285,62.5975,76.0],[28.2381,62.5969,76.0],[28.2394,62.6013,76.0],[28.2491,62.6008,76.0],[28.2503,62.6052,76.0],[28.26,62.6047,76.0],[28.2612,62.6091,76.0],[28.3097,62.6063,92.678],[28.3084,62.6018,88.6896],[28.3278,62.6007,76.0],[28.3265,62.5963,89.2938],[28.3556,62.5946,76.0],[28.3568,62.599,91.8249],[28.3472,62.5996,76.0],[28.3484,62.604,76.0],[28.3387,62.6046,76.0],[28.3412,62.6135,76.0],[28.3315,62.6141,76.0],[28.3328,62.6185,86.2206],[28.3425,62.618,76.0],[28.3522,62.6174,99.6999],[28.3509,62.6129,102.4914],[28.3606,62.6124,76.0],[28.3669,62.6346,105.8359],[28.3475,62.6358,95.2647],[28.3487,62.6402,87.4317],[28.3294,62.6414,76.0],[28.3306,62.6458,97.5191],[28.3209,62.6464,76.0],[28.3247,62.6598,133.7784],[28.3344,62.6592,109.0],[28.3381,62.6725,119.1408],[28.3478,62.672,116.8369],[28.3529,62.6898,132.471],[28.3626,62.6892,118.1388],[28.3676,62.707,113.2197],[28.3579,62.7076,106.9767],[28.3604,62.7165,106.0],[28.3507,62.7171,112.3963],[28.352,62.7215,120.0485],[28.3422,62.7221,130.2953],[28.3435,62.7266,140.3674],[28.3338,62.7271,125.0479],[28.3363,62.736,130.3191],[28.3266,62.7366,153.7186],[28.3278,62.741,158.2668],[28.3181,62.7416,154.4663],[28.3193,62.7461,134.0],[28.3096,62.7466,145.5643],[28.3121,62.7555,146.0079],[28.3024,62.7561,132.6873],[28.3036,62.7606,136.7605],[28.2939,62.7611,131.3113],[28.2951,62.7656,131.8898],[28.3438,62.7627,157.1561],[28.3451,62.7672,165.9631],[28.3354,62.7678,161.5297],[28.3379,62.7767,149.7158],[28.3281,62.7772,132.0428],[28.3294,62.7817,142.6336],[28.3099,62.7828,162.5611],[28.3086,62.7784,143.2176],[28.2989,62.7789,136.2869],[28.2977,62.7745,133.1315],[28.2879,62.7751,118.0],[28.2867,62.7706,117.3123],[28.2769,62.7712,113.0161],[28.2757,62.7667,89.3701],[28.2562,62.7678,76.0],[28.2574,62.7723,110.2702],[28.2672,62.7717,103.0345],[28.2684,62.7762,105.5125],[28.278199999999998,62.7756,103.5936],[28.2807,62.7845,120.3448],[28.2904,62.784,122.5565],[28.2917,62.7884,132.0145],[28.3014,62.7878,149.8789],[28.3027,62.7923,134.5914],[28.3124,62.7917,143.8597],[28.3137,62.7962,155.0301],[28.3332,62.7951,137.9435],[28.3395,62.8173,134.2976],[28.3297,62.8179,138.8476],[28.3322,62.8268,130.9032],[28.3225,62.8274,99.5],[28.3237,62.8318,103.9447],[28.314,62.8324,111.7782],[28.3127,62.8279,101.6993],[28.303,62.8285,100.1414],[28.3005,62.8196,113.7098],[28.2907,62.8202,114.6117],[28.2894,62.8157,109.835],[28.2797,62.8163,113.6387],[28.2784,62.8118,136.6438],[28.2589,62.8129,92.2883],[28.2602,62.8174,105.6253],[28.2504,62.818,90.0],[28.2517,62.8224,90.0]]]]}}