{"type": "Feature","id": "3178","bbox": [26.05219,62.26013,29.08828,64.0334],"geometry": {"type": "Polygon","coordinates": [[[27.46202,63.94429,164.8844],[27.44518,63.94486,152.9055],[27.43619,63.9461,153.4916],[27.41045,63.96416,158.3495],[27.38792,63.97258,169.129],[26.87209,64.0334,198.8935],[26.69401,64.00527,162.41],[26.29858,63.85378,163.4147],[26.23802,63.80685,174.7583],[26.25187,63.78174,146.1046],[26.28928,63.62271,169.9223],[26.28566,63.58875,183.5066],[26.24494,63.57948,186.333],[26.22024,63.57082,176.2852],[26.19905,63.55297,173.3995],[26.19161,63.53865,150.3429],[26.18055,63.50279,160.33],[26.17549,63.4908,154.4485],[26.16732,63.4808,160.5611],[26.13776,63.45628,182.0476],[26.1482,63.45318,181.7984],[26.17001,63.44331,156.0148],[26.16329,63.4298,167.3426],[26.09952,63.37978,148.0956],[26.08722,63.36802,157.7364],[26.09384,63.35117,155.6275],[26.10986,63.34239,147.8784],[26.13384,63.31614,146.9195],[26.16567,63.2566,182.53],[26.18438,63.22813,172.3635],[26.18314,63.21586,149.7463],[26.16112,63.21165,175.2044],[26.15482,63.20276,190.5583],[26.15575,63.18185,177.6471],[26.16092,63.15144,137.6045],[26.20236,63.1247,143.6928],[26.2343,63.09419,166.5845],[26.27202,63.06419,144.6496],[26.30013,63.05073,153.5429],[26.31357,63.0385,159.9585],[26.26944,63.04137,164.0258],[26.24401,63.03755,158.4089],[26.23388,63.03223,144.5338],[26.23678,63.01512,143.6382],[26.24763,63.00672,146.3211],[26.27212,62.99171,139.763],[26.30116,62.98256,140.3195],[26.31884,62.98138,144.21],[26.32432,62.96882,150.7988],[26.31098,62.9558,120.5],[26.29083,62.94546,138.9793],[26.28018,62.94474,128.6803],[26.24029,62.95109,143.9059],[26.18417,62.95401,167.6324],[26.06387,62.93753,98.0],[26.05219,62.92102,98.0],[26.068,62.90758,98.0],[26.10149,62.89151,98.0],[26.16722,62.87198,98.0],[26.18748,62.86112,98.0],[26.18324,62.85875,107.2967],[26.16174,62.84394,98.0],[26.17414,62.83193,98.0],[26.36049,62.75751,98.0],[26.37475,62.75441,98.0],[26.3947,62.76542,98.0],[26.41558,62.78028,94.0],[26.44028,62.77922,94.0],[26.47211,62.76702,94.0],[26.50653,62.74868,94.0],[26.52079,62.73635,94.0],[26.52668,62.72232,94.0],[26.53712,62.70341,94.0],[26.56151,62.68925,94.0],[26.58321,62.65747,113.2122],[26.59696,62.62548,94.0],[26.592,62.61075,94.0],[26.58187,62.60093,108.7074],[26.58487,62.60026,94.0],[26.58869,62.60006,94.0],[26.59221,62.59949,94.0],[26.595,62.59401,94.0],[26.58249,62.58243,94.0],[26.48183,62.52456,134.0861],[26.48813,62.51174,137.9401],[26.58911,62.47061,105.0],[26.61815,62.4643,115.9837],[26.68657,62.4611,106.0],[26.71179,62.45128,106.0],[26.77028,62.43247,142.5893],[26.80129,62.43226,182.8386],[26.81989,62.43727,152.7117],[26.83436,62.44627,151.2234],[26.82475,62.44849,119.3295],[26.82186,62.44952,119.6769],[26.83002,62.45888,126.0171],[26.8416,62.46611,138.274],[26.86123,62.47376,112.9369],[26.88046,62.47448,117.7641],[26.95136,62.45386,129.7011],[26.96696,62.4541,128.3835],[26.96035,62.46373,136.1692],[26.95942,62.47908,134.2888],[26.97058,62.48203,130.7059],[26.98484,62.4813,128.9771],[27.03259,62.4726,132.5409],[27.06887,62.47456,123.8875],[27.12261,62.48838,113.2882],[27.14173,62.48632,128.1952],[27.15951,62.48231,101.5],[27.17915,62.47004,113.5772],[27.18483,62.46433,106.4706],[27.20251,62.46415,113.6777],[27.2546,62.4742,111.5709],[27.27909,62.47552,99.0],[27.30513,62.48063,99.0],[27.344,62.49732,99.0],[27.35133,62.49936,110.3263],[27.35743,62.50546,99.0],[27.34958,62.51854,99.0],[27.34751,62.52125,99.0],[27.38089,62.5173,99.0],[27.38616,62.51407,99.0],[27.418,62.50569,115.7547],[27.43929,62.49448,124.3407],[27.44156,62.49267,132.3221],[27.46037,62.49006,98.0],[27.48983,62.47722,115.3807],[27.50678,62.47216,96.5],[27.54192,62.45296,96.5],[27.66935,62.39443,110.8006],[27.6925,62.3863,126.7748],[27.69157,62.38296,115.4704],[27.68909,62.37748,126.0639],[27.68878,62.37601,125.7279],[27.73457,62.37025,105.1315],[27.76381,62.36364,95.914],[27.74314,62.33986,99.8485],[27.76381,62.31878,94.4604],[27.83823,62.27899,82.1981],[27.84774,62.28041,77.5677],[27.88308,62.28142,85.6808],[27.89972,62.28586,72.5],[27.92453,62.27537,72.5],[27.94706,62.26328,72.5],[27.96721,62.26013,72.5],[27.97765,62.26648,90.2717],[27.98137,62.27684,83.0],[27.95946,62.27759,88.054],[27.97393,62.28209,112.1779],[28.03574,62.28064,115.4567],[28.0684,62.28612,134.2238],[28.07532,62.29819,119.0258],[28.09031,62.31708,123.481],[28.2104,62.35408,103.5025],[28.23934,62.35588,116.9158],[28.27562,62.35377,120.1636],[28.31034,62.3579,116.0382],[28.3245,62.3657,122.1175],[28.32884,62.37909,111.778],[28.32326,62.3803,115.4747],[28.29526,62.38914,94.9614],[28.28823,62.39769,110.826],[28.28616,62.4049,122.2091],[28.27841,62.41464,123.7036],[28.26601,62.42063,118.4858],[28.25763,62.42273,141.3976],[28.25484,62.4296,120.6732],[28.26125,62.43423,106.1549],[28.27427,62.44001,102.2568],[28.28812,62.44162,104.4739],[28.29546,62.44115,123.0956],[28.30321,62.44358,114.3856],[28.30487,62.44919,123.2193],[28.30228,62.45376,136.4043],[28.28688,62.4597,90.0],[28.28285,62.46508,99.2472],[28.29236,62.47099,96.0812],[28.36564,62.45831,107.878],[28.38693,62.46138,99.8724],[28.3953,62.47396,149.0773],[28.38931,62.48549,101.9866],[28.37143,62.4996,113.4675],[28.38197,62.51019,109.8059],[28.39261,62.51554,113.8436],[28.40316,62.52921,113.8175],[28.41494,62.56577,90.5123],[28.41349,62.56727,87.3611],[28.41091,62.56817,85.6376],[28.40812,62.57117,86.8246],[28.41266,62.57685,97.4347],[28.43158,62.56838,107.0646],[28.51106,62.56068,100.1587],[28.52036,62.55551,112.6586],[28.53452,62.55882,107.7886],[28.53545,62.57122,76.0],[28.47891,62.58101,76.0],[28.49504,62.58706,76.0],[28.59643,62.59093,111.7163],[28.61596,62.59639,133.1985],[28.63064,62.60543,111.0],[28.60883,62.60646,120.0138],[28.61276,62.60925,116.7755],[28.61978,62.61303,152.1249],[28.63518,62.62491,115.3586],[28.64883,62.63933,99.5],[28.65823,62.65333,99.5],[28.66764,62.67026,99.5],[28.67983,62.68137,99.5],[28.68686,62.68548,99.5],[28.70205,62.6923,99.5],[28.64645,62.74434,99.5],[28.67311,62.76661,99.5],[28.72655,62.78113,99.5],[28.74443,62.79374,99.5],[28.76985,62.82557,99.5],[28.796,62.82826,107.6102],[28.83868,62.81565,122.2928],[28.87951,62.79459,135.0088],[28.92405,62.78196,158.9712],[28.95609,62.78852,160.308],[29.08146,62.83753,114.6799],[29.08828,62.84996,114.9119],[29.03919,62.86252,122.0438],[29.01046,62.87658,140.8328],[28.98731,62.89787,123.7702],[28.9563,62.90794,122.7436],[28.94007,62.91766,142.7432],[28.93346,62.92774,189.2313],[28.93945,62.93554,169.3617],[28.94689,62.93171,156.6252],[28.96322,62.92647,135.6068],[28.9809,62.92582,166.2137],[28.99041,62.92779,145.4444],[28.99444,62.93285,158.7751],[28.98958,62.93492,160.0563],[28.97397,62.9436,158.6687],[28.96932,62.94562,169.5677],[28.97604,62.95481,139.5495],[28.98886,62.96019,139.5905],[29.04518,62.97548,198.8564],[29.05728,62.98163,214.8888],[29.0519,62.99905,243.7448],[28.87693,63.06023,166.7937],[28.71973,63.16447,190.602],[28.67239,63.18689,177.2031],[28.64242,63.19681,146.5019],[28.61823,63.2088,139.9588],[28.6572,63.23619,145.9097],[28.66019,63.24286,160.5779],[28.64759,63.24663,159.7833],[28.65296,63.25154,170.2643],[28.70526,63.27107,223.1687],[28.71022,63.27673,246.558],[28.70712,63.27839,221.8498],[28.69957,63.28348,202.7179],[28.70309,63.28999,187.6228],[28.73606,63.31115,226.893],[28.74804,63.32296,180.1798],[28.75321,63.33533,179.7966],[28.75559,63.35872,185.6246],[28.75745,63.36709,190.0981],[28.76138,63.3766,194.2268],[28.75259,63.39014,165.2098],[28.70856,63.40678,210.6441],[28.68169,63.42055,222.3998],[28.66123,63.4369,225.1195],[28.64769,63.45832,253.5027],[28.63828,63.48145,228.0674],[28.6264,63.50354,217.8562],[28.61699,63.51369,206.3595],[28.61182,63.53199,233.3834],[28.62092,63.53979,239.6639],[28.64097,63.54537,248.8601],[28.6634,63.547,212.6754],[28.67518,63.54904,200.8108],[28.65926,63.56077,191.7467],[28.63384,63.57253,240.7645],[28.61503,63.59514,221.9136],[28.60645,63.62206,242.354],[28.58795,63.65668,192.1351],[28.60387,63.67105,162.2749],[28.60738,63.67348,153.4918],[28.5956,63.68206,143.5],[28.57948,63.68733,143.5],[28.54981,63.69286,165.0957],[28.46961,63.6972,219.4682],[28.44563,63.70536,235.8418],[28.38931,63.74076,253.9587],[28.3584,63.75342,259.0454],[28.34404,63.73451,253.3281],[28.32605,63.71492,241.3041],[28.30652,63.69751,219.2337],[28.28719,63.685,223.3518],[28.26084,63.67865,217.4399],[28.2441,63.68699,197.9906],[28.22632,63.70014,192.7487],[28.15201,63.72203,186.1986],[28.08287,63.77564,164.7208],[28.04607,63.78892,163.5427],[28.00804,63.79781,178.4596],[27.74469,63.9083,164.0645],[27.64217,63.92468,163.2519],[27.55039,63.95271,176.134],[27.52207,63.95685,174.3846],[27.4951,63.95581,205.4893],[27.49665,63.95496,208.1424],[27.49882,63.95225,195.0201],[27.48962,63.94721,165.8015],[27.46202,63.94429,164.8844]]]}
,"properties": {"ISO3166-1-Alpha-3": "FIN","country": "Finland","fill": "#FF0","name": "Northern Savonia","area_km2": 19819.2,"hist_schema_id": "Elevation0-9000","hist_area_km2": {"-50": 0.15,"-25": 0.18,"25": 0.27,"50": 0.32,"75": 1680.25,"100": 5606.92,"125": 5617.51,"150": 4037.62,"175": 1872.48,"200": 733.09,"225": 185.02,"250": 65.18,"275": 15.67,"300": 4.1,"325": 0.3}}}