{"type": "Feature","bbox": [26.0381,62.2549,29.1031,64.0344],"geometry": {"type": "MultiPolygon","coordinates": [[[[28.0544,62.2817,116.6345],[28.0532,62.2772,114.2153],[28.0628,62.2767,109.8453],[28.0663,62.2901,97.1853],[28.0759,62.2895,102.346],[28.0807,62.3073,114.8314],[28.0711,62.3079,121.4208],[28.0723,62.3123,123.1561],[28.0819,62.3118,137.8922],[28.0831,62.3162,132.8305],[28.1023,62.3151,128.3023],[28.1047,62.324,130.1574],[28.1335,62.3224,124.6744],[28.1359,62.3313,132.6117],[28.1743,62.3291,112.5424],[28.1755,62.3335,135.949],[28.1851,62.333,118.847],[28.1876,62.3419,99.3328],[28.1972,62.3413,107.1629],[28.2008,62.3547,97.6123],[28.2104,62.3541,103.5025],[28.2092,62.3497,106.4313],[28.2284,62.3485,91.5],[28.2296,62.353,113.4357],[28.2393,62.3524,105.198],[28.2417,62.3614,114.2883],[28.2513,62.3608,115.6096],[28.2525,62.3652,126.2595],[28.2622,62.3647,112.4341],[28.2609,62.3602,118.1282],[28.2801,62.3591,118.0601],[28.2789,62.3546,116.2698],[28.3173,62.3524,120.7802],[28.3235,62.3746,108.2731],[28.3331,62.3741,115.389],[28.3344,62.3785,111.0716],[28.3248,62.3791,114.0877],[28.326,62.3836,108.4772],[28.3068,62.3847,108.1228],[28.308,62.3891,98.6732],[28.2888,62.3903,83.5],[28.2925,62.4036,109.4874],[28.2828,62.4042,123.8954],[28.2853,62.4131,111.4969],[28.2757,62.4137,135.8516],[28.2769,62.4181,107.8853],[28.2577,62.4193,105.5],[28.2589,62.4237,134.8189],[28.2493,62.4243,115.9021],[28.2517,62.4332,116.2928],[28.2613,62.4326,93.8028],[28.2626,62.4371,115.8812],[28.2722,62.4365,98.0754],[28.2734,62.4409,109.9563],[28.2831,62.4404,104.7907],[28.2843,62.4449,109.4047],[28.2939,62.4443,113.0781],[28.2927,62.4398,135.2774],[28.3023,62.4393,135.2175],[28.3061,62.4526,141.2186],[28.2964,62.4532,106.9306],[28.2977,62.4576,102.4593],[28.288,62.4582,90.0],[28.2893,62.4627,93.3061],[28.2796,62.4632,90.0],[28.2821,62.4721,86.7004],[28.2917,62.4716,104.9204],[28.293,62.476,82.0],[28.3026,62.4755,91.8883],[28.3014,62.471,86.6706],[28.3496,62.4682,97.1627],[28.3483,62.4637,89.1926],[28.3869,62.4614,99.8724],[28.3944,62.4881,115.0564],[28.3848,62.4887,104.3264],[28.386,62.4932,119.2315],[28.3764,62.4937,112.9332],[28.3776,62.4982,129.4129],[28.368,62.4988,108.3147],[28.3705,62.5077,97.0],[28.3898,62.5065,111.6119],[28.3935,62.5199,116.7306],[28.403199999999998,62.5193,152.2491],[28.4095,62.5416,96.5],[28.3998,62.5421,96.5],[28.4023,62.5511,96.5],[28.4061,62.5644,101.2008],[28.4158,62.5638,97.5156],[28.417,62.5683,93.8401],[28.4074,62.5689,87.2729],[28.4086,62.5733,91.489],[28.4183,62.5727,103.402],[28.4196,62.5772,109.2166],[28.4292,62.5766,101.4157],[28.428,62.5722,99.7648],[28.4473,62.571,104.3555],[28.4461,62.5666,113.954],[28.4944,62.5637,93.5],[28.4931,62.5592,99.7239],[28.5028,62.5587,93.5],[28.5015,62.5542,121.5838],[28.5209,62.553,119.1407],[28.5196,62.5486,93.5],[28.5292,62.548,120.5022],[28.5331,62.5614,109.7445],[28.5427,62.5608,105.1413],[28.5453,62.5697,82.6621],[28.5163,62.5714,110.4833],[28.5176,62.5759,89.113],[28.4789,62.5782,76.0],[28.4802,62.5826,76.0],[28.4705,62.5832,76.0],[28.4717,62.5877,76.0],[28.5395,62.5836,76.0],[28.5408,62.5881,87.686],[28.5504,62.5875,98.2352],[28.5517,62.5919,103.1253],[28.5711,62.5908,110.4823],[28.5698,62.5863,94.1064],[28.5795,62.5857,95.8311],[28.5782,62.5813,124.0758],[28.5878,62.5807,108.014],[28.5891,62.5851,115.0803],[28.5988,62.5846,114.9721],[28.6014,62.5935,115.8645],[28.6111,62.5929,110.6215],[28.6124,62.5973,130.7572],[28.622,62.5967,109.8819],[28.6233,62.6012,111.0],[28.633,62.6006,121.1784],[28.6343,62.605,114.4406],[28.6053,62.6068,120.1281],[28.6078,62.6157,140.9695],[28.6175,62.6151,152.5242],[28.6188,62.6196,123.1681],[28.6382,62.6184,126.6381],[28.6486,62.654,99.5],[28.6583,62.6534,99.5],[28.6648,62.6757,99.5],[28.6745,62.6751,99.5],[28.6758,62.6795,99.5],[28.6855,62.6789,112.3778],[28.6881,62.6878,99.5],[28.6978,62.6872,99.5],[28.6991,62.6917,99.5],[28.7088,62.6911,99.5],[28.7101,62.6955,99.5],[28.7004,62.6961,99.5],[28.7017,62.7006,99.5],[28.692,62.7012,99.5],[28.6933,62.7056,106.6964],[28.6836,62.7062,99.5],[28.6849,62.7107,99.5],[28.6655,62.7119,99.5],[28.6668,62.7163,99.5],[28.6571,62.7169,99.5],[28.6584,62.7214,99.5],[28.6487,62.7219,99.5],[28.6513,62.7308,99.5],[28.6416,62.7314,99.5],[28.6442,62.7403,99.5],[28.6345,62.7409,99.5],[28.6397,62.7587,99.5],[28.6494,62.7581,99.5],[28.652,62.767,99.5],[28.6617,62.7664,99.5],[28.6631,62.7709,99.5],[28.6728,62.7703,99.5],[28.6741,62.7747,99.5],[28.7228,62.7718,99.5],[28.7267,62.7851,99.5],[28.7365,62.7845,99.5],[28.7391,62.7934,99.5],[28.7488,62.7928,99.5],[28.7528,62.8062,99.5],[28.7431,62.8068,99.5],[28.7457,62.8157,99.5],[28.7555,62.8151,99.5],[28.7568,62.8195,99.5],[28.7665,62.8189,99.5],[28.7692,62.8278,99.5],[28.7789,62.8272,111.6142],[28.7803,62.8317,109.7498],[28.8193,62.8293,99.5],[28.8179,62.8248,99.5],[28.8277,62.8242,99.5],[28.8263,62.8198,114.4555],[28.8361,62.8192,117.6424],[28.8347,62.8147,113.9405],[28.8445,62.8141,113.2881],[28.8432,62.8097,127.1093],[28.8529,62.8091,125.9324],[28.8516,62.8046,134.2574],[28.8808,62.8028,144.2605],[28.8794,62.7984,134.8006],[28.8989,62.7972,126.0],[28.8962,62.7883,141.0006],[28.906,62.7877,144.1866],[28.9046,62.7832,149.7566],[28.9241,62.782,158.9712],[28.9227,62.7775,128.8309],[28.9325,62.7769,132.5754],[28.9311,62.7725,118.0],[28.9408,62.7719,118.0],[28.9422,62.7763,130.7309],[28.9519,62.7757,130.9333],[28.9587,62.798,128.8772],[28.9684,62.7973,141.4584],[28.9711,62.8062,133.9851],[28.9809,62.8056,136.3971],[28.9822,62.8101,121.3923],[28.992,62.8095,107.5],[28.9933,62.8139,107.5],[29.0031,62.8133,107.0411],[29.0044,62.8177,108.0861],[29.0142,62.8171,105.8239],[29.0155,62.8216,118.2188],[29.0253,62.8209,118.4427],[29.0267,62.8254,119.7143],[29.0364,62.8248,119.44],[29.0378,62.8292,122.0828],[29.0475,62.8286,122.6574],[29.0489,62.8331,119.0055],[29.0684,62.8318,113.0293],[29.0697,62.8363,114.8588],[29.0795,62.8357,113.5783],[29.0809,62.8401,114.6249],[29.0906,62.8395,117.2566],[29.092,62.8439,112.2044],[29.1017,62.8433,112.7787],[29.1031,62.8478,110.6385],[29.0836,62.849,114.3039],[29.085,62.8534,113.7181],[29.0655,62.8547,116.4115],[29.0669,62.8591,109.5416],[29.0474,62.8604,122.1238],[29.0487,62.8648,114.721],[29.039,62.8654,123.6943],[29.0403,62.8699,113.8154],[29.0208,62.8711,135.5416],[29.0222,62.8755,125.6562],[29.0027,62.8768,153.9827],[29.004,62.8812,144.2836],[28.9943,62.8818,150.8604],[28.9984,62.8952,116.0],[28.9788,62.8964,131.7972],[28.9802,62.9009,122.0816],[28.9704,62.9015,116.0],[28.9718,62.9059,117.4676],[28.9522,62.9071,140.0295],[28.9536,62.9116,137.6677],[28.9438,62.9122,136.2225],[28.9452,62.9166,134.2094],[28.9354,62.9173,130.6114],[28.9395,62.9306,168.3245],[28.9297,62.9312,185.6864],[28.9324,62.9401,173.2771],[28.9422,62.9395,149.5999],[28.9408,62.935,164.9373],[28.9506,62.9344,148.2348],[28.9493,62.93,152.8319],[28.959,62.9294,152.1617],[28.9577,62.9249,154.762],[28.987,62.9231,159.9058],[28.9884,62.9275,145.0738],[28.9982,62.9269,144.5876],[28.9995,62.931399999999996,143.5798],[28.9897,62.932,152.5471],[28.9911,62.9364,147.1801],[28.9813,62.937,151.8783],[28.9827,62.9415,148.9375],[28.9729,62.9421,161.5373],[28.9743,62.9465,153.9279],[28.9645,62.9472,157.7714],[28.9672,62.9561,149.2898],[28.977,62.9554,138.4511],[28.9784,62.9599,146.0172],[28.9882,62.9593,143.362],[28.9895,62.9637,133.9424],[28.9993,62.9631,154.0653],[29.0007,62.9676,166.9151],[29.0105,62.9669,172.6087],[29.0119,62.9714,164.6399],[29.0315,62.9701,186.8624],[29.0328,62.9746,213.6289],[29.0426,62.974,196.7575],[29.044,62.9784,201.9914],[29.0538,62.9778,226.1587],[29.0552,62.9823,212.2021],[29.065,62.9816,224.536],[29.0677,62.9905,222.7112],[29.0579,62.9911,243.0291],[29.0593,62.9956,233.2948],[29.0495,62.9962,249.8656],[29.0523,63.0051,234.0453],[29.0425,63.0057,250.029],[29.0438,63.0102,242.7847],[29.0242,63.0114,204.8364],[29.0256,63.0159,204.7615],[28.9962,63.0177,198.7674],[28.9976,63.0221,199.0712],[28.9681,63.024,181.1943],[28.9695,63.0284,191.8507],[28.9401,63.0303,179.8288],[28.9414,63.0347,186.577],[28.9218,63.0359,195.3721],[28.9231,63.0404,178.2611],[28.9133,63.041,164.2788],[28.9147,63.0454,144.9169],[28.9049,63.046,153.207],[28.9062,63.0505,179.5751],[28.8669,63.0529,147.3116],[28.8683,63.0574,135.979],[28.8585,63.058,129.5308],[28.8612,63.0669,145.848],[28.8514,63.0675,128.9992],[28.8541,63.0764,137.3204],[28.8442,63.077,135.8796],[28.8469,63.0859,139.7647],[28.8371,63.0865,141.5643],[28.8385,63.0909,135.9674],[28.8286,63.0915,134.5822],[28.8313,63.1004,138.1949],[28.8215,63.101,136.4266],[28.8228,63.1055,136.4897],[28.813,63.1061,135.2799],[28.8144,63.1105,136.6902],[28.8045,63.1111,148.3756],[28.8059,63.1156,140.8109],[28.796,63.1162,143.082],[28.7974,63.1206,144.2725],[28.7875,63.1212,144.881],[28.7889,63.1257,143.1324],[28.779,63.1263,143.9959],[28.7804,63.1307,149.436],[28.7705,63.1313,150.4619],[28.7718,63.1358,146.9606],[28.762,63.1364,147.3268],[28.7633,63.1408,151.7249],[28.7535,63.1414,148.8889],[28.7548,63.1459,145.8532],[28.745,63.1465,154.0035],[28.7463,63.1509,152.7586],[28.7365,63.1515,163.0068],[28.7378,63.156,167.9072],[28.7279,63.1566,182.0938],[28.7293,63.161,168.6387],[28.7194,63.1616,192.875],[28.7208,63.166,189.6504],[28.7109,63.1666,192.2541],[28.7122,63.1711,201.8176],[28.7024,63.1717,194.681],[28.705,63.1806,170.947],[28.6952,63.1812,181.3265],[28.6965,63.1856,191.728],[28.6768,63.1868,180.2187],[28.6781,63.1913,151.1252],[28.6583,63.1925,156.3915],[28.6597,63.1969,147.0814],[28.6301,63.1987,146.4234],[28.6314,63.2031,138.0093],[28.6116,63.2043,142.6057],[28.6129,63.2088,142.6871],[28.6228,63.2082,144.8037],[28.6255,63.2171,135.2346],[28.6354,63.2165,136.505],[28.638,63.2254,131.5491],[28.6479,63.2248,140.5079],[28.6506,63.2337,115.3364],[28.6605,63.2331,138.7591],[28.6631,63.242,159.218],[28.6532,63.2426,155.6579],[28.6546,63.247,161.5433],[28.6447,63.2476,158.6368],[28.646,63.2521,162.6121],[28.6559,63.2515,167.9732],[28.6572,63.256,174.8136],[28.6671,63.2554,172.0223],[28.6685,63.2598,189.8281],[28.6784,63.2592,199.442],[28.6797,63.2637,204.1129],[28.6896,63.2631,218.5344],[28.6909,63.2675,214.2922],[28.7008,63.2669,213.4415],[28.7022,63.2714,225.4227],[28.7121,63.2708,228.5753],[28.7134,63.2752,237.5106],[28.7035,63.2758,242.7243],[28.7062,63.2847,200.7048],[28.6963,63.2853,199.702],[28.699,63.2942,189.2911],[28.7089,63.2936,194.9608],[28.7102,63.2981,190.1591],[28.7201,63.2975,213.1889],[28.7228,63.306399999999996,203.008],[28.7327,63.3058,228.9195],[28.7341,63.3102,228.0899],[28.744,63.3096,235.9097],[28.7535,63.3408,172.8372],[28.7436,63.3414,165.3165],[28.7463,63.3503,177.8187],[28.7503,63.3636,188.9146],[28.7603,63.363,192.4041],[28.767,63.3853,161.4818],[28.7571,63.3859,172.3577],[28.7585,63.3903,167.9763],[28.7485,63.3909,165.2232],[28.7499,63.3954,161.8315],[28.73,63.3966,183.9483],[28.7313,63.401,173.7485],[28.7214,63.4016,182.3648],[28.7228,63.4061,175.7129],[28.7029,63.4073,234.5405],[28.7042,63.4117,223.9788],[28.6943,63.4123,255.3282],[28.6956,63.4168,216.7028],[28.6757,63.4179,221.5369],[28.6771,63.4224,193.1211],[28.6671,63.423,199.056],[28.6698,63.4319,224.0522],[28.6598,63.4325,216.57],[28.6652,63.4503,241.487],[28.6553,63.4509,233.5989],[28.6593,63.4642,252.0101],[28.6493,63.4648,248.3892],[28.652,63.4737,255.1735],[28.6421,63.4743,247.0335],[28.6447,63.4832,240.9213],[28.6348,63.4838,231.8788],[28.6375,63.4927,242.5127],[28.6275,63.4933,218.1642],[28.6302,63.5022,220.7726],[28.6202,63.5028,214.3856],[28.6242,63.5161,226.1972],[28.6142,63.5167,214.4547],[28.6156,63.5212,217.9885],[28.6056,63.5218,199.4388],[28.611,63.5396,235.0325],[28.621,63.539,239.6871],[28.6223,63.5434,243.7902],[28.6323,63.5429,250.8504],[28.6336,63.5473,224.5997],[28.6436,63.5467,226.6016],[28.6423,63.5423,243.7919],[28.6623,63.5411,209.4433],[28.6636,63.5455,214.5163],[28.6736,63.5449,215.6138],[28.675,63.5494,200.8108],[28.685,63.5488,198.272],[28.6863,63.5532,185.6483],[28.6763,63.5539,196.2853],[28.6777,63.5583,198.5138],[28.6377,63.5606,197.8387],[28.639,63.5651,214.9589],[28.619,63.5663,179.5],[28.6204,63.5707,209.1773],[28.6104,63.5713,179.5],[28.6131,63.5802,241.5639],[28.6031,63.5808,230.7837],[28.6084,63.5986,196.9476],[28.5984,63.5992,208.452],[28.6051,63.6215,254.799],[28.5951,63.6221,243.3628],[28.6005,63.6399,188.6182],[28.5905,63.6404,213.6379],[28.5945,63.6538,174.3333],[28.5845,63.6544,175.3642],[28.5872,63.6633,185.835],[28.5972,63.6627,177.8341],[28.5999,63.6716,190.2307],[28.61,63.671,148.7385],[28.6113,63.6755,174.5168],[28.6013,63.6761,164.1055],[28.6026,63.6805,156.9221],[28.5926,63.6811,146.2366],[28.5939,63.6856,152.0509],[28.5839,63.6861,149.957],[28.5852,63.6906,149.2728],[28.5651,63.6918,150.8431],[28.5665,63.6962,152.6978],[28.5564,63.6968,151.0056],[28.5578,63.7013,168.6335],[28.5477,63.7018,156.4873],[28.5464,63.6974,166.3645],[28.5263,63.6986,192.5484],[28.5249,63.6941,217.8071],[28.4646,63.6976,225.349],[28.466,63.702,210.4887],[28.4559,63.7026,222.5674],[28.4572,63.7071,226.3147],[28.4472,63.7076,234.8703],[28.4485,63.7121,232.282],[28.4385,63.7127,242.5095],[28.4411,63.7216,233.7259],[28.4311,63.7222,247.677],[28.4324,63.7266,246.866],[28.4223,63.7272,260.0943],[28.4236,63.731699999999996,263.9076],[28.4035,63.7328,267.6823],[28.4048,63.7373,267.2002],[28.3948,63.7378,258.5499],[28.3961,63.7423,278.9332],[28.386,63.7429,258.9014],[28.3873,63.7473,266.9981],[28.3672,63.7485,275.3661],[28.3685,63.7529,281.3362],[28.3584,63.7535,259.0454],[28.3558,63.7446,268.0596],[28.3458,63.7451,264.5541],[28.3405,63.7273,251.4153],[28.3304,63.7279,261.75],[28.3265,63.7145,241.3533],[28.3164,63.7151,228.5778],[28.3112,63.6973,224.7113],[28.3012,63.6979,217.2801],[28.2973,63.6845,212.0938],[28.2872,63.6851,223.3518],[28.282,63.6672,187.8327],[28.272,63.6678,190.3948],[28.2733,63.6723,197.0782],[28.2532,63.6734,193.6886],[28.2545,63.6778,195.6651],[28.2444,63.6784,193.2398],[28.247,63.6873,203.7464],[28.237,63.6879,218.0534],[28.2383,63.6923,199.716],[28.2282,63.6929,229.8747],[28.2295,63.6974,195.5109],[28.2194,63.6979,200.8822],[28.2207,63.7024,190.6246],[28.2107,63.7029,188.1132],[28.212,63.7074,186.9324],[28.1918,63.7085,191.4189],[28.1931,63.713,187.0939],[28.1629,63.7146,186.4735],[28.1642,63.7191,186.1436],[28.1542,63.7197,185.972],[28.1554,63.7241,193.3008],[28.1454,63.7247,188.4943],[28.1467,63.7291,196.2243],[28.1366,63.7297,196.5824],[28.1379,63.7341,200.1712],[28.1278,63.7347,194.0062],[28.1291,63.7392,198.3917],[28.119,63.7397,195.4297],[28.1203,63.7442,196.6933],[28.1102,63.7447,186.7596],[28.1115,63.7492,186.849],[28.1014,63.7497,188.4417],[28.104,63.7587,186.7418],[28.0939,63.7592,180.2204],[28.0951,63.7637,169.6803],[28.0851,63.7642,172.4097],[28.0863,63.7687,167.7226],[28.0763,63.7692,166.7422],[28.0775,63.7737,164.2866],[28.0674,63.7742,164.8838],[28.0687,63.7787,163.665],[28.0586,63.7793,163.4708],[28.0599,63.7837,163.3069],[28.0498,63.7842,163.3381],[28.0511,63.7887,163.4272],[28.041,63.7892,163.5853],[28.0423,63.7937,163.5446],[28.0322,63.7943,163.7173],[28.0334,63.7987,163.5299],[28.0233,63.7993,163.4724],[28.0246,63.8037,163.5801],[28.0044,63.8048,163.4878],[28.0057,63.8093,163.6627],[27.9956,63.8098,163.6595],[27.9968,63.8143,163.594],[27.9867,63.8148,163.6696],[27.988,63.8193,163.4287],[27.9779,63.8198,163.6157],[27.9792,63.8243,163.5263],[27.959,63.8254,163.9044],[27.9602,63.8298,163.8375],[27.9501,63.8304,163.5074],[27.9513,63.8348,163.4131],[27.9412,63.8354,163.5413],[27.9425,63.8398,163.4806],[27.9324,63.8404,163.6404],[27.9336,63.8448,163.4412],[27.9235,63.8454,164.051],[27.9248,63.8498,163.5983],[27.8843,63.852,167.0383],[27.8856,63.8565,175.6638],[27.8653,63.8576,180.0911],[27.8666,63.862,182.5924],[27.8564,63.8625,178.736],[27.8577,63.867,187.0514],[27.8476,63.8675,185.5696],[27.8488,63.872,190.2282],[27.8286,63.8731,177.5784],[27.8298,63.8775,183.2493],[27.8197,63.8781,176.2584],[27.8209,63.8825,187.48],[27.8007,63.8836,170.7914],[27.8019,63.8881,177.8136],[27.7918,63.8886,166.477],[27.793,63.8931,176.1354],[27.7727,63.8941,181.8743],[27.774,63.8986,167.3315],[27.7638,63.8991,173.581],[27.7651,63.9036,171.9935],[27.7448,63.9046,167.174],[27.746,63.9091,166.9046],[27.7257,63.9101,157.5],[27.727,63.9146,157.5],[27.6864,63.9167,157.5],[27.6876,63.9212,157.5],[27.6673,63.9222,157.5],[27.6572,63.9227,157.5],[27.656,63.9183,157.5],[27.6458,63.9188,157.5],[27.647,63.9233,157.5],[27.6267,63.9243,157.5],[27.6279,63.9288,159.0554],[27.6178,63.9293,161.2243],[27.619,63.9338,161.3083],[27.5987,63.9348,172.0036],[27.5999,63.9393,172.6039],[27.5796,63.9403,174.7413],[27.5808,63.9448,183.1187],[27.5707,63.9453,182.4601],[27.5719,63.9498,182.3501],[27.5516,63.9508,175.019],[27.5527,63.9552,183.4214],[27.4918,63.9583,197.4979],[27.4906,63.9539,193.2437],[27.5008,63.9534,199.5655],[27.4996,63.9489,175.5953],[27.4793,63.9499,165.4566],[27.4781,63.9455,165.7965],[27.4578,63.9465,156.0078],[27.4566,63.942,163.1487],[27.4464,63.9425,162.5115],[27.4476,63.947,151.9379],[27.4273,63.948,151.1696],[27.4308,63.9614,157.8721],[27.4206,63.9619,162.379],[27.4218,63.9664,160.5365],[27.3812,63.9684,166.056],[27.3823,63.9729,170.4665],[27.3417,63.9749,156.6722],[27.3428,63.9793,154.0],[27.292,63.9818,162.044],[27.2931,63.9863,170.423],[27.2016,63.9908,191.1364],[27.2027,63.9952,197.6737],[27.1416,63.9982,211.8371],[27.1314,63.9987,221.8285],[27.1303,63.9942,213.5919],[27.1201,63.9947,207.6548],[27.119,63.9902,198.2571],[27.0579,63.9931,196.5448],[27.059,63.9976,193.9218],[26.9979,64.0005,186.1125],[26.999,64.005,196.2145],[26.9787,64.0059,197.6609],[26.9798,64.0104,208.4442],[26.9594,64.0114,194.1064],[26.9605,64.0158,204.8993],[26.9299,64.0172,206.6074],[26.931,64.0217,212.4768],[26.9107,64.0227,219.2318],[26.9118,64.0271,221.7384],[26.8914,64.0281,226.2334],[26.8925,64.0325,225.0622],[26.8517,64.0344,181.9157],[26.8506,64.03,178.0628],[26.8302,64.0309,173.6665],[26.8291,64.0264,179.0584],[26.8189,64.0269,174.4347],[26.8178,64.0224,175.0224],[26.7974,64.0234,193.6915],[26.7963,64.0189,198.0996],[26.7862,64.0194,188.0734],[26.7851,64.0149,189.3493],[26.7647,64.0158,174.8857],[26.7636,64.0114,172.0581],[26.7432,64.0123,176.5882],[26.7421,64.0078,171.0713],[26.732,64.0083,171.8813],[26.7309,64.0038,161.417],[26.7105,64.0047,182.8147],[26.7094,64.0002,175.4036],[26.6891,64.0012,181.0095],[26.688,63.9967,175.0669],[26.6778,63.9972,174.2426],[26.6768,63.9927,180.1751],[26.6564,63.9936,181.8153],[26.6553,63.9891,193.7382],[26.6349,63.99,196.2043],[26.6339,63.9856,198.5984],[26.6237,63.986,197.0694],[26.6227,63.9816,203.1044],[26.6023,63.9825,190.5843],[26.6012,63.978,191.6855],[26.591,63.9785,185.3939],[26.59,63.974,183.6447],[26.5798,63.9744,178.1266],[26.5788,63.97,182.1446],[26.5686,63.9704,182.8007],[26.5665,63.9615,181.2305],[26.5563,63.9619,177.9366],[26.5553,63.9575,182.5026],[26.5451,63.9579,178.2693],[26.5441,63.9534,179.3821],[26.5339,63.9539,174.0601],[26.5329,63.9494,173.6344],[26.5227,63.9499,174.3682],[26.5217,63.9454,171.9774],[26.5115,63.9458,169.8807],[26.5105,63.9414,167.5525],[26.5003,63.9418,166.293],[26.4992,63.9373,165.0547],[26.4891,63.9378,165.4624],[26.487,63.9288,162.8501],[26.4768,63.9293,163.3094],[26.4758,63.9248,165.3961],[26.465699999999998,63.9253,164.3679],[26.4646,63.9208,166.4625],[26.4544,63.9212,170.5687],[26.4534,63.9168,173.6886],[26.4433,63.9172,177.1807],[26.4422,63.9127,177.2638],[26.4321,63.9132,182.5756],[26.4311,63.9087,178.819],[26.4209,63.9091,176.0294],[26.4199,63.9047,174.6728],[26.4097,63.9051,167.9375],[26.4086,63.9007,167.0956],[26.3986,63.9011,155.1894],[26.3975,63.8966,152.5357],[26.3874,63.897,151.634],[26.3864,63.8926,151.3356],[26.3762,63.893,153.8024],[26.3752,63.8885,148.625],[26.365,63.889,151.4506],[26.364,63.8845,148.936],[26.3539,63.8849,152.8429],[26.3529,63.8805,163.0575],[26.3427,63.8809,160.2115],[26.3417,63.8764,158.8792],[26.3316,63.8769,162.4154],[26.3306,63.8724,170.1717],[26.3204,63.8728,171.6758],[26.3184,63.8639,169.4318],[26.3083,63.8643,167.9802],[26.3073,63.8599,170.8156],[26.2972,63.8603,163.9639],[26.2962,63.8558,159.7746],[26.286,63.8562,145.1363],[26.285,63.8518,140.5016],[26.2749,63.8522,138.109],[26.2739,63.8477,134.0351],[26.2637,63.8482,130.8866],[26.2627,63.8437,130.9587],[26.2526,63.8441,138.6773],[26.2516,63.8396,136.8203],[26.2415,63.8401,137.4455],[26.2405,63.8356,142.2305],[26.2304,63.836,149.596],[26.2294,63.8316,161.5824],[26.2192,63.832,164.8076],[26.2183,63.8275,167.4382],[26.2284,63.8271,164.4734],[26.2264,63.8181,164.4925],[26.2365,63.8177,161.5547],[26.2346,63.8088,170.4702],[26.2447,63.8083,163.8506],[26.2418,63.7949,162.296],[26.2519,63.7945,141.9075],[26.2479,63.7766,147.2557],[26.258,63.7762,152.1652],[26.2531,63.7538,137.7055],[26.2632,63.7534,142.7849],[26.2583,63.731,133.4967],[26.2684,63.7306,127.8483],[26.2635,63.7083,159.4012],[26.2736,63.7078,154.4899],[26.2686,63.6855,155.034],[26.2787,63.685,144.916],[26.2738,63.6627,150.5257],[26.2838,63.6623,144.6765],[26.2789,63.6399,169.2881],[26.289,63.6395,169.4073],[26.2841,63.6171,174.2957],[26.2941,63.6167,173.2044],[26.2892,63.5943,183.4335],[26.2992,63.5939,173.133],[26.2983,63.5894,180.1765],[26.2882,63.5899,179.1266],[26.2872,63.5854,185.4269],[26.2671,63.5863,192.2599],[26.2661,63.5818,195.7512],[26.2461,63.5826,189.3238],[26.2451,63.5782,182.8655],[26.225,63.579,166.0622],[26.224,63.5745,176.3003],[26.214,63.575,175.998],[26.213,63.5705,184.5875],[26.203,63.5709,196.3734],[26.1855,63.4904,150.3711],[26.1755,63.4909,154.4485],[26.1736,63.4819,161.0396],[26.1636,63.4823,162.8551],[26.1607,63.4689,160.4613],[26.1507,63.4693,153.1629],[26.1488,63.4604,166.8367],[26.1388,63.4608,170.9698],[26.1382,63.458,177.2954],[26.1378,63.4563,182.0476],[26.1478,63.4559,171.1598],[26.1469,63.4515,182.353],[26.1569,63.451,169.0727],[26.1559,63.4466,175.0369],[26.1659,63.4461,156.0451],[26.165,63.4417,161.0932],[26.175,63.4412,142.2528],[26.173,63.4323,157.4232],[26.163,63.4327,166.4451],[26.1611,63.4238,158.5003],[26.1511,63.4242,157.6312],[26.1502,63.4197,159.0226],[26.1402,63.4202,156.2645],[26.1383,63.4112,146.5308],[26.1283,63.4116,145.7078],[26.1274,63.4072,152.3779],[26.1174,63.4076,160.2142],[26.1136,63.3897,145.1112],[26.1036,63.3901,145.145],[26.1007,63.3767,139.989],[26.0908,63.3771,141.28],[26.0879,63.3637,175.0646],[26.078,63.3641,174.9702],[26.0761,63.3552,162.2305],[26.096,63.3543,156.3404],[26.0951,63.3498,155.0176],[26.105,63.3494,151.9149],[26.1041,63.345,148.5874],[26.1141,63.3445,150.2747],[26.1122,63.3356,148.0722],[26.1221,63.3352,141.7991],[26.1212,63.3307,143.6811],[26.1311,63.3303,140.9681],[26.1283,63.3169,147.4541],[26.1382,63.3165,143.8587],[26.1335,63.2941,185.1375],[26.1435,63.2937,166.0229],[26.1397,63.2758,169.2115],[26.1496,63.2754,173.8961],[26.1477,63.2664,170.3381],[26.1576,63.266,174.4781],[26.1557,63.2571,181.6323],[26.1657,63.2566,182.53],[26.1638,63.2477,179.4435],[26.1737,63.2473,180.1243],[26.1728,63.2428,179.325],[26.1827,63.2424,176.9759],[26.1789,63.2245,169.1863],[26.1888,63.2241,170.7359],[26.1859,63.2107,146.7195],[26.1562,63.2119,183.2455],[26.1505,63.1851,189.1553],[26.1604,63.1847,183.2371],[26.1566,63.1668,149.4489],[26.1665,63.1664,149.5513],[26.1618,63.144,137.2532],[26.1816,63.1432,134.7807],[26.1806,63.1387,134.8186],[26.1905,63.1383,134.8131],[26.1867,63.1204,147.4754],[26.1966,63.12,150.9513],[26.1957,63.1155,146.6747],[26.2055,63.1151,145.9832],[26.2046,63.1106,145.4585],[26.2145,63.1102,147.9915],[26.2116,63.0968,147.9245],[26.2215,63.0963,163.0039],[26.2205,63.0919,145.1367],[26.2304,63.0914,158.3766],[26.2285,63.0825,151.0271],[26.2384,63.0821,156.602],[26.2365,63.0731,148.3824],[26.2464,63.0727,145.046],[26.2454,63.0682,149.0653],[26.2553,63.0678,145.7888],[26.2543,63.0633,145.0466],[26.2741,63.0625,144.6247],[26.2731,63.058,144.8031],[26.2928,63.0571,152.9245],[26.2919,63.0527,152.8246],[26.3116,63.0518,152.7767],[26.3106,63.0473,145.0363],[26.3303,63.0465,169.1302],[26.3284,63.0375,152.405],[26.2397,63.0414,151.3229],[26.2378,63.0325,152.4977],[26.2279,63.0329,145.616],[26.226,63.0239,136.0836],[26.2359,63.0235,149.4532],[26.2339,63.0146,141.0428],[26.2438,63.0141,154.8327],[26.2428,63.0097,139.9486],[26.2527,63.0093,145.0878],[26.2517,63.0048,179.8144],[26.2616,63.0043,164.381],[26.2606,62.9999,157.9209],[26.2705,62.9995,149.0239],[26.2695,62.995,141.1193],[26.2794,62.9946,142.3291],[26.2784,62.9901,134.419],[26.2883,62.9897,144.4853],[26.2863,62.9807,146.8937],[26.306,62.9799,139.7165],[26.307,62.9843,141.0237],[26.3365,62.983,185.746],[26.3355,62.9786,173.2337],[26.3257,62.979,143.8312],[26.3209,62.9566,129.5676],[26.3111,62.9571,120.5],[26.3091,62.9481,124.6373],[26.2993,62.9486,133.3154],[26.2974,62.9396,124.1916],[26.2876,62.9401,133.7542],[26.2856,62.9311,123.4715],[26.266,62.932,107.5],[26.2669,62.9364,119.7173],[26.2571,62.9369,109.625],[26.2581,62.9413,127.1052],[26.2482,62.9418,120.4927],[26.2492,62.9462,131.5559],[26.2394,62.9467,130.9272],[26.2403,62.9511,143.9059],[26.1518,62.9549,127.7064],[26.1509,62.9505,137.1918],[26.1214,62.9517,115.4676],[26.1204,62.9473,125.4366],[26.1106,62.9477,121.9601],[26.1097,62.9432,127.956],[26.0999,62.9436,111.2451],[26.0989,62.9392,117.3195],[26.0694,62.9404,98.0],[26.0685,62.9359,98.0],[26.039,62.9372,98.0],[26.0381,62.9327,98.0],[26.0479,62.9323,98.0],[26.0461,62.9233,98.0],[26.0559,62.9229,98.0],[26.0532,62.9095,98.0],[26.063,62.9091,98.0],[26.0602,62.8957,98.0],[26.07,62.8953,98.0],[26.0691,62.8908,98.0],[26.0789,62.8904,98.0],[26.078,62.8859,98.0],[26.1074,62.8847,98.0],[26.1065,62.8802,98.0],[26.1457,62.8785,98.0],[26.1448,62.874,98.0],[26.1742,62.8728,98.0],[26.1733,62.8683,98.0],[26.1831,62.8679,98.0],[26.1821,62.8634,98.0],[26.192,62.863,98.0],[26.191,62.8585,110.819],[26.1812,62.8589,110.3986],[26.1803,62.8545,118.3124],[26.1705,62.8549,124.3354],[26.1695,62.8504,136.2792],[26.1597,62.8508,117.2059],[26.1579,62.8419,98.0],[26.1677,62.8415,105.4123],[26.1667,62.837,98.0],[26.1765,62.8366,98.0],[26.1756,62.8321,98.0],[26.1854,62.8317,98.0],[26.1845,62.8272,98.0],[26.204,62.8264,126.4593],[26.205,62.8308,130.0918],[26.2148,62.8304,128.8069],[26.2138,62.8259,119.3967],[26.2334,62.8251,117.5639],[26.2324,62.8206,110.6128],[26.2422,62.8202,111.7815],[26.2413,62.8157,98.0],[26.2511,62.8153,98.0],[26.2501,62.8108,98.0],[26.2599,62.8104,98.0],[26.259,62.8059,98.0],[26.2687,62.8055,98.0],[26.2678,62.801,98.0],[26.2776,62.8006,98.0],[26.2757,62.7917,98.0],[26.2855,62.7912,98.0],[26.2845,62.7868,98.0],[26.2943,62.7864,98.0],[26.2933,62.7819,98.0],[26.3031,62.7814,98.0],[26.3022,62.777,98.0],[26.3119,62.7765,98.0],[26.311,62.7721,98.0],[26.3207,62.7716,98.0],[26.3198,62.7672,98.0],[26.3296,62.7667,98.0],[26.3286,62.7623,98.0],[26.3384,62.7618,98.0],[26.3374,62.7574,98.0],[26.3472,62.7569,98.0],[26.3462,62.7525,98.0],[26.356,62.752,98.0],[26.355,62.7476,98.0],[26.3648,62.7471,98.0],[26.3657,62.7516,98.0],[26.3755,62.7512,98.0],[26.3765,62.7556,98.0],[26.3862,62.7552,98.0],[26.3882,62.7641,98.0],[26.3979,62.7637,98.0],[26.3999,62.7726,115.8225],[26.3901,62.7731,113.0588],[26.3911,62.7775,116.0643],[26.4008,62.7771,94.0],[26.4018,62.7816,94.0],[26.4214,62.7807,94.0],[26.4223,62.7852,94.0],[26.4419,62.7843,94.0],[26.4428,62.7888,94.0],[26.4526,62.7883,94.0],[26.4516,62.7839,94.0],[26.4614,62.7834,94.0],[26.4595,62.7745,94.0],[26.4692,62.774,94.0],[26.4683,62.7696,94.0],[26.478,62.7691,94.0],[26.4761,62.7602,94.0],[26.4858,62.7597,94.0],[26.4848,62.7553,94.0],[26.4946,62.7548,94.0],[26.4936,62.7504,94.0],[26.5034,62.7499,94.0],[26.5014,62.741,94.0],[26.5112,62.7405,94.0],[26.5102,62.7361,94.0],[26.52,62.7356,94.0],[26.519,62.7311,94.0],[26.5287,62.7307,94.0],[26.5268,62.7218,94.0],[26.5365,62.7213,94.0],[26.5345,62.7124,94.0],[26.5443,62.7119,94.0],[26.5423,62.703,94.0],[26.5521,62.7025,94.0],[26.5491,62.6891,94.0],[26.5588,62.6887,94.0],[26.5569,62.6797,94.0],[26.5666,62.6793,94.0],[26.5646,62.6704,94.0],[26.5744,62.6699,104.2273],[26.5724,62.661,94.0],[26.5821,62.6605,110.9501],[26.5801,62.6516,102.5673],[26.5899,62.6512,108.0817],[26.5879,62.6422,94.0],[26.5976,62.6418,94.0],[26.5936,62.6239,94.0],[26.6033,62.6235,94.0],[26.6004,62.6101,94.0],[26.590699999999998,62.6105,94.0],[26.5897,62.606,94.0],[26.58,62.6065,94.0],[26.579,62.602,116.4972],[26.5887,62.6016,94.0],[26.5877,62.5971,94.0],[26.5974,62.5966,103.4527],[26.5954,62.5877,94.0],[26.576,62.5886,94.0],[26.573,62.5752,94.0],[26.5633,62.5756,94.0],[26.5594,62.5578,141.0059],[26.5497,62.5582,133.8976],[26.5478,62.5493,153.3203],[26.538,62.5497,155.7511],[26.5361,62.5408,165.2382],[26.5264,62.5412,114.0362],[26.5254,62.5368,139.0338],[26.5157,62.5372,108.355],[26.5148,62.5327,123.794],[26.4857,62.5341,114.5],[26.4837,62.5251,132.6137],[26.474,62.5256,131.2121],[26.4721,62.5167,147.553],[26.4818,62.5162,140.8534],[26.4808,62.5117,144.3897],[26.5002,62.5109,143.6448],[26.4992,62.5064,122.0],[26.5186,62.5055,156.9709],[26.5176,62.501,143.1196],[26.5273,62.5006,175.8079],[26.5263,62.4961,181.9271],[26.5457,62.4952,165.4617],[26.5447,62.4907,158.9852],[26.5544,62.4903,157.809],[26.5534,62.4858,144.3473],[26.5727,62.4849,116.6211],[26.5718,62.4805,110.1199],[26.5814,62.48,105.0],[26.5805,62.4756,105.0],[26.5901,62.4751,105.0],[26.5891,62.4706,105.0],[26.5988,62.4702,105.0],[26.5978,62.4657,116.1506],[26.6075,62.4653,105.0],[26.6065,62.4608,105.0],[26.6162,62.4604,112.1582],[26.6152,62.4559,105.0],[26.6345,62.455,151.9429],[26.6335,62.4505,185.4816],[26.6432,62.4501,199.1407],[26.6442,62.4545,154.5982],[26.6538,62.4541,166.0268],[26.6548,62.4585,128.8062],[26.6742,62.4576,117.3108],[26.6751,62.4621,106.0],[26.7041,62.4607,112.9466],[26.7031,62.4563,106.0],[26.7128,62.4558,106.0],[26.7118,62.4513,106.0],[26.7215,62.4509,106.0],[26.7205,62.4464,106.0],[26.7301,62.446,106.0],[26.7291,62.4415,125.8659],[26.7388,62.441,117.9337],[26.7378,62.4366,112.9827],[26.7474,62.4361,114.88],[26.7464,62.4316,116.4799],[26.7561,62.4312,123.2256],[26.7551,62.4267,126.9463],[26.7744,62.4258,153.4128],[26.7754,62.4303,152.9187],[26.7947,62.4293,166.0061],[26.7957,62.4338,185.4171],[26.8054,62.4333,170.654],[26.8064,62.4378,151.2487],[26.8257,62.4369,167.8424],[26.8267,62.4413,138.2576],[26.8364,62.4409,148.8944],[26.8374,62.4453,158.5954],[26.8277,62.4458,122.1216],[26.8287,62.4503,128.8927],[26.8191,62.4507,119.723],[26.8201,62.4552,107.5],[26.8298,62.4547,143.8968],[26.8318,62.4637,107.5],[26.8415,62.4632,142.5319],[26.8425,62.4677,107.5],[26.8521,62.4672,147.0905],[26.8542,62.4761,107.5],[26.8639,62.4757,107.5],[26.8649,62.4801,116.4301],[26.8746,62.4797,113.6929],[26.8756,62.4841,110.5],[26.8853,62.4837,118.8314],[26.8842,62.4792,113.1642],[26.8939,62.4787,117.1938],[26.8929,62.4743,122.5788],[26.9025,62.4738,120.9724],[26.9015,62.4693,110.5],[26.9112,62.4688,112.8031],[26.9101,62.4644,110.5],[26.9198,62.4639,110.5],[26.9188,62.4594,114.3943],[26.9284,62.459,110.5],[26.9274,62.4545,126.249],[26.937,62.454,112.4323],[26.936,62.4496,117.5799],[26.9457,62.4491,115.7882],[26.9446,62.4446,115.7913],[26.9639,62.4437,119.6279],[26.9691,62.466,146.492],[26.9595,62.4665,143.654],[26.9605,62.4709,152.1202],[26.9509,62.4714,136.0263],[26.954,62.4848,116.5],[26.9637,62.4843,138.2996],[26.9647,62.4888,119.2591],[26.9744,62.4883,132.4799],[26.9733,62.4839,128.9467],[26.983,62.4834,133.3363],[26.9819,62.4789,124.5],[26.9916,62.4784,130.5006],[26.9906,62.474,128.1671],[27.0002,62.4735,133.1788],[26.9992,62.469,126.8887],[27.028199999999998,62.4676,134.3439],[27.0292,62.4721,134.7895],[27.0679,62.4701,139.5549],[27.071,62.4835,134.9348],[27.0807,62.4831,126.6731],[27.0818,62.4875,126.3585],[27.1011,62.4865,124.1775],[27.1022,62.491,112.6039],[27.1118,62.4905,120.5476],[27.115,62.5039,101.5],[27.1247,62.5034,101.2692],[27.1236,62.499,111.1906],[27.1333,62.4985,104.9432],[27.1322,62.494,109.414],[27.1419,62.4935,101.5],[27.1408,62.4891,106.9009],[27.1505,62.4886,101.5],[27.1494,62.4841,112.416],[27.1591,62.4836,101.5],[27.158,62.4792,112.571],[27.1773,62.4782,101.5],[27.1731,62.4603,103.6649],[27.1827,62.4599,107.2061],[27.1816,62.4554,112.8051],[27.1913,62.4549,112.8943],[27.1956,62.4728,113.2917],[27.2053,62.4723,114.605],[27.2063,62.4767,114.9233],[27.216,62.4762,108.6969],[27.2171,62.4807,117.0085],[27.2557,62.4787,99.0],[27.2547,62.4743,111.5709],[27.2643,62.4738,99.0],[27.2621,62.4648,101.7721],[27.2911,62.4633,99.0],[27.2944,62.4767,99.0],[27.304,62.4762,99.0],[27.3073,62.4896,99.0],[27.317,62.4891,99.0],[27.3181,62.4936,99.0],[27.3374,62.4926,99.0],[27.3385,62.4971,99.0],[27.3482,62.4965,99.0],[27.3493,62.501,113.7966],[27.3589,62.5005,99.0],[27.36,62.505,114.505],[27.3504,62.5055,109.4755],[27.3537,62.5189,99.0],[27.344,62.5194,99.0],[27.3451,62.5238,99.0],[27.3548,62.5233,99.0],[27.3559,62.5278,99.0],[27.3752,62.5268,99.0],[27.3741,62.5223,99.0],[27.3838,62.5218,99.0],[27.3816,62.5129,99.0],[27.3913,62.5124,99.0],[27.389,62.5035,99.0],[27.418,62.5019,99.0],[27.4169,62.4975,99.0],[27.4266,62.497,109.8325],[27.4255,62.4925,99.0],[27.4352,62.492,111.1639],[27.434,62.4876,99.0],[27.4437,62.487,127.8974],[27.4426,62.4826,99.0],[27.4523,62.4821,105.9831],[27.4511,62.4776,127.2042],[27.4608,62.4771,121.2171],[27.4597,62.4726,113.9366],[27.4693,62.4721,106.0953],[27.4682,62.4677,96.5],[27.5068,62.4656,96.5],[27.5057,62.4612,96.5],[27.5443,62.4591,107.371],[27.5432,62.4546,96.5],[27.5625,62.4536,96.5],[27.5614,62.4492,96.5],[27.5807,62.4481,96.5],[27.5795,62.4437,96.5],[27.5892,62.4431,96.5],[27.5881,62.4387,96.5],[27.5977,62.4382,96.5],[27.5966,62.4337,96.5],[27.6062,62.4332,96.5],[27.6051,62.4287,96.5],[27.6147,62.4282,96.5],[27.6136,62.4238,96.5],[27.6329,62.4227,111.3165],[27.6306,62.4138,113.3909],[27.6402,62.4133,118.9455],[27.6391,62.4088,109.5896],[27.6487,62.4083,120.8198],[27.6476,62.4038,100.3115],[27.6572,62.4033,154.7203],[27.6561,62.3989,109.773],[27.6657,62.3983,157.1501],[27.6646,62.3939,110.6776],[27.6742,62.3934,139.6152],[27.673,62.3889,125.1647],[27.6923,62.3879,126.6971],[27.6889,62.3745,122.6713],[27.737,62.3718,106.1453],[27.7358,62.3674,110.4288],[27.7647,62.3658,91.0033],[27.7635,62.3613,102.315],[27.7731,62.3608,96.7021],[27.772,62.3563,98.0773],[27.7624,62.3569,84.9259],[27.7612,62.3524,89.4093],[27.7516,62.353,85.5771],[27.7493,62.344,91.0254],[27.7397,62.3446,101.581],[27.7362,62.3312,117.4071],[27.7458,62.3307,103.0397],[27.7436,62.3217,124.0161],[27.7628,62.3207,94.0488],[27.7616,62.3162,103.5042],[27.7808,62.3152,84.9772],[27.7797,62.3107,81.3854],[27.7989,62.3097,82.4629],[27.7977,62.3052,87.8258],[27.8073,62.3047,107.5388],[27.8062,62.3002,88.3835],[27.8158,62.2997,99.8567],[27.8134,62.2907,102.0659],[27.823,62.2902,81.6527],[27.8219,62.2858,78.0702],[27.8315,62.2852,82.0621],[27.8291,62.2763,100.1174],[27.8387,62.2758,95.8142],[27.8399,62.2802,83.3235],[27.8495,62.2797,77.0793],[27.8506,62.2842,77.2185],[27.8698,62.2831,78.2815],[27.8687,62.2786,78.0094],[27.8974,62.277,76.2432],[27.8987,62.282,82.6725],[27.8944,62.2862,72.5],[27.8902,62.2865,72.5],[27.8913,62.2909,72.5],[27.9009,62.2904,72.5],[27.9005,62.2887,72.5],[27.9041,62.2857,72.5],[27.9189,62.2849,72.5],[27.9178,62.2804,72.5],[27.9274,62.2799,72.5],[27.9262,62.2754,72.5],[27.9358,62.2749,72.5],[27.9346,62.2704,72.5],[27.9442,62.2699,72.5],[27.943,62.2654,72.5],[27.9526,62.2649,72.5],[27.9514,62.2604,72.5],[27.961,62.2599,72.5],[27.9598,62.2554,72.5],[27.9694,62.2549,72.5],[27.9718,62.2638,79.2178],[27.9813,62.2632,87.0667],[27.9849,62.2766,91.3454],[27.9561,62.2782,94.7691],[27.9573,62.2827,92.7726],[27.9765,62.2816,109.8973],[27.9777,62.2861,115.095],[28.0064,62.2844,119.2749],[28.0052,62.28,113.8276],[28.0244,62.2789,106.4475],[28.0256,62.2833,120.4125],[28.0544,62.2817,116.6345]]]]}
,"properties": {"GID_2": "FIN.1.2_1","GID_0": "FIN","country": "Finland","GID_1": "FIN.1_1","province": "EasternFinland","NL_NAME_1": "NA","county": "NorthSavonia","VARNAME_2": "Pohjois-Savo|NorraSavolax","NL_NAME_2": "NA","TYPE_2": "Maakunta|landskap","ENGTYPE_2": "Region","CC_2": "NA","HASC_2": "NA","name": "North_Savonia.county","area_km2": 19824.02,"hist_schema_id": "Elevation0-9000","hist_area_km2": {"-50": 0.15,"-25": 0.18,"25": 0.27,"50": 0.32,"75": 1679.07,"100": 5598.04,"125": 5619.34,"150": 4047.49,"175": 1889.24,"200": 721.82,"225": 179.41,"250": 67.76,"275": 16.4,"300": 4.1,"325": 0.3}}}