{"type":"Feature","properties":{"GID_3":"FIN.1.4.5_1","GID_0":"FIN","country":"Finland","GID_1":"FIN.1_1","province":"EasternFinland","NL_NAME_1":"NA","GID_2":"FIN.1.4_1","county":"SouthernSavonia","NL_NAME_2":"NA","city":"Varkaus","VARNAME_3":"NA","NL_NAME_3":"NA","TYPE_3":"Seutukunta|Ekonomiskregion","ENGTYPE_3":"Sub-Region","CC_3":"NA","HASC_3":"FI.IS.VK","name":"Varkaus.city"},
"geometry":{"type": "MultiPolygon","coordinates": [[[[28.0651,62.2856,133.9737],[28.0628,62.2767,109.8453],[28.0532,62.2772,114.2153],[28.0544,62.2817,116.6345],[28.0256,62.2833,120.4125],[28.0244,62.2789,106.4475],[28.0052,62.28,113.8276],[28.0064,62.2844,119.2749],[27.9777,62.2861,115.095],[27.9765,62.2816,109.8973],[27.9573,62.2827,92.7726],[27.9561,62.2782,94.7691],[27.9849,62.2766,91.3454],[27.9813,62.2632,87.0667],[27.9718,62.2638,79.2178],[27.9694,62.2549,72.5],[27.9886,62.2538,94.8814],[27.9874,62.2493,88.8518],[28.0161,62.2477,72.5],[28.0149,62.2432,72.5],[28.0341,62.2421,86.9672],[28.0329,62.2377,72.5],[28.052,62.2366,72.5],[28.0532,62.241,72.5],[28.0724,62.2399,97.9488],[28.0712,62.2355,72.5],[28.0903,62.2344,72.5],[28.0891,62.2299,72.5],[28.1083,62.2288,72.5],[28.1071,62.2244,72.5],[28.1166,62.2238,72.5],[28.1178,62.2283,78.2186],[28.1657,62.2255,72.5],[28.1669,62.23,72.5],[28.186,62.2288,72.5],[28.1848,62.2244,102.3264],[28.2039,62.2233,72.5],[28.2027,62.2188,72.5],[28.2123,62.2183,87.232],[28.2111,62.2138,72.5],[28.2398,62.2121,72.5],[28.2422,62.221,89.5588],[28.2518,62.2205,72.5],[28.253,62.2249,72.5],[28.2625,62.2244,72.5],[28.2638,62.2288,72.5],[28.2925,62.2271,79.3062],[28.2937,62.2316,72.5],[28.3128,62.2304,72.5],[28.3116,62.226,72.5],[28.3307,62.2249,72.5],[28.3295,62.2204,72.5],[28.3869,62.217,72.5],[28.3856,62.2125,72.5],[28.4525,62.2085,84.1024],[28.4513,62.2041,82.0301],[28.5086,62.2006,72.5],[28.5073,62.1962,72.5],[28.5169,62.1956,72.5],[28.5156,62.1911,72.5],[28.5252,62.1905,82.256],[28.5239,62.1861,72.5],[28.5335,62.1855,72.5],[28.5347,62.19,72.5],[28.5539,62.1888,94.2296],[28.5526,62.1843,72.5],[28.5621,62.1838,72.5],[28.5609,62.1793,72.5],[28.5704,62.1787,96.0185],[28.5679,62.1698,72.5],[28.5774,62.1692,72.5],[28.5762,62.1648,72.5],[28.5857,62.1642,72.5],[28.5844,62.1598,72.5],[28.594,62.1592,72.5],[28.5927,62.1547,72.5],[28.6022,62.1541,93.0616],[28.601,62.1497,72.5],[28.6105,62.1491,90.9755],[28.6092,62.1446,72.5],[28.6283,62.1435,72.5],[28.6347,62.1657,72.5],[28.6442,62.1651,72.5],[28.6519,62.1918,72.5],[28.6328,62.193,90.0176],[28.6353,62.2019,85.5879],[28.6366,62.2064,72.5],[28.6557,62.2052,72.5],[28.6608,62.223,72.5],[28.6513,62.2236,80.5469],[28.6551,62.2369,72.5],[28.636,62.2381,89.8473],[28.6372,62.2425,72.5],[28.6277,62.2431,72.5],[28.629,62.2476,72.5],[28.6098,62.2488,84.269],[28.6124,62.2577,88.7625],[28.6028,62.2583,72.5],[28.6041,62.2627,72.5],[28.5945,62.2633,72.5],[28.5958,62.2677,72.5],[28.5862,62.2683,72.5],[28.5875,62.2728,72.5],[28.5779,62.2734,72.5],[28.5804,62.2823,88.5844],[28.5709,62.2829,72.5],[28.5721,62.2873,79.5109],[28.5625,62.2879,92.736],[28.5638,62.2923,77.5096],[28.5447,62.2935,101.0322],[28.5459,62.298,99.3],[28.5363,62.2985,93.6203],[28.5376,62.303,102.2415],[28.528,62.3036,98.0534],[28.5293,62.308,110.0883],[28.5197,62.3086,101.875],[28.521,62.313,112.9312],[28.4922,62.3148,129.6284],[28.4909,62.3103,119.5986],[28.4526,62.3126,126.5622],[28.4538,62.3171,123.3139],[28.4347,62.3182,111.0407],[28.4359,62.3227,101.5],[28.4263,62.3233,101.5],[28.4338,62.35,117.8375],[28.4146,62.3511,141.648],[28.4159,62.3556,135.2593],[28.387,62.3573,131.3621],[28.3858,62.3529,138.3638],[28.357,62.3546,135.2637],[28.3557,62.3501,131.1153],[28.2789,62.3546,116.2698],[28.2801,62.3591,118.0601],[28.2609,62.3602,118.1282],[28.2622,62.3647,112.4341],[28.2525,62.3652,126.2595],[28.2513,62.3608,115.6096],[28.2417,62.3614,114.2883],[28.2393,62.3524,105.198],[28.2296,62.353,113.4357],[28.2284,62.3485,91.5],[28.2092,62.3497,106.4313],[28.2104,62.3541,103.5025],[28.2008,62.3547,97.6123],[28.1972,62.3413,107.1629],[28.1876,62.3419,99.3328],[28.1851,62.333,118.847],[28.1755,62.3335,135.949],[28.1743,62.3291,112.5424],[28.1359,62.3313,132.6117],[28.1335,62.3224,124.6744],[28.1047,62.324,130.1574],[28.1023,62.3151,128.3023],[28.0831,62.3162,132.8305],[28.0819,62.3118,137.8922],[28.0723,62.3123,123.1561],[28.0711,62.3079,121.4208],[28.0805,62.306399999999996,109.5],[28.0759,62.2895,102.346],[28.0663,62.2901,97.1853],[28.0651,62.2856,133.9737]]]]}}