{"type":"Feature","properties":{"GID_3":"FIN.1.1.4_1","GID_0":"FIN","country":"Finland","GID_1":"FIN.1_1","province":"EasternFinland","NL_NAME_1":"NA","GID_2":"FIN.1.1_1","county":"NorthKarelia","NL_NAME_2":"NA","city":"PielisenKarelia","VARNAME_3":"NA","NL_NAME_3":"NA","TYPE_3":"Seutukunta|Ekonomiskregion","ENGTYPE_3":"Sub-Region","CC_3":"NA","HASC_3":"NA","name":"Pielisen_Karelia.city"},
"geometry":{"type": "MultiPolygon","coordinates": [[[[29.7966,63.047,242.2175],[29.7868,63.0477,244.5596],[29.7883,63.0521,249.1229],[29.8079,63.0508,245.743],[29.8064,63.0464,232.4955],[29.826,63.045,275.9935],[29.8275,63.0494,167.9116],[29.8373,63.0488,149.2674],[29.8403,63.0577,115.7562],[29.8501,63.057,113.6722],[29.8516,63.0614,129.7178],[29.8615,63.0607,145.501],[29.863,63.0652,154.84],[29.8728,63.0645,167.3026],[29.8713,63.0601,200.9485],[29.8811,63.0594,160.4117],[29.8796,63.055,203.409],[29.8893,63.0543,218.0519],[29.8878,63.0499,214.865],[29.9074,63.0485,142.2445],[29.9044,63.0396,194.6775],[29.9142,63.039,214.013],[29.9127,63.0345,185.0508],[29.9225,63.0338,208.8402],[29.921,63.0294,195.4156],[29.9406,63.0281,176.133],[29.9391,63.0236,228.0697],[29.9488,63.0229,191.525],[29.9473,63.0185,245.9091],[29.9571,63.0178,174.5186],[29.9647,63.04,92.5],[29.9745,63.0393,92.5],[29.976,63.0438,92.5],[29.9956,63.0424,92.5],[29.9941,63.038,92.5],[30.0235,63.0359,92.5],[30.0281,63.0492,92.5],[30.0673,63.0465,117.3811],[30.0657,63.042,104.1516],[30.1245,63.0379,110.7063],[30.1229,63.0335,108.5511],[30.1523,63.0314,117.2697],[30.1539,63.0358,111.3624],[30.1637,63.0351,104.4015],[30.1652,63.0396,111.2211],[30.175,63.0389,120.4371],[30.1765,63.0433,133.907],[30.2059,63.0412,144.9395],[30.2075,63.0457,161.2266],[30.2662,63.0415,188.833],[30.2647,63.0371,213.2226],[30.2745,63.0364,192.1816],[30.2729,63.0319,220.0385],[30.2827,63.0312,189.7495],[30.2811,63.0268,185.2842],[30.3007,63.0254,233.0925],[30.2991,63.021,214.7633],[30.3284,63.0188,204.1083],[30.3269,63.0144,185.2536],[30.3367,63.0137,201.9253],[30.3351,63.0093,190.5012],[30.3448,63.0086,221.5798],[30.3433,63.0041,192.8109],[30.3628,63.0027,235.1761],[30.3613,62.9983,206.4246],[30.371,62.9976,226.4673],[30.3726,63.002,232.841],[30.3921,63.0006,193.833],[30.3937,63.005,186.6154],[30.4133,63.0036,181.7952],[30.4149,63.008,179.9023],[30.4246,63.0073,174.4743],[30.4262,63.0118,177.4372],[30.4458,63.0103,195.5412],[30.4474,63.0148,180.3667],[30.4572,63.0141,187.9782],[30.4587,63.0185,185.3222],[30.4685,63.0178,184.2199],[30.4701,63.0222,174.4496],[30.4897,63.0208,170.0987],[30.4929,63.0296,187.6367],[30.5027,63.0289,175.9738],[30.5059,63.0378,179.5004],[30.5157,63.0371,175.7476],[30.5173,63.0415,193.1885],[30.527,63.0408,193.2845],[30.5302,63.0496,200.8171],[30.54,63.0489,232.5658],[30.5432,63.0578,185.6062],[30.553,63.0571,182.4992],[30.5546,63.0615,168.8517],[30.5644,63.0608,169.7044],[30.5677,63.0696,166.3264],[30.5775,63.0689,173.4511],[30.5807,63.0778,162.0089],[30.5905,63.077,164.3431],[30.5921,63.0815,164.8297],[30.6019,63.0807,154.86],[30.6035,63.0852,163.4484],[30.6133,63.0845,157.8677],[30.6149,63.0889,166.9002],[30.6247,63.0882,163.3308],[30.6264,63.0926,167.399],[30.6852,63.0882,165.9753],[30.6868,63.0927,154.0161],[30.6966,63.0919,152.5332],[30.6982,63.0964,153.1093],[30.7178,63.0949,152.3632],[30.7195,63.0993,152.8396],[30.739,63.0979,151.2682],[30.7407,63.1023,152.0981],[30.7505,63.1016,151.5768],[30.7521,63.106,151.8757],[30.7717,63.1045,151.0059],[30.7734,63.109,155.5235],[30.793,63.1075,156.3445],[30.7946,63.1119,153.7014],[30.8044,63.1112,152.7078],[30.8061,63.1156,156.3255],[30.8257,63.1141,157.9602],[30.8273,63.1185,168.1044],[30.8371,63.1178,163.417],[30.8388,63.1222,172.1021],[30.8584,63.1208,172.8076],[30.8601,63.1252,170.9568],[30.8797,63.1237,157.8354],[30.8813,63.1281,156.7218],[30.8912,63.1274,155.6159],[30.8928,63.1318,164.7837],[30.9124,63.1303,149.4971],[30.9158,63.1392,148.184],[30.9256,63.1384,156.4594],[30.9289,63.1473,163.6483],[30.9387,63.1465,160.885],[30.9421,63.1554,181.2749],[30.9519,63.1546,181.994],[30.9553,63.1635,187.0297],[30.9651,63.1627,181.4181],[30.9668,63.1672,175.1413],[30.9766,63.1664,194.7527],[30.9783,63.1708,193.4996],[30.9979,63.1693,176.7362],[30.9996,63.1738,180.7527],[31.0192,63.1723,206.6638],[31.0209,63.1767,213.2743],[31.0405,63.1752,216.325],[31.0422,63.1796,227.0702],[31.0619,63.1781,220.7469],[31.0636,63.1825,216.1248],[31.0832,63.181,210.6811],[31.0849,63.1854,219.758],[31.1143,63.1832,241.7561],[31.116,63.1876,253.1011],[31.1455,63.1853,246.0122],[31.1472,63.1897,248.9217],[31.1669,63.1882,229.5063],[31.1686,63.1926,240.6318],[31.198,63.1903,225.5474],[31.1997,63.1948,242.1872],[31.2292,63.1925,205.6466],[31.2309,63.1969,200.202],[31.2407,63.1961,194.2634],[31.2422,63.1998,195.9013],[31.2369,63.2088,193.4845],[31.2388,63.2109,193.3257],[31.2376,63.2141,191.8344],[31.2395,63.219,190.6939],[31.2358,63.2193,192.4364],[31.2313,63.2258,200.6492],[31.2193,63.2316,213.169],[31.189,63.2381,212.7149],[31.1601,63.2475,199.7262],[31.1614,63.2524,201.9326],[31.1541,63.253,199.2986],[31.1323,63.2633,203.1287],[31.1185,63.2724,203.9008],[31.119,63.2739,205.0017],[31.1103,63.2776,217.4168],[31.1109,63.2791,219.8063],[31.1017,63.2817,211.8889],[31.1027,63.2843,215.4382],[31.0933,63.285,215.1769],[31.084,63.2882,211.6591],[31.0847,63.2902,209.1657],[31.0723,63.2912,210.5179],[31.0365,63.3015,210.7181],[31.0005,63.3084,245.6658],[30.9825,63.3146,205.199],[30.9831,63.3162,206.4415],[30.974,63.3179,215.3988],[30.9677,63.3212,195.6886],[30.9519,63.3365,185.2057],[30.9494,63.3436,159.1359],[30.9444,63.3478,157.8638],[30.9456,63.3509,159.9766],[30.9268,63.3548,150.4395],[30.9275,63.3568,162.8921],[30.9098,63.3581,147.5656],[30.8891,63.3626,161.3399],[30.8897,63.3642,155.6728],[30.8649,63.3665,146.8778],[30.8515,63.3697,146.9517],[30.8518,63.3716,168.3028],[30.848,63.3719,152.3362],[30.843,63.3751,147.1981],[30.8436,63.3768,138.5],[30.8398,63.3771,144.8239],[30.8307,63.3828,184.7292],[30.8272,63.3871,156.9003],[30.7909,63.4046,157.0],[30.7835,63.4061,157.0],[30.7844,63.4085,157.0],[30.7646,63.41,157.0],[30.6698,63.4287,155.5359],[30.6705,63.4306,161.091],[30.6527,63.4319,170.9747],[30.6414,63.4344,177.3904],[30.6424,63.4372,178.524],[30.6231,63.4386,191.8049],[30.5655,63.4497,162.0456],[30.5663,63.4518,159.3676],[30.5491,63.4531,151.3609],[30.5372,63.4557,148.704],[30.5382,63.4584,150.4417],[30.5202,63.4585,209.0713],[30.5052,63.4619,257.468],[30.4919,63.471,143.5761],[30.4935,63.4753,151.7723],[30.4848,63.4759,156.6163],[30.4757,63.4824,177.9312],[30.4769,63.4856,147.0572],[30.4707,63.486,148.566],[30.4515,63.4999,236.0327],[30.4519,63.501,232.5491],[30.4498,63.5012,238.8109],[30.4355,63.5118,257.3459],[30.4369,63.5157,237.5659],[30.4293,63.5163,252.5907],[30.4193,63.5235,216.8564],[30.4203,63.526,195.3692],[30.4155,63.5264,209.8164],[30.4114,63.5296,191.6673],[30.4119,63.5312,196.4354],[30.4092,63.5314,197.1765],[30.3927,63.5431,204.63],[30.3592,63.5545,164.5768],[30.3603,63.5576,162.0736],[30.3494,63.5584,176.9485],[30.3411,63.561,180.6205],[30.342,63.5634,177.735],[30.329,63.5644,180.8212],[30.3044,63.5725,190.5984],[30.3053,63.5751,212.5427],[30.294,63.5759,183.9408],[30.2861,63.5785,173.9185],[30.287,63.581,186.4831],[30.2765,63.5817,201.7815],[30.2698,63.5839,207.8229],[30.2686,63.5868,181.6693],[30.2665,63.587,204.6945],[30.2591,63.5938,197.4646],[30.2533,63.6011,203.3759],[30.2551,63.6059,210.2532],[30.2455,63.6066,186.9612],[30.2109,63.6252,270.3731],[30.2116,63.6272,216.0015],[30.2067,63.6275,229.6426],[30.1938,63.6346,170.1144],[30.1948,63.6374,182.7649],[30.1877,63.6379,162.4618],[30.1766,63.644,185.7155],[30.178,63.6477,185.0062],[30.1686,63.6483,190.5406],[30.1696,63.6528,217.5975],[30.1591,63.6535,200.0106],[30.1338,63.6674,174.7488],[30.1343,63.6689,169.874],[30.1252,63.6721,161.098],[30.1259,63.674,157.1421],[30.1211,63.6744,162.7241],[30.113,63.6788,144.0],[30.1076,63.6788,144.0],[30.0882,63.6883,144.0],[30.0811,63.6923,144.0],[30.0822,63.6952,173.3393],[30.0726,63.6971,144.0],[30.0737,63.7003,159.4505],[30.064,63.7019,152.4016],[30.0653,63.7055,148.8058],[30.0593,63.7059,147.6144],[30.0562,63.7088,157.0689],[30.0416,63.7113,154.8275],[30.0293,63.7199,167.1394],[30.0299,63.7215,156.4249],[30.0266,63.7218,157.0534],[30.0149,63.7303,166.7405],[30.0048,63.7338,185.2219],[30.0061,63.7413,182.6493],[30.0027,63.7416,184.7953],[29.9825,63.752,211.5514],[29.949,63.7543,186.7906],[29.9475,63.7499,181.2135],[29.9073,63.7526,167.4483],[29.9058,63.7481,158.7265],[29.8756,63.7501,160.6749],[29.8741,63.7457,186.5246],[29.864,63.7464,208.7911],[29.861,63.7375,182.8985],[29.8509,63.7382,187.6955],[29.8494,63.7337,186.1446],[29.8393,63.7344,178.5372],[29.8362,63.7255,199.3238],[29.8262,63.7262,207.1015],[29.8247,63.7218,187.072],[29.8146,63.7225,193.5197],[29.8131,63.718,179.4907],[29.8031,63.7187,168.088],[29.8,63.7098,174.5542],[29.7899,63.7105,192.7852],[29.7884,63.706,183.3844],[29.7684,63.7074,211.6996],[29.7699,63.7118,199.7817],[29.7599,63.7125,215.3593],[29.7629,63.7214,196.4324],[29.7529,63.722,203.124],[29.7544,63.7265,196.2912],[29.7444,63.7271,203.9176],[29.7459,63.7316,214.6439],[29.7359,63.7322,222.6702],[29.7389,63.7411,209.7],[29.7289,63.7418,224.3105],[29.7304,63.7462,219.7535],[29.7204,63.7469,234.8214],[29.725,63.7602,215.9427],[29.7149,63.7609,231.7957],[29.7211,63.7786,235.9059],[29.711,63.7793,233.3082],[29.7156,63.7926,219.9302],[29.7055,63.7933,230.62],[29.7116,63.811,197.3813],[29.7016,63.8117,210.5109],[29.7062,63.825,214.4088],[29.6961,63.8257,216.2567],[29.7007,63.839,224.586],[29.6906,63.8397,215.0418],[29.6967,63.8574,262.4823],[29.6867,63.8581,261.3399],[29.6913,63.8714,244.1955],[29.6812,63.8721,258.606],[29.6827,63.8765,244.0124],[29.6423,63.8792,269.6932],[29.6408,63.8747,271.0821],[29.6105,63.8767,220.1314],[29.609,63.8722,231.5311],[29.5687,63.8749,255.9764],[29.5672,63.8704,267.0462],[29.5369,63.8724,245.4445],[29.5354,63.8679,235.1346],[29.5051,63.8699,235.2866],[29.5036,63.8655,210.0],[29.4733,63.8674,242.0206],[29.4718,63.863,251.035],[29.4416,63.8649,246.8439],[29.4401,63.8605,250.5102],[29.4098,63.8624,231.8878],[29.4083,63.8579,247.7043],[29.378,63.8599,207.1421],[29.3766,63.8554,197.5482],[29.3463,63.8573,188.871],[29.3448,63.8529,189.8106],[29.3146,63.8548,195.2852],[29.3131,63.8504,191.3699],[29.2727,63.8529,189.9393],[29.2713,63.8485,239.8105],[29.2309,63.851,178.514],[29.2294,63.8465,185.7969],[29.179,63.8497,199.671],[29.1775,63.8453,194.8589],[29.1271,63.8484,171.9609],[29.1257,63.8439,176.9009],[29.0752,63.847,197.8112],[29.0738,63.8426,191.7475],[29.0334,63.8451,225.0838],[29.032,63.8406,196.8513],[28.9815,63.8437,177.1345],[28.9801,63.8393,176.2644],[28.9296,63.8423,209.828],[28.9282,63.8379,202.3222],[28.7768,63.847,196.1028],[28.7782,63.8514,196.0021],[28.7075,63.8556,181.6624],[28.7089,63.8601,185.3813],[28.6078,63.866,182.0681],[28.6092,63.8704,202.9229],[28.5283,63.8751,189.2677],[28.5296,63.8796,199.1721],[28.4993,63.8813,161.8135],[28.4979,63.8769,163.673],[28.4878,63.8774,193.3679],[28.4865,63.873,196.6415],[28.4663,63.8741,224.7541],[28.4636,63.8652,229.7494],[28.4737,63.8647,227.9687],[28.4683,63.8469,175.5217],[28.4582,63.8474,191.6222],[28.4542,63.8341,221.042],[28.4441,63.8347,216.7314],[28.4401,63.8213,201.1786],[28.43,63.8219,204.3693],[28.4261,63.8085,209.3862],[28.416,63.8091,225.5696],[28.412,63.7957,227.0504],[28.4019,63.7963,247.1226],[28.3979,63.7829,265.905],[28.3878,63.7835,292.3987],[28.3839,63.7701,319.0995],[28.3738,63.7707,289.9586],[28.3698,63.7574,305.9421],[28.3598,63.7579,261.7234],[28.3584,63.7535,259.0454],[28.3685,63.7529,281.3362],[28.3672,63.7485,275.3661],[28.3873,63.7473,266.9981],[28.386,63.7429,258.9014],[28.3961,63.7423,278.9332],[28.3948,63.7378,258.5499],[28.4048,63.7373,267.2002],[28.4035,63.7328,267.6823],[28.4236,63.731699999999996,263.9076],[28.4223,63.7272,260.0943],[28.4324,63.7266,246.866],[28.4311,63.7222,247.677],[28.4411,63.7216,233.7259],[28.4385,63.7127,242.5095],[28.4485,63.7121,232.282],[28.4472,63.7076,234.8703],[28.4572,63.7071,226.3147],[28.4559,63.7026,222.5674],[28.466,63.702,210.4887],[28.4646,63.6976,225.349],[28.5249,63.6941,217.8071],[28.5263,63.6986,192.5484],[28.5464,63.6974,166.3645],[28.5477,63.7018,156.4873],[28.5578,63.7013,168.6335],[28.5564,63.6968,151.0056],[28.5665,63.6962,152.6978],[28.5651,63.6918,150.8431],[28.5852,63.6906,149.2728],[28.5839,63.6861,149.957],[28.5939,63.6856,152.0509],[28.5926,63.6811,146.2366],[28.6026,63.6805,156.9221],[28.6013,63.6761,164.1055],[28.6113,63.6755,174.5168],[28.61,63.671,148.7385],[28.5999,63.6716,190.2307],[28.5972,63.6627,177.8341],[28.5872,63.6633,185.835],[28.5845,63.6544,175.3642],[28.5945,63.6538,174.3333],[28.5905,63.6404,213.6379],[28.6005,63.6399,188.6182],[28.5951,63.6221,243.3628],[28.6051,63.6215,254.799],[28.5984,63.5992,208.452],[28.6084,63.5986,196.9476],[28.6031,63.5808,230.7837],[28.6131,63.5802,241.5639],[28.6104,63.5713,179.5],[28.6204,63.5707,209.1773],[28.619,63.5663,179.5],[28.639,63.5651,214.9589],[28.6377,63.5606,197.8387],[28.6777,63.5583,198.5138],[28.6763,63.5539,196.2853],[28.6863,63.5532,185.6483],[28.685,63.5488,198.272],[28.675,63.5494,200.8108],[28.6736,63.5449,215.6138],[28.6636,63.5455,214.5163],[28.6623,63.5411,209.4433],[28.6423,63.5423,243.7919],[28.6436,63.5467,226.6016],[28.6336,63.5473,224.5997],[28.6323,63.5429,250.8504],[28.6223,63.5434,243.7902],[28.621,63.539,239.6871],[28.611,63.5396,235.0325],[28.6056,63.5218,199.4388],[28.6156,63.5212,217.9885],[28.6142,63.5167,214.4547],[28.6242,63.5161,226.1972],[28.6202,63.5028,214.3856],[28.6302,63.5022,220.7726],[28.6275,63.4933,218.1642],[28.6375,63.4927,242.5127],[28.6348,63.4838,231.8788],[28.6447,63.4832,240.9213],[28.6421,63.4743,247.0335],[28.652,63.4737,255.1735],[28.6493,63.4648,248.3892],[28.6593,63.4642,252.0101],[28.6553,63.4509,233.5989],[28.6652,63.4503,241.487],[28.6598,63.4325,216.57],[28.6698,63.4319,224.0522],[28.6671,63.423,199.056],[28.6771,63.4224,193.1211],[28.6757,63.4179,221.5369],[28.6956,63.4168,216.7028],[28.6943,63.4123,255.3282],[28.7042,63.4117,223.9788],[28.7029,63.4073,234.5405],[28.7228,63.4061,175.7129],[28.7214,63.4016,182.3648],[28.7313,63.401,173.7485],[28.73,63.3966,183.9483],[28.7499,63.3954,161.8315],[28.7485,63.3909,165.2232],[28.7585,63.3903,167.9763],[28.7571,63.3859,172.3577],[28.767,63.3853,161.4818],[28.7603,63.363,192.4041],[28.7503,63.3636,188.9146],[28.7463,63.3503,177.8187],[28.7436,63.3414,165.3165],[28.7535,63.3408,172.8372],[28.744,63.3096,235.9097],[28.7341,63.3102,228.0899],[28.7327,63.3058,228.9195],[28.7228,63.306399999999996,203.008],[28.7201,63.2975,213.1889],[28.7102,63.2981,190.1591],[28.7089,63.2936,194.9608],[28.699,63.2942,189.2911],[28.6963,63.2853,199.702],[28.7062,63.2847,200.7048],[28.7035,63.2758,242.7243],[28.7134,63.2752,237.5106],[28.7121,63.2708,228.5753],[28.7022,63.2714,225.4227],[28.7008,63.2669,213.4415],[28.6909,63.2675,214.2922],[28.6896,63.2631,218.5344],[28.6797,63.2637,204.1129],[28.6784,63.2592,199.442],[28.6685,63.2598,189.8281],[28.6671,63.2554,172.0223],[28.6572,63.256,174.8136],[28.6559,63.2515,167.9732],[28.646,63.2521,162.6121],[28.6447,63.2476,158.6368],[28.6546,63.247,161.5433],[28.6532,63.2426,155.6579],[28.6631,63.242,159.218],[28.6605,63.2331,138.7591],[28.6506,63.2337,115.3364],[28.6479,63.2248,140.5079],[28.638,63.2254,131.5491],[28.6354,63.2165,136.505],[28.6255,63.2171,135.2346],[28.6228,63.2082,144.8037],[28.6129,63.2088,142.6871],[28.6116,63.2043,142.6057],[28.6314,63.2031,138.0093],[28.6301,63.1987,146.4234],[28.6597,63.1969,147.0814],[28.6583,63.1925,156.3915],[28.6781,63.1913,151.1252],[28.6768,63.1868,180.2187],[28.6965,63.1856,191.728],[28.6952,63.1812,181.3265],[28.705,63.1806,170.947],[28.7024,63.1717,194.681],[28.7122,63.1711,201.8176],[28.7109,63.1666,192.2541],[28.7208,63.166,189.6504],[28.7194,63.1616,192.875],[28.7293,63.161,168.6387],[28.7279,63.1566,182.0938],[28.7378,63.156,167.9072],[28.7365,63.1515,163.0068],[28.7463,63.1509,152.7586],[28.745,63.1465,154.0035],[28.7548,63.1459,145.8532],[28.7535,63.1414,148.8889],[28.7633,63.1408,151.7249],[28.762,63.1364,147.3268],[28.7718,63.1358,146.9606],[28.7705,63.1313,150.4619],[28.7804,63.1307,149.436],[28.779,63.1263,143.9959],[28.7889,63.1257,143.1324],[28.7875,63.1212,144.881],[28.7974,63.1206,144.2725],[28.796,63.1162,143.082],[28.8059,63.1156,140.8109],[28.8045,63.1111,148.3756],[28.8144,63.1105,136.6902],[28.813,63.1061,135.2799],[28.8228,63.1055,136.4897],[28.8215,63.101,136.4266],[28.8313,63.1004,138.1949],[28.8286,63.0915,134.5822],[28.8385,63.0909,135.9674],[28.8371,63.0865,141.5643],[28.8469,63.0859,139.7647],[28.8442,63.077,135.8796],[28.8541,63.0764,137.3204],[28.8514,63.0675,128.9992],[28.8612,63.0669,145.848],[28.8585,63.058,129.5308],[28.8683,63.0574,135.979],[28.8669,63.0529,147.3116],[28.9062,63.0505,179.5751],[28.9049,63.046,153.207],[28.9147,63.0454,144.9169],[28.9133,63.041,164.2788],[28.9231,63.0404,178.2611],[28.9218,63.0359,195.3721],[28.9414,63.0347,186.577],[28.9401,63.0303,179.8288],[28.9695,63.0284,191.8507],[28.9681,63.024,181.1943],[28.9976,63.0221,199.0712],[28.9962,63.0177,198.7674],[29.0256,63.0159,204.7615],[29.0242,63.0114,204.8364],[29.0438,63.0102,242.7847],[29.0425,63.0057,250.029],[29.0523,63.0051,234.0453],[29.0495,62.9962,249.8656],[29.0593,62.9956,233.2948],[29.0579,62.9911,243.0291],[29.0677,62.9905,222.7112],[29.0663,62.9861,241.8757],[29.1055,62.9836,168.425],[29.1069,62.988,166.6877],[29.1265,62.9868,158.8449],[29.1321,63.0046,147.2069],[29.1419,63.004,144.1731],[29.1503,63.0306,151.6958],[29.1895,63.0281,145.76],[29.1909,63.0326,142.2314],[29.2203,63.0307,134.5011],[29.2245,63.044,147.5902],[29.2442,63.0428,148.7609],[29.2456,63.0472,145.3329],[29.275,63.0453,140.5432],[29.2764,63.0498,134.5284],[29.3059,63.0479,128.0388],[29.3073,63.0523,136.9615],[29.3367,63.0504,146.183],[29.3381,63.0549,155.0263],[29.3578,63.0536,153.7484],[29.3592,63.058,160.2417],[29.369,63.0574,165.0108],[29.3704,63.0618,155.3006],[29.3803,63.0612,154.8215],[29.3817,63.0656,159.1596],[29.3915,63.065,172.2632],[29.393,63.0694,173.2959],[29.4028,63.0688,182.6154],[29.4071,63.0821,178.1754],[29.3973,63.0828,181.863],[29.4016,63.0961,175.971],[29.3918,63.0967,233.5923],[29.3932,63.1012,216.7169],[29.403,63.1005,156.792],[29.4045,63.105,149.3909],[29.4241,63.1037,143.9869],[29.4227,63.0992,134.7033],[29.4325,63.0986,133.4693],[29.4311,63.0942,127.5363],[29.4409,63.0935,130.354],[29.4394,63.0891,121.8274],[29.4493,63.0884,119.7774],[29.4478,63.084,113.3813],[29.4576,63.0833,101.371],[29.4562,63.0789,106.3438],[29.4758,63.0776,97.5933],[29.4744,63.0732,106.3082],[29.4842,63.0725,93.5551],[29.4827,63.0681,102.1705],[29.4926,63.0674,93.0217],[29.4911,63.063,97.0056],[29.5009,63.0623,97.6347],[29.4995,63.0579,88.2916],[29.5093,63.0572,92.5289],[29.5064,63.0484,86.5],[29.5162,63.0477,86.5],[29.5118,63.0344,86.5],[29.5216,63.0337,86.5],[29.5173,63.0204,86.5],[29.5271,63.0198,86.5],[29.5242,63.0109,86.5],[29.534,63.0102,86.5],[29.5311,63.0013,86.5],[29.5409,63.0007,86.5],[29.5394,62.9963,86.5],[29.5492,62.9956,86.5],[29.5477,62.9912,86.5],[29.5575,62.9905,86.5],[29.5561,62.9861,86.5],[29.5658,62.9854,86.5],[29.5644,62.981,86.5],[29.584,62.9797,86.5],[29.5825,62.9752,86.5],[29.6021,62.9739,86.5],[29.6006,62.9695,86.5],[29.6104,62.9688,86.5],[29.6133,62.9777,96.7452],[29.6231,62.9771,99.458],[29.626,62.9859,100.1655],[29.6456,62.9846,108.3857],[29.6471,62.9891,111.3556],[29.6569,62.9884,112.3131],[29.6583,62.9928,115.8706],[29.6779,62.9915,121.1501],[29.6794,62.996,122.3001],[29.6989,62.9946,131.4529],[29.7004,62.9991,132.9738],[29.7102,62.9984,128.4633],[29.7117,63.0028,134.9796],[29.7313,63.0015,136.2173],[29.7327,63.006,141.3067],[29.7425,63.0053,138.7033],[29.7455,63.0142,154.1878],[29.7553,63.0135,141.6834],[29.7583,63.0224,148.601],[29.7681,63.0217,161.9819],[29.7711,63.0306,192.928],[29.7809,63.0299,200.9285],[29.7838,63.0388,235.8278],[29.7936,63.0382,240.9003],[29.7966,63.047,242.2175]]]]}}