{"type": "Feature","id": "3182","bbox": [20.65968,61.9392,23.73398,63.92487],"geometry": {"type": "MultiPolygon","coordinates": [[[[21.09474,62.56863,7.8027],[21.08937,62.57396,0.0],[21.08123,62.57762,0.0],[21.07374,62.57632,4.2068],[21.05649,62.56529,0.0],[21.05535,62.56403,1.4568],[21.05795,62.56224,1.9339],[21.06487,62.5642,0.0],[21.06707,62.56399,0.0],[21.05535,62.55577,0.0],[21.05454,62.5445,0.0],[21.056,62.54007,4.2547],[21.06414,62.53775,2.3243],[21.06739,62.5351,0.0],[21.08806,62.52973,0.0],[21.09034,62.5316,0.0],[21.09075,62.53567,0.9952],[21.08888,62.53795,0.0],[21.08676,62.54361,0.0],[21.09457,62.55939,0.0],[21.09474,62.56863,7.8027]]],
[[[21.07626,62.7097,0.0],[21.08367,62.71389,0.0],[21.09116,62.72264,0.0],[21.0901,62.72858,0.0],[21.08448,62.73717,0.0],[21.06178,62.74588,0.0],[21.05331,62.74348,2.5475],[21.05112,62.73664,0.0],[21.05161,62.72053,0.0],[21.05535,62.71117,0.0],[21.0643,62.70628,1.9918],[21.07228,62.70616,0.0],[21.07626,62.7097,0.0]]],
[[[21.19866,62.86502,4.004],[21.18832,62.86559,1.7081],[21.16993,62.87157,0.0],[21.16611,62.87112,9.69],[21.167,62.86502,7.6582],[21.16505,62.86262,9.5987],[21.16269,62.8627,0.0],[21.15707,62.86445,0.0],[21.14763,62.86412,0.0],[21.13917,62.86087,7.7848],[21.13526,62.85448,5.044],[21.13657,62.84919,6.383],[21.14064,62.84809,3.4893],[21.14055,62.84715,0.2099],[21.11508,62.84862,0.0],[21.09848,62.83832,0.0],[21.09954,62.83438,3.8708],[21.11069,62.82888,1.0015],[21.11329,62.83019,0.0],[21.13022,62.83369,5.5162],[21.13461,62.83332,9.9398],[21.13705,62.83157,1.2651],[21.14096,62.82933,2.8986],[21.20232,62.83499,0.0],[21.21868,62.84463,5.9828],[21.22063,62.85594,6.2107],[21.21787,62.85997,0.0],[21.19866,62.86502,4.004]]],
[[[21.23959,62.87287,4.5876],[21.23943,62.88349,0.0],[21.23601,62.8922,0.0],[21.20899,62.91604,0.0],[21.20672,62.92048,0.0],[21.18303,62.9267,0.0],[21.17449,62.92361,9.3976],[21.17164,62.9149,4.4568],[21.17628,62.90782,5.0818],[21.2072,62.89077,2.6702],[21.20541,62.8854,3.9679],[21.20786,62.8791,0.3466],[21.21746,62.8749,7.4467],[21.22918,62.87124,3.0635],[21.23959,62.87287,4.5876]]],
[[[21.09278,62.91661,0.9585],[21.09929,62.91852,0.0],[21.09466,62.92723,0.0],[21.08505,62.92341,0.0],[21.09148,62.91535,0.0],[21.09278,62.91661,0.9585]]],
[[[20.96176,62.95893,3.6671],[20.96266,62.96312,0.0],[20.95826,62.9652,0.0],[20.94907,62.96454,3.2652],[20.95737,62.95832,4.9665],[20.96176,62.95893,3.6671]]],
[[[20.84783,62.97582,1.1232],[20.84425,62.97826,0.3909],[20.8392,62.98168,0.0],[20.83277,62.97891,4.8731],[20.83017,62.97394,7.3494],[20.83619,62.97545,6.8553],[20.8331,62.97106,4.0593],[20.83367,62.96552,6.2237],[20.83774,62.96389,5.2672],[20.8427,62.96475,5.0624],[20.84384,62.96849,8.746],[20.84775,62.97016,6.3334],[20.85149,62.97289,6.9213],[20.84783,62.97582,1.1232]]],
[[[21.21599,62.97517,0.0],[21.20737,62.98615,5.3868],[21.19565,62.99437,0.0],[21.18474,62.99942,0.0],[21.15984,63.00434,9.9518],[21.15512,63.00682,0.0],[21.15162,63.01032,0.0],[21.14519,63.01016,10.3935],[21.13624,63.00658,0.0],[21.13038,63.0008,14.015],[21.13185,62.99282,11.2558],[21.14039,62.98456,12.6497],[21.15268,62.97968,6.7537],[21.15935,62.97541,0.6455],[21.1548,62.9676,0.0],[21.15056,62.96357,4.46],[21.1482,62.96552,0.0],[21.14186,62.96825,8.2471],[21.13649,62.96723,3.0202],[21.136,62.96296,10.9701],[21.14666,62.95327,9.6405],[21.16814,62.94599,11.5989],[21.18287,62.9501,0.0],[21.19142,62.95392,0.0],[21.20851,62.94623,2.019],[21.21656,62.94709,3.6379],[21.22193,62.95136,0.0],[21.2212,62.96137,0.0],[21.21599,62.97517,0.0]]],
[[[21.2173,63.0104,0.0],[21.20981,63.01968,0.0],[21.20948,63.02302,0.0],[21.2072,63.02407,0.0],[21.19972,63.02684,9.1838],[21.19565,63.02603,9.5142],[21.1941,63.02399,14.6047],[21.19093,63.01207,8.3242],[21.19182,63.00369,9.6346],[21.1976,62.99718,10.9072],[21.22397,62.99531,0.4993],[21.23243,62.9877,4.1113],[21.24195,62.98294,1.1986],[21.24781,62.98444,0.0],[21.25099,62.98867,0.0],[21.25001,62.99372,0.0],[21.24505,62.99742,0.0],[21.23968,62.99885,0.0],[21.23512,63.00141,0.0],[21.2326,63.00666,0.0],[21.22934,63.01105,2.5347],[21.22519,63.01085,13.2459],[21.2212,63.00861,10.4414],[21.2173,63.0104,0.0]]],
[[[20.81511,63.10916,0.0],[20.80991,63.12316,0.0],[20.80047,63.12027,0.0],[20.79542,63.11355,5.8515],[20.79176,63.10655,8.8844],[20.79607,63.10033,0.0],[20.80356,63.10847,0.0],[20.80787,63.10281,0.0],[20.81511,63.10916,0.0]]],
[[[20.66521,63.24112,1.419],[20.67579,63.24295,2.7581],[20.67872,63.24856,0.0],[20.66326,63.24527,0.0],[20.65968,63.23924,0.0],[20.66521,63.24112,1.419]]],
[[[21.07895,63.28779,0.0],[21.0818,63.27729,0.0],[21.09653,63.24551,0.0],[21.10279,63.23599,0.0],[21.11313,63.22748,0.0],[21.14161,63.21068,2.8207],[21.15455,63.20588,5.3057],[21.15455,63.19843,4.7709],[21.13356,63.19843,0.0],[21.14723,63.1822,0.0],[21.16163,63.18195,0.0],[21.17579,63.1883,7.9357],[21.18881,63.1916,11.7842],[21.20737,63.18334,0.0],[21.21925,63.16962,0.0],[21.23113,63.15839,0.0],[21.24342,63.1507,0.0],[21.28346,63.15192,0.0],[21.30152,63.15615,0.0],[21.31853,63.16494,3.2604],[21.29819,63.17023,13.0206],[21.29119,63.17113,2.5525],[21.29119,63.17792,4.2826],[21.3628,63.20624,0.0],[21.38054,63.20588,6.4865],[21.36394,63.19367,0.0],[21.37745,63.19013,8.4354],[21.40455,63.19253,0.0],[21.4284,63.19843,0.0],[21.41961,63.20869,13.4456],[21.41481,63.22045,4.9319],[21.41521,63.23347,9.5707],[21.42213,63.24681,16.0135],[21.39633,63.26069,13.5428],[21.35597,63.26073,9.1012],[21.31577,63.25194,-0.3455],[21.29119,63.23941,17.1148],[21.29038,63.2342,14.2586],[21.29461,63.22891,10.5813],[21.29786,63.22305,7.5807],[21.29493,63.21581,23.509],[21.28679,63.21137,13.9569],[21.27947,63.21308,18.5143],[21.27223,63.21711,21.9436],[21.26441,63.21955,16.781],[21.20948,63.22138,15.3885],[21.19508,63.22578,17.3761],[21.1989,63.23017,16.1119],[21.19947,63.23029,16.1119],[21.19793,63.23159,13.3301],[21.19508,63.23941,4.9281],[21.21518,63.26386,10.334],[21.22722,63.27163,0.0],[21.24342,63.27481,0.0],[21.24342,63.28099,0.0],[21.19947,63.28071,-0.5],[21.15943,63.27375,5.8278],[21.12029,63.27196,-0.5],[21.07895,63.28779,0.0]]],
[[[21.681,63.3192,3.7253],[21.67351,63.32083,0.0],[21.67115,63.31973,5.7133],[21.6701,63.31623,5.8753],[21.65781,63.31883,0.0],[21.65423,63.317,3.6824],[21.65073,63.31334,0.0],[21.64536,63.31041,9.4559],[21.63836,63.30943,0.0],[21.63803,63.30854,0.0],[21.64584,63.30667,0.0],[21.64845,63.30475,7.936],[21.64829,63.30292,19.0778],[21.64633,63.30109,2.2849],[21.63901,63.29865,14.9166],[21.64153,63.29625,2.8825],[21.64625,63.29438,-1.5],[21.63933,63.28876,11.9738],[21.63722,63.28469,9.149],[21.63828,63.26659,7.2975],[21.65008,63.25947,10.9924],[21.66993,63.25519,0.0],[21.67652,63.25548,0.0],[21.6788,63.26773,0.0],[21.6784,63.27403,0.0],[21.67612,63.27969,0.0],[21.67661,63.28771,0.0],[21.67945,63.29511,0.0],[21.69516,63.29947,0.0],[21.69443,63.30659,0.0],[21.68588,63.31586,0.8829],[21.681,63.3192,3.7253]]],
[[[22.03346,63.32209,10.3647],[22.02622,63.32221,18.4426],[22.02223,63.32343,8.0762],[22.01857,63.32624,14.7885],[22.01271,63.32612,13.3001],[22.00758,63.3249,12.0392],[22.01197,63.3203,0.0],[22.02622,63.31342,0.0],[22.02996,63.30842,20.665],[22.02182,63.3072,2.0133],[22.00229,63.31342,4.2849],[21.98902,63.31037,14.077],[21.97771,63.29865,18.417],[21.97438,63.28681,9.1771],[21.97828,63.28002,4.852],[21.98439,63.27717,0.0],[21.98992,63.27757,0.0],[21.99464,63.2801,0.0],[21.99562,63.28474,9.9467],[21.99781,63.28901,4.4225],[22.00457,63.29116,-0.0699],[22.00815,63.28823,13.4877],[22.00709,63.28107,0.0],[22.01385,63.27774,6.4],[22.0298,63.27741,0.0],[22.04664,63.28217,4.6886],[22.05812,63.29487,12.5995],[22.0608,63.30215,4.9617],[22.03346,63.32209,10.3647]]],
[[[21.71249,63.31472,1.7227],[21.70908,63.32095,0.0],[21.69215,63.32811,2.5093],[21.68914,63.32823,0.0],[21.68832,63.32567,10.3219],[21.69109,63.31928,5.7174],[21.69899,63.3124,0.0],[21.7151,63.30394,0.0],[21.72625,63.2838,5.5496],[21.73032,63.27985,0.0],[21.76677,63.26789,0.0],[21.76694,63.27249,14.5958],[21.77589,63.27778,7.073],[21.7872,63.2805,0.0],[21.78582,63.28543,0.0],[21.7802,63.28966,0.0],[21.77312,63.28832,11.9788],[21.76987,63.2884,16.7502],[21.77019,63.29157,0.0],[21.76726,63.29576,0.0],[21.73772,63.31212,0.0],[21.73373,63.31269,4.5816],[21.71681,63.31049,8.8413],[21.71249,63.31472,1.7227]]],
[[[22.23894,63.31379,2.8612],[22.23707,63.32551,0.0],[22.23569,63.33124,8.3187],[22.23129,63.33881,6.3116],[22.22633,63.34064,0.0],[22.22169,63.33857,18.9477],[22.21534,63.33295,30.1792],[22.2107,63.32538,13.5591],[22.20802,63.31794,0.0],[22.20265,63.31281,19.4456],[22.19565,63.30976,17.6195],[22.1906,63.31053,13.0369],[22.18629,63.31476,11.7654],[22.17856,63.31786,10.8222],[22.16969,63.31916,14.9249],[22.1644,63.31672,15.5954],[22.16358,63.31171,10.2441],[22.15821,63.31102,0.0],[22.14796,63.31558,7.3966],[22.13998,63.32221,1.7394],[22.13209,63.32591,12.4832],[22.12355,63.32636,10.641],[22.1102,63.32892,16.4665],[22.09262,63.32307,13.7503],[22.07862,63.3216,13.5578],[22.06918,63.31855,19.576],[22.07276,63.31281,0.0],[22.08277,63.30419,4.2752],[22.08888,63.29462,5.7536],[22.08334,63.28803,10.9303],[22.07569,63.2862,0.0],[22.0687,63.28388,13.4234],[22.06707,63.279,0.0],[22.07846,63.27448,0.0],[22.08318,63.27045,2.98],[22.07936,63.2663,6.3145],[22.08546,63.26179,0.0],[22.13649,63.25056,0.0],[22.14422,63.25141,0.0],[22.14405,63.25414,8.6035],[22.14869,63.2558,0.0],[22.15724,63.25654,0.592],[22.1631,63.26333,0.0],[22.15854,63.27407,14.1599],[22.13901,63.27912,20.25],[22.11411,63.28221,4.1419],[22.11443,63.28417,12.7291],[22.1565,63.28856,0.0],[22.18727,63.2735,0.0],[22.20867,63.27326,5.5018],[22.22267,63.27997,0.0],[22.23439,63.29316,12.4544],[22.24448,63.30248,0.0],[22.24627,63.30707,0.0],[22.23894,63.31379,2.8612]]],
[[[21.35825,63.31566,12.6891],[21.37387,63.3334,12.9716],[21.37428,63.34927,13.7478],[21.34596,63.36376,16.2665],[21.31105,63.35562,11.7308],[21.27662,63.34077,4.1849],[21.25025,63.33503,9.7927],[21.23878,63.33438,0.0],[21.23406,63.33283,11.1125],[21.22918,63.3288,0.0],[21.27752,63.30146,0.0],[21.29265,63.30219,0.0],[21.30592,63.30589,0.0],[21.31528,63.30402,0.0],[21.31853,63.28779,0.0],[21.35825,63.31566,12.6891]]],
[[[22.06983,63.3852,7.3079],[22.06495,63.38703,15.3534],[22.05983,63.38837,14.557],[22.04591,63.38752,13.2911],[22.03028,63.38337,0.0],[22.01466,63.3854,17.774],[21.99643,63.38471,8.9798],[21.98658,63.37788,0.0],[21.98365,63.37328,7.5505],[21.9782,63.36888,10.4131],[21.97169,63.36514,17.8315],[21.96608,63.35981,26.127],[21.96119,63.35383,6.5923],[21.95623,63.34931,10.3056],[21.95135,63.34365,14.9134],[21.94899,63.34003,13.0387],[21.94728,63.33796,10.9597],[21.94899,63.33381,0.0],[21.9572,63.33161,0.0],[21.96608,63.33316,0.0],[21.98414,63.34113,0.0],[21.99708,63.34846,0.0],[22.00196,63.35419,10.7433],[22.01271,63.36371,16.8098],[22.02687,63.36616,0.0],[22.05934,63.35786,12.8519],[22.07618,63.36005,0.0],[22.08513,63.36701,7.7276],[22.08025,63.3736,13.0574],[22.07944,63.37686,11.7404],[22.08888,63.37763,1.3764],[22.09604,63.38032,10.4064],[22.09604,63.38349,0.0],[22.08912,63.38394,6.1231],[22.07944,63.38349,11.9126],[22.06983,63.3852,7.3079]]],
[[[21.68263,63.39753,3.0],[21.67237,63.39777,0.0],[21.65341,63.39501,8.3604],[21.64316,63.39749,0.0],[21.64251,63.38996,1.6637],[21.65244,63.39122,0.0],[21.65838,63.38687,1.7943],[21.66163,63.38687,0.0],[21.66033,63.38565,0.0],[21.65594,63.38093,0.0],[21.66122,63.37999,0.0],[21.67302,63.37999,0.0],[21.67856,63.38467,15.0862],[21.68865,63.38764,0.0],[21.68556,63.39061,18.3433],[21.68792,63.39281,0.0],[21.68263,63.39753,3.0]]],
[[[21.063,63.43089,-1.0],[21.05991,63.42776,3.3696],[21.06039,63.4263,6.1341],[21.06088,63.42422,6.0383],[21.06463,63.42247,10.7933],[21.06284,63.42227,10.6915],[21.06894,63.41645,3.5059],[21.08131,63.41555,0.0],[21.08562,63.4182,0.0],[21.08554,63.42288,0.0],[21.0853,63.42422,3.8102],[21.09303,63.42422,2.2297],[21.0927,63.42756,0.0],[21.08343,63.42674,5.6714],[21.07765,63.42984,1.8675],[21.06894,63.42984,-1.0],[21.063,63.43089,-1.0]]],
[[[21.83139,63.43696,0.0],[21.83237,63.44237,0.0],[21.83147,63.44774,0.0],[21.82854,63.45087,0.0],[21.82089,63.45633,0.0],[21.81153,63.46052,0.0],[21.80934,63.46259,0.0],[21.806,63.4643,0.0],[21.79892,63.46487,0.0],[21.79428,63.46255,0.0],[21.79103,63.45852,0.0],[21.78712,63.45535,15.1343],[21.7881,63.4536,14.8776],[21.79518,63.45307,7.7724],[21.80047,63.45091,16.5949],[21.80193,63.44648,2.5],[21.80437,63.44229,12.2073],[21.80486,63.44017,14.7459],[21.79949,63.43928,7.5646],[21.79558,63.43716,16.9688],[21.80006,63.43509,16.8631],[21.82895,63.43419,0.0],[21.83139,63.43696,0.0]]],
[[[22.45216,63.56904,0.0],[22.45281,63.57136,0.0],[22.42905,63.58092,4.1751],[22.42294,63.57779,0.1949],[22.42376,63.57343,0.0],[22.42644,63.56826,0.0],[22.43735,63.55655,0.0],[22.44085,63.54849,0.0],[22.44768,63.54076,0.0],[22.45322,63.54243,0.0],[22.45183,63.54861,11.2079],[22.44874,63.55431,4.5034],[22.44752,63.55891,1.742],[22.44304,63.5624,4.1039],[22.44077,63.56627,8.8156],[22.44418,63.56855,0.0],[22.44874,63.56843,0.0],[22.45216,63.56904,0.0]]],
[[[22.39983,63.5937,0.0],[22.40235,63.5996,0.0],[22.40333,63.60432,0.0],[22.38836,63.61685,9.5323],[22.37346,63.62364,13.5559],[22.36288,63.62259,0.0],[22.35979,63.61587,0.0],[22.3593,63.60859,3.9483],[22.36134,63.60362,6.3353],[22.36891,63.60037,0.0],[22.38356,63.59813,3.4044],[22.38445,63.59016,8.9457],[22.39259,63.58975,0.0],[22.39983,63.5937,0.0]]],
[[[22.81682,63.7145,0.0],[22.8187,63.71621,6.1564],[22.82879,63.72028,0.0],[22.82838,63.7259,11.8919],[22.82016,63.73066,0.0],[22.81137,63.73021,0.0],[22.79762,63.72594,0.0],[22.7951,63.72207,0.0],[22.80104,63.71707,0.0],[22.81145,63.7145,0.0],[22.81682,63.7145,0.0]]],
[[[22.64243,63.7753,0.0],[22.62696,63.77924,7.3406],[22.60727,63.77835,13.7781],[22.59636,63.77513,10.011],[22.59457,63.77281,9.4338],[22.5892,63.76834,9.1935],[22.58969,63.75983,12.3399],[22.60312,63.75312,0.0],[22.61549,63.75446,0.0],[22.62078,63.76362,3.5558],[22.6277,63.77013,0.0],[22.64886,63.76687,0.0],[22.65122,63.76944,0.0],[22.64243,63.7753,0.0]]],
[[[22.56992,63.76305,0.0],[22.56853,63.76667,0.0],[22.56764,63.77139,2.2565],[22.56804,63.77261,0.0],[22.56617,63.77367,2.6584],[22.5547,63.78238,6.0404],[22.5538,63.77493,7.4836],[22.55893,63.77017,6.2924],[22.55974,63.76659,9.9277],[22.55323,63.76305,10.1484],[22.55193,63.75564,7.7088],[22.54884,63.75125,4.9754],[22.55437,63.74877,0.0],[22.56992,63.76305,0.0]]],
[[[22.79566,63.77766,0.0],[22.78981,63.78376,0.0],[22.78175,63.79043,0.0],[22.76385,63.79145,8.2251],[22.73732,63.78559,0.0],[22.71957,63.77888,10.0608],[22.71144,63.77338,2.6263],[22.70297,63.76976,4.1194],[22.68149,63.76341,0.0],[22.68312,63.75861,3.4794],[22.68702,63.75511,0.0],[22.69223,63.75113,0.0],[22.70289,63.7364,7.8303],[22.71925,63.72663,3.7096],[22.73959,63.72053,3.4155],[22.7566,63.72272,6.2005],[22.7645,63.72704,0.0],[22.77605,63.72818,7.1218],[22.78045,63.73432,0.0],[22.77719,63.74177,5.153],[22.78207,63.74482,2.2486],[22.79322,63.74022,3.2216],[22.80209,63.73819,0.0],[22.80942,63.74714,0.0],[22.81202,63.75349,0.0],[22.8152,63.7565,0.0],[22.8191,63.76325,2.6671],[22.82008,63.76887,0.0],[22.82114,63.77147,0.0],[22.82553,63.77285,5.7101],[22.82887,63.77631,11.9289],[22.82342,63.77924,9.846],[22.80795,63.77953,8.8153],[22.80445,63.77823,7.2099],[22.8003,63.77607,4.0764],[22.79566,63.77766,0.0]]],
[[[22.97316,63.77098,0.0902],[22.95484,63.79328,14.6954],[22.94288,63.80048,18.514],[22.92237,63.8017,0.0],[22.90252,63.79487,10.0037],[22.89877,63.78327,10.3823],[22.90773,63.77241,0.0],[22.92579,63.76756,0.0],[22.92921,63.76435,0.0],[22.92986,63.7569,8.2468],[22.92848,63.74877,11.2028],[22.92579,63.74339,17.8062],[22.91472,63.7392,16.8291],[22.9004,63.74006,14.4171],[22.87469,63.74653,8.9382],[22.88209,63.74213,5.462],[22.90187,63.72602,0.0],[22.83302,63.72602,10.4801],[22.88526,63.71231,0.0],[22.90187,63.70551,-0.5],[22.88697,63.69522,0.0],[22.85548,63.68716,2.5563],[22.84034,63.67764,0.0],[22.8357,63.67211,0.0],[22.83351,63.6673,0.0],[22.83302,63.66181,0.0],[22.83302,63.65436,6.564],[22.82927,63.64623,5.2505],[22.82049,63.64419,14.8968],[22.81023,63.64374,2.8295],[22.80226,63.64033,18.1858],[22.79054,63.633,2.834],[22.77345,63.62751,5.2595],[22.75522,63.62409,6.866],[22.74049,63.62299,7.7521],[22.73406,63.62759,2.8825],[22.71323,63.64989,18.3075],[22.70265,63.6577,8.6166],[22.70704,63.67133,7.5807],[22.70232,63.68342,7.6002],[22.69077,63.69379,0.0],[22.6753,63.70238,11.6744],[22.66521,63.70478,6.7084],[22.65406,63.70376,0.6882],[22.64487,63.69855,0.0],[22.64112,63.68846,3.0998],[22.63705,63.68309,4.0405],[22.62778,63.68745,10.5065],[22.61329,63.69929,0.3698],[22.59409,63.70429,0.0],[22.58904,63.70331,0.0],[22.59108,63.69416,0.0],[22.59344,63.67451,2.7089],[22.5857,63.65705,13.7261],[22.56739,63.65314,14.2634],[22.52508,63.6577,0.0],[22.52784,63.65388,8.716],[22.52947,63.65086,7.6905],[22.53199,63.64411,8.057],[22.52223,63.64061,6.3876],[22.51441,63.63597,0.0],[22.49724,63.62299,0.0],[22.53777,63.58771,3.0006],[22.54566,63.57518,9.7645],[22.50343,63.5871,0.0],[22.49724,63.58576,0.0],[22.49317,63.57347,0.0],[22.48373,63.56684,7.0648],[22.47242,63.56184,12.6183],[22.46306,63.55475,0.0],[22.44549,63.51813,0.0],[22.44264,63.51748,0.0],[22.43865,63.50654,0.0],[22.43149,63.49738,0.0],[22.4284,63.48876,1.0336],[22.4358,63.47956,19.7657],[22.4358,63.47281,16.3565],[22.42368,63.468,8.9555],[22.4074,63.45694,5.4949],[22.39479,63.45234,9.9715],[22.39682,63.47696,10.8152],[22.38022,63.48542,18.0996],[22.35548,63.48749,10.1739],[22.33334,63.49323,12.7186],[22.33123,63.50235,11.136],[22.33709,63.51362,6.9972],[22.33741,63.52334,8.8615],[22.31935,63.52741,10.5712],[22.29225,63.52973,0.0],[22.28142,63.52619,0.0],[22.27125,63.51374,0.0],[22.27996,63.48762,0.0],[22.31821,63.46052,12.8132],[22.40162,63.41816,29.1119],[22.36695,63.42829,17.5328],[22.33522,63.43041,18.0006],[22.30494,63.43586,18.9814],[22.27467,63.45572,21.4883],[22.24676,63.46963,20.4728],[22.21339,63.47089,10.9371],[22.19093,63.45844,0.0],[22.19557,63.43122,0.0],[22.20582,63.42031,0.0],[22.21827,63.41437,0.0],[22.23292,63.41181,0.0],[22.2505,63.41132,0.0],[22.25538,63.40644,0.0],[22.30535,63.37271,0.0],[22.33383,63.35969,0.0],[22.34693,63.34927,0.0],[22.35719,63.33421,0.0],[22.36394,63.32689,0.0],[22.37371,63.32136,13.2173],[22.35222,63.30561,0.0],[22.33009,63.28384,21.5173],[22.30763,63.27586,25.6107],[22.28492,63.30146,16.5423],[22.27809,63.30146,0.0],[22.26637,63.28535,29.2216],[22.24464,63.26708,9.0581],[22.20297,63.23941,13.7978],[22.20143,63.24136,22.8166],[22.195,63.24413,14.7574],[22.18727,63.24641,13.8056],[22.1819,63.24681,0.0],[22.18084,63.24445,0.0],[22.18116,63.24006,0.0],[22.18019,63.2355,0.0],[22.17506,63.23261,16.2993],[22.15919,63.23176,9.0137],[22.1395,63.23798,6.7786],[22.12721,63.23941,0.0],[22.11402,63.23627,0.0],[22.08758,63.22578,0.0],[22.07203,63.22578,14.4939],[22.06137,63.23212,13.991],[22.05356,63.24091,6.9875],[22.04314,63.24559,8.9389],[22.02475,63.23941,13.3993],[22.01596,63.232,0.0],[22.01254,63.22431,7.7447],[22.01002,63.21577,11.7513],[22.00441,63.20588,12.5633],[21.9944,63.19644,3.4909],[21.98406,63.19123,19.287],[21.9559,63.18476,0.4132],[21.97218,63.16498,10.8557],[21.9839,63.14322,17.0913],[21.90553,63.17544,8.2976],[21.88087,63.17792,7.1539],[21.8899,63.18818,6.4317],[21.89145,63.1966,9.7648],[21.88266,63.23591,14.7155],[21.88445,63.24543,21.2735],[21.89454,63.26048,14.8257],[21.86988,63.25943,16.5953],[21.8213,63.24372,13.3905],[21.79835,63.23941,20.5594],[21.75807,63.24152,16.4975],[21.74366,63.23941,2.9206],[21.70265,63.22578,15.5157],[21.70265,63.21955,26.1918],[21.71795,63.21532,18.9301],[21.74903,63.21088,23.84],[21.76417,63.20588,25.215],[21.74236,63.19965,29.2792],[21.71469,63.20234,15.9055],[21.688,63.21019,8.9204],[21.66798,63.21955,0.0],[21.64723,63.19766,9.997],[21.61541,63.20392,1.0],[21.55812,63.23261,24.3743],[21.54444,63.23102,12.9283],[21.52377,63.22541,14.9766],[21.50489,63.21743,7.2669],[21.49659,63.20897,0.0],[21.50099,63.19245,0.0],[21.51287,63.185,0.0],[21.55193,63.17792,22.809],[21.55193,63.17113,12.4316],[21.52223,63.17206,12.6606],[21.51051,63.1684,0.0],[21.50343,63.15746,0.0],[21.51612,63.15546,0.0],[21.51783,63.14802,17.9934],[21.51677,63.1376,3.8264],[21.52084,63.12678,6.1038],[21.53199,63.1197,7.2171],[21.54591,63.11791,0.0],[21.56007,63.1197,0.0],[21.57244,63.12336,16.8104],[21.55323,63.10859,0.0],[21.55958,63.09512,2.0095],[21.57911,63.08373,0.0],[21.64568,63.05524,-0.0165],[21.68849,63.02709,1.6975],[21.65675,63.01789,2.9338],[21.62574,63.02387,26.9655],[21.59547,63.03486,32.9436],[21.5652,63.04076,6.5358],[21.52345,63.06395,20.8369],[21.49513,63.07172,0.0],[21.48227,63.05817,9.7204],[21.48048,63.04304,12.2945],[21.47527,63.04304,7.0914],[21.46705,63.04792,7.9249],[21.45631,63.04755,0.0],[21.4441,63.04092,13.7365],[21.44077,63.03779,0.0],[21.44174,63.03437,0.0],[21.44264,63.02709,2.7784],[21.44272,63.00507,0.0],[21.44654,62.98701,0.0],[21.46315,62.9514,12.8308],[21.4275,62.94404,0.0],[21.42213,62.9418,0.0],[21.4201,62.93488,0.0],[21.40919,62.9138,0.0],[21.39967,62.9007,0.0],[21.39552,62.88736,0.0],[21.3908,62.88032,5.7746],[21.38282,62.87458,0.6756],[21.36427,62.86542,18.5029],[21.3567,62.85952,13.2754],[21.3357,62.85545,13.3655],[21.26743,62.86905,1.6288],[21.24342,62.86945,0.0],[21.22674,62.85847,11.6596],[21.22267,62.84565,7.8371],[21.22193,62.83104,0.0],[21.21608,62.81485,6.0482],[21.20965,62.8076,0.0],[21.19223,62.79291,8.9318],[21.18881,62.79068,7.7507],[21.18336,62.78238,10.9299],[21.17107,62.78461,18.9265],[21.15089,62.79438,8.7093],[21.12908,62.79084,2.8477],[21.11354,62.7812,0.0],[21.10792,62.76704,0.0],[21.11647,62.74966,0.0],[21.12281,62.74372,0.0],[21.14039,62.7329,0.0],[21.14861,62.73041,0.0],[21.15561,62.73176,0.0],[21.16017,62.73017,0.0],[21.16082,62.71931,1.4319],[21.14967,62.7038,7.404],[21.12574,62.69017,12.5738],[21.09889,62.68089,0.0],[21.07895,62.67829,0.0],[21.08318,62.65925,0.0],[21.06788,62.6201,3.5562],[21.0652,62.59577,0.0],[21.08326,62.6127,3.9717],[21.09409,62.61945,8.8868],[21.10621,62.62303,0.0],[21.12159,62.60944,1.2629],[21.19353,62.6009,0.0],[21.20924,62.5821,18.0861],[21.18816,62.58487,14.7289],[21.16733,62.57575,0.0],[21.14682,62.56281,0.0],[21.12672,62.55414,0.0],[21.14877,62.53555,6.2798],[21.15455,62.52749,1.4375],[21.13787,62.5207,0.0],[21.12428,62.51,0.0],[21.11557,62.49579,0.0],[21.11305,62.47842,0.0],[21.11638,62.46015,0.0],[21.12428,62.45482,0.0],[21.13697,62.45799,0.0],[21.15455,62.46479,0.0],[21.14918,62.44709,0.0],[21.13136,62.41669,0.0],[21.13356,62.40396,0.0],[21.1478,62.4138,0.0],[21.16676,62.42133,0.0],[21.18605,62.42357,0.0],[21.2024,62.41763,14.5766],[21.19459,62.41323,3.0763],[21.18946,62.40839,0.0],[21.18133,62.39647,4.1268],[21.18702,62.39525,0.0],[21.19654,62.39151,8.7162],[21.2024,62.39033,13.7283],[21.19508,62.37287,5.2253],[21.18979,62.35244,0.0],[21.19435,62.33706,13.3418],[21.21608,62.33503,0.0],[21.2024,62.34919,9.2084],[21.20509,62.35969,0.0],[21.27068,62.41079,14.7914],[21.27752,62.39647,5.8931],[21.26531,62.3852,1.8896],[21.26043,62.37198,0.0],[21.26246,62.3592,0.0],[21.27068,62.34931,0.0],[21.28533,62.34528,0.0],[21.33904,62.35554,0.0],[21.33351,62.34056,0.0],[21.33277,62.29409,0.0],[21.32846,62.27717,0.0],[21.31617,62.24824,0.0],[21.31227,62.232,0.0],[21.32936,62.24144,0.0],[21.34002,62.25519,4.3779],[21.35231,62.26602,16.4497],[21.37428,62.26679,3.4045],[21.35328,62.232,0.0],[21.38087,62.21784,0.0],[21.3899,62.20816,0.0],[21.38396,62.19448,14.3941],[21.3711,62.18647,0.0],[21.34034,62.17573,0.0],[21.32594,62.16376,0.0],[21.33253,62.15257,7.6982],[21.32911,62.13813,5.725],[21.31227,62.10912,6.7048],[21.2964,62.13044,6.9432],[21.28907,62.12157,0.0],[21.28435,62.07494,0.0],[21.27622,62.0502,0.0],[21.23658,61.98501,0.0],[21.28053,61.97956,0.9051],[21.29493,61.97134,0.2163],[21.27752,61.95148,0.0],[21.29021,61.94892,0.0],[21.31251,61.93985,0.0],[21.31671,61.9392,0.0],[21.33723,61.95317,0.0],[21.36503,61.96252,6.6781],[21.38591,61.97841,17.2204],[21.40441,61.9958,17.0015],[21.4258,62.00945,20.5799],[21.47552,62.02231,30.6477],[21.52957,62.0251,38.6526],[21.64657,62.0205,71.3206],[21.64233,62.02575,77.9444],[21.63974,62.0311,77.7312],[21.63602,62.0357,80.4454],[21.63241,62.03763,78.2696],[21.63571,62.05177,80.9739],[21.64026,62.11027,64.2375],[21.65246,62.14233,89.6256],[21.69773,62.14742,60.0737],[21.7,62.15944,85.5644],[21.6909,62.17197,85.9557],[21.67788,62.18158,74.1103],[21.6753,62.19543,67.1583],[21.69049,62.20664,65.2384],[21.7185,62.21377,80.7367],[21.76118,62.21951,53.2038],[21.76625,62.2308,73.3404],[21.75777,62.23902,63.6462],[21.73762,62.2499,39.2106],[21.71157,62.25568,40.7184],[21.69514,62.25734,39.1743],[21.68088,62.26953,38.0532],[21.68233,62.28098,45.8048],[21.68222,62.30121,98.7477],[21.67643,62.31687,86.8541],[21.66941,62.3254,81.6618],[21.66734,62.33539,86.0386],[21.68832,62.33873,69.5968],[21.68491,62.35196,60.5831],[21.67199,62.36012,56.7318],[21.63602,62.3657,51.4805],[21.55768,62.35557,26.5132],[21.55758,62.35728,27.0299],[21.55913,62.37004,30.3489],[21.55489,62.37224,32.2972],[21.54332,62.37289,45.0758],[21.5367,62.37415,49.9864],[21.53236,62.37909,62.4938],[21.53929,62.38924,61.0968],[21.54611,62.39531,57.3746],[21.55251,62.41097,41.4112],[21.55117,62.42862,52.5793],[21.54807,62.43676,38.8724],[21.55448,62.4557,44.5729],[21.58662,62.49706,87.0107],[21.60543,62.52882,84.7611],[21.61236,62.54409,86.4688],[21.61525,62.56011,84.1803],[21.60057,62.56021,82.3179],[21.59644,62.56631,77.5785],[21.59272,62.58499,62.8111],[21.59096,62.60083,45.0267],[21.64078,62.61716,48.5879],[21.69628,62.64109,68.1151],[21.77059,62.68336,71.3172],[21.7802,62.70359,81.5448],[21.76894,62.71013,86.188],[21.74795,62.72563,57.2978],[21.73938,62.73514,47.7723],[21.72852,62.76005,42.7006],[21.72759,62.77449,53.3316],[21.7339,62.80836,27.2949],[21.74651,62.82648,50.2072],[21.76087,62.84092,31.8265],[21.7678,62.85172,33.2791],[21.79178,62.85663,28.964],[21.87342,62.81343,47.9298],[21.9157,62.79906,72.7522],[21.99125,62.78229,86.0141],[22.17904,62.76198,90.284],[22.2149,62.76464,82.4262],[22.24787,62.77454,90.2631],[22.2888,62.79358,66.2288],[22.37644,62.85038,48.6663],[22.39401,62.85802,49.2288],[22.40425,62.87596,42.0],[22.40363,62.90169,39.7948],[22.42037,62.93037,26.4387],[22.42244,62.9397,25.4699],[22.42843,62.95667,26.0688],[22.49799,63.02825,51.5047],[22.5138,63.04,45.65],[22.53292,63.04801,38.1245],[22.55452,63.05098,47.7383],[22.54377,63.05682,44.4749],[22.53984,63.06178,39.1081],[22.55008,63.07088,58.4588],[22.58439,63.07822,53.8864],[22.59534,63.07899,62.0247],[22.61736,63.07574,55.2705],[22.63224,63.08124,50.2443],[22.64588,63.10548,58.2001],[22.6464,63.11625,58.951],[22.6403,63.12163,51.2951],[22.64743,63.12974,56.9475],[22.66242,63.1332,56.9113],[22.6742,63.13718,47.744],[22.67627,63.14421,58.0443],[22.6773,63.1717,56.2145],[22.6649,63.18865,56.8534],[22.60103,63.18581,62.6699],[22.58925,63.18374,60.9767],[22.5817,63.18348,63.2672],[22.58501,63.18767,71.7423],[22.59783,63.21095,46.0895],[22.59638,63.21516,50.7472],[22.5848,63.21428,43.8109],[22.57447,63.21247,38.5079],[22.57478,63.21503,39.1776],[22.58387,63.22433,46.4434],[22.59814,63.23459,52.0261],[22.59783,63.24224,56.0845],[22.59224,63.24265,51.9662],[22.56961,63.24712,51.5797],[22.56837,63.26079,48.8585],[22.57819,63.27082,48.4575],[22.60961,63.28417,47.8246],[22.66242,63.29304,45.2062],[22.6742,63.29717,41.4897],[22.67059,63.29986,44.174],[22.65374,63.31552,48.3908],[22.66356,63.32032,41.8339],[22.75058,63.3444,28.7228],[22.73611,63.35572,38.0158],[22.76639,63.35758,30.6046],[22.86592,63.35425,56.1491],[22.92917,63.34549,62.509],[22.95584,63.33892,64.9372],[22.97599,63.34347,63.8218],[22.97506,63.3583,57.6762],[22.9884,63.36975,57.2265],[23.01206,63.37094,56.3347],[23.118,63.36068,61.4385],[23.15696,63.36735,65.3784],[23.19893,63.39241,61.3304],[23.26218,63.45256,72.6415],[23.29794,63.47473,60.9984],[23.35054,63.48801,70.9591],[23.39437,63.48977,63.9661],[23.45028,63.48669,74.3701],[23.50609,63.47861,72.8272],[23.54919,63.46535,77.3621],[23.56417,63.45504,75.337],[23.59363,63.42711,75.198],[23.61327,63.41427,81.9875],[23.65244,63.39634,72.9731],[23.69936,63.38063,86.0752],[23.70349,63.38213,85.9619],[23.70742,63.38161,82.6147],[23.71011,63.3828,80.8142],[23.71073,63.38603,83.911],[23.68685,63.40698,67.8655],[23.67528,63.42419,71.8516],[23.65264,63.51235,92.8136],[23.63993,63.53214,69.4348],[23.61771,63.54359,67.3796],[23.599,63.54759,60.5501],[23.57802,63.55674,56.0428],[23.56821,63.58511,70.6409],[23.56676,63.59245,61.6575],[23.54505,63.59922,54.5681],[23.49193,63.59943,58.7678],[23.46155,63.60346,64.3286],[23.44356,63.60749,64.2743],[23.46103,63.61214,53.7111],[23.46475,63.61444,46.5556],[23.46361,63.61769,47.9281],[23.46268,63.62154,53.5649],[23.46155,63.6248,53.9935],[23.45999,63.62723,55.0061],[23.46268,63.6301,50.7692],[23.46702,63.6311,60.7413],[23.48087,63.63596,46.7467],[23.48521,63.63707,45.1854],[23.48687,63.6402,45.3341],[23.48459,63.64304,44.0],[23.47705,63.65539,55.2661],[23.47488,63.65821,49.0318],[23.4757,63.66232,53.9914],[23.48335,63.66511,55.4541],[23.49544,63.6679,45.4008],[23.49958,63.66847,43.5],[23.50743,63.65307,57.7773],[23.51756,63.64046,43.5],[23.54567,63.63519,43.5],[23.61306,63.65278,65.4186],[23.71869,63.6633,74.4348],[23.73398,63.66823,82.1633],[23.71538,63.68867,71.8029],[23.59084,63.74086,54.2301],[23.50309,63.76701,55.3712],[23.47591,63.76825,37.2757],[23.44945,63.74345,26.706],[23.42847,63.74528,32.5021],[23.39716,63.75283,27.5806],[23.36202,63.75771,28.6884],[23.3215,63.75332,25.7444],[23.29308,63.74174,20.7696],[23.27014,63.72867,45.7555],[23.24585,63.71983,20.2974],[23.19789,63.72381,35.3963],[23.03614,63.78696,5.5169],[23.02199,63.78285,0.8682],[23.0102,63.78138,1.4872],[22.99966,63.78303,0.0],[22.99073,63.78762,0.0],[22.99073,63.7875,0.0],[23.0018,63.77375,4.8228],[23.00066,63.76362,9.7505],[22.99,63.7613,12.8903],[22.97316,63.77098,0.0902]]],
[[[22.63649,63.80329,4.9152],[22.6364,63.8065,3.7513],[22.63087,63.80935,0.0],[22.62371,63.8096,4.473],[22.60271,63.81643,11.7951],[22.59929,63.81342,7.1952],[22.59433,63.81257,0.0],[22.5914,63.81057,10.7115],[22.60052,63.79613,1.6025],[22.60776,63.7888,3.5613],[22.61248,63.79092,0.0],[22.61191,63.79759,0.0],[22.6124,63.80126,0.4212],[22.61557,63.80162,0.4687],[22.61956,63.80101,1.5498],[22.63649,63.80329,4.9152]]],
[[[22.65602,63.81196,0.0],[22.65789,63.81444,0.0],[22.65764,63.81989,0.0],[22.65333,63.82856,0.0],[22.64495,63.83263,10.7964],[22.63901,63.83059,4.111],[22.63868,63.82587,11.4204],[22.63982,63.82001,3.8844],[22.63885,63.81444,12.8055],[22.64226,63.8098,2.5688],[22.64999,63.80948,0.0],[22.65602,63.81196,0.0]]],
[[[22.83066,63.86831,5.2187],[22.82073,63.86978,4.6848],[22.82512,63.86249,9.3405],[22.83904,63.86152,0.0],[22.83066,63.86831,5.2187]]],
[[[22.77898,63.85944,2.716],[22.77971,63.86282,0.0],[22.77825,63.869,0.0],[22.77467,63.87397,0.0],[22.76433,63.87572,3.9152],[22.75506,63.87405,8.5238],[22.75538,63.8666,10.8732],[22.7575,63.8627,0.0],[22.76498,63.85989,0.0],[22.77329,63.85818,0.0],[22.77898,63.85944,2.716]]],
[[[22.82073,63.91271,0.0],[22.8191,63.91779,0.0],[22.813,63.92235,0.0],[22.7999,63.92101,14.0094],[22.79607,63.91507,8.6837],[22.80551,63.91136,0.0],[22.82073,63.91271,0.0]]],
[[[22.78045,63.91519,0.0],[22.78053,63.91877,0.0],[22.77971,63.92162,0.0],[22.77573,63.92467,0.0],[22.76214,63.92487,3.3907],[22.74789,63.92141,6.959],[22.74838,63.9182,0.7871],[22.77776,63.91222,0.0],[22.78045,63.91519,0.0]]]]}
,"properties": {"ISO3166-1-Alpha-3": "FIN","country": "Finland","fill": "#F0F","name": "Ostrobothnia","area_km2": 7383.168,"hist_schema_id": "Elevation0-9000","hist_area_km2": {"0": 1578.322,"25": 3532.03,"50": 1751.182,"75": 483.515,"100": 37.075,"125": 1.006}}}