{"type": "Feature","bbox": [25.4959,61.6073,26.7785,62.5779],"geometry": {"type": "MultiPolygon","coordinates": [[[[25.8512,61.7906,139.4049],[25.8529,61.7996,127.2531],[25.8718,61.7988,110.0357],[25.871,61.7943,125.1888],[25.8804,61.7939,113.569],[25.877,61.776,156.5779],[25.8676,61.7764,151.3074],[25.865,61.763,150.8824],[25.8745,61.7626,151.1466],[25.9028,61.7614,159.7316],[25.9037,61.7658,163.9736],[25.9131,61.7654,130.0861],[25.9174,61.7878,132.1707],[25.9269,61.7874,132.0689],[25.926,61.7829,134.8882],[25.9355,61.7825,123.9679],[25.9346,61.778,135.3958],[25.9441,61.7776,129.4577],[25.9432,61.7732,124.5275],[25.9527,61.7728,107.3786],[25.9518,61.7683,108.1146],[25.9707,61.7675,137.0026],[25.9699,61.763,135.7705],[25.9793,61.7626,118.2403],[25.9785,61.7581,117.7388],[25.9879,61.7577,113.9797],[25.9862,61.7488,104.8311],[25.9956,61.7484,109.0917],[25.9922,61.7305,91.0],[26.0016,61.7301,101.9397],[26.0007,61.7256,96.5459],[26.0102,61.7252,112.5277],[26.0093,61.7207,120.0081],[26.028199999999998,61.7199,118.4975],[26.0291,61.7244,124.7002],[26.0385,61.724,91.0],[26.0394,61.7284,99.2463],[26.0488,61.728,91.0],[26.0506,61.737,91.0],[26.06,61.7365,95.8648],[26.0592,61.7321,91.0],[26.0686,61.7317,96.1462],[26.0651,61.7138,91.0],[26.0745,61.7134,99.2651],[26.0736,61.7089,91.0],[26.0831,61.7085,91.0],[26.0804,61.6951,91.0],[26.0898,61.6947,114.1316],[26.0881,61.6857,109.5114],[26.0787,61.6861,110.5382],[26.0769,61.6772,91.0],[26.0675,61.6776,91.0],[26.0666,61.6731,91.0],[26.076,61.6727,91.0],[26.0752,61.6683,91.0],[26.0846,61.6678,91.0],[26.0828,61.6589,91.0],[26.0922,61.6585,91.0],[26.0914,61.654,91.0],[26.1008,61.6536,91.0],[26.099,61.6446,91.0],[26.1178,61.6438,91.0],[26.117,61.6394,91.0],[26.1264,61.6389,91.0],[26.1255,61.6345,91.0],[26.1349,61.634,91.0],[26.134,61.6296,91.0],[26.1434,61.6292,91.0],[26.1417,61.6202,91.0],[26.1511,61.6198,91.0],[26.1502,61.6153,91.0],[26.1596,61.6149,91.0],[26.1605,61.6194,91.0],[26.1699,61.618899999999996,91.0],[26.1726,61.6324,91.0],[26.182,61.6319,91.0],[26.1856,61.6498,91.0],[26.2044,61.649,131.3269],[26.2035,61.6445,125.3111],[26.2694,61.6415,121.1833],[26.2712,61.6505,179.7342],[26.2806,61.6501,191.2527],[26.2825,61.659,147.5297],[26.2919,61.6586,155.3411],[26.291,61.6541,162.866],[26.3004,61.6537,133.4417],[26.2995,61.6492,168.9565],[26.3089,61.6488,116.3788],[26.308,61.6443,134.5002],[26.3174,61.6439,127.8475],[26.3156,61.6349,137.9547],[26.3062,61.6354,140.753],[26.3034,61.622,102.5],[26.3128,61.6215,102.5],[26.311,61.6126,102.5],[26.3204,61.6122,108.5179],[26.3195,61.6077,102.5],[26.3289,61.6073,102.5],[26.3298,61.6117,102.5],[26.3392,61.6113,110.4722],[26.3401,61.6158,102.5],[26.3496,61.6153,114.3553],[26.3505,61.6198,113.6466],[26.3599,61.6194,107.1064],[26.3608,61.6238,106.2054],[26.3514,61.6243,114.6875],[26.3541,61.6377,107.3505],[26.373,61.6368,106.0134],[26.3776,61.6591,91.5],[26.387,61.6587,91.5],[26.3861,61.6543,91.5],[26.4237,61.6525,91.5],[26.4228,61.648,91.5],[26.4322,61.6476,91.5],[26.4313,61.6431,91.5],[26.4501,61.6423,91.5],[26.4492,61.6378,91.5],[26.4774,61.6365,91.5],[26.4765,61.632,91.5],[26.5047,61.6307,91.5],[26.5038,61.6262,91.5],[26.5132,61.6258,91.5],[26.5245,61.6794,91.5],[26.5339,61.6789,91.5],[26.5377,61.6968,91.5],[26.5283,61.6972,91.5],[26.5302,61.7062,91.5],[26.5207,61.7066,91.5],[26.5226,61.7156,91.5],[26.5132,61.716,114.4954],[26.5151,61.7249,91.5],[26.5056,61.7254,109.91],[26.5066,61.7299,91.5],[26.4971,61.7303,91.5],[26.499,61.7392,109.0105],[26.4896,61.7397,110.7325],[26.4915,61.7486,91.5],[26.482,61.7491,106.7353],[26.4839,61.758,101.9893],[26.4744,61.7584,120.1301],[26.4754,61.7629,129.6122],[26.4659,61.7633,120.6095],[26.4669,61.7678,131.5493],[26.4575,61.7682,143.248],[26.4593,61.7772,183.5011],[26.4499,61.7776,168.5968],[26.4508,61.7821,160.3701],[26.4413,61.7825,118.7154],[26.4423,61.787,132.3511],[26.4328,61.7874,129.4176],[26.4337,61.7919,124.6702],[26.4243,61.7923,101.0],[26.4252,61.7968,101.0],[26.4158,61.7972,101.0],[26.4167,61.8017,101.0],[26.3883,61.803,101.0],[26.3892,61.8075,101.0],[26.3798,61.8079,101.0],[26.3807,61.8124,113.6536],[26.3712,61.8128,101.0],[26.3787,61.8486,130.6811],[26.3881,61.8482,122.6108],[26.39,61.8571,91.5],[26.3805,61.8575,91.5],[26.3824,61.8665,94.118],[26.3729,61.8669,91.5],[26.3766,61.8848,101.5374],[26.3482,61.8861,111.0311],[26.3472,61.8816,100.5293],[26.3283,61.8825,98.4649],[26.3301,61.8914,99.5059],[26.3396,61.891,99.5252],[26.3461,61.9223,119.2207],[26.3366,61.9227,107.5207],[26.3393,61.9361,107.8459],[26.3298,61.9365,110.715],[26.3326,61.9499,113.57],[26.3421,61.9495,116.911],[26.3431,61.954,130.8454],[26.3526,61.9536,128.1229],[26.3535,61.958,120.7483],[26.3725,61.9571,125.0062],[26.3734,61.9616,121.218],[26.383,61.9612,115.6175],[26.3839,61.9656,116.4686],[26.3934,61.9652,109.6134],[26.3943,61.9697,113.6724],[26.4134,61.9688,101.2796],[26.4152,61.9777,95.046],[26.4057,61.9782,97.3752],[26.4067,61.9827,94.2263],[26.3972,61.9831,113.6208],[26.399,61.992,111.5445],[26.3895,61.9925,124.7985],[26.3904,61.9969,112.1001],[26.3809,61.9974,115.7867],[26.3818,62.0018,116.3555],[26.3723,62.0023,114.6704],[26.3742,62.0112,126.8099],[26.3647,62.0117,121.8706],[26.3656,62.0161,120.7031],[26.3561,62.0166,113.5191],[26.357,62.021,126.5435],[26.3475,62.0215,122.4936],[26.3493,62.0304,122.143],[26.3398,62.0308,131.5397],[26.340699999999998,62.0353,134.6785],[26.3312,62.0357,130.312],[26.3321,62.0402,138.2556],[26.3226,62.0406,135.2425],[26.3235,62.0451,135.5054],[26.314,62.0455,128.2817],[26.3158,62.0545,146.8602],[26.3063,62.0549,154.2727],[26.3072,62.0594,158.433],[26.2977,62.0598,182.4453],[26.2986,62.0643,189.3625],[26.2891,62.0647,191.501],[26.2909,62.0736,196.3227],[26.2814,62.0741,194.6765],[26.2823,62.0785,201.5855],[26.2727,62.079,190.0593],[26.2737,62.0834,193.3928],[26.2641,62.0839,197.2581],[26.2659,62.0928,214.0663],[26.2564,62.0932,214.0017],[26.2573,62.0977,209.2575],[26.2478,62.0981,197.2968],[26.2487,62.1026,189.8005],[26.2391,62.103,192.2343],[26.24,62.1075,174.008],[26.2305,62.1079,188.0213],[26.2323,62.1169,139.9747],[26.2228,62.1173,191.8953],[26.2246,62.1262,131.9996],[26.2342,62.1258,146.8129],[26.236,62.1348,155.0264],[26.2456,62.1343,145.9375],[26.2474,62.1432,137.581],[26.257,62.1428,157.6944],[26.2597,62.1562,138.062],[26.2693,62.1558,139.9225],[26.2712,62.1647,135.8082],[26.2807,62.1643,132.4311],[26.2826,62.1733,108.3523],[26.2922,62.1728,121.0823],[26.295,62.1862,117.1903],[26.3046,62.1858,126.6326],[26.3064,62.1948,106.7273],[26.316,62.1943,112.7261],[26.3169,62.1988,122.6978],[26.3265,62.1984,124.1037],[26.3256,62.1939,123.7493],[26.3352,62.1935,128.5272],[26.3361,62.1979,135.3419],[26.3457,62.1975,132.05],[26.3466,62.202,145.5693],[26.3562,62.2015,139.608],[26.3571,62.206,144.5009],[26.3859,62.2047,155.6686],[26.3869,62.2092,164.8167],[26.4156,62.2079,111.5],[26.4194,62.2257,125.9847],[26.4386,62.2248,98.5],[26.4376,62.2204,104.8027],[26.4472,62.2199,114.8962],[26.4453,62.211,108.646],[26.4549,62.2106,117.509],[26.4559,62.215,115.8083],[26.4655,62.2146,110.5],[26.4664,62.2191,110.5],[26.476,62.2186,117.7703],[26.477,62.2231,124.2896],[26.4866,62.2226,129.8231],[26.4875,62.2271,142.5414],[26.4971,62.2267,129.8978],[26.499,62.2356,135.4513],[26.4895,62.2361,134.5172],[26.4904,62.2405,139.761],[26.4808,62.241,136.8156],[26.4827,62.2499,134.3681],[26.5019,62.249,132.55],[26.5029,62.2535,131.2455],[26.5125,62.253,137.6655],[26.5135,62.2575,133.0107],[26.5231,62.2571,134.4748],[26.524,62.2615,127.9386],[26.5432,62.2606,123.4529],[26.5442,62.2651,102.8791],[26.5538,62.2647,104.763],[26.5528,62.2602,112.2688],[26.5624,62.2598,121.2693],[26.5605,62.2508,135.3297],[26.5701,62.2504,125.0],[26.5691,62.2459,140.9546],[26.5787,62.2454,149.4841],[26.5777,62.241,144.4967],[26.5873,62.2405,137.0],[26.5864,62.2361,163.661],[26.596,62.2356,149.0188],[26.595,62.2312,152.5346],[26.6046,62.2307,137.2477],[26.6036,62.2262,145.5459],[26.6132,62.2258,131.5],[26.6122,62.2213,131.5],[26.6218,62.2209,139.774],[26.6198,62.2119,160.8903],[26.639,62.211,132.0632],[26.64,62.2155,134.9819],[26.6592,62.2146,128.3473],[26.6631,62.2324,129.5],[26.6535,62.2329,129.5],[26.6545,62.2374,134.0592],[26.6353,62.2383,142.9385],[26.6383,62.2517,146.905],[26.6287,62.2521,153.7865],[26.6355,62.2834,126.724],[26.6259,62.2839,123.9537],[26.6269,62.2883,126.5942],[26.6173,62.2888,123.849],[26.6193,62.2977,125.4349],[26.6385,62.2968,133.9323],[26.6395,62.3013,140.1088],[26.6587,62.3004,155.1646],[26.6597,62.3048,140.3063],[26.6789,62.3039,158.968],[26.6819,62.3173,136.3657],[26.6723,62.3178,144.3182],[26.6733,62.3223,140.0491],[26.6636,62.3227,142.4019],[26.6646,62.3272,135.7638],[26.6743,62.3267,135.9959],[26.6782,62.3446,138.7152],[26.7071,62.3432,152.0049],[26.7081,62.3477,164.643],[26.7274,62.3468,211.356],[26.7284,62.3512,196.8308],[26.7573,62.3498,143.0],[26.7583,62.3543,154.2748],[26.7775,62.3534,123.0],[26.7785,62.3579,133.8359],[26.7689,62.3583,123.0],[26.7699,62.3628,123.0],[26.7603,62.3633,123.0],[26.7613,62.3677,134.0251],[26.7516,62.3682,123.0],[26.7526,62.3727,140.7243],[26.743,62.3731,123.0],[26.744,62.3776,131.3561],[26.7344,62.378,123.0],[26.7354,62.3825,123.0],[26.7161,62.3834,123.0],[26.7171,62.3879,123.0],[26.7075,62.3883,123.0],[26.7085,62.3928,123.0],[26.6892,62.3937,123.0],[26.6902,62.3982,123.0],[26.6805,62.3987,139.6373],[26.6835,62.4121,149.917],[26.6932,62.4116,123.7262],[26.6952,62.4205,124.1332],[26.7048,62.4201,132.7431],[26.7078,62.4335,121.965],[26.6981,62.4339,116.133],[26.7011,62.4473,106.0],[26.7108,62.4469,106.0],[26.7128,62.4558,106.0],[26.7031,62.4563,106.0],[26.7041,62.4607,112.9466],[26.6751,62.4621,106.0],[26.6742,62.4576,117.3108],[26.6548,62.4585,128.8062],[26.6538,62.4541,166.0268],[26.6442,62.4545,154.5982],[26.6432,62.4501,199.1407],[26.6335,62.4505,185.4816],[26.6345,62.455,151.9429],[26.6152,62.4559,105.0],[26.6162,62.4604,112.1582],[26.6065,62.4608,105.0],[26.6075,62.4653,105.0],[26.5978,62.4657,116.1506],[26.5988,62.4702,105.0],[26.5891,62.4706,105.0],[26.5901,62.4751,105.0],[26.5805,62.4756,105.0],[26.5814,62.48,105.0],[26.5718,62.4805,110.1199],[26.5727,62.4849,116.6211],[26.5534,62.4858,144.3473],[26.5544,62.4903,157.809],[26.5447,62.4907,158.9852],[26.5457,62.4952,165.4617],[26.5263,62.4961,181.9271],[26.5273,62.5006,175.8079],[26.5176,62.501,143.1196],[26.5186,62.5055,156.9709],[26.4992,62.5064,122.0],[26.5002,62.5109,143.6448],[26.4808,62.5117,144.3897],[26.4818,62.5162,140.8534],[26.4721,62.5167,147.553],[26.474,62.5256,131.2121],[26.4837,62.5251,132.6137],[26.4857,62.5341,114.5],[26.4566,62.5354,130.2592],[26.4547,62.5265,141.1419],[26.445,62.5269,170.771],[26.444,62.5224,168.9883],[26.4343,62.5229,161.3524],[26.4334,62.5184,172.9032],[26.4237,62.5189,187.9296],[26.4227,62.5144,176.1142],[26.413,62.5148,164.7297],[26.4111,62.5059,168.5617],[26.4014,62.5063,188.47],[26.4024,62.5108,182.7733],[26.3927,62.5112,154.1559],[26.3946,62.5202,144.8344],[26.3752,62.521,145.7518],[26.3762,62.5255,145.5731],[26.3471,62.5268,132.96],[26.3481,62.5313,117.0],[26.3287,62.5321,122.6929],[26.3296,62.5366,125.7321],[26.3102,62.5375,114.5349],[26.3112,62.5419,116.4136],[26.2918,62.5428,101.6054],[26.2927,62.5473,97.2866],[26.2733,62.5481,89.0],[26.2743,62.5526,115.1096],[26.2646,62.553,89.0],[26.2655,62.5575,89.0],[26.2558,62.5579,89.0],[26.2568,62.5624,89.0],[26.2471,62.5628,96.2199],[26.248,62.5673,109.0713],[26.2383,62.5677,99.8937],[26.2392,62.5722,111.987],[26.2295,62.5726,98.9278],[26.2304,62.5771,113.8008],[26.211,62.5779,89.0],[26.2092,62.569,89.0],[26.2189,62.5686,106.9216],[26.2161,62.5552,97.6864],[26.2258,62.5547,89.0],[26.2239,62.5458,89.998],[26.2336,62.5453,97.4268],[26.2308,62.532,92.3178],[26.2017,62.5332,86.5],[26.1989,62.5198,86.5],[26.2086,62.5194,90.5577],[26.2068,62.5105,86.5],[26.2165,62.51,92.5361],[26.2137,62.4966,86.5],[26.2234,62.4962,86.5],[26.2196,62.4783,86.5],[26.2293,62.4779,86.5],[26.2265,62.4645,86.5],[26.2362,62.4641,86.5],[26.2334,62.4506,86.5],[26.2431,62.4502,107.0036],[26.2403,62.4368,86.5],[26.2499,62.4364,86.5],[26.2471,62.423,86.5],[26.2568,62.4225,86.5],[26.254,62.4091,86.5],[26.283,62.4078,86.5],[26.282,62.4034,86.5],[26.311,62.4021,97.7655],[26.3091,62.3931,86.5],[26.2995,62.3936,108.4513],[26.2976,62.3846,86.5],[26.2879,62.3851,86.5],[26.2795,62.3448,86.5],[26.2699,62.3453,86.5],[26.2708,62.3497,86.5],[26.2612,62.3502,86.5],[26.2621,62.3546,110.8163],[26.2525,62.355,97.8679],[26.2534,62.3595,95.7575],[26.2341,62.3604,86.5],[26.2332,62.3559,118.9785],[26.2043,62.3572,184.7227],[26.2034,62.3527,190.2535],[26.213,62.3523,160.5242],[26.2121,62.3478,186.8167],[26.2217,62.3474,140.9488],[26.2208,62.3429,151.3526],[26.2304,62.3425,125.9224],[26.2295,62.338,146.1743],[26.2391,62.3376,141.0645],[26.2373,62.3287,162.8844],[26.2469,62.3282,134.238],[26.246,62.3238,129.797],[26.2556,62.3233,104.1027],[26.2547,62.3189,107.2021],[26.2643,62.3184,106.588],[26.2634,62.314,113.6055],[26.273,62.3135,100.042],[26.2721,62.3091,95.4508],[26.2817,62.3086,89.304],[26.2808,62.3042,90.2882],[26.2904,62.3037,86.5],[26.2894,62.2993,86.5],[26.2991,62.2989,103.7112],[26.2981,62.2944,100.2551],[26.3077,62.2939,96.0654],[26.3059,62.285,97.9503],[26.3155,62.2846,104.6202],[26.3136,62.2756,90.5],[26.3232,62.2752,104.9308],[26.3204,62.2618,99.7122],[26.3012,62.2626,102.5849],[26.2993,62.2537,114.222],[26.3089,62.2533,123.3929],[26.3061,62.2399,116.8521],[26.3157,62.2394,121.0464],[26.3129,62.2261,115.3688],[26.3225,62.2256,118.0579],[26.3207,62.2167,146.6447],[26.2631,62.2192,114.7846],[26.264,62.2237,108.3685],[26.2257,62.2254,104.646],[26.2247,62.221,102.6884],[26.1864,62.2226,157.6627],[26.1873,62.2271,124.427],[26.1585,62.2284,140.7933],[26.1594,62.2328,125.7848],[26.1306,62.2341,110.995],[26.1297,62.2296,116.3685],[26.1201,62.23,124.3601],[26.1183,62.2211,124.8295],[26.1087,62.2215,118.722],[26.1069,62.2126,110.0],[26.0973,62.213,132.7411],[26.0946,62.1996,121.728],[26.085,62.2,124.8344],[26.0823,62.1866,123.9157],[26.0631,62.1874,113.6672],[26.0622,62.1829,116.066],[26.0526,62.1833,112.9573],[26.0499,62.1699,125.1258],[26.002,62.172,129.2076],[26.0012,62.1675,117.9231],[25.9724,62.1687,141.345],[25.9698,62.1553,130.8973],[25.9602,62.1557,119.9013],[25.9584,62.1468,95.6955],[25.9489,62.1472,80.0],[25.9427,62.1159,151.5898],[25.9523,62.1155,114.2774],[25.9488,62.0976,185.0476],[25.9583,62.0972,191.9369],[25.9557,62.0838,159.495],[25.9653,62.0834,178.0757],[25.9635,62.0744,207.0323],[25.954,62.0748,169.7383],[25.9548,62.0793,159.8335],[25.9357,62.0801,188.7842],[25.9366,62.0846,206.5443],[25.9175,62.0854,191.7654],[25.9184,62.0899,166.3043],[25.9088,62.0903,134.5],[25.9105,62.0992,161.841],[25.901,62.0996,133.3275],[25.9019,62.1041,143.8499],[25.8923,62.1045,140.3266],[25.894,62.1134,134.3337],[25.8845,62.1138,112.1174],[25.8853,62.1183,100.4414],[25.8758,62.1187,131.7418],[25.8775,62.1277,99.8755],[25.8679,62.1281,123.592],[25.8688,62.1325,86.3504],[25.8401,62.1337,92.9161],[25.8392,62.1292,87.8453],[25.8201,62.1301,76.5],[25.8192,62.1256,76.5],[25.8001,62.1264,76.5],[25.7924,62.0861,76.5],[25.802,62.0857,76.5],[25.8011,62.0812,76.5],[25.7915,62.0816,76.5],[25.7898,62.0727,76.5],[25.7803,62.0731,76.5],[25.7794,62.0686,76.5],[25.7699,62.069,76.5],[25.7665,62.0511,76.5],[25.7856,62.0503,76.5],[25.7847,62.0458,76.5],[25.8515,62.0431,76.5],[25.8507,62.0386,76.5],[25.8602,62.0382,76.5],[25.8594,62.0337,76.5],[25.8689,62.0333,76.5],[25.868,62.0289,76.5],[25.8871,62.028,76.5],[25.8863,62.0236,76.5],[25.8958,62.0232,76.5],[25.8949,62.0187,76.5],[25.9045,62.0183,76.5],[25.9036,62.0138,76.5],[25.9227,62.013,76.5],[25.9218,62.0086,76.5],[25.9313,62.0082,76.5],[25.9305,62.0037,76.5],[25.9495,62.0029,101.0029],[25.9487,61.9984,76.5],[25.9582,61.998,76.5],[25.9564,61.9891,76.5],[25.966,61.9886,95.7873],[25.9651,61.9842,85.6014],[25.9746,61.9838,108.3349],[25.9729,61.9748,120.7059],[25.9824,61.9744,108.113],[25.9789,61.9565,113.8581],[25.9694,61.9569,145.6719],[25.9685,61.9525,143.081],[25.959,61.9529,159.852],[25.9581,61.9484,145.0171],[25.9486,61.9488,151.7002],[25.9468,61.9398,166.5696],[25.9373,61.9403,155.3332],[25.9365,61.9358,153.4194],[25.927,61.9362,146.5794],[25.9252,61.9273,145.4976],[25.9157,61.9277,164.4957],[25.914,61.9187,171.8134],[25.9045,61.9191,155.6025],[25.9028,61.9102,168.306],[25.8933,61.9106,156.2469],[25.8924,61.9061,147.3051],[25.8829,61.9065,153.2951],[25.882,61.902,161.1658],[25.8725,61.9024,152.1382],[25.8717,61.8979,144.8202],[25.8622,61.8983,141.9507],[25.8613,61.8939,127.4502],[25.8518,61.8943,123.661],[25.851,61.8898,107.936],[25.794,61.8922,103.7026],[25.7923,61.8832,155.2177],[25.7828,61.8836,158.5736],[25.7803,61.8702,132.8529],[25.7708,61.8706,131.3492],[25.7691,61.8617,157.9324],[25.7596,61.862,139.6186],[25.7571,61.8486,93.4193],[25.7286,61.8498,119.2387],[25.7295,61.8543,98.4978],[25.6915,61.8558,208.4092],[25.6156,61.8589,88.1658],[25.6148,61.8544,76.5],[25.6053,61.8548,76.5],[25.602,61.8369,76.5],[25.5926,61.8373,76.5],[25.5893,61.8194,76.5],[25.5798,61.8198,76.5],[25.5758,61.7974,76.5],[25.5663,61.7978,76.5],[25.5647,61.7888,76.5],[25.5552,61.7892,76.5],[25.5544,61.7848,76.5],[25.5449,61.7851,76.5],[25.5441,61.7807,76.5],[25.5347,61.781,76.5],[25.5339,61.7766,76.5],[25.5244,61.7769,76.5],[25.5236,61.7725,76.5],[25.5141,61.7728,76.5],[25.5125,61.7639,76.5],[25.5031,61.7643,76.5],[25.4959,61.724,76.5],[25.5053,61.7236,76.5],[25.4982,61.6833,76.5],[25.5076,61.683,76.5],[25.5068,61.6785,76.5],[25.5634,61.6762,76.5],[25.5626,61.6718,76.5],[25.572,61.6714,76.5],[25.5728,61.6758,76.5],[25.5917,61.6751,85.3137],[25.5925,61.6796,76.5],[25.6114,61.6788,76.5],[25.6122,61.6833,76.5],[25.6216,61.6829,76.5],[25.6225,61.6874,76.5],[25.6319,61.687,76.5],[25.6335,61.6959,86.4832],[25.643,61.6955,76.5],[25.6446,61.7045,86.1186],[25.654,61.7041,112.3131],[25.6557,61.7131,82.8163],[25.6746,61.7123,102.4552],[25.6754,61.7168,86.5019],[25.6943,61.716,76.5],[25.6934,61.7115,76.5],[25.7218,61.7104,98.9483],[25.7209,61.7059,101.9575],[25.7587,61.7043,156.4082],[25.7579,61.6998,154.3639],[25.7484,61.7002,138.3228],[25.7468,61.6913,137.9935],[25.7562,61.6909,133.3935],[25.7554,61.6864,132.267],[25.7743,61.6856,120.3811],[25.7759,61.6946,141.0186],[25.7854,61.6942,130.1958],[25.7887,61.7121,144.8574],[25.7981,61.7117,165.6136],[25.8015,61.7296,188.1083],[25.811,61.7292,163.9611],[25.8143,61.7471,147.3347],[25.8238,61.7467,151.7276],[25.8272,61.7646,157.6901],[25.8366,61.7642,142.9268],[25.8383,61.7731,149.8127],[25.8478,61.7727,144.4837],[25.8486,61.7772,144.8825],[25.8581,61.7768,147.7797],[25.8606,61.7902,146.4133],[25.8512,61.7906,139.4049]]]]}
,"properties": {"GID_3": "FIN.5.1.6_1","GID_0": "FIN","country": "Finland","GID_1": "FIN.5_1","province": "WesternFinland","NL_NAME_1": "NA","GID_2": "FIN.5.1_1","county": "CentralFinland","NL_NAME_2": "NA","city": "SouthEasternMiddle","VARNAME_3": "NA","NL_NAME_3": "NA","TYPE_3": "Seutukunta|Ekonomiskregion","ENGTYPE_3": "Sub-Region","CC_3": "NA","HASC_3": "NA","name": "South_Eastern_Middle.city","area_km2": 2457.896,"hist_schema_id": "Elevation0-9000","hist_area_km2": {"75": 160.071,"100": 757.553,"125": 873.677,"150": 412.589,"175": 185.114,"200": 62.235,"225": 6.317,"250": 0.34}}}