{"type": "Feature","id": "3186","bbox": [22.54925,60.94633,24.99571,62.48802],"geometry": {"type": "Polygon","coordinates": [[[23.84736,62.46218,155.7334],[23.83909,62.46291,163.0705],[23.84188,62.48652,168.3278],[23.83403,62.48802,158.5],[23.82555,62.48554,169.0404],[23.81729,62.48156,167.4295],[23.81574,62.47541,174.656],[23.81739,62.46968,166.4269],[23.80178,62.462649999999996,150.9504],[23.78421,62.4596,160.2439],[23.75434,62.45045,157.4308],[23.69812,62.42673,126.8493],[23.65771,62.41702,132.163],[23.52914,62.41304,143.8933],[23.50568,62.40901,146.9678],[23.50836,62.40384,147.32],[23.51136,62.39319,156.4668],[23.51477,62.37495,153.6105],[23.50506,62.37345,147.0805],[23.49317,62.37666,150.4044],[23.42072,62.37976,140.8303],[23.40119,62.38694,138.6055],[23.37008,62.4104,142.7437],[23.35706,62.41725,137.136],[23.31613,62.41939,143.9432],[23.28864,62.40684,137.6718],[23.24419,62.36141,132.8635],[23.16678,62.31842,149.3003],[23.06074,62.29,155.3895],[22.94499,62.27473,157.8295],[22.83833,62.27119,166.3595],[22.83957,62.24333,153.0],[22.85528,62.17313,163.5269],[22.84939,62.1621,165.1729],[22.82665,62.15959,162.1906],[22.78727,62.15931,159.5384],[22.76939,62.15119,156.1502],[22.76422,62.13634,151.8565],[22.76763,62.12262,162.8721],[22.77311,62.1097,171.2143],[22.77415,62.09714,161.7466],[22.7729,62.07898,176.2047],[22.77621,62.07208,170.9185],[22.7728,62.06768,155.5631],[22.7513,62.05709,156.0112],[22.7295,62.05089,152.6512],[22.66428,62.0498,148.5036],[22.62635,62.04086,149.6711],[22.59348,62.0282,151.0813],[22.54925,62.0033,142.364],[22.55028,61.99157,143.0656],[22.6402,61.96759,140.1479],[22.65736,61.95074,134.8975],[22.66232,61.93787,143.4859],[22.68113,61.92397,131.6433],[22.70831,61.91759,135.4748],[22.7234,61.9156,130.4741],[22.7389,61.90351,121.0001],[22.74231,61.89416,121.4205],[22.75471,61.88397,125.348],[22.78365,61.87597,142.1975],[22.78458,61.86765,132.8733],[22.74965,61.86359,135.7186],[22.74345,61.85953,134.4473],[22.74283,61.85387,130.6795],[22.76846,61.84966,132.2137],[22.79058,61.84129,125.3958],[22.82293,61.82282,141.8607],[22.82189,61.79768,123.965],[22.80546,61.78114,132.7214],[22.77342,61.76538,165.6977],[22.73673,61.75484,128.489],[22.71472,61.74615,123.2812],[22.69394,61.73148,117.1847],[22.6772,61.70698,102.0652],[22.66056,61.6882,109.7962],[22.65612,61.68476,104.9355],[22.65395,61.67536,122.1506],[22.65756,61.66523,111.4412],[22.66645,61.6551,120.7243],[22.67741,61.65799,114.8126],[22.68412,61.66647,120.702],[22.70397,61.67518,115.6771],[22.71699,61.66794,108.0565],[22.72185,61.64774,98.2476],[22.70459,61.63174,114.8366],[22.68526,61.63076,115.0418],[22.68102,61.62482,122.6406],[22.6863,61.60795,110.0382],[22.66283,61.58275,105.049],[22.60155,61.55265,77.9482],[22.59989,61.53289,74.1729],[22.64061,61.49997,65.1386],[22.67338,61.48452,61.9456],[22.70056,61.4794,73.9796],[22.72474,61.47085,106.3489],[22.72185,61.46369,107.7218],[22.7205,61.45191,106.5926],[22.72443,61.44173,97.8672],[22.72877,61.43677,95.9097],[22.72536,61.43196,89.1201],[22.67524,61.42612,79.2887],[22.66893,61.4225,87.0035],[22.67028,61.42008,91.3064],[22.671,61.4184,91.9822],[22.67379,61.40969,73.4453],[22.66676,61.4054,89.3086],[22.65839,61.40408,82.5468],[22.64971,61.40152,72.4655],[22.64402,61.39615,94.3908],[22.63989,61.39062,89.1371],[22.62749,61.38736,93.257],[22.60124,61.39289,101.242],[22.57188,61.39545,86.9983],[22.56527,61.38835,102.8831],[22.58491,61.353,93.1186],[22.58956,61.34675,111.6996],[22.59049,61.34013,107.9433],[22.56992,61.33326,84.1774],[22.57271,61.32447,92.4122],[22.58046,61.31724,88.2019],[22.63617,61.27714,50.0504],[22.64268,61.26908,51.1132],[22.64537,61.2605,46.2793],[22.64981,61.25228,44.9842],[22.66149,61.2452,46.2904],[22.68071,61.24169,46.6552],[22.74541,61.24355,80.0122],[22.86727,61.23058,82.0487],[22.9238,61.21089,88.1472],[22.94251,61.19658,75.82],[22.94953,61.17683,100.195],[22.92142,61.17689,92.5627],[22.91853,61.165,107.2517],[22.92194,61.15327,113.1965],[22.93321,61.1358,75.2167],[22.95119,61.12407,102.8242],[22.96359,61.11994,106.6753],[22.96897,61.11358,103.6449],[22.94499,61.10242,104.1661],[22.9299,61.09361,92.4813],[22.92328,61.08855,87.934],[22.92897,61.07865,96.3831],[22.94127,61.07787,86.0079],[22.99036,61.08222,91.7967],[23.0009,61.07886,89.7116],[22.99966,61.07074,94.9206],[22.98995,61.06937,101.6969],[22.97486,61.0649,82.7667],[22.9671,61.05731,82.4331],[22.96979,61.04552,78.4938],[22.99542,61.03204,81.0557],[23.00741,61.02932,88.0902],[23.03325,61.02925,91.2958],[23.08007,61.0341,98.9005],[23.12244,61.03157,98.504],[23.1487,61.0208,96.8422],[23.16999,61.00814,102.2982],[23.19738,60.99995,123.6446],[23.2752,61.01912,112.3506],[23.34114,61.00672,125.5519],[23.43705,60.96948,105.805],[23.4693,60.96421,105.0899],[23.4601,60.97938,134.0169],[23.45793,60.9822,128.8569],[23.47395,60.98594,141.0128],[23.58547,60.98574,166.0183],[23.66329,61.00431,117.6458],[23.70701,61.007,106.5],[23.72292,61.00232,106.5],[23.77894,60.99307,109.1879],[23.83568,60.95013,147.0705],[23.85232,60.94633,138.1294],[23.86596,60.95923,135.9418],[23.86193,60.96708,141.7799],[23.85108,60.98028,141.8131],[23.83651,60.99044,127.0719],[23.82772,60.99437,114.2876],[23.82524,60.99969,111.1122],[23.85253,61.00871,118.0699],[23.87113,61.01741,109.8518],[23.87806,61.02718,127.2853],[23.86586,61.03509,108.0],[23.85367,61.03524,134.0535],[23.80447,61.02677,141.948],[23.79641,61.02832,134.9025],[23.79827,61.03188,155.3376],[23.80271,61.04475,163.5796],[23.80447,61.04837,151.2138],[23.80003,61.05217,139.8368],[23.76695,61.05715,124.5],[23.77853,61.06831,134.274],[23.79796,61.07534,127.198],[23.93263,61.09312,90.4313],[24.03288,61.12139,81.2917],[24.08859,61.12893,113.1646],[24.14016,61.12542,116.8624],[24.13685,61.13637,98.3755],[24.13572,61.13885,84.0769],[24.18708,61.14725,78.5],[24.22822,61.15828,78.5],[24.28217,61.18402,78.5],[24.29385,61.19541,78.5],[24.28764,61.1972,78.5],[24.27411,61.20425,78.5],[24.26553,61.2157,102.8772],[24.2679,61.23156,86.6919],[24.27948,61.23714,100.4678],[24.34366,61.23817,127.4567],[24.38035,61.24381,83.0],[24.5175,61.29073,116.1835],[24.55078,61.29595,113.7053],[24.58437,61.29481,98.1248],[24.65558,61.27874,106.1986],[24.68783,61.2744,106.6224],[24.71408,61.2836,102.0078],[24.72441,61.29815,84.5],[24.73651,61.31039,105.8059],[24.7426,61.30422,104.2093],[24.76451,61.27714,121.6015],[24.77867,61.26866,93.0],[24.8042,61.26748,86.936],[24.8812,61.28411,120.4629],[24.89143,61.29267,112.6009],[24.8905,61.29864,146.1179],[24.89412,61.30833,171.1622],[24.90373,61.31618,110.1451],[24.9183,61.3223,99.2523],[24.90115,61.33998,108.7396],[24.89918,61.36145,129.7214],[24.90301,61.38488,122.9346],[24.90363,61.40837,134.567],[24.89546,61.42106,123.6194],[24.88017,61.43584,113.5],[24.86528,61.45416,112.2523],[24.86001,61.4654,106.5],[24.86973,61.47413,106.5],[24.9582,61.45594,150.7855],[24.94218,61.48679,130.7563],[24.93618,61.5173,137.0473],[24.92109,61.53924,144.9207],[24.8998,61.54482,143.5557],[24.8967,61.54994,161.4262],[24.9121,61.56177,158.0271],[24.90662,61.58022,157.7779],[24.87531,61.58342,114.8292],[24.85164,61.57242,114.2379],[24.82901,61.56792,107.0],[24.82177,61.57911,142.0795],[24.80286,61.59738,128.4205],[24.78994,61.61502,168.9092],[24.79759,61.63727,126.3907],[24.82973,61.65314,143.9722],[24.87055,61.64885,138.2949],[24.93629,61.63306,147.7336],[24.95789,61.63776,130.6184],[24.95789,61.64399,123.7002],[24.95892,61.64787,126.6366],[24.96316,61.65138,130.7131],[24.96802,61.65675,125.9352],[24.96595,61.66709,123.5],[24.94228,61.68275,130.4796],[24.92771,61.69585,139.3465],[24.92275,61.70941,157.1837],[24.93102,61.72724,118.5],[24.94528,61.73502,125.5659],[24.96057,61.73292,153.609],[24.9674,61.72804,127.9618],[24.98497,61.72437,127.9961],[24.99571,61.73156,142.5579],[24.99396,61.74677,134.7277],[24.9706,61.77181,159.169],[24.96574,61.78093,160.28],[24.97143,61.78292,163.8915],[24.98073,61.78724,156.0418],[24.95933,61.79158,127.5181],[24.93784,61.80145,144.201],[24.93029,61.82946,173.0997],[24.94001,61.8692,160.1442],[24.94673,61.91767,148.9464],[24.93722,61.95121,149.8829],[24.89577,62.02107,113.2053],[24.88781,62.03885,160.8908],[24.8688,62.05575,169.3983],[24.77351,62.03435,148.0216],[24.74291,62.03394,154.0118],[24.68524,62.04947,105.0],[24.6686,62.05851,105.0],[24.66726,62.0659,105.0],[24.66612,62.08164,105.0],[24.66747,62.0991,105.0],[24.66912,62.10903,105.0],[24.65176,62.12096,121.8779],[24.63295,62.12662,123.4612],[24.60856,62.14303,116.906],[24.58902,62.16282,117.7483],[24.56494,62.18086,176.1821],[24.53032,62.19295,159.8282],[24.49962,62.19264,151.433],[24.44846,62.18034,163.1151],[24.4313,62.17409,153.3536],[24.4436,62.15951,125.9306],[24.4157,62.15466,105.0],[24.37642,62.15876,110.4249],[24.36402,62.16602,105.0],[24.3326,62.17496,139.1053],[24.29302,62.20685,166.4093],[24.28124,62.22871,161.5],[24.24579,62.25475,183.09],[24.16414,62.26336,182.6125],[24.11928,62.27256,147.3438],[24.07753,62.28584,125.5],[24.05386,62.29591,139.055],[24.03526,62.30943,131.8534],[24.02347,62.33069,166.5627],[24.02027,62.364,197.4694],[23.94916,62.39043,175.1985],[23.92209,62.40699,151.156],[23.9039,62.43924,140.7949],[23.90514,62.4488,156.4825],[23.90958,62.45898,158.9591],[23.9101,62.46942,162.3772],[23.89945,62.47986,164.3523],[23.88457,62.48244,166.7157],[23.87062,62.47621,172.4027],[23.85584,62.46663,178.6979],[23.84736,62.46218,155.7334]]]}
,"properties": {"ISO3166-1-Alpha-3": "FIN","country": "Finland","fill": "#FF0","name": "Pirkanmaa","area_km2": 14961.84,"hist_schema_id": "Elevation0-9000","hist_area_km2": {"50": 157.37,"75": 1460.85,"100": 3892.68,"125": 4234.93,"150": 3392.69,"175": 1521.6,"200": 295.8,"225": 5.91}}}