{"type":"Feature","properties":{"GID_2":"FIN.5.6_1","GID_0":"FIN","country":"Finland","GID_1":"FIN.5_1","province":"WesternFinland","NL_NAME_1":"NA","county":"Pirkanmaa","VARNAME_2":"Pirkanmaa|Birkaland","NL_NAME_2":"NA","TYPE_2":"Maakunta|landskap","ENGTYPE_2":"Region","CC_2":"NA","HASC_2":"NA","name":"Pirkanmaa.county"},
"geometry":{"type": "MultiPolygon","coordinates": [[[[23.7794,61.057,136.7349],[23.7609,61.0575,124.5],[23.7614,61.062,135.7029],[23.7707,61.0617,145.6271],[23.7712,61.0662,142.9076],[23.7805,61.066,140.4026],[23.781,61.0705,155.081],[23.7903,61.0702,123.0154],[23.7908,61.0747,126.8055],[23.8001,61.0744,125.8043],[23.8006,61.0789,143.4872],[23.8192,61.0784,144.4557],[23.8197,61.0829,140.5347],[23.829,61.0826,132.5],[23.8284,61.0781,143.1438],[23.847,61.0776,140.412],[23.8464,61.0731,137.2908],[23.8557,61.0729,118.8859],[23.8563,61.0774,143.4674],[23.8748,61.0768,127.127],[23.8754,61.0813,121.3332],[23.8939,61.0808,119.1806],[23.8945,61.0853,119.668],[23.913,61.0847,100.8797],[23.9136,61.0892,106.9714],[23.9228,61.089,91.9906],[23.9234,61.0934,88.3595],[23.9327,61.0932,90.4313],[23.9332,61.0976,88.5287],[23.9518,61.0971,105.902],[23.9523,61.1016,107.377],[23.9616,61.1013,110.1658],[23.9622,61.1058,104.8068],[23.9807,61.1053,102.8879],[23.9813,61.1098,124.5263],[23.9999,61.1092,119.3904],[24.0004,61.1137,114.5358],[24.0097,61.1134,107.8559],[24.0103,61.1179,115.2297],[24.0288,61.1174,87.7844],[24.0294,61.1218,82.6371],[24.0665,61.1207,94.4532],[24.0671,61.1252,115.8197],[24.095,61.1244,119.7359],[24.0955,61.1289,109.4084],[24.1327,61.1278,119.2882],[24.1321,61.1233,113.2248],[24.1414,61.123,110.0711],[24.1426,61.132,98.1546],[24.1333,61.1322,130.1828],[24.1344,61.1412,78.5],[24.153,61.1406,78.5],[24.1536,61.1451,78.5],[24.1908,61.144,78.5],[24.1914,61.1485,78.5],[24.2192,61.1476,78.5],[24.2198,61.1521,78.5],[24.2384,61.1515,78.5],[24.239,61.156,78.5],[24.2483,61.1557,78.5],[24.2489,61.1602,78.5],[24.2582,61.1599,78.5],[24.2594,61.1689,78.5],[24.2687,61.1686,78.5],[24.2699,61.1775,78.5],[24.2792,61.1772,78.5],[24.2798,61.1817,93.5822],[24.2891,61.181399999999996,78.5],[24.2903,61.1904,78.5],[24.2996,61.1901,78.5],[24.3002,61.1946,78.5],[24.2909,61.1949,78.5],[24.2915,61.1994,78.5],[24.2822,61.1996,78.5],[24.2829,61.2041,78.5],[24.2736,61.2044,78.5],[24.2742,61.2089,85.052],[24.2648,61.2092,78.5],[24.2679,61.2316,86.6919],[24.2772,61.2313,89.3665],[24.2784,61.2403,95.4951],[24.2877,61.24,95.0117],[24.2871,61.2355,109.6261],[24.3244,61.2343,125.9597],[24.325,61.2388,117.5423],[24.3436,61.2382,127.4567],[24.3443,61.2427,134.4974],[24.3629,61.2421,119.4799],[24.3635,61.2466,83.0],[24.3914,61.2457,83.0],[24.3921,61.2502,83.0],[24.4107,61.2496,83.0],[24.4113,61.2541,106.5139],[24.43,61.2534,122.4525],[24.4306,61.2579,116.2081],[24.4399,61.2576,127.7929],[24.4406,61.2621,102.6361],[24.4499,61.2618,112.8533],[24.4505,61.2663,116.64],[24.4598,61.266,108.1262],[24.4605,61.2705,101.8108],[24.4698,61.2702,94.1937],[24.4704,61.2746,123.4074],[24.4798,61.2743,108.4226],[24.4804,61.2788,106.0583],[24.4897,61.2785,94.0303],[24.4904,61.283,100.0154],[24.4997,61.2827,125.4269],[24.5003,61.2872,111.9337],[24.519,61.2866,106.6306],[24.5196,61.291,114.3417],[24.529,61.2907,124.5708],[24.5296,61.2952,134.2489],[24.5483,61.2946,117.9049],[24.5489,61.2991,124.4418],[24.5583,61.2988,104.0406],[24.5589,61.3032,117.035],[24.5776,61.3026,88.0],[24.5769,61.2981,93.4973],[24.5862,61.2978,92.7067],[24.5856,61.2934,84.4472],[24.5949,61.293,103.6232],[24.5943,61.2886,97.408],[24.6222,61.2876,136.1452],[24.6216,61.2831,140.5568],[24.6496,61.2822,126.6834],[24.6489,61.2777,125.3477],[24.6769,61.2767,86.0],[24.6762,61.2723,106.984],[24.7042,61.2713,95.2201],[24.7048,61.2758,110.5755],[24.7142,61.2755,86.0],[24.7175,61.2979,84.5],[24.7268,61.2976,84.5],[24.7295,61.3155,84.5],[24.7389,61.3151,93.4535],[24.7375,61.3062,103.0019],[24.7469,61.3059,115.3938],[24.7455,61.2969,108.2115],[24.7548,61.2966,110.8282],[24.7535,61.2876,118.8456],[24.7628,61.2873,123.3594],[24.7615,61.2783,111.7853],[24.7708,61.278,120.8328],[24.7694,61.2691,125.3211],[24.7881,61.2684,125.0356],[24.7887,61.2729,125.0764],[24.8167,61.2719,112.6975],[24.8174,61.2764,89.8199],[24.836,61.2757,86.0],[24.8367,61.2802,86.0],[24.8647,61.2792,124.5425],[24.8654,61.2837,134.3885],[24.884,61.283,108.4145],[24.8847,61.2875,113.866],[24.894,61.2872,93.0],[24.8947,61.2917,100.6147],[24.8854,61.292,110.0877],[24.8875,61.3054,152.4663],[24.8968,61.3051,161.5541],[24.8982,61.314,122.64],[24.9076,61.3137,114.1556],[24.909,61.3227,107.2477],[24.9183,61.3223,99.2523],[24.919,61.3268,99.9176],[24.9097,61.3272,100.125],[24.9111,61.3361,115.2106],[24.9017,61.3364,106.9313],[24.9031,61.3454,121.3603],[24.8938,61.3457,130.9035],[24.8994,61.3815,139.5463],[24.9087,61.3812,134.2461],[24.9101,61.3902,117.3643],[24.9008,61.3905,114.0],[24.9036,61.4084,134.567],[24.913,61.4081,128.741],[24.9144,61.417,121.1077],[24.905,61.4174,135.6779],[24.9064,61.4263,131.5972],[24.897,61.4267,113.5],[24.8978,61.4311,133.7132],[24.8884,61.4315,113.5],[24.8891,61.436,119.0775],[24.8797,61.4363,124.2704],[24.8804,61.4408,117.7221],[24.871,61.4411,124.1048],[24.8724,61.4501,106.5],[24.8631,61.4504,106.5],[24.8652,61.4638,106.5],[24.8558,61.4642,106.5],[24.8579,61.4776,106.5],[24.8673,61.4773,106.5],[24.8666,61.4728,106.5],[24.8853,61.4721,106.5],[24.8846,61.4676,106.5],[24.9128,61.4666,106.5],[24.912,61.4622,134.5574],[24.9308,61.4615,125.081],[24.9301,61.457,106.5],[24.9582,61.456,150.7855],[24.9596,61.465,135.4882],[24.9503,61.4653,130.0991],[24.951,61.4698,136.7696],[24.9416,61.4701,130.2935],[24.9423,61.4746,128.738],[24.9329,61.4749,106.5],[24.935,61.4884,117.5283],[24.9257,61.4887,106.5],[24.9306,61.5201,143.7626],[24.94,61.5197,152.9028],[24.9429,61.5376,153.8196],[24.9335,61.538,155.8586],[24.9342,61.5424,150.941],[24.8778,61.5444,128.0],[24.8785,61.5489,128.0],[24.8879,61.5486,141.3728],[24.8886,61.5531,150.3042],[24.898,61.5527,143.7019],[24.8987,61.5572,158.5651],[24.9081,61.5569,161.1941],[24.9088,61.5614,157.2688],[24.9182,61.561,149.9872],[24.9225,61.5879,155.8328],[24.9131,61.5882,158.365],[24.9138,61.5927,156.9228],[24.8949,61.5934,154.1787],[24.8956,61.5979,155.7868],[24.8862,61.5982,142.3253],[24.8855,61.5937,127.4072],[24.8761,61.594,132.9349],[24.8754,61.5896,140.4531],[24.866,61.5899,116.4361],[24.8653,61.5854,100.5],[24.8559,61.5857,100.5],[24.8531,61.5678,103.5],[24.8437,61.5682,106.4179],[24.8415,61.5547,121.1087],[24.8322,61.5551,110.6088],[24.8342,61.5685,120.6063],[24.8248,61.5688,120.8231],[24.8269,61.5822,133.0706],[24.8175,61.5826,111.0],[24.8189,61.5915,139.3259],[24.8095,61.5919,142.8502],[24.8102,61.5963,137.4017],[24.8008,61.5967,130.1099],[24.8015,61.6012,162.2419],[24.792,61.6015,153.9157],[24.7941,61.6149,168.4834],[24.7847,61.6152,162.6271],[24.7868,61.6287,111.5286],[24.7962,61.6283,100.5],[24.799,61.6463,138.8538],[24.8084,61.6459,162.5043],[24.8098,61.6549,147.7386],[24.8381,61.6539,139.1157],[24.8374,61.6494,143.9474],[24.8846,61.6478,152.5847],[24.8839,61.6433,147.5074],[24.9027,61.6426,142.4347],[24.902,61.6381,131.1267],[24.9114,61.6378,137.481],[24.9107,61.6333,124.0],[24.9579,61.6317,129.2642],[24.9593,61.6406,122.8712],[24.9499,61.6409,122.7816],[24.9513,61.6499,127.9438],[24.9607,61.6496,130.0176],[24.9622,61.6585,129.8339],[24.9716,61.6582,126.4179],[24.9723,61.6627,123.5],[24.9629,61.663,123.5],[24.9643,61.672,129.4622],[24.9549,61.6723,123.5],[24.9556,61.6768,132.2788],[24.9462,61.6771,123.5],[24.9476,61.6861,133.0298],[24.9382,61.6864,136.9398],[24.9389,61.6909,126.5],[24.9294,61.6912,142.9764],[24.9308,61.7002,159.4923],[24.9214,61.7005,145.3453],[24.9242,61.7184,128.0283],[24.9337,61.7181,147.6515],[24.9359,61.7315,118.5],[24.9453,61.7312,118.5],[24.9467,61.7401,118.5],[24.9562,61.7398,137.0446],[24.9555,61.7353,144.3094],[24.9649,61.735,118.5],[24.9642,61.7305,118.5],[24.9737,61.7302,126.7294],[24.9722,61.7212,118.5],[24.9817,61.7209,120.3354],[24.9824,61.7254,127.4685],[24.9919,61.725,143.2246],[24.9926,61.7295,131.0128],[25.0021,61.7292,129.5541],[25.0035,61.7381,143.6077],[24.994,61.7384,118.5],[24.9955,61.7474,147.2543],[24.986,61.7477,137.0345],[24.9875,61.7567,154.7464],[24.978,61.757,118.5],[24.9795,61.766,142.0847],[24.97,61.7663,162.1896],[24.9714,61.7753,147.0113],[24.962,61.7756,141.235],[24.9627,61.7801,127.9176],[24.9722,61.7798,156.3283],[24.9729,61.7843,177.7736],[24.9824,61.7839,172.0379],[24.9831,61.7884,170.422],[24.9641,61.7891,134.9676],[24.9649,61.7935,142.5607],[24.9459,61.7942,143.6926],[24.9473,61.8032,169.0273],[24.9379,61.8035,135.0635],[24.9393,61.8125,149.3718],[24.9298,61.8128,165.5175],[24.9313,61.8218,145.3648],[24.9218,61.8221,151.5378],[24.9289,61.8669,160.3434],[24.9384,61.8666,144.0],[24.9485,61.9292,159.9857],[24.939,61.9297,160.8437],[24.9412,61.943,167.1176],[24.9317,61.9434,142.3628],[24.9331,61.9523,161.8856],[24.9236,61.9526,141.9859],[24.9258,61.9661,120.9556],[24.9162,61.9664,121.9687],[24.9184,61.9799,148.9802],[24.9089,61.9802,143.9588],[24.9117,61.9981,114.7083],[24.9022,61.9984,116.8257],[24.9043,62.0119,114.7238],[24.8948,62.0122,119.3658],[24.8977,62.0301,129.5028],[24.8881,62.0304,124.1865],[24.8903,62.0439,161.2131],[24.8807,62.0442,166.2472],[24.8829,62.0577,200.6447],[24.8733,62.058,160.2579],[24.8726,62.0535,177.8562],[24.8535,62.0542,150.3379],[24.8528,62.0497,156.7963],[24.8337,62.0504,142.7087],[24.833,62.0459,138.2592],[24.8234,62.0462,152.0588],[24.8227,62.0417,153.8291],[24.8036,62.0424,160.4306],[24.8029,62.0379,143.9304],[24.7838,62.0386,158.4492],[24.7831,62.0341,160.308],[24.7735,62.0344,148.0216],[24.7728,62.0299,151.9815],[24.7537,62.0306,170.1424],[24.753,62.0261,167.213],[24.7244,62.0271,146.2171],[24.7251,62.0315,159.4909],[24.7155,62.0319,135.4576],[24.7169,62.0408,132.0106],[24.7073,62.0411,119.1379],[24.708,62.0456,110.4172],[24.6889,62.0463,109.6932],[24.6896,62.0508,118.3233],[24.6705,62.0514,105.0],[24.6732,62.0693,105.0],[24.6637,62.0696,105.0],[24.6712,62.118899999999996,105.0],[24.6521,62.1195,120.117],[24.6528,62.124,109.2406],[24.624,62.125,105.9054],[24.6247,62.1295,121.185],[24.6151,62.1298,115.0133],[24.6165,62.1387,111.6461],[24.6069,62.139,107.5],[24.6082,62.148,118.0404],[24.5986,62.1483,116.9284],[24.6,62.1573,114.6525],[24.5904,62.1576,131.9811],[24.5911,62.1621,130.5685],[24.5815,62.1624,128.9012],[24.5828,62.1713,128.3248],[24.5732,62.1716,140.5743],[24.5746,62.1806,146.1295],[24.565,62.1809,176.1821],[24.5657,62.1854,172.3138],[24.5561,62.1857,156.4098],[24.5567,62.1902,154.4325],[24.5375,62.1908,161.5656],[24.5382,62.1953,150.1337],[24.519,62.1959,156.1634],[24.5197,62.2004,158.1219],[24.5101,62.2007,153.8898],[24.5094,62.1962,154.697],[24.4902,62.1968,167.7595],[24.4895,62.1924,160.0632],[24.4799,62.1927,154.8499],[24.4792,62.1882,160.4359],[24.4696,62.1885,160.2941],[24.469,62.184,146.0949],[24.4594,62.1843,143.3263],[24.4587,62.1798,128.0074],[24.4395,62.1804,150.3147],[24.4389,62.176,138.0847],[24.4293,62.1763,149.8116],[24.4286,62.1718,151.5949],[24.4382,62.1715,132.2718],[24.4369,62.1625,120.253],[24.4465,62.1622,122.6353],[24.4458,62.1577,131.8597],[24.4362,62.158,122.6236],[24.4356,62.1535,115.1289],[24.4164,62.1542,105.0],[24.417,62.1586,124.1221],[24.4074,62.1589,105.0],[24.4081,62.1634,105.0],[24.3409,62.1655,131.2452],[24.3416,62.17,108.0],[24.332,62.1703,142.1485],[24.3326,62.1748,139.1053],[24.323,62.1751,145.5404],[24.3236,62.1795,119.8512],[24.314,62.1798,132.3427],[24.3147,62.1843,121.8181],[24.3051,62.1846,117.5],[24.3063,62.1936,134.9201],[24.2967,62.1939,157.3117],[24.298,62.2028,157.5867],[24.2884,62.2031,127.4698],[24.2909,62.2211,172.3574],[24.2813,62.2214,164.9538],[24.2832,62.2348,176.8317],[24.2736,62.2351,174.2653],[24.2761,62.253,193.2186],[24.228,62.2545,194.4924],[24.2274,62.25,193.5435],[24.1407,62.2526,154.4122],[24.1414,62.257,157.6781],[24.1317,62.2573,157.7801],[24.1323,62.2618,157.3504],[24.1131,62.2624,151.1331],[24.1137,62.2668,157.9742],[24.1041,62.2671,158.6374],[24.1047,62.2716,170.2251],[24.0854,62.2722,137.7296],[24.0866,62.2811,127.4407],[24.077,62.2814,130.791],[24.0794,62.2993,125.5],[24.0697,62.2996,125.5],[24.0703,62.3041,125.5],[24.0511,62.3047,130.198],[24.0505,62.3002,134.864],[24.0312,62.3007,119.555],[24.033,62.3142,142.2],[24.0233,62.3144,139.222],[24.0269,62.3414,181.8628],[24.0172,62.3416,179.6227],[24.0202,62.364,197.4694],[24.0106,62.3643,190.5674],[24.0112,62.3688,192.0981],[24.0015,62.3691,188.4514],[24.0021,62.3736,188.9736],[23.9924,62.3738,181.4126],[23.993,62.3783,176.4803],[23.9834,62.3786,175.7193],[23.984,62.3831,173.5044],[23.9549,62.3839,195.0765],[23.9555,62.3884,181.9207],[23.9265,62.3892,154.6552],[23.9277,62.3981,168.7353],[23.918,62.3984,149.8158],[23.9198,62.4119,145.8688],[23.9101,62.4121,139.6406],[23.9124,62.4301,136.0673],[23.9027,62.4303,133.1172],[23.9051,62.4483,151.7529],[23.9148,62.448,149.9446],[23.9165,62.4614,157.7415],[23.9068,62.4617,160.3414],[23.9091,62.4796,159.1909],[23.8995,62.4799,164.3523],[23.9,62.4844,150.417],[23.8709,62.4852,171.639],[23.8674,62.4583,164.5052],[23.8384,62.4591,163.0231],[23.8424,62.4905,171.6711],[23.8327,62.4907,167.819],[23.8321,62.4863,170.0952],[23.8224,62.4865,166.6732],[23.8218,62.482,166.0354],[23.8121,62.4823,170.7281],[23.8104,62.4688,154.7699],[23.8201,62.4686,163.1162],[23.8195,62.4641,160.4958],[23.8001,62.4646,149.3356],[23.7996,62.4601,143.6768],[23.7802,62.4606,157.4275],[23.7796,62.4562,154.4147],[23.7602,62.4567,162.4039],[23.7597,62.4522,161.5143],[23.75,62.4524,152.775],[23.7494,62.448,154.4217],[23.7397,62.4482,157.0437],[23.7391,62.4437,153.8654],[23.7295,62.444,160.5051],[23.7284,62.435,140.5843],[23.7187,62.4353,144.2375],[23.7181,62.4308,146.0258],[23.7084,62.431,151.9509],[23.7079,62.4266,128.1744],[23.6982,62.4268,126.8493],[23.6976,62.4223,127.4321],[23.688,62.4226,138.3067],[23.6868,62.4136,126.9991],[23.6772,62.4139,127.7571],[23.6766,62.4094,128.894],[23.5023,62.4138,147.4891],[23.5018,62.4093,147.275],[23.5115,62.4091,146.8866],[23.5089,62.3866,150.3125],[23.5185,62.3864,149.5002],[23.5164,62.3684,147.8938],[23.5068,62.3687,152.9489],[23.5073,62.3732,151.2493],[23.4976,62.3734,149.704],[23.4982,62.3779,153.1237],[23.4788,62.3784,154.7887],[23.4793,62.3829,150.6241],[23.4697,62.3831,152.2264],[23.4691,62.3786,150.6353],[23.4498,62.3791,150.8844],[23.4493,62.3746,150.4294],[23.4299,62.3751,153.6071],[23.4304,62.3796,147.7718],[23.4111,62.38,142.9796],[23.4116,62.3845,138.8755],[23.4019,62.3847,139.0522],[23.4024,62.3892,138.8824],[23.3831,62.3897,138.985],[23.3841,62.3987,146.9895],[23.3744,62.3989,147.2465],[23.3749,62.4034,146.4065],[23.3652,62.4036,146.6636],[23.3657,62.4081,139.8528],[23.3561,62.4083,147.021],[23.3571,62.4173,137.136],[23.3474,62.4175,139.5351],[23.3479,62.422,136.0465],[23.3285,62.4225,146.3448],[23.328,62.418,138.6335],[23.3086,62.4184,137.116],[23.3081,62.414,143.4683],[23.2888,62.4144,136.7504],[23.2883,62.4099,136.4775],[23.2786,62.4101,134.0467],[23.2776,62.4012,133.8641],[23.2679,62.4014,134.3772],[23.2665,62.3879,129.9829],[23.2568,62.3881,140.3282],[23.2553,62.3747,142.1668],[23.2457,62.3749,137.1147],[23.2437,62.357,135.2963],[23.2341,62.3572,129.7582],[23.2326,62.3437,138.241],[23.2229,62.344,129.7723],[23.222,62.335,133.1714],[23.2123,62.3352,140.655],[23.2119,62.3307,131.6929],[23.1925,62.3312,143.0398],[23.1921,62.3266,144.3369],[23.1728,62.3271,147.2408],[23.1723,62.3226,147.7439],[23.153,62.323,150.7472],[23.1525,62.3186,155.5441],[23.1332,62.319,152.7233],[23.1327,62.3145,174.759],[23.1134,62.3149,142.5391],[23.1129,62.3104,152.6306],[23.0936,62.3109,159.1031],[23.0932,62.306399999999996,153.6004],[23.0739,62.3068,184.7839],[23.0734,62.3023,170.6648],[23.0541,62.3027,155.7043],[23.0537,62.2982,158.2779],[23.0344,62.2986,171.406],[23.0339,62.2942,175.3932],[23.0146,62.2946,181.7283],[23.0142,62.2901,177.7035],[22.9949,62.2905,149.0491],[22.9944,62.286,151.7786],[22.9751,62.2864,147.3069],[22.9747,62.2819,150.5983],[22.9554,62.2823,155.5988],[22.955,62.2779,146.0],[22.9357,62.2783,154.1521],[22.9352,62.2738,153.3463],[22.9159,62.2742,156.083],[22.9155,62.2697,157.7219],[22.8384,62.2713,160.3306],[22.8342,62.2264,154.2593],[22.8438,62.2262,153.0],[22.84,62.1858,156.2579],[22.8496,62.1856,155.6532],[22.8492,62.1811,155.1243],[22.8588,62.1809,154.382],[22.8576,62.1674,156.0],[22.8479,62.1677,157.7898],[22.8475,62.1632,160.3197],[22.8091,62.1639,159.1032],[22.8087,62.1594,160.3788],[22.7895,62.1598,161.1101],[22.789,62.1553,154.2456],[22.7795,62.1555,154.722],[22.779,62.151,159.4593],[22.7694,62.1512,156.1502],[22.7662,62.1153,163.6835],[22.7758,62.1151,165.4917],[22.7729,62.0837,166.501],[22.7825,62.0835,162.1345],[22.7804,62.0611,162.0257],[22.7709,62.0613,164.2104],[22.7704,62.0568,152.7967],[22.7321,62.0575,147.7115],[22.7317,62.0531,150.797],[22.703,62.0536,141.5],[22.7026,62.0491,141.5],[22.6931,62.0493,155.2577],[22.6935,62.0538,144.591],[22.6743,62.0542,165.2949],[22.6739,62.0497,153.7178],[22.6548,62.05,152.5207],[22.6544,62.0456,153.5846],[22.6352,62.0459,151.2824],[22.6348,62.0414,157.8115],[22.6157,62.0418,148.9557],[22.6153,62.0373,148.6665],[22.6057,62.0375,148.6942],[22.6053,62.033,148.8407],[22.5958,62.0332,153.649],[22.5954,62.0287,149.49],[22.5858,62.0289,145.9289],[22.5851,62.0199,143.6903],[22.5755,62.0201,140.7627],[22.5751,62.0156,142.2052],[22.5656,62.0157,140.3091],[22.5648,62.0068,146.5457],[22.5553,62.0069,145.4657],[22.5549,62.0024,146.8284],[22.5453,62.0026,143.5341],[22.5449,61.9981,141.635],[22.5354,61.9983,146.5487],[22.535,61.9938,138.7212],[22.5541,61.9935,142.523],[22.5538,61.989,141.9898],[22.5633,61.9888,139.7273],[22.5629,61.9843,140.1685],[22.582,61.984,139.5466],[22.5817,61.9795,140.5551],[22.5912,61.9793,139.5082],[22.5908,61.9748,141.6838],[22.6099,61.9745,149.3749],[22.6096,61.97,149.3145],[22.6382,61.9694,147.4651],[22.6378,61.965,147.6412],[22.6569,61.9646,149.8833],[22.655,61.9422,140.5081],[22.6645,61.942,135.9329],[22.6637,61.933,135.1454],[22.6733,61.9328,141.9499],[22.6725,61.9238,131.091],[22.6915,61.9235,133.6577],[22.6912,61.919,128.3561],[22.7198,61.9184,128.6615],[22.7194,61.9139,134.9444],[22.7384,61.9136,129.7385],[22.7364,61.8911,122.9295],[22.7459,61.8909,137.6786],[22.7455,61.8865,125.8666],[22.7646,61.8861,141.6375],[22.7642,61.8816,141.9559],[22.7832,61.8812,154.9714],[22.7828,61.8767,144.6676],[22.7923,61.8765,153.3304],[22.7915,61.8676,135.9501],[22.763,61.8681,129.2461],[22.7626,61.8636,135.6181],[22.7435,61.864,124.7248],[22.7423,61.8506,121.2112],[22.7614,61.8502,132.1588],[22.7618,61.8547,130.339],[22.7713,61.8545,123.3974],[22.7709,61.85,122.2657],[22.7804,61.8498,131.1935],[22.7796,61.8408,126.8709],[22.7891,61.8406,128.3149],[22.7887,61.8361,129.0414],[22.7982,61.8359,123.8516],[22.7978,61.8315,121.2479],[22.8073,61.8313,135.9923],[22.8069,61.8268,131.2059],[22.8164,61.8266,136.2681],[22.816,61.8221,120.7429],[22.8255,61.8219,141.2657],[22.825,61.8174,118.0076],[22.8345,61.8172,120.1918],[22.8341,61.8127,118.1924],[22.8246,61.8129,138.0778],[22.8226,61.7905,134.8394],[22.8131,61.7907,121.9871],[22.8115,61.7727,129.978],[22.802,61.7729,130.3421],[22.8007,61.7595,145.0645],[22.7913,61.7597,142.8631],[22.7909,61.7552,150.6946],[22.7529,61.7559,134.1159],[22.7525,61.7514,125.6322],[22.7431,61.7516,125.7438],[22.7426,61.7471,126.7913],[22.7332,61.7473,127.4592],[22.7324,61.7383,124.1097],[22.6945,61.7391,106.9981],[22.6937,61.7301,121.4325],[22.6842,61.7303,119.3242],[22.683,61.7168,117.7665],[22.6925,61.7167,125.5129],[22.691,61.6987,107.4919],[22.6626,61.6992,122.0258],[22.6622,61.6948,114.95],[22.6527,61.6949,111.6408],[22.6496,61.659,125.2971],[22.6591,61.6589,118.2061],[22.6587,61.6544,109.5],[22.6682,61.6542,110.0],[22.6685,61.6587,113.0631],[22.6875,61.6583,130.8053],[22.689,61.6763,112.7486],[22.6985,61.6761,127.1732],[22.6981,61.6716,111.5905],[22.717,61.6712,107.2904],[22.7166,61.6667,113.4171],[22.726,61.6665,107.9643],[22.7233,61.6351,102.5434],[22.7138,61.6353,112.4993],[22.713,61.6264,111.3014],[22.6942,61.6267,121.5213],[22.6946,61.6312,118.4617],[22.6851,61.6314,115.3411],[22.6855,61.6359,119.0587],[22.6666,61.6362,116.8544],[22.6662,61.6318,115.9681],[22.6757,61.6316,115.4686],[22.6749,61.6226,114.2355],[22.6843,61.6224,123.61],[22.6836,61.6134,113.4429],[22.693,61.6133,110.4593],[22.6915,61.5953,109.5178],[22.682,61.5955,107.0053],[22.6816,61.591,110.1329],[22.6628,61.5914,119.0949],[22.6624,61.5869,114.4652],[22.653,61.5871,120.2081],[22.6526,61.5826,113.7459],[22.6431,61.5828,78.6768],[22.6416,61.5648,92.7258],[22.6322,61.565,72.407],[22.6318,61.5605,84.8939],[22.6224,61.5607,80.8433],[22.622,61.5562,74.8757],[22.6032,61.5565,77.1709],[22.6028,61.552,76.1557],[22.5934,61.5522,72.7747],[22.593,61.5477,85.9036],[22.5836,61.5479,85.8174],[22.5832,61.5434,78.3973],[22.5926,61.5433,76.691],[22.5922,61.5388,75.2027],[22.6017,61.5386,75.9453],[22.6009,61.5296,65.8837],[22.6103,61.5294,77.5774],[22.6096,61.5205,76.6269],[22.619,61.5203,74.0175],[22.6182,61.5113,74.1018],[22.6276,61.5111,83.0212],[22.6273,61.5066,81.7741],[22.6367,61.5065,78.2683],[22.6359,61.4975,79.0239],[22.6453,61.4973,65.7631],[22.6446,61.4883,74.8015],[22.6539,61.4881,63.24],[22.653199999999998,61.4792,61.7848],[22.7284,61.4777,116.2713],[22.7268,61.4598,104.9022],[22.7174,61.4599,99.7313],[22.7166,61.451,92.8078],[22.726,61.4508,104.9598],[22.7249,61.4373,94.205],[22.7342,61.4371,102.0621],[22.7338,61.4326,89.8122],[22.7151,61.433,95.9549],[22.7147,61.4285,91.8346],[22.6771,61.4292,91.5453],[22.6768,61.4248,80.4383],[22.6674,61.4249,74.4124],[22.667,61.4205,80.6635],[22.6764,61.4203,92.2535],[22.6752,61.4068,90.4683],[22.6565,61.4072,90.9779],[22.6561,61.4027,77.361],[22.6374,61.403,94.0582],[22.6358,61.3851,83.1687],[22.6265,61.3853,93.0489],[22.6268,61.3898,93.6545],[22.5987,61.3903,117.092],[22.5991,61.3948,104.6754],[22.5616,61.3955,67.3247],[22.5609,61.3865,97.9195],[22.5702,61.3863,102.205],[22.5691,61.3729,95.8913],[22.5785,61.3727,84.9995],[22.5774,61.3592,103.626],[22.5868,61.3591,104.8329],[22.5856,61.3456,92.5056],[22.595,61.3454,103.8802],[22.5946,61.3409,113.5063],[22.5853,61.3411,97.0622],[22.5849,61.3366,99.5915],[22.5756,61.3368,85.1883],[22.5752,61.3323,94.2684],[22.5658,61.3325,98.8751],[22.5655,61.328,96.2895],[22.5748,61.3278,83.7389],[22.5741,61.3189,85.5067],[22.5834,61.3187,93.8589],[22.5831,61.3142,92.9125],[22.5924,61.314,96.841],[22.592,61.3095,91.6012],[22.6014,61.3093,87.9277],[22.601,61.3049,92.612],[22.6104,61.3047,91.5524],[22.6096,61.2957,82.2686],[22.619,61.2955,89.7625],[22.6182,61.2865,58.5331],[22.6276,61.2864,88.1928],[22.6268,61.2774,49.9441],[22.6362,61.2772,50.0504],[22.635,61.2638,61.1916],[22.6444,61.2636,49.0935],[22.6432,61.2501,45.9592],[22.6526,61.2499,44.7363],[22.6522,61.2454,41.0],[22.6708,61.2451,45.3432],[22.7548,61.2434,69.2749],[22.7552,61.2479,95.4674],[22.7738,61.2475,85.9882],[22.7735,61.243,89.8677],[22.8014,61.2425,88.9795],[22.801,61.238,81.1903],[22.8197,61.2376,86.4671],[22.8193,61.2331,77.0237],[22.8752,61.2319,83.5367],[22.8748,61.2275,76.4617],[22.8841,61.2273,77.1725],[22.8833,61.2183,71.6077],[22.902,61.2179,78.6885],[22.9016,61.2134,74.2264],[22.9202,61.213,75.4607],[22.9198,61.2085,72.9878],[22.9384,61.2081,74.5077],[22.9376,61.1992,84.6798],[22.9469,61.199,75.7382],[22.9456,61.1855,79.5061],[22.9549,61.1853,77.8503],[22.9541,61.1763,101.7412],[22.9169,61.1771,85.5648],[22.9156,61.1637,103.2707],[22.9249,61.1635,103.2093],[22.9228,61.141,73.7371],[22.9322,61.1408,67.2577],[22.9317,61.1363,79.7042],[22.941,61.1361,66.2314],[22.9398,61.1227,112.7487],[22.9584,61.1223,113.4615],[22.9579,61.1178,105.0202],[22.9765,61.1174,101.1859],[22.9761,61.1129,99.3238],[22.9668,61.1131,105.4869],[22.9664,61.1086,103.959],[22.9571,61.1088,107.9595],[22.9567,61.1043,110.0725],[22.9474,61.1045,106.3227],[22.947,61.1,114.1196],[22.9377,61.1003,101.0782],[22.9373,61.0958,104.1898],[22.928,61.096,105.7363],[22.9276,61.0915,88.1277],[22.9183,61.0917,89.2775],[22.9175,61.0827,87.5731],[22.9268,61.0825,86.0299],[22.9263,61.078,87.4442],[22.9356,61.0778,85.2937],[22.9352,61.0733,93.2187],[22.9445,61.0731,84.4547],[22.9449,61.0776,83.7458],[22.9634,61.0772,89.0442],[22.9639,61.0817,103.7632],[22.9824,61.0813,95.6374],[22.9828,61.0858,99.4326],[23.0014,61.0854,90.9498],[23.0006,61.0764,97.8323],[23.0098,61.0762,91.9748],[23.0094,61.0717,97.4757],[22.9909,61.0721,87.7018],[22.9904,61.0676,98.5084],[22.9812,61.0678,91.8768],[22.9807,61.0633,82.2918],[22.9715,61.0635,84.01],[22.9711,61.0591,83.1759],[22.9618,61.0593,78.8731],[22.9609,61.0503,88.3268],[22.9702,61.0501,97.0598],[22.9694,61.0411,77.765],[22.9786,61.0409,76.3398],[22.9782,61.0364,83.5179],[22.9875,61.0362,79.6722],[22.9871,61.0317,83.6274],[23.0056,61.0313,83.1454],[23.0052,61.0268,83.3913],[23.0144,61.0266,84.9516],[23.014,61.0222,87.1291],[23.0233,61.0219,89.7535],[23.0237,61.0264,95.9729],[23.0422,61.026,92.4265],[23.0426,61.0305,117.4905],[23.0704,61.0299,114.0993],[23.0709,61.0344,116.9602],[23.1542,61.0325,96.5818],[23.1534,61.0235,116.059],[23.1626,61.0233,107.9378],[23.1613,61.0098,99.6923],[23.1705,61.0096,102.643],[23.1701,61.0051,102.6727],[23.1886,61.0047,104.0429],[23.1882,61.0002,103.9486],[23.1974,61.0,123.6446],[23.1978,61.0045,119.8245],[23.2164,61.004,118.2929],[23.2168,61.0085,120.226],[23.2631,61.0074,91.9551],[23.2645,61.0209,90.9933],[23.283,61.0204,106.79],[23.2825,61.0159,114.5251],[23.3196,61.015,108.1681],[23.3191,61.0106,116.1884],[23.3561,61.0096,148.1293],[23.3566,61.0141,130.7493],[23.3659,61.0139,132.1284],[23.3654,61.0094,136.134],[23.3746,61.0092,139.5483],[23.3741,61.0047,129.7181],[23.3834,61.0045,129.8029],[23.3825,60.9955,131.9784],[23.3917,60.9953,129.8768],[23.3903,60.9818,138.0875],[23.3995,60.9816,151.1542],[23.399,60.9771,137.3137],[23.4083,60.9769,137.266],[23.4073,60.9679,103.8665],[23.4628,60.9665,105.4479],[23.4623,60.962,122.8198],[23.4715,60.9618,105.5414],[23.4725,60.9708,125.4248],[23.4633,60.971,115.2011],[23.4642,60.9799,131.9162],[23.455,60.9802,115.7132],[23.4555,60.9847,117.7932],[23.474,60.9842,152.1607],[23.4745,60.9887,108.0],[23.493,60.9882,139.1305],[23.4935,60.9927,112.5658],[23.512,60.9922,134.5297],[23.5124,60.9967,116.8207],[23.5217,60.9965,142.7681],[23.5212,60.992,142.3136],[23.5305,60.9917,142.8102],[23.53,60.9873,136.9334],[23.5392,60.987,130.0239],[23.5402,60.996,139.87],[23.568,60.9953,140.8959],[23.5772,60.995,146.0793],[23.5762,60.986,128.6314],[23.6039,60.9853,157.8712],[23.605,60.9943,131.9865],[23.6142,60.994,131.4184],[23.6152,61.003,128.8121],[23.6892,61.001,117.6257],[23.6898,61.0055,109.5905],[23.736,61.0042,106.5],[23.7344,60.9908,133.6332],[23.7437,60.9905,146.9499],[23.7442,60.995,109.1299],[23.7627,60.9945,109.6825],[23.7632,60.999,116.9269],[23.7725,60.9987,112.1256],[23.772,60.9943,111.8183],[23.7904,60.9937,113.3257],[23.7899,60.9893,143.5885],[23.7992,60.989,135.8183],[23.7986,60.9845,149.2463],[23.8079,60.9842,140.2184],[23.8068,60.9753,154.5688],[23.816,60.975,137.329],[23.815,60.9661,133.0959],[23.8242,60.9658,131.5813],[23.8231,60.9568,135.0892],[23.8324,60.9566,143.966],[23.8313,60.9476,145.9277],[23.8405,60.9473,142.0795],[23.84,60.9429,136.562],[23.8492,60.9426,137.3409],[23.8498,60.9471,139.7019],[23.859,60.9468,140.0482],[23.8595,60.9513,127.0],[23.8688,60.951,140.1075],[23.8693,60.9555,139.5208],[23.8601,60.9558,142.2939],[23.8622,60.9737,155.2042],[23.853,60.974,143.0858],[23.8541,60.983,156.9672],[23.8448,60.9832,136.1713],[23.8454,60.9877,143.4166],[23.8361,60.9879,144.8824],[23.8367,60.9924,120.834],[23.8274,60.9927,113.9001],[23.828,60.9972,129.9955],[23.8187,60.9974,128.7098],[23.8193,61.0019,116.1304],[23.8285,61.0017,109.0],[23.8291,61.0061,109.0],[23.8476,61.0056,128.3182],[23.8481,61.0101,114.4573],[23.8574,61.0098,115.716],[23.8579,61.0143,112.8611],[23.8672,61.0141,116.8169],[23.8677,61.0186,123.6085],[23.877,61.0183,109.2437],[23.878,61.0272,127.2853],[23.8688,61.0275,109.1002],[23.8699,61.0365,108.0],[23.8514,61.037,150.8175],[23.8508,61.0325,132.619],[23.8323,61.0331,157.7409],[23.8318,61.0285,150.4748],[23.8133,61.0291,142.9034],[23.8127,61.0246,130.4732],[23.7942,61.0251,135.0045],[23.7958,61.0386,162.517],[23.8051,61.0383,160.8309],[23.8067,61.0518,130.5674],[23.7789,61.0525,124.5],[23.7794,61.057,136.7349]]],
[[[24.9659,61.4512,160.9914],[24.9676,61.4557,160.9468],[24.9582,61.456,150.7855],[24.9575,61.4515,141.2637],[24.9659,61.4512,160.9914]]]]}}