{"type":"Feature","properties":{"GID_3":"FIN.3.2.7_1","GID_0":"FIN","country":"Finland","GID_1":"FIN.3_1","province":"Oulu","NL_NAME_1":"NA","GID_2":"FIN.3.2_1","county":"NorthernOstrobothnia","NL_NAME_2":"NA","city":"Ylivieska","VARNAME_3":"NA","NL_NAME_3":"NA","TYPE_3":"Seutukunta|Ekonomiskregion","ENGTYPE_3":"Sub-Region","CC_3":"NA","HASC_3":"FI.OU.YV","name":"Ylivieska.city"},
"geometry":{"type": "MultiPolygon","coordinates": [[[[24.9641,63.7847,144.8051],[24.9689,63.8116,133.5271],[24.9587,63.8119,128.6902],[24.9603,63.8209,129.4702],[24.94,63.8216,126.89],[24.9408,63.826,124.1249],[24.9306,63.8264,126.3562],[24.933,63.8398,116.3494],[24.9228,63.8402,121.9721],[24.9244,63.8491,116.3332],[24.9142,63.8495,122.8802],[24.915,63.854,114.5075],[24.8947,63.8546,116.6745],[24.8954,63.8591,113.8407],[24.8853,63.8594,113.9017],[24.8861,63.8639,114.145],[24.8352,63.8656,110.6396],[24.8345,63.8611,112.6175],[24.8243,63.8614,112.0977],[24.8251,63.8659,111.5046],[24.8149,63.8662,112.4097],[24.8157,63.8707,112.1825],[24.8258,63.8704,110.7561],[24.8281,63.8838,113.9286],[24.8078,63.8845,118.0414],[24.8086,63.889,118.3395],[24.7984,63.8893,118.534],[24.7992,63.8938,109.7489],[24.7788,63.8944,120.5481],[24.7796,63.8989,118.8358],[24.7694,63.8993,116.5431],[24.7701,63.9037,114.7257],[24.76,63.9041,106.8729],[24.7607,63.9086,99.8924],[24.7505,63.9089,108.3268],[24.752,63.9178,96.3412],[24.7418,63.9182,91.4663],[24.7426,63.9226,88.7831],[24.6815,63.9246,86.6002],[24.6822,63.9291,85.2806],[24.6618,63.9297,84.937],[24.6626,63.9342,86.2205],[24.6728,63.9339,85.1969],[24.6743,63.9428,93.3135],[24.6437,63.9438,95.2043],[24.6452,63.9527,106.6299],[24.635,63.9531,108.451],[24.6372,63.9665,112.8422],[24.6474,63.9662,105.6068],[24.6466,63.9617,108.3656],[24.7078,63.9598,80.4927],[24.7071,63.9553,78.2371],[24.7275,63.9547,71.3879],[24.7305,63.9726,71.9902],[24.7407,63.9723,77.0698],[24.7422,63.9812,70.4912],[24.7524,63.9809,70.3173],[24.7532,63.9854,70.7267],[24.7634,63.9851,67.3969],[24.7641,63.9895,68.204],[24.7948,63.9885,68.2371],[24.794,63.9841,69.2995],[24.8144,63.9834,70.4353],[24.8137,63.9789,71.5135],[24.8443,63.9779,75.4729],[24.8451,63.9824,76.2784],[24.8552,63.9821,88.2867],[24.856,63.9866,83.8655],[24.8764,63.9859,97.963],[24.8772,63.9904,97.3847],[24.8874,63.99,106.0904],[24.8867,63.9856,100.3163],[24.8969,63.9852,102.2403],[24.9173,63.9846,97.4223],[24.918,63.989,98.155],[24.9283,63.9887,102.9294],[24.9298,63.9977,100.7594],[24.94,63.9973,105.8041],[24.9416,64.0063,104.8998],[24.9518,64.0059,108.3135],[24.9542,64.0194,111.1064],[24.9644,64.019,110.8568],[24.966,64.028,114.4083],[24.9762,64.0277,118.0278],[24.9778,64.0366,109.345],[24.988,64.0363,110.9979],[24.9896,64.0452,110.402],[24.9998,64.0449,108.9307],[25.0014,64.0538,109.1946],[25.0117,64.0535,119.6246],[25.0133,64.0625,116.0742],[25.0235,64.0621,116.5561],[25.0251,64.0711,119.8007],[25.0047,64.0718,116.0345],[25.0054,64.0762,119.1623],[24.9952,64.0766,116.5615],[24.996,64.0811,116.2518],[24.9755,64.0818,112.3803],[24.9763,64.0862,108.4148],[24.9661,64.0866,103.5095],[24.9669,64.0911,116.0821],[24.9566,64.0914,105.9051],[24.9574,64.0959,107.0965],[24.9369,64.0966,102.808],[24.9377,64.101,100.551],[24.9275,64.1014,100.4701],[24.9283,64.1059,102.5629],[24.9077,64.1065,96.5142],[24.9085,64.111,99.5885],[24.9188,64.1107,104.1253],[24.9219,64.1286,94.0441],[24.9117,64.1289,91.9024],[24.9125,64.1334,88.6465],[24.9022,64.1338,91.7351],[24.903,64.1382,90.0856],[24.8927,64.1386,88.2058],[24.892,64.1341,92.0391],[24.8714,64.1348,87.6456],[24.8746,64.1527,84.5173],[24.9362,64.1507,101.3073],[24.9354,64.1462,98.2833],[24.9456,64.1458,104.233],[24.9448,64.1414,101.3671],[24.9551,64.141,105.4542],[24.9543,64.1365,111.754],[24.9646,64.1362,106.9645],[24.9654,64.1407,110.5283],[24.9756,64.1403,107.7695],[24.9764,64.1448,107.8733],[24.9867,64.1445,108.2083],[24.9875,64.149,115.528],[24.9977,64.1486,105.8708],[24.9985,64.1531,110.4813],[25.0088,64.1527,109.3387],[25.0096,64.1572,106.0867],[25.0199,64.1569,108.4185],[25.0207,64.1614,101.7296],[25.031,64.161,103.3823],[25.0318,64.1655,109.4596],[25.042,64.1652,102.1997],[25.0428,64.1696,92.1724],[25.0531,64.1693,96.8117],[25.0548,64.1783,99.9863],[25.065,64.1779,93.182],[25.0675,64.1914,90.5049],[25.0777,64.191,94.5212],[25.0802,64.2044,91.273],[25.0905,64.2041,92.2601],[25.0913,64.2086,95.3381],[25.1016,64.2082,98.799],[25.1024,64.2127,94.8844],[25.1127,64.2123,96.9299],[25.1135,64.2168,96.7041],[25.1238,64.2165,100.7672],[25.1246,64.221,94.2105],[25.1349,64.2206,101.7622],[25.1357,64.2251,103.0299],[25.146,64.2247,104.9426],[25.1469,64.2292,110.827],[25.1572,64.2289,103.3972],[25.158,64.2333,107.184],[25.1683,64.233,109.8075],[25.1766,64.2778,113.9907],[25.1869,64.2774,119.8192],[25.1886,64.2864,115.2879],[25.1989,64.286,115.2689],[25.1998,64.2905,115.5312],[25.2101,64.2901,119.7564],[25.2092,64.2857,124.1059],[25.2195,64.2853,135.0308],[25.2187,64.2808,122.9045],[25.229,64.2805,137.3375],[25.2282,64.276,128.5225],[25.2591,64.2749,135.8304],[25.2625,64.2928,123.3865],[25.2522,64.2932,130.9595],[25.253,64.2977,122.1707],[25.1911,64.2998,116.5716],[25.1928,64.3088,115.3832],[25.2031,64.3084,114.1026],[25.2056,64.3219,119.557],[25.1437,64.324,105.5513],[25.1445,64.3285,107.1398],[25.1238,64.3292,104.7837],[25.1247,64.3336,96.1246],[25.1143,64.334,109.5335],[25.1152,64.3385,103.6306],[25.0428,64.3409,94.595],[25.0436,64.3454,94.707],[24.9713,64.3478,100.4247],[24.9721,64.3523,91.1031],[24.9617,64.3526,102.5315],[24.9625,64.3571,97.1097],[24.9522,64.3574,102.9132],[24.953,64.3619,96.3674],[24.9426,64.3623,104.2307],[24.9434,64.3667,97.1023],[24.9227,64.3674,109.2631],[24.9235,64.3719,111.7228],[24.9132,64.3722,113.0329],[24.914,64.3767,106.7898],[24.9036,64.3771,107.6398],[24.9044,64.3815,108.8252],[24.8941,64.3819,108.5165],[24.8949,64.3864,110.078],[24.8742,64.387,117.769],[24.8734,64.3825,120.1567],[24.832,64.3839,108.0004],[24.8335,64.3928,105.9988],[24.8232,64.3932,106.4021],[24.8224,64.3887,112.3369],[24.812,64.389,103.763],[24.8112,64.3845,105.5989],[24.8009,64.3849,102.4956],[24.7993,64.3759,103.3599],[24.7786,64.3766,109.6118],[24.7779,64.3721,107.0988],[24.7365,64.3734,98.1163],[24.7349,64.3644,94.3961],[24.7246,64.3648,96.8139],[24.7238,64.3603,97.4387],[24.7031,64.3609,103.1214],[24.7023,64.3564,94.3437],[24.6817,64.3571,90.67],[24.6832,64.3661,84.6161],[24.6935,64.3657,90.3236],[24.695,64.3747,93.5491],[24.6847,64.375,94.462],[24.6839,64.3705,89.8808],[24.6632,64.3712,92.7654],[24.664,64.3756,90.265],[24.6226,64.3769,89.5156],[24.6233,64.3814,86.9515],[24.613,64.3817,88.6689],[24.6122,64.3772,85.5072],[24.5812,64.3782,75.3289],[24.5797,64.3692,66.7398],[24.59,64.3689,73.8386],[24.5885,64.3599,62.7293],[24.5782,64.3603,59.405],[24.5789,64.3647,73.6947],[24.5686,64.365,72.1846],[24.5693,64.3695,59.7127],[24.559,64.3698,60.5646],[24.5597,64.3743,70.7075],[24.5494,64.3746,64.9627],[24.5486,64.3702,63.2895],[24.5279,64.3708,59.1727],[24.525,64.3528,48.6136],[24.5353,64.3525,54.345],[24.5346,64.3481,49.0895],[24.4932,64.3493,55.4374],[24.4925,64.3448,56.6538],[24.4511,64.346,49.7403],[24.454,64.364,47.078],[24.4747,64.3634,40.6853],[24.474,64.3589,52.9143],[24.4843,64.3586,46.6372],[24.4887,64.3855,54.6354],[24.468,64.3861,40.5219],[24.4672,64.3816,42.5686],[24.4569,64.3819,40.7613],[24.4562,64.3774,43.2988],[24.4458,64.3777,40.9235],[24.4451,64.3733,47.8173],[24.4347,64.3735,44.0623],[24.434,64.3691,53.5191],[24.4133,64.3697,42.5637],[24.4126,64.3652,45.3667],[24.3816,64.3661,33.1638],[24.3808,64.3616,27.9783],[24.3912,64.3613,30.7452],[24.3905,64.3568,47.6599],[24.4008,64.3565,37.7513],[24.4001,64.352,48.0399],[24.3898,64.3523,40.3556],[24.3876,64.3389,61.1775],[24.3566,64.3398,36.6126],[24.3524,64.3129,42.0579],[24.3317,64.3135,34.5092],[24.3345,64.3314,36.0361],[24.3242,64.3317,38.3427],[24.3235,64.3272,38.2928],[24.3131,64.3275,42.9146],[24.3125,64.323,35.9894],[24.3021,64.3233,37.7535],[24.3014,64.3189,45.1048],[24.2911,64.3192,36.129],[24.2904,64.3147,30.9068],[24.2801,64.315,42.206],[24.2794,64.3105,35.4305],[24.269,64.3108,47.2152],[24.2697,64.3152,42.6163],[24.2594,64.3155,41.2591],[24.2601,64.32,38.2126],[24.2497,64.3203,40.5785],[24.2504,64.3248,37.8412],[24.2298,64.3254,35.2391],[24.2304,64.3299,35.2461],[24.1787,64.3313,25.1258],[24.1794,64.3358,23.7552],[24.1484,64.3367,32.8683],[24.149,64.3411,24.6274],[24.118,64.342,29.0172],[24.1187,64.3465,30.9406],[24.098,64.3471,32.7784],[24.0986,64.3515,30.1192],[24.0676,64.3524,29.4515],[24.0683,64.3569,31.3482],[24.0476,64.3574,24.5301],[24.0482,64.3619,25.224],[24.0275,64.3625,15.9162],[24.0281,64.3669,13.3067],[23.9971,64.3678,10.1998],[23.9977,64.3723,7.8894],[23.9912,64.3724,3.2449],[23.9961,64.3772,1.1768],[23.9917,64.3771,0.0],[23.9839,64.3682,0.0],[23.9891,64.363,0.8025],[23.9839,64.362,2.9561],[23.9849,64.3588,0.116],[23.9786,64.3526,0.0046],[23.9693,64.3516,0.0],[23.9661,64.3484,0.5107],[23.9547,64.3453,0.8141],[23.9516,64.3422,1.7066],[23.9438,64.3396,0.346],[23.9297,64.3391,0.0],[23.9224,64.3318,3.1377],[23.9172,64.3307,0.0],[23.913,64.3266,0.0],[23.9182,64.3214,5.2703],[23.9151,64.3161,1.0116],[23.9161,64.313,1.3109],[23.913,64.3099,0.2131],[23.9161,64.3078,0.0],[23.9151,64.3047,0.0],[23.9161,64.3026,0.0],[23.9146,64.3,0.0],[23.9161,64.2963,0.0],[23.913,64.2922,0.0],[23.9161,64.2901,0.9598],[23.9109,64.2839,0.0],[23.9141,64.2828,2.654],[23.9182,64.2776,4.7611],[23.9125,64.2771,0.0],[23.9068,64.2797,6.2104],[23.9078,64.2828,0.9578],[23.9,64.2875,0.0],[23.8917,64.2875,0.0],[23.8875,64.2854,1.5304],[23.8667,64.2854,0.3824],[23.8625,64.2875,0.0],[23.8542,64.2875,0.5513],[23.85,64.2896,0.1164],[23.8464,64.287,0.0],[23.8474,64.2839,0.0],[23.8432,64.2797,0.0],[23.838,64.2786,0.301],[23.8349,64.2734,0.1272],[23.825,64.2729,2.7112],[23.8214,64.2703,0.0],[23.8245,64.2672,2.5395],[23.8172,64.2589,0.0],[23.8292,64.2604,0.0],[23.8307,64.2599,0.2064],[23.8297,64.2568,0.0],[23.8328,64.2547,0.6303],[23.8193,64.2516,0.0],[23.8203,64.2464,0.0],[23.8141,64.2401,0.0],[23.8063,64.2375,0.0],[23.7984,64.237,0.0],[23.7938,64.2333,3.9307],[23.7854,64.2333,0.0],[23.7828,64.2297,5.8687],[23.7755,64.2286,0.0],[23.7745,64.2255,3.9733],[23.7646,64.225,0.0],[23.7542,64.2208,7.512],[23.7396,64.2208,5.3692],[23.7354,64.2229,1.7782],[23.7125,64.2229,0.0],[23.7083,64.225,0.0],[23.6922,64.2203,7.0833],[23.6891,64.2172,0.0],[23.6839,64.2161,3.4314],[23.688,64.213,2.8516],[23.6974,64.2099,1.3474],[23.6943,64.2047,0.0],[23.7099,64.2016,0.4369],[23.7151,64.1964,3.6712],[23.7182,64.1953,0.0037],[23.7151,64.1901,0.0],[23.7182,64.1891,0.0],[23.7203,64.1859,1.6919],[23.7161,64.1818,-0.0141],[23.7083,64.1792,0.8042],[23.7005,64.1787,2.3857],[23.6917,64.173,0.0],[23.7008,64.1728,8.7169],[23.7002,64.1683,8.4471],[23.7208,64.1678,14.9813],[23.7202,64.1633,17.0868],[23.7305,64.163,12.992],[23.7298,64.1585,23.8176],[23.7504,64.158,19.3935],[23.7498,64.1535,12.119],[23.7704,64.153,19.5968],[23.7698,64.1485,21.4073],[23.78,64.1483,21.8678],[23.7794,64.1438,16.9518],[23.8,64.1433,20.5247],[23.7994,64.1388,20.2851],[23.8199,64.1383,25.8573],[23.8193,64.1338,24.927],[23.8296,64.1335,30.0288],[23.829,64.129,26.9696],[23.8495,64.1285,36.442],[23.8489,64.124,36.2125],[23.8694,64.1235,37.7387],[23.8688,64.119,32.2493],[23.8893,64.1185,43.4023],[23.8887,64.114,44.7073],[23.899,64.1137,40.1855],[23.8984,64.1092,45.6367],[23.9189,64.1087,41.5289],[23.9182,64.1042,39.3943],[23.9388,64.1037,43.4508],[23.9381,64.0992,45.0534],[23.9587,64.0986,46.7487],[23.958,64.0941,50.1928],[24.0093,64.0928,49.5682],[24.0087,64.0883,52.1233],[24.0292,64.0878,50.8696],[24.0285,64.0833,52.328],[24.049,64.0827,52.4969],[24.0484,64.0782,60.032],[24.0689,64.0777,55.6494],[24.0682,64.0732,73.8673],[24.0887,64.0726,59.9677],[24.0868,64.0592,68.6046],[24.097,64.0589,69.4439],[24.0924,64.0275,69.4263],[24.1027,64.0272,85.1651],[24.0994,64.0048,70.1507],[24.1096,64.0045,71.6733],[24.1083,63.9955,86.6158],[24.1185,63.9953,75.9886],[24.1172,63.9863,85.5736],[24.1274,63.986,83.1987],[24.1268,63.9815,83.1331],[24.137,63.9812,88.9241],[24.1357,63.9723,83.6314],[24.1459,63.972,83.376],[24.1446,63.963,91.8496],[24.1548,63.9627,84.8167],[24.1541,63.9583,88.8314],[24.1643,63.958,87.7127],[24.163,63.949,85.6368],[24.1732,63.9487,87.7453],[24.1719,63.9398,102.5342],[24.182,63.9395,101.9057],[24.1814,63.935,94.1447],[24.2222,63.9338,91.37],[24.2201,63.9204,81.3798],[24.2303,63.9201,78.4171],[24.2283,63.9066,91.5665],[24.2385,63.9063,86.5152],[24.2365,63.8929,95.5307],[24.2467,63.8926,90.2067],[24.244,63.8747,98.5727],[24.2643,63.8741,99.1547],[24.2637,63.8696,104.0076],[24.2738,63.8693,106.9372],[24.2731,63.8648,104.4366],[24.2833,63.8645,99.9655],[24.2826,63.86,109.4012],[24.3233,63.8589,109.3689],[24.3226,63.8544,115.0874],[24.3531,63.8535,116.7914],[24.3524,63.849,115.9585],[24.3931,63.8478,117.6634],[24.3924,63.8433,116.6942],[24.4229,63.8424,113.5526],[24.4222,63.8379,111.3867],[24.4323,63.8376,111.7541],[24.4316,63.8331,111.0589],[24.4418,63.8328,118.3028],[24.4404,63.8239,118.6673],[24.4505,63.8236,118.7733],[24.4484,63.8101,125.6374],[24.4586,63.8098,128.2093],[24.4572,63.8009,130.3477],[24.4673,63.8005,138.6503],[24.4659,63.7916,129.5125],[24.476,63.7913,133.3532],[24.4746,63.7823,119.0284],[24.4848,63.782,137.3614],[24.4833,63.773,117.673],[24.4935,63.7727,127.365],[24.4921,63.7638,124.9343],[24.5022,63.7635,122.276],[24.5001,63.75,126.5983],[24.5102,63.7497,134.2339],[24.5088,63.7407,126.7296],[24.5189,63.7404,126.6193],[24.5175,63.7315,129.9216],[24.5276,63.7312,129.9073],[24.5262,63.7222,127.073],[24.5363,63.7219,127.6815],[24.5349,63.7129,127.5408],[24.545,63.7126,127.4559],[24.5435,63.7037,128.5312],[24.5537,63.7033,127.1461],[24.5522,63.6944,128.2521],[24.5623,63.6941,129.0925],[24.5616,63.6896,131.9363],[24.5717,63.6893,129.497],[24.5703,63.6803,129.2969],[24.5804,63.68,129.3611],[24.5797,63.6755,129.4704],[24.5898,63.6752,137.9465],[24.589,63.6707,129.9659],[24.5991,63.6704,132.1568],[24.5977,63.6614,131.6077],[24.6078,63.6611,132.1586],[24.6071,63.6567,132.8851],[24.6172,63.6563,136.2712],[24.6164,63.6518,135.5564],[24.6366,63.6512,140.8704],[24.6373,63.6557,145.8575],[24.6474,63.6554,143.593],[24.6489,63.6643,142.145],[24.659,63.664,143.5049],[24.6605,63.673,131.9736],[24.6705,63.6726,135.0869],[24.6713,63.6771,134.7247],[24.6814,63.6768,135.6253],[24.6821,63.6813,127.3285],[24.6922,63.681,130.1864],[24.6937,63.6899,133.7902],[24.7038,63.6896,129.8979],[24.7045,63.6941,129.9],[24.7146,63.6938,134.8585],[24.7154,63.6982,131.7204],[24.7255,63.6979,128.7233],[24.727,63.7069,129.8003],[24.7371,63.7066,128.2461],[24.7378,63.7111,125.6646],[24.7479,63.7107,139.3153],[24.7472,63.7062,125.4125],[24.7775,63.7053,139.4847],[24.7768,63.7008,142.0701],[24.797,63.7001,142.7745],[24.7962,63.6957,140.5468],[24.8265,63.6947,144.9636],[24.8258,63.6902,147.0578],[24.846,63.6895,148.1134],[24.8452,63.685,148.9491],[24.8654,63.6844,146.6235],[24.8647,63.6799,139.9404],[24.8949,63.6789,144.3026],[24.8942,63.6744,144.7418],[24.9346,63.6731,138.0166],[24.9431,63.7223,147.1212],[24.9532,63.722,146.1195],[24.9641,63.7847,144.8051]]],
[[[23.6568,64.1713,2.6907],[23.6604,64.1687,0.0],[23.6682,64.1693,1.2449],[23.662,64.1745,4.6438],[23.6526,64.1745,5.8141],[23.6568,64.1713,2.6907]]],
[[[23.6826,64.1753,0.0],[23.6807,64.1787,6.6477],[23.675,64.1813,0.0],[23.6693,64.1807,6.5763],[23.6672,64.1787,8.864],[23.6813,64.1708,1.7986],[23.6849,64.1713,2.5157],[23.6818,64.1734,6.5788],[23.6826,64.1753,0.0]]],
[[[23.5687,64.1917,0.0],[23.5724,64.1932,4.0791],[23.5687,64.1958,0.0],[23.5568,64.1953,2.551],[23.5583,64.1937,0.0],[23.5687,64.1917,0.0]]],
[[[23.6474,64.2078,6.7948],[23.6443,64.213,12.4483],[23.6453,64.2161,9.0321],[23.6359,64.2161,0.0],[23.6339,64.213,0.0],[23.6411,64.212,11.4199],[23.6401,64.2089,11.638],[23.6432,64.2068,1.4471],[23.6411,64.2047,0.0],[23.6276,64.1995,0.0],[23.6286,64.1964,7.8067],[23.6229,64.1979,0.0],[23.613,64.1953,9.0623],[23.6104,64.1917,1.4888],[23.6005,64.1911,12.9049],[23.5964,64.186,1.6069],[23.6021,64.1833,0.0],[23.6146,64.1813,0.0],[23.6188,64.1833,0.0],[23.6313,64.1833,0.0],[23.6375,64.1875,0.0],[23.6479,64.1875,1.8456],[23.6542,64.1896,0.4942],[23.6651,64.1818,14.2746],[23.6682,64.1818,13.244],[23.6672,64.1849,8.0448],[23.6682,64.187,0.0],[23.6609,64.188,10.4066],[23.662,64.1911,3.4412],[23.6589,64.1922,11.7727],[23.6599,64.1953,2.8791],[23.6505,64.2026,0.7012],[23.6474,64.2078,6.7948]]],
[[[23.6875,64.1813,0.0],[23.6891,64.1828,0.2354],[23.6859,64.1839,1.3394],[23.687,64.187,0.0],[23.6734,64.187,11.8304],[23.6776,64.1839,3.395],[23.6875,64.1813,0.0]]],
[[[23.6104,64.2125,1.9296],[23.6089,64.2109,5.8608],[23.612,64.2109,0.0],[23.612,64.212,0.0751],[23.6104,64.2125,1.9296]]],
[[[23.6708,64.2271,5.8643],[23.6693,64.2266,0.7767],[23.6693,64.2255,0.9035],[23.6724,64.2255,0.0],[23.6708,64.2271,5.8643]]],
[[[23.6432,64.2359,1.313],[23.6422,64.2338,0.0],[23.6437,64.2333,0.0],[23.6516,64.2338,0.0],[23.6458,64.2375,3.0213],[23.6432,64.2359,1.313]]],
[[[23.5125,64.3167,1.883],[23.5109,64.3161,3.5328],[23.5109,64.3151,3.7721],[23.5141,64.3151,3.6297],[23.5125,64.3167,1.883]]]]}}