{"type": "Feature","id": "3189","bbox": [26.24484,61.15154,29.69383,62.65333],"geometry": {"type": "Polygon","coordinates": [[[29.14337,62.38503,120.1602],[29.11164,62.3919,124.9842],[29.10192,62.39673,111.203],[29.10244,62.39909,113.7971],[29.10782,62.41433,110.5],[29.10451,62.41676,110.5],[29.09324,62.418,110.5],[29.087039999999998,62.41991,110.5],[29.08404,62.42125,110.5],[29.08456,62.43366,122.7464],[29.08839,62.44417,117.3334],[29.09686,62.46203,111.5],[29.1074,62.4767,111.5],[29.11371,62.48298,111.5],[29.10709,62.49112,111.5],[29.0241,62.50944,112.1224],[29.01449,62.51443,112.175],[29.03981,62.52399,132.412],[29.03102,62.52972,99.5],[28.98886,62.5445,99.5],[28.96364,62.5582,99.5],[28.95558,62.56613,99.5],[28.93222,62.57964,99.5],[28.91413,62.58466,99.5],[28.82742,62.62483,99.5],[28.80985,62.6308,99.5],[28.65823,62.65333,99.5],[28.64883,62.63933,99.5],[28.63518,62.62491,115.3586],[28.61978,62.61303,152.1249],[28.61276,62.60925,116.7755],[28.60883,62.60646,120.0138],[28.63064,62.60543,111.0],[28.61596,62.59639,133.1985],[28.59643,62.59093,111.7163],[28.49504,62.58706,76.0],[28.47891,62.58101,76.0],[28.53545,62.57122,76.0],[28.53452,62.55882,107.7886],[28.52036,62.55551,112.6586],[28.51106,62.56068,100.1587],[28.43158,62.56838,107.0646],[28.41266,62.57685,97.4347],[28.40812,62.57117,86.8246],[28.41091,62.56817,85.6376],[28.41349,62.56727,87.3611],[28.41494,62.56577,90.5123],[28.40316,62.52921,113.8175],[28.39261,62.51554,113.8436],[28.38197,62.51019,109.8059],[28.37143,62.4996,113.4675],[28.38931,62.48549,101.9866],[28.3953,62.47396,149.0773],[28.38693,62.46138,99.8724],[28.36564,62.45831,107.878],[28.29236,62.47099,96.0812],[28.28285,62.46508,99.2472],[28.28688,62.4597,90.0],[28.30228,62.45376,136.4043],[28.30487,62.44919,123.2193],[28.30321,62.44358,114.3856],[28.29546,62.44115,123.0956],[28.28812,62.44162,104.4739],[28.27427,62.44001,102.2568],[28.26125,62.43423,106.1549],[28.25484,62.4296,120.6732],[28.25763,62.42273,141.3976],[28.26601,62.42063,118.4858],[28.27841,62.41464,123.7036],[28.28616,62.4049,122.2091],[28.28823,62.39769,110.826],[28.29526,62.38914,94.9614],[28.32326,62.3803,115.4747],[28.32884,62.37909,111.778],[28.3245,62.3657,122.1175],[28.31034,62.3579,116.0382],[28.27562,62.35377,120.1636],[28.23934,62.35588,116.9158],[28.2104,62.35408,103.5025],[28.09031,62.31708,123.481],[28.07532,62.29819,119.0258],[28.0684,62.28612,134.2238],[28.03574,62.28064,115.4567],[27.97393,62.28209,112.1779],[27.95946,62.27759,88.054],[27.98137,62.27684,83.0],[27.97765,62.26648,90.2717],[27.96721,62.26013,72.5],[27.94706,62.26328,72.5],[27.92453,62.27537,72.5],[27.89972,62.28586,72.5],[27.88308,62.28142,85.6808],[27.84774,62.28041,77.5677],[27.83823,62.27899,82.1981],[27.76381,62.31878,94.4604],[27.74314,62.33986,99.8485],[27.76381,62.36364,95.914],[27.73457,62.37025,105.1315],[27.68878,62.37601,125.7279],[27.68909,62.37748,126.0639],[27.69157,62.38296,115.4704],[27.6925,62.3863,126.7748],[27.66935,62.39443,110.8006],[27.54192,62.45296,96.5],[27.50678,62.47216,96.5],[27.48983,62.47722,115.3807],[27.46037,62.49006,98.0],[27.44156,62.49267,132.3221],[27.43929,62.49448,124.3407],[27.418,62.50569,115.7547],[27.38616,62.51407,99.0],[27.38089,62.5173,99.0],[27.34751,62.52125,99.0],[27.34958,62.51854,99.0],[27.35743,62.50546,99.0],[27.35133,62.49936,110.3263],[27.344,62.49732,99.0],[27.30513,62.48063,99.0],[27.27909,62.47552,99.0],[27.2546,62.4742,111.5709],[27.20251,62.46415,113.6777],[27.18483,62.46433,106.4706],[27.17915,62.47004,113.5772],[27.15951,62.48231,101.5],[27.14173,62.48632,128.1952],[27.12261,62.48838,113.2882],[27.06887,62.47456,123.8875],[27.03259,62.4726,132.5409],[26.98484,62.4813,128.9771],[26.97058,62.48203,130.7059],[26.95942,62.47908,134.2888],[26.96035,62.46373,136.1692],[26.96696,62.4541,128.3835],[26.95136,62.45386,129.7011],[26.88046,62.47448,117.7641],[26.86123,62.47376,112.9369],[26.8416,62.46611,138.274],[26.83002,62.45888,126.0171],[26.82186,62.44952,119.6769],[26.82475,62.44849,119.3295],[26.83436,62.44627,151.2234],[26.81989,62.43727,152.7117],[26.80129,62.43226,182.8386],[26.77028,62.43247,142.5893],[26.71179,62.45128,106.0],[26.70527,62.43164,120.0215],[26.69804,62.418,121.7765],[26.69339,62.41138,123.7262],[26.68729,62.40461,136.5374],[26.6936,62.39343,123.0],[26.76646,62.36209,123.0],[26.76346,62.35433,136.9763],[26.7153,62.34824,179.8181],[26.68533,62.3403,151.8929],[26.67313,62.33304,134.6805],[26.6661,62.32136,138.5799],[26.66879,62.32033,144.1032],[26.67623,62.31922,143.4537],[26.67913,62.31839,139.4291],[26.67634,62.31134,153.6078],[26.66982,62.30648,155.1893],[26.65546,62.30064,153.1276],[26.62693,62.29584,125.1743],[26.62259,62.28454,125.5663],[26.62704,62.27956,131.5966],[26.63303,62.26783,155.8415],[26.63572,62.25393,147.8651],[26.63582,62.24602,145.2287],[26.64657,62.23545,135.2443],[26.6568,62.23047,129.5],[26.6476,62.22618,140.5954],[26.62239,62.22726,139.6228],[26.59593,62.23558,149.0188],[26.56844,62.24992,125.0],[26.55738,62.2539,120.5378],[26.53309,62.25674,131.9015],[26.52027,62.25576,132.3974],[26.4995,62.25096,133.6457],[26.48358,62.23982,133.7604],[26.48813,62.2386,137.9151],[26.49309,62.23786,134.7027],[26.49609,62.23682,132.1104],[26.49371,62.23072,140.2143],[26.48792,62.22638,142.1962],[26.47511,62.21915,115.3412],[26.46085,62.21398,120.0422],[26.45309,62.21217,110.6916],[26.42467,62.22375,110.153],[26.39997,62.22339,114.481],[26.33403,62.19734,136.2417],[26.24484,62.13667,135.0],[26.24752,62.10065,185.0462],[26.39026,61.9903,110.7274],[26.38664,61.96518,120.7365],[26.3608,61.95748,113.991],[26.34747,61.93953,123.2098],[26.34581,61.91462,104.0862],[26.33413,61.88385,100.1568],[26.34013,61.88454,100.9724],[26.3701,61.884,118.7543],[26.37899,61.87534,105.9286],[26.37899,61.86558,91.5],[26.373,61.82868,123.909],[26.37796,61.81245,115.4491],[26.38643,61.80455,101.0],[26.47438,61.75838,120.1301],[26.48772,61.74768,91.5],[26.5211,61.71546,91.5],[26.52916,61.70166,91.5],[26.52906,61.68636,91.5],[26.515,61.63846,122.8695],[26.49661,61.63099,91.5],[26.3947,61.65621,91.5],[26.37279,61.65195,110.6881],[26.3607,61.63639,116.0261],[26.3578,61.62911,106.9883],[26.35832,61.62415,117.0087],[26.3546,61.61753,109.5436],[26.33052,61.60942,107.1082],[26.31946,61.60764,102.5],[26.32111,61.59686,130.2135],[26.31967,61.58074,140.1527],[26.32029,61.57596,132.4899],[26.31667,61.57281,129.1767],[26.28204,61.57691,121.7869],[26.28039,61.57247,117.1768],[26.28463,61.5665,123.3538],[26.28949,61.55562,154.4227],[26.29166,61.54221,138.9355],[26.29228,61.53268,150.718],[26.29073,61.52482,131.8963],[26.28783,61.52482,137.8957],[26.27698,61.52136,141.6735],[26.26592,61.51351,120.1197],[26.26024,61.50209,109.0],[26.26406,61.49834,114.0176],[26.27698,61.48816,108.5],[26.28091,61.48431,108.5],[26.2838,61.47842,108.5],[26.27812,61.46881,128.7993],[26.26044,61.44563,127.3314],[26.25693,61.43907,133.2887],[26.26571,61.42498,144.6182],[26.2836,61.41403,148.8748],[26.31481,61.40271,141.3765],[26.31863,61.39713,94.5],[26.31315,61.39357,94.5],[26.30489,61.38574,94.5],[26.29362,61.3708,103.8785],[26.30406,61.36532,118.0286],[26.31832,61.36209,129.9462],[26.37207,61.33481,144.8554],[26.40328,61.32406,87.5],[26.47924,61.31163,113.1821],[26.49847,61.30003,91.5],[26.51511,61.27368,94.0018],[26.61195,61.28706,115.4034],[26.63468,61.28256,94.3004],[26.64481,61.27378,75.5],[26.65308,61.26303,80.1725],[26.66114,61.25691,74.5],[26.6659,61.24815,74.5],[26.64512,61.22531,74.5],[26.64027,61.22148,74.5],[26.64915,61.21197,74.5],[26.66445,61.2098,74.5],[26.69887,61.21417,74.5],[26.73287,61.22582,74.5],[26.7614,61.23916,74.5],[26.77049,61.24665,88.7527],[26.78537,61.26587,108.2066],[26.79695,61.27347,103.8008],[26.81628,61.27936,109.9455],[26.83757,61.28256,127.3372],[26.87188,61.28329,139.1144],[26.88397,61.27135,113.5],[26.88697,61.26055,128.6455],[26.89689,61.2491,117.007],[26.90888,61.24045,121.2921],[26.91828,61.22675,134.316],[26.9218,61.21027,111.0],[26.92242,61.20358,133.2904],[26.92521,61.19053,128.3556],[26.92852,61.18469,100.5532],[26.94361,61.17131,101.166],[27.00159,61.15154,76.0],[27.21315,61.1618,119.3736],[27.33035,61.16831,95.5541],[27.34865,61.17141,100.1352],[27.36663,61.18138,88.072],[27.36632,61.1866,85.2206],[27.36746,61.19257,79.7705],[27.37428,61.19678,83.784],[27.38275,61.19952,85.3098],[27.38988,61.20376,78.9239],[27.38833,61.20557,78.6108],[27.38627,61.21017,81.9034],[27.38575,61.21301,83.0165],[27.36095,61.2127,87.9407],[27.33583,61.21833,81.0578],[27.32498,61.22892,84.9867],[27.33314,61.23668,85.2061],[27.33108,61.25282,87.7892],[27.27733,61.28877,117.374],[27.24126,61.30504,97.1201],[27.22607,61.3161,115.7188],[27.24343,61.319,99.7428],[27.25573,61.32437,96.3373],[27.24075,61.32987,102.5692],[27.14339,61.3284,81.5],[26.97637,61.34388,82.5],[26.96851,61.35982,119.5873],[26.98526,61.36917,111.5043],[27.01843,61.37527,105.2033],[27.09171,61.3714,105.3184],[27.11311,61.37305,96.2451],[27.2024,61.39966,129.619],[27.25025,61.40375,76.9966],[27.30338,61.40057,114.7144],[27.54026,61.36034,115.6519],[28.18146,61.37331,72.5],[28.34156,61.41858,72.5],[28.39654,61.4469,107.9579],[28.40905,61.4579,86.5],[28.41587,61.46762,112.5504],[28.42011,61.47558,90.5],[28.42486,61.48136,102.6887],[28.44687,61.49793,95.2428],[28.46889,61.50922,89.6749],[28.494,61.5118,81.1515],[28.51013,61.50836,72.5],[28.53834,61.48134,88.9958],[28.56294,61.47289,106.8682],[28.65317,61.46958,120.0771],[28.75052,61.48157,117.0192],[28.80933,61.498,136.4822],[28.81698,61.50842,101.1141],[28.81502,61.53082,101.4866],[28.8207,61.538,98.3747],[28.83817,61.53924,83.1733],[28.89315,61.53345,91.8257],[29.05335,61.53423,128.848],[29.19019,61.54821,133.9646],[29.2461,61.55991,119.8252],[29.27204,61.57206,116.6533],[29.34108,61.62151,109.0619],[29.46645,61.65815,115.239],[29.53239,61.68479,94.5831],[29.56401,61.72414,110.37],[29.65362,61.78331,97.6654],[29.69383,61.82486,75.9373],[29.68969,61.84274,72.5],[29.67357,61.85039,72.5],[29.69279,61.86713,72.5],[29.68628,61.87542,72.5],[29.62375,61.90594,72.5],[29.61662,61.92351,72.5],[29.62179,61.93513,82.4658],[29.63409,61.95229,72.5],[29.65641,61.97314,72.5],[29.63388,61.98722,72.5],[29.60463,61.99717,72.5],[29.5452,62.02593,94.938],[29.49384,62.06148,97.1056],[29.45911,62.09874,73.5],[29.44144,62.12468,73.5],[29.42211,62.1606,73.5],[29.41508,62.20003,73.5],[29.42108,62.22013,73.5],[29.41312,62.24475,73.5],[29.39307,62.25553,73.5],[29.35586,62.28343,73.5],[29.33984,62.29912,73.5],[29.31338,62.33227,73.5],[29.28145,62.38296,73.5],[29.24951,62.4096,73.5],[29.20879,62.41759,73.5],[29.18337,62.40978,130.5791],[29.16249,62.38981,111.5212],[29.15929,62.38555,114.4117],[29.14337,62.38503,120.1602]]]}
,"properties": {"ISO3166-1-Alpha-3": "FIN","country": "Finland","fill": "#F00","name": "Southern Savonia","area_km2": 19061.21,"hist_schema_id": "Elevation0-9000","hist_area_km2": {"75": 4384.07,"100": 7541.78,"125": 5467.96,"150": 1444.06,"175": 200.1,"200": 21.9,"225": 1.35}}}