{"type":"Feature","properties":{"GID_2":"FIN.1.4_1","GID_0":"FIN","country":"Finland","GID_1":"FIN.1_1","province":"EasternFinland","NL_NAME_1":"NA","county":"SouthernSavonia","VARNAME_2":"Etelä-Savo|SödraSavolax","NL_NAME_2":"NA","TYPE_2":"Maakunta|landskap","ENGTYPE_2":"Region","CC_2":"NA","HASC_2":"NA","name":"Southern_Savonia.county"},
"geometry":{"type": "MultiPolygon","coordinates": [[[[26.5096,61.292,97.669],[26.5068,61.2786,91.5],[26.5161,61.2782,97.8893],[26.5152,61.2737,94.0018],[26.5245,61.2733,99.6862],[26.5254,61.2777,96.249],[26.544,61.2769,98.2073],[26.5533,61.2764,82.5],[26.5524,61.2719,82.5],[26.571,61.271,99.6599],[26.5719,61.2755,88.6524],[26.5905,61.2746,134.0401],[26.5914,61.2791,124.7157],[26.6007,61.2786,121.8188],[26.6017,61.2831,137.6335],[26.611,61.2826,111.3826],[26.6119,61.2871,116.9608],[26.6212,61.2867,91.5716],[26.6222,61.2911,82.0],[26.6408,61.2902,101.7262],[26.6389,61.2813,75.5],[26.6482,61.2808,75.5],[26.6454,61.2674,87.6702],[26.6547,61.267,106.9211],[26.6528,61.2581,74.5],[26.6621,61.2576,74.5],[26.6611,61.2531,87.0336],[26.6704,61.2527,74.5],[26.6676,61.2393,74.5],[26.6583,61.2397,74.5],[26.6564,61.2308,74.5],[26.6471,61.2313,74.5],[26.6461,61.2268,74.5],[26.6369,61.2272,74.5],[26.635,61.2183,74.5],[26.6442,61.2179,74.5],[26.6433,61.2134,74.5],[26.6526,61.2129,74.5],[26.6516,61.2085,74.5],[26.6702,61.2076,74.5],[26.6712,61.212,74.5],[26.6897,61.2111,74.5],[26.6907,61.2156,74.5],[26.6999,61.2151,74.5],[26.7009,61.2196,74.5],[26.7195,61.2187,80.8474],[26.7204,61.2232,74.5],[26.7297,61.2227,74.5],[26.7307,61.2272,74.5],[26.7492,61.2262,74.5],[26.7521,61.2397,76.9422],[26.7614,61.2392,74.5],[26.7643,61.2526,104.9203],[26.7736,61.2521,97.1234],[26.7774,61.27,77.5],[26.796,61.2691,98.7836],[26.797,61.2735,114.1267],[26.8063,61.2731,104.3574],[26.8073,61.2775,94.9933],[26.8259,61.2766,124.0495],[26.8268,61.2811,126.2654],[26.8454,61.2801,123.8758],[26.8464,61.2846,109.0],[26.8836,61.2827,113.0],[26.8797,61.2649,113.5],[26.889,61.2644,113.5],[26.886,61.251,121.6103],[26.8953,61.2505,127.8092],[26.8934,61.2416,112.0],[26.9027,61.2411,129.199],[26.9017,61.2367,112.0],[26.911,61.2362,131.2498],[26.91,61.2318,112.0],[26.9193,61.2313,145.3967],[26.9183,61.2268,134.316],[26.9276,61.2263,129.928],[26.9246,61.213,111.0],[26.9339,61.2125,144.9542],[26.9319,61.2036,135.5238],[26.9227,61.204,138.5862],[26.9177,61.1817,113.9017],[26.927,61.1812,119.5948],[26.926,61.1768,97.5],[26.9446,61.1758,132.954],[26.9436,61.1713,101.166],[26.9714,61.1699,112.6074],[26.9704,61.1655,100.0],[26.9982,61.164,91.4751],[26.9972,61.1596,103.8084],[27.025,61.1581,122.8984],[27.024,61.1537,85.9857],[27.0703,61.1513,106.5276],[27.0713,61.1558,112.7142],[27.0898,61.1548,124.4434],[27.0908,61.1593,111.9787],[27.1001,61.1588,121.1741],[27.1011,61.1632,137.2492],[27.1289,61.1618,90.0],[27.1299,61.1663,98.5522],[27.2132,61.1619,119.3736],[27.2142,61.1663,127.5687],[27.2698,61.1634,119.5463],[27.2708,61.1678,97.0],[27.2801,61.1673,97.0],[27.2811,61.1718,110.0637],[27.2904,61.1713,102.2314],[27.2914,61.1758,126.6516],[27.3099,61.1748,106.0309],[27.3089,61.1703,95.3676],[27.3367,61.1688,96.0909],[27.3377,61.1733,100.7406],[27.3562,61.1723,104.5723],[27.3573,61.1767,99.9747],[27.3666,61.1762,87.1759],[27.3676,61.1807,84.3504],[27.3583,61.1812,82.4946],[27.3615,61.1946,79.9735],[27.3707,61.1941,79.6389],[27.3718,61.1986,79.4871],[27.3811,61.198,80.3751],[27.3821,61.2025,87.3909],[27.3914,61.202,78.5691],[27.3924,61.2065,96.2859],[27.3831,61.207,79.0398],[27.3852,61.2159,85.3412],[27.376,61.2164,78.6029],[27.3739,61.2075,84.7816],[27.3553,61.2085,93.1684],[27.3564,61.2129,89.3245],[27.3378,61.2139,80.8372],[27.3389,61.2184,89.2556],[27.3296,61.2189,82.2344],[27.3306,61.2234,86.388],[27.3214,61.2239,83.0055],[27.3255,61.2417,89.254],[27.3441,61.2407,86.5274],[27.3462,61.2496,83.5784],[27.3369,61.2501,85.9168],[27.3379,61.2546,83.6296],[27.3286,61.2551,86.9314],[27.3297,61.2595,83.4825],[27.3204,61.26,99.5349],[27.3214,61.2645,91.1857],[27.3122,61.265,101.1519],[27.3132,61.2695,99.2317],[27.3039,61.27,96.2942],[27.307,61.2834,92.5099],[27.2977,61.2838,87.3398],[27.2998,61.2928,104.7122],[27.2905,61.2933,87.3683],[27.2916,61.2977,87.2708],[27.273,61.2987,92.5892],[27.274,61.3032,98.0738],[27.2275,61.3056,118.2872],[27.2285,61.3101,119.4078],[27.2192,61.3106,130.9147],[27.2213,61.3195,96.2318],[27.2306,61.319,103.7028],[27.2296,61.3146,118.6122],[27.2575,61.3131,104.5048],[27.2606,61.3265,93.8028],[27.2326,61.3279,113.9308],[27.2337,61.3324,102.9443],[27.2057,61.3339,85.5],[27.2047,61.3294,100.4199],[27.1861,61.3304,102.0515],[27.1851,61.3259,96.0133],[27.1478,61.3279,81.5],[27.1458,61.319,83.0],[27.1272,61.3199,83.0],[27.1282,61.3244,97.1176],[27.1096,61.3254,103.5172],[27.1106,61.3298,98.4199],[27.092,61.3308,83.5],[27.093,61.3353,119.9385],[27.0744,61.3362,83.5],[27.0754,61.3407,83.5],[27.0567,61.3417,83.5],[27.0578,61.3461,83.5],[27.0391,61.3471,83.5],[27.0401,61.3515,83.5],[27.0215,61.3525,83.5],[27.0205,61.348,90.8012],[27.0019,61.349,85.6879],[27.0009,61.3445,110.1799],[26.9543,61.3469,82.5],[26.9563,61.3558,84.5],[26.9656,61.3554,84.5],[26.9666,61.3598,117.4135],[26.9759,61.3593,132.6784],[26.9779,61.3683,114.2265],[26.9872,61.3678,110.8697],[26.9882,61.3722,105.6413],[26.9975,61.3718,108.5043],[26.9985,61.3762,103.9766],[27.0079,61.3758,106.7748],[27.0089,61.3802,120.7749],[27.0182,61.3797,119.6546],[27.0192,61.3842,108.5381],[27.0752,61.3813,125.2033],[27.0741,61.3769,129.3548],[27.0928,61.3759,103.9082],[27.0918,61.3714,105.3184],[27.1384,61.369,80.5],[27.1404,61.378,85.3629],[27.1498,61.3775,92.6233],[27.1528,61.3909,90.0],[27.1621,61.3904,102.1917],[27.1652,61.4038,95.3099],[27.2212,61.4008,117.916],[27.2222,61.4053,96.5067],[27.3808,61.3969,107.0413],[27.3798,61.3924,118.8576],[27.4171,61.3904,106.7529],[27.416,61.3859,124.8277],[27.4533,61.3839,84.3977],[27.4522,61.3794,102.2751],[27.4895,61.3774,105.5468],[27.4884,61.3729,96.5],[27.5071,61.3719,88.418],[27.506,61.3675,105.8008],[27.534,61.3659,112.6898],[27.5329,61.3615,101.9699],[27.5608,61.3599,115.13],[27.5597,61.3555,105.5011],[27.6249,61.3518,72.5],[27.626,61.3563,92.8112],[27.6633,61.3542,72.5],[27.6643,61.3587,86.3824],[27.6923,61.3571,88.5689],[27.6934,61.3616,72.5],[27.712,61.3605,93.1625],[27.7131,61.365,72.5],[27.7317,61.3639,72.5],[27.7328,61.3684,72.5],[27.7887,61.3652,72.5],[27.7876,61.3608,72.5],[27.8248,61.3587,72.5],[27.8237,61.3542,72.5],[27.9261,61.3483,72.5],[27.9272,61.3528,72.5],[27.9551,61.3511,72.5],[27.9562,61.3556,72.5],[28.0121,61.3523,72.5],[28.0132,61.3568,72.5],[28.069,61.3535,72.5],[28.0702,61.358,72.5],[28.0888,61.3569,72.5],[28.0899,61.3613,72.5],[28.1086,61.3602,72.5],[28.1097,61.3647,72.5],[28.1469,61.3625,72.5],[28.1481,61.3669,72.5],[28.1667,61.3658,72.5],[28.1679,61.3703,72.5],[28.1865,61.3692,72.5],[28.1877,61.3736,72.5],[28.2156,61.3719,72.5],[28.2167,61.3764,72.5],[28.2354,61.3753,72.5],[28.2365,61.3797,92.193],[28.2552,61.3786,72.5],[28.2563,61.3831,72.5],[28.2656,61.3825,88.6007],[28.2668,61.387,72.5],[28.2761,61.3864,72.5],[28.2773,61.3909,72.5],[28.2866,61.3903,72.5],[28.2878,61.3947,72.5],[28.2971,61.3942,94.0006],[28.3019,61.412,72.5],[28.3112,61.4114,72.5],[28.3124,61.4159,72.5],[28.3403,61.4142,72.5],[28.3451,61.432,80.7452],[28.3544,61.431399999999996,93.183],[28.3568,61.4403,86.0],[28.3755,61.4392,99.2393],[28.3767,61.4436,86.0],[28.3953,61.4425,90.0534],[28.3965,61.4469,107.9579],[28.4058,61.4464,101.7874],[28.4082,61.4553,86.5],[28.4269,61.4541,97.0719],[28.4305,61.4675,100.6071],[28.4212,61.4681,127.4165],[28.426,61.4859,113.6135],[28.4309,61.5037,124.9473],[28.4402,61.5031,88.9754],[28.4426,61.512,72.5],[28.452,61.5114,72.5],[28.4508,61.507,82.542],[28.4601,61.5064,72.5],[28.4589,61.502,87.2993],[28.4682,61.5014,83.1599],[28.4694,61.5058,120.7872],[28.4788,61.5053,105.0811],[28.48,61.5097,86.0498],[28.4894,61.5091,105.1147],[28.4906,61.5136,72.5],[28.4999,61.513,72.5],[28.4987,61.5086,72.5],[28.508,61.508,72.5],[28.5068,61.5035,72.5],[28.5255,61.5024,81.2336],[28.5218,61.489,102.6299],[28.5312,61.4884,95.007],[28.5287,61.4795,72.5],[28.5847,61.4761,89.2798],[28.5835,61.4716,95.3888],[28.6674,61.4663,103.9615],[28.6687,61.4708,113.5077],[28.6873,61.4696,118.4489],[28.6886,61.474,113.252],[28.6979,61.4734,116.2789],[28.6991,61.4779,105.5223],[28.7085,61.4773,107.3411],[28.7097,61.4818,99.7241],[28.7937,61.4764,121.1979],[28.8,61.4986,109.3592],[28.8093,61.498,136.4822],[28.8106,61.5025,115.5912],[28.8199,61.5019,113.4499],[28.8237,61.5152,122.0835],[28.8144,61.5158,116.6167],[28.8207,61.5381,98.3747],[28.8394,61.5369,86.372],[28.8381,61.5324,87.9213],[28.9035,61.5282,122.5082],[28.9048,61.5327,128.7321],[28.9235,61.5314,123.7557],[28.9248,61.5359,113.5188],[28.9435,61.5347,105.3779],[28.9447,61.5391,93.402],[29.0568,61.5318,124.1067],[29.0581,61.5362,117.1123],[29.0768,61.535,119.5262],[29.0781,61.5394,112.6614],[29.0968,61.5382,139.2399],[29.0981,61.5427,129.8816],[29.1168,61.5414,111.9325],[29.1181,61.5459,122.2344],[29.1368,61.5446,108.3344],[29.1381,61.5491,106.767],[29.1568,61.5478,103.0044],[29.1581,61.5523,108.9331],[29.1768,61.551,115.5684],[29.1781,61.5555,109.6287],[29.1968,61.5542,137.857],[29.1981,61.5587,118.6947],[29.2168,61.5574,149.0055],[29.2181,61.5619,141.2579],[29.2649,61.5587,110.5163],[29.2675,61.5676,119.756],[29.2769,61.567,136.1503],[29.2835,61.5892,104.1501],[29.2929,61.5886,102.8142],[29.2956,61.5974,82.4773],[29.3049,61.5968,91.7363],[29.3076,61.6057,103.0586],[29.317,61.6051,107.6379],[29.3183,61.6095,127.3215],[29.3277,61.6089,121.8614],[29.3304,61.6178,109.177],[29.3397,61.6171,106.6976],[29.3411,61.6216,109.0619],[29.3504,61.6209,102.6799],[29.3531,61.6298,103.2337],[29.3625,61.6292,115.9685],[29.3638,61.6336,107.7957],[29.3732,61.633,110.969],[29.3759,61.6419,108.2358],[29.3853,61.6412,106.3425],[29.3866,61.6457,113.9504],[29.396,61.645,103.3665],[29.3987,61.6539,152.6886],[29.4081,61.6533,107.1415],[29.4094,61.6577,114.6815],[29.4282,61.6564,102.4948],[29.4295,61.6609,112.4389],[29.4389,61.6602,119.083],[29.4403,61.6647,109.7387],[29.4496,61.664,115.9746],[29.451,61.6685,110.3112],[29.4697,61.6672,105.0738],[29.4711,61.6716,117.753],[29.4898,61.6703,131.1796],[29.4912,61.6748,105.1183],[29.51,61.6735,101.3759],[29.5113,61.6779,102.3533],[29.5207,61.6773,112.4442],[29.5221,61.6817,113.7433],[29.5408,61.6804,93.7829],[29.5436,61.6893,88.5289],[29.553,61.6887,92.0365],[29.5668,61.7331,138.1973],[29.5762,61.7324,110.6665],[29.579,61.7413,107.9212],[29.5884,61.7407,130.8868],[29.5898,61.7451,127.0869],[29.5991,61.7444,106.7668],[29.6005,61.7489,119.9098],[29.6099,61.7482,114.852],[29.6127,61.7571,103.0981],[29.6315,61.7558,94.800299999999993],[29.6329,61.7602,113.4517],[29.6423,61.7596,118.482],[29.6451,61.7685,111.1824],[29.6545,61.7678,104.5375],[29.6573,61.7767,113.0201],[29.6667,61.776,112.0533],[29.6709,61.7893,104.2532],[29.6803,61.7887,117.9984],[29.6958,61.8375,72.5],[29.6864,61.8382,72.5],[29.6878,61.8426,72.5],[29.6783,61.8433,72.5],[29.6798,61.8477,72.5],[29.6703,61.8484,82.5539],[29.6731,61.8573,72.5],[29.6826,61.8566,72.5],[29.684,61.861,72.5],[29.6934,61.8604,72.5],[29.6962,61.8693,72.5],[29.6868,61.8699,72.5],[29.6882,61.8744,72.5],[29.6788,61.875,72.5],[29.6802,61.8795,72.5],[29.6707,61.8801,72.5],[29.6722,61.8845,72.5],[29.6627,61.8852,72.5],[29.6641,61.8896,72.5],[29.6453,61.891,72.5],[29.6467,61.8954,72.5],[29.6372,61.896,72.5],[29.6386,61.9005,72.5],[29.6292,61.9011,72.5],[29.632,61.91,72.5],[29.6131,61.9113,72.5],[29.6244,61.9468,72.5],[29.6338,61.9462,72.5],[29.638,61.9595,72.5],[29.6475,61.9589,72.5],[29.6517,61.9722,72.5],[29.6612,61.9715,72.5],[29.664,61.9804,72.5],[29.6451,61.9817,72.5],[29.6465,61.9862,72.5],[29.637,61.9868,72.5],[29.6384,61.9912,72.5],[29.6195,61.9926,72.5],[29.6209,61.997,72.5],[29.6114,61.9977,72.5],[29.6128,62.0021,72.5],[29.6034,62.0028,72.5],[29.6062,62.0116,72.5],[29.5872,62.0129,81.1484],[29.5886,62.0174,77.0],[29.5791,62.018,84.5951],[29.5805,62.0225,91.0252],[29.5616,62.0238,93.1948],[29.563,62.0282,85.8738],[29.544,62.0295,89.8666],[29.5454,62.034,142.0428],[29.517,62.0359,77.4202],[29.5184,62.0403,83.569],[29.4994,62.0416,79.8708],[29.5022,62.0505,92.2572],[29.4927,62.0512,82.5191],[29.4941,62.0556,87.0754],[29.4846,62.0563,76.0],[29.4874,62.0651,82.1786],[29.4779,62.0658,81.9363],[29.4793,62.0702,83.4636],[29.4698,62.0709,80.691],[29.4726,62.0798,94.8488],[29.4631,62.0804,80.9999],[29.4658,62.0893,73.5],[29.4564,62.0899,73.5],[29.4605,62.1032,73.5],[29.451,62.1039,73.5],[29.4538,62.1128,73.5],[29.4443,62.1134,73.5],[29.4485,62.1267,73.5],[29.4389,62.1274,73.5],[29.4431,62.1407,73.5],[29.4336,62.1413,73.5],[29.4364,62.1502,73.5],[29.4268,62.1509,73.5],[29.431,62.1642,73.5],[29.4215,62.1648,73.5],[29.4256,62.1782,73.5],[29.4161,62.1788,73.5],[29.4189,62.1877,73.5],[29.4094,62.1883,73.5],[29.4219,62.2283,73.5],[29.4314,62.2277,73.5],[29.4342,62.2366,73.5],[29.4247,62.2372,73.5],[29.4261,62.2416,73.5],[29.4069,62.2429,73.5],[29.4083,62.2474,73.5],[29.3988,62.248,73.5],[29.4002,62.2524,73.5],[29.3906,62.2531,73.5],[29.392,62.2575,73.5],[29.3825,62.2582,73.5],[29.3852,62.2671,75.1697],[29.3757,62.2677,73.5],[29.3771,62.2721,81.7511],[29.3675,62.2728,79.82],[29.3703,62.2817,73.5],[29.3607,62.2823,73.5],[29.3621,62.2867,73.5],[29.3525,62.2874,73.5],[29.3553,62.2963,73.5],[29.3457,62.2969,73.5],[29.3471,62.3013,73.5],[29.3375,62.302,73.5],[29.3403,62.3109,73.5],[29.3307,62.3115,73.5],[29.3321,62.3159,73.5],[29.3226,62.3166,73.5],[29.3253,62.3255,73.5],[29.3157,62.3261,73.5],[29.3171,62.3306,73.5],[29.3075,62.3312,73.5],[29.3117,62.3445,73.5],[29.3021,62.3451,73.5],[29.3076,62.3629,73.5],[29.2981,62.3636,73.5],[29.3036,62.3813,73.5],[29.294,62.382,73.5],[29.2967,62.3909,73.5],[29.2871,62.3915,73.5],[29.2885,62.3959,73.5],[29.2789,62.3966,73.5],[29.2803,62.401,73.5],[29.2707,62.4016,73.5],[29.2721,62.4061,73.5],[29.2625,62.4067,73.5],[29.2638,62.4112,73.5],[29.2446,62.4124,73.5],[29.246,62.4169,73.5],[29.2268,62.4181,73.5],[29.2254,62.4137,73.5],[29.2158,62.4143,73.5],[29.2131,62.4054,119.8992],[29.2035,62.406,111.0481],[29.2021,62.4016,95.4325],[29.1829,62.4028,104.597],[29.1842,62.4073,107.1009],[29.1746,62.4079,106.3603],[29.1733,62.4035,117.9073],[29.1637,62.4041,117.1039],[29.161,62.3952,109.7523],[29.1706,62.3946,105.0],[29.1678,62.3857,111.1991],[29.1198,62.3888,112.5983],[29.1212,62.3932,114.6567],[29.102,62.3945,131.3836],[29.1087,62.4167,110.5],[29.0895,62.418,110.5],[29.0909,62.4224,110.5],[29.0813,62.423,110.5],[29.0935,62.463,111.5],[29.1031,62.4624,111.5],[29.1099,62.4846,111.5],[29.1195,62.484,117.2989],[29.1209,62.4885,111.5],[29.1112,62.4891,111.5],[29.1126,62.4935,111.5],[29.1029,62.4942,111.5],[29.0933,62.4948,111.5],[29.092,62.4903,111.5],[29.0823,62.491,111.5],[29.0837,62.4954,111.5],[29.0548,62.4972,111.5],[29.0561,62.5017,111.5],[29.0368,62.5029,132.8929],[29.0382,62.5074,119.2207],[29.0189,62.5086,119.9355],[29.0203,62.5131,115.1796],[29.0106,62.5137,106.4073],[29.012,62.5181,111.1227],[29.0313,62.5169,109.3513],[29.0326,62.5213,125.193],[29.0422,62.5207,127.5817],[29.0436,62.5252,114.9843],[29.0339,62.5258,119.304],[29.0353,62.5302,99.5],[29.0257,62.5308,99.5],[29.027,62.5353,99.5],[29.0077,62.5365,99.5],[29.0091,62.541,110.7185],[28.9994,62.5416,99.5],[29.0007,62.546,99.5],[28.9814,62.5473,99.5],[28.9828,62.5517,102.2396],[28.9731,62.5523,99.5],[28.9745,62.5568,101.554],[28.9551,62.558,99.5],[28.9565,62.5624,99.5],[28.9468,62.563,99.5],[28.9508,62.5764,99.5],[28.9315,62.5776,99.5],[28.9328,62.582,99.5],[28.9135,62.5833,99.5],[28.9149,62.5877,99.5],[28.8955,62.5889,99.5],[28.8969,62.5934,99.5],[28.8775,62.5946,99.5],[28.8788,62.599,99.5],[28.8595,62.6002,99.5],[28.8608,62.6047,99.5],[28.8511,62.6053,99.5],[28.8525,62.6097,99.5],[28.8428,62.6103,99.5],[28.8441,62.6148,99.5],[28.8344,62.6154,99.5],[28.8358,62.6198,99.5],[28.8261,62.6204,99.5],[28.8274,62.6249,99.5],[28.8177,62.6255,99.5],[28.8191,62.6299,99.5],[28.8094,62.6306,99.5],[28.8107,62.635,99.5],[28.7913,62.6362,99.5],[28.7926,62.6406,99.5],[28.6764,62.6478,99.5],[28.6777,62.6522,99.5],[28.6486,62.654,99.5],[28.6382,62.6184,126.6381],[28.6188,62.6196,123.1681],[28.6175,62.6151,152.5242],[28.6078,62.6157,140.9695],[28.6053,62.6068,120.1281],[28.6343,62.605,114.4406],[28.633,62.6006,121.1784],[28.6233,62.6012,111.0],[28.622,62.5967,109.8819],[28.6124,62.5973,130.7572],[28.6111,62.5929,110.6215],[28.6014,62.5935,115.8645],[28.5988,62.5846,114.9721],[28.5891,62.5851,115.0803],[28.5878,62.5807,108.014],[28.5782,62.5813,124.0758],[28.5795,62.5857,95.8311],[28.5698,62.5863,94.1064],[28.5711,62.5908,110.4823],[28.5517,62.5919,103.1253],[28.5504,62.5875,98.2352],[28.5408,62.5881,87.686],[28.5395,62.5836,76.0],[28.4717,62.5877,76.0],[28.4705,62.5832,76.0],[28.4802,62.5826,76.0],[28.4789,62.5782,76.0],[28.5176,62.5759,89.113],[28.5163,62.5714,110.4833],[28.5453,62.5697,82.6621],[28.5427,62.5608,105.1413],[28.5331,62.5614,109.7445],[28.5292,62.548,120.5022],[28.5196,62.5486,93.5],[28.5209,62.553,119.1407],[28.5015,62.5542,121.5838],[28.5028,62.5587,93.5],[28.4931,62.5592,99.7239],[28.4944,62.5637,93.5],[28.4461,62.5666,113.954],[28.4473,62.571,104.3555],[28.428,62.5722,99.7648],[28.4292,62.5766,101.4157],[28.4196,62.5772,109.2166],[28.4183,62.5727,103.402],[28.4086,62.5733,91.489],[28.4074,62.5689,87.2729],[28.417,62.5683,93.8401],[28.4158,62.5638,97.5156],[28.4061,62.5644,101.2008],[28.4023,62.5511,96.5],[28.3998,62.5421,96.5],[28.4095,62.5416,96.5],[28.403199999999998,62.5193,152.2491],[28.3935,62.5199,116.7306],[28.3898,62.5065,111.6119],[28.3705,62.5077,97.0],[28.368,62.4988,108.3147],[28.3776,62.4982,129.4129],[28.3764,62.4937,112.9332],[28.386,62.4932,119.2315],[28.3848,62.4887,104.3264],[28.3944,62.4881,115.0564],[28.3869,62.4614,99.8724],[28.3483,62.4637,89.1926],[28.3496,62.4682,97.1627],[28.3014,62.471,86.6706],[28.3026,62.4755,91.8883],[28.293,62.476,82.0],[28.2917,62.4716,104.9204],[28.2821,62.4721,86.7004],[28.2796,62.4632,90.0],[28.2893,62.4627,93.3061],[28.288,62.4582,90.0],[28.2977,62.4576,102.4593],[28.2964,62.4532,106.9306],[28.3061,62.4526,141.2186],[28.3023,62.4393,135.2175],[28.2927,62.4398,135.2774],[28.2939,62.4443,113.0781],[28.2843,62.4449,109.4047],[28.2831,62.4404,104.7907],[28.2734,62.4409,109.9563],[28.2722,62.4365,98.0754],[28.2626,62.4371,115.8812],[28.2613,62.4326,93.8028],[28.2517,62.4332,116.2928],[28.2493,62.4243,115.9021],[28.2589,62.4237,134.8189],[28.2577,62.4193,105.5],[28.2769,62.4181,107.8853],[28.2757,62.4137,135.8516],[28.2853,62.4131,111.4969],[28.2828,62.4042,123.8954],[28.2925,62.4036,109.4874],[28.2888,62.3903,83.5],[28.308,62.3891,98.6732],[28.3068,62.3847,108.1228],[28.326,62.3836,108.4772],[28.3248,62.3791,114.0877],[28.3344,62.3785,111.0716],[28.3331,62.3741,115.389],[28.3235,62.3746,108.2731],[28.3173,62.3524,120.7802],[28.2789,62.3546,116.2698],[28.2801,62.3591,118.0601],[28.2609,62.3602,118.1282],[28.2622,62.3647,112.4341],[28.2525,62.3652,126.2595],[28.2513,62.3608,115.6096],[28.2417,62.3614,114.2883],[28.2393,62.3524,105.198],[28.2296,62.353,113.4357],[28.2284,62.3485,91.5],[28.2092,62.3497,106.4313],[28.2104,62.3541,103.5025],[28.2008,62.3547,97.6123],[28.1972,62.3413,107.1629],[28.1876,62.3419,99.3328],[28.1851,62.333,118.847],[28.1755,62.3335,135.949],[28.1743,62.3291,112.5424],[28.1359,62.3313,132.6117],[28.1335,62.3224,124.6744],[28.1047,62.324,130.1574],[28.1023,62.3151,128.3023],[28.0831,62.3162,132.8305],[28.0819,62.3118,137.8922],[28.0723,62.3123,123.1561],[28.0711,62.3079,121.4208],[28.0805,62.306399999999996,109.5],[28.0759,62.2895,102.346],[28.0663,62.2901,97.1853],[28.0628,62.2767,109.8453],[28.0532,62.2772,114.2153],[28.0544,62.2817,116.6345],[28.0256,62.2833,120.4125],[28.0244,62.2789,106.4475],[28.0052,62.28,113.8276],[28.0064,62.2844,119.2749],[27.9872,62.2855,104.0],[27.9777,62.2861,115.095],[27.9765,62.2816,109.8973],[27.9573,62.2827,92.7726],[27.9561,62.2782,94.7691],[27.9849,62.2766,91.3454],[27.9813,62.2632,87.0667],[27.9718,62.2638,79.2178],[27.9694,62.2549,72.5],[27.9598,62.2554,72.5],[27.961,62.2599,72.5],[27.9514,62.2604,72.5],[27.9526,62.2649,72.5],[27.943,62.2654,72.5],[27.9442,62.2699,72.5],[27.9346,62.2704,72.5],[27.9358,62.2749,72.5],[27.9262,62.2754,72.5],[27.9274,62.2799,72.5],[27.9178,62.2804,72.5],[27.9189,62.2849,72.5],[27.9041,62.2857,72.5],[27.9005,62.2887,72.5],[27.9009,62.2904,72.5],[27.8913,62.2909,72.5],[27.8902,62.2865,72.5],[27.8944,62.2862,72.5],[27.8987,62.282,82.6725],[27.8974,62.277,76.2432],[27.8687,62.2786,78.0094],[27.8698,62.2831,78.2815],[27.8506,62.2842,77.2185],[27.8495,62.2797,77.0793],[27.8399,62.2802,83.3235],[27.8387,62.2758,95.8142],[27.8291,62.2763,100.1174],[27.8315,62.2852,82.0621],[27.8219,62.2858,78.0702],[27.823,62.2902,81.6527],[27.8134,62.2907,102.0659],[27.8158,62.2997,99.8567],[27.8062,62.3002,88.3835],[27.8073,62.3047,107.5388],[27.7977,62.3052,87.8258],[27.7989,62.3097,82.4629],[27.7797,62.3107,81.3854],[27.7808,62.3152,84.9772],[27.7616,62.3162,103.5042],[27.7628,62.3207,94.0488],[27.7436,62.3217,124.0161],[27.7458,62.3307,103.0397],[27.7362,62.3312,117.4071],[27.7397,62.3446,101.581],[27.7493,62.344,91.0254],[27.7516,62.353,85.5771],[27.7612,62.3524,89.4093],[27.7624,62.3569,84.9259],[27.772,62.3563,98.0773],[27.7731,62.3608,96.7021],[27.7635,62.3613,102.315],[27.7647,62.3658,91.0033],[27.7358,62.3674,110.4288],[27.737,62.3718,106.1453],[27.6889,62.3745,122.6713],[27.6923,62.3879,126.6971],[27.673,62.3889,125.1647],[27.6742,62.3934,139.6152],[27.6646,62.3939,110.6776],[27.6657,62.3983,157.1501],[27.6561,62.3989,109.773],[27.6572,62.4033,154.7203],[27.6476,62.4038,100.3115],[27.6487,62.4083,120.8198],[27.6391,62.4088,109.5896],[27.6402,62.4133,118.9455],[27.6306,62.4138,113.3909],[27.6329,62.4227,111.3165],[27.6136,62.4238,96.5],[27.6147,62.4282,96.5],[27.6051,62.4287,96.5],[27.6062,62.4332,96.5],[27.5966,62.4337,96.5],[27.5977,62.4382,96.5],[27.5881,62.4387,96.5],[27.5892,62.4431,96.5],[27.5795,62.4437,96.5],[27.5807,62.4481,96.5],[27.5614,62.4492,96.5],[27.5625,62.4536,96.5],[27.5432,62.4546,96.5],[27.5443,62.4591,107.371],[27.5057,62.4612,96.5],[27.5068,62.4656,96.5],[27.4682,62.4677,96.5],[27.4693,62.4721,106.0953],[27.4597,62.4726,113.9366],[27.4608,62.4771,121.2171],[27.4511,62.4776,127.2042],[27.4523,62.4821,105.9831],[27.4426,62.4826,99.0],[27.4437,62.487,127.8974],[27.434,62.4876,99.0],[27.4352,62.492,111.1639],[27.4255,62.4925,99.0],[27.4266,62.497,109.8325],[27.4169,62.4975,99.0],[27.418,62.5019,99.0],[27.389,62.5035,99.0],[27.3913,62.5124,99.0],[27.3816,62.5129,99.0],[27.3838,62.5218,99.0],[27.3741,62.5223,99.0],[27.3752,62.5268,99.0],[27.3559,62.5278,99.0],[27.3548,62.5233,99.0],[27.3451,62.5238,99.0],[27.344,62.5194,99.0],[27.3537,62.5189,99.0],[27.3504,62.5055,109.4755],[27.36,62.505,114.505],[27.3589,62.5005,99.0],[27.3493,62.501,113.7966],[27.3482,62.4965,99.0],[27.3385,62.4971,99.0],[27.3374,62.4926,99.0],[27.3181,62.4936,99.0],[27.317,62.4891,99.0],[27.3073,62.4896,99.0],[27.304,62.4762,99.0],[27.2944,62.4767,99.0],[27.2911,62.4633,99.0],[27.2621,62.4648,101.7721],[27.2643,62.4738,99.0],[27.2547,62.4743,111.5709],[27.2557,62.4787,99.0],[27.2171,62.4807,117.0085],[27.216,62.4762,108.6969],[27.2063,62.4767,114.9233],[27.2053,62.4723,114.605],[27.1956,62.4728,113.2917],[27.1913,62.4549,112.8943],[27.1816,62.4554,112.8051],[27.1827,62.4599,107.2061],[27.1731,62.4603,103.6649],[27.1773,62.4782,101.5],[27.158,62.4792,112.571],[27.1591,62.4836,101.5],[27.1494,62.4841,112.416],[27.1505,62.4886,101.5],[27.1408,62.4891,106.9009],[27.1419,62.4935,101.5],[27.1322,62.494,109.414],[27.1333,62.4985,104.9432],[27.1236,62.499,111.1906],[27.1247,62.5034,101.2692],[27.115,62.5039,101.5],[27.1118,62.4905,120.5476],[27.1022,62.491,112.6039],[27.1011,62.4865,124.1775],[27.0818,62.4875,126.3585],[27.0807,62.4831,126.6731],[27.071,62.4835,134.9348],[27.0679,62.4701,139.5549],[27.0292,62.4721,134.7895],[27.028199999999998,62.4676,134.3439],[26.9992,62.469,126.8887],[27.0002,62.4735,133.1788],[26.9906,62.474,128.1671],[26.9916,62.4784,130.5006],[26.9819,62.4789,124.5],[26.983,62.4834,133.3363],[26.9733,62.4839,128.9467],[26.9744,62.4883,132.4799],[26.9647,62.4888,119.2591],[26.9637,62.4843,138.2996],[26.954,62.4848,116.5],[26.9509,62.4714,136.0263],[26.9605,62.4709,152.1202],[26.9595,62.4665,143.654],[26.9691,62.466,146.492],[26.9639,62.4437,119.6279],[26.9446,62.4446,115.7913],[26.9457,62.4491,115.7882],[26.936,62.4496,117.5799],[26.937,62.454,112.4323],[26.9274,62.4545,126.249],[26.9284,62.459,110.5],[26.9188,62.4594,114.3943],[26.9198,62.4639,110.5],[26.9101,62.4644,110.5],[26.9112,62.4688,112.8031],[26.9015,62.4693,110.5],[26.9025,62.4738,120.9724],[26.8929,62.4743,122.5788],[26.8939,62.4787,117.1938],[26.8842,62.4792,113.1642],[26.8853,62.4837,118.8314],[26.8756,62.4841,110.5],[26.8746,62.4797,113.6929],[26.8649,62.4801,116.4301],[26.8639,62.4757,107.5],[26.8542,62.4761,107.5],[26.8521,62.4672,147.0905],[26.8425,62.4677,107.5],[26.8415,62.4632,142.5319],[26.8318,62.4637,107.5],[26.8298,62.4547,143.8968],[26.8201,62.4552,107.5],[26.8191,62.4507,119.723],[26.8287,62.4503,128.8927],[26.8277,62.4458,122.1216],[26.8374,62.4453,158.5954],[26.8364,62.4409,148.8944],[26.8267,62.4413,138.2576],[26.8257,62.4369,167.8424],[26.8064,62.4378,151.2487],[26.8054,62.4333,170.654],[26.7957,62.4338,185.4171],[26.7947,62.4293,166.0061],[26.7754,62.4303,152.9187],[26.7744,62.4258,153.4128],[26.7551,62.4267,126.9463],[26.7561,62.4312,123.2256],[26.7464,62.4316,116.4799],[26.7474,62.4361,114.88],[26.7378,62.4366,112.9827],[26.7388,62.441,117.9337],[26.7291,62.4415,125.8659],[26.7301,62.446,106.0],[26.7205,62.4464,106.0],[26.7215,62.4509,106.0],[26.7118,62.4513,106.0],[26.7108,62.4469,106.0],[26.7011,62.4473,106.0],[26.6981,62.4339,116.133],[26.7078,62.4335,121.965],[26.7048,62.4201,132.7431],[26.6952,62.4205,124.1332],[26.6932,62.4116,123.7262],[26.6835,62.4121,149.917],[26.6805,62.3987,139.6373],[26.6902,62.3982,123.0],[26.6892,62.3937,123.0],[26.7085,62.3928,123.0],[26.7075,62.3883,123.0],[26.7171,62.3879,123.0],[26.7161,62.3834,123.0],[26.7354,62.3825,123.0],[26.7344,62.378,123.0],[26.744,62.3776,131.3561],[26.743,62.3731,123.0],[26.7526,62.3727,140.7243],[26.7516,62.3682,123.0],[26.7613,62.3677,134.0251],[26.7603,62.3633,123.0],[26.7699,62.3628,123.0],[26.7689,62.3583,123.0],[26.7785,62.3579,133.8359],[26.7775,62.3534,123.0],[26.7583,62.3543,154.2748],[26.7573,62.3498,143.0],[26.7284,62.3512,196.8308],[26.7274,62.3468,211.356],[26.7081,62.3477,164.643],[26.7071,62.3432,152.0049],[26.6782,62.3446,138.7152],[26.6743,62.3267,135.9959],[26.6646,62.3272,135.7638],[26.6636,62.3227,142.4019],[26.6733,62.3223,140.0491],[26.6723,62.3178,144.3182],[26.6819,62.3173,136.3657],[26.6789,62.3039,158.968],[26.6597,62.3048,140.3063],[26.6587,62.3004,155.1646],[26.6395,62.3013,140.1088],[26.6385,62.2968,133.9323],[26.6193,62.2977,125.4349],[26.6173,62.2888,123.849],[26.6269,62.2883,126.5942],[26.6259,62.2839,123.9537],[26.6355,62.2834,126.724],[26.6287,62.2521,153.7865],[26.6383,62.2517,146.905],[26.6353,62.2383,142.9385],[26.6545,62.2374,134.0592],[26.6535,62.2329,129.5],[26.6631,62.2324,129.5],[26.6592,62.2146,128.3473],[26.64,62.2155,134.9819],[26.639,62.211,132.0632],[26.6198,62.2119,160.8903],[26.6218,62.2209,139.774],[26.6122,62.2213,131.5],[26.6132,62.2258,131.5],[26.6036,62.2262,145.5459],[26.6046,62.2307,137.2477],[26.595,62.2312,152.5346],[26.596,62.2356,149.0188],[26.5864,62.2361,163.661],[26.5873,62.2405,137.0],[26.5777,62.241,144.4967],[26.5787,62.2454,149.4841],[26.5691,62.2459,140.9546],[26.5701,62.2504,125.0],[26.5605,62.2508,135.3297],[26.5624,62.2598,121.2693],[26.5528,62.2602,112.2688],[26.5538,62.2647,104.763],[26.5442,62.2651,102.8791],[26.5432,62.2606,123.4529],[26.524,62.2615,127.9386],[26.5231,62.2571,134.4748],[26.5135,62.2575,133.0107],[26.5125,62.253,137.6655],[26.5029,62.2535,131.2455],[26.5019,62.249,132.55],[26.4827,62.2499,134.3681],[26.4808,62.241,136.8156],[26.4904,62.2405,139.761],[26.4895,62.2361,134.5172],[26.499,62.2356,135.4513],[26.4971,62.2267,129.8978],[26.4875,62.2271,142.5414],[26.4866,62.2226,129.8231],[26.477,62.2231,124.2896],[26.476,62.2186,117.7703],[26.4664,62.2191,110.5],[26.4655,62.2146,110.5],[26.4559,62.215,115.8083],[26.4549,62.2106,117.509],[26.4453,62.211,108.646],[26.4472,62.2199,114.8962],[26.4376,62.2204,104.8027],[26.4386,62.2248,98.5],[26.4194,62.2257,125.9847],[26.4156,62.2079,111.5],[26.3869,62.2092,164.8167],[26.3859,62.2047,155.6686],[26.3571,62.206,144.5009],[26.3562,62.2015,139.608],[26.3466,62.202,145.5693],[26.3457,62.1975,132.05],[26.3361,62.1979,135.3419],[26.3352,62.1935,128.5272],[26.3256,62.1939,123.7493],[26.3265,62.1984,124.1037],[26.3169,62.1988,122.6978],[26.316,62.1943,112.7261],[26.3064,62.1948,106.7273],[26.3046,62.1858,126.6326],[26.295,62.1862,117.1903],[26.2922,62.1728,121.0823],[26.2826,62.1733,108.3523],[26.2807,62.1643,132.4311],[26.2712,62.1647,135.8082],[26.2693,62.1558,139.9225],[26.2597,62.1562,138.062],[26.257,62.1428,157.6944],[26.2474,62.1432,137.581],[26.2456,62.1343,145.9375],[26.236,62.1348,155.0264],[26.2342,62.1258,146.8129],[26.2246,62.1262,131.9996],[26.2228,62.1173,191.8953],[26.2323,62.1169,139.9747],[26.2305,62.1079,188.0213],[26.24,62.1075,174.008],[26.2391,62.103,192.2343],[26.2487,62.1026,189.8005],[26.2478,62.0981,197.2968],[26.2573,62.0977,209.2575],[26.2564,62.0932,214.0017],[26.2659,62.0928,214.0663],[26.2641,62.0839,197.2581],[26.2737,62.0834,193.3928],[26.2727,62.079,190.0593],[26.2823,62.0785,201.5855],[26.2814,62.0741,194.6765],[26.2909,62.0736,196.3227],[26.2891,62.0647,191.501],[26.2986,62.0643,189.3625],[26.2977,62.0598,182.4453],[26.3072,62.0594,158.433],[26.3063,62.0549,154.2727],[26.3158,62.0545,146.8602],[26.314,62.0455,128.2817],[26.3235,62.0451,135.5054],[26.3226,62.0406,135.2425],[26.3321,62.0402,138.2556],[26.3312,62.0357,130.312],[26.340699999999998,62.0353,134.6785],[26.3398,62.0308,131.5397],[26.3493,62.0304,122.143],[26.3475,62.0215,122.4936],[26.357,62.021,126.5435],[26.3561,62.0166,113.5191],[26.3656,62.0161,120.7031],[26.3647,62.0117,121.8706],[26.3742,62.0112,126.8099],[26.3723,62.0023,114.6704],[26.3818,62.0018,116.3555],[26.3809,61.9974,115.7867],[26.3904,61.9969,112.1001],[26.3895,61.9925,124.7985],[26.399,61.992,111.5445],[26.3972,61.9831,113.6208],[26.4067,61.9827,94.2263],[26.4057,61.9782,97.3752],[26.4152,61.9777,95.046],[26.4134,61.9688,101.2796],[26.3943,61.9697,113.6724],[26.3934,61.9652,109.6134],[26.3839,61.9656,116.4686],[26.383,61.9612,115.6175],[26.3734,61.9616,121.218],[26.3725,61.9571,125.0062],[26.3535,61.958,120.7483],[26.3526,61.9536,128.1229],[26.3431,61.954,130.8454],[26.3421,61.9495,116.911],[26.3326,61.9499,113.57],[26.3298,61.9365,110.715],[26.3393,61.9361,107.8459],[26.3366,61.9227,107.5207],[26.3461,61.9223,119.2207],[26.3396,61.891,99.5252],[26.3301,61.8914,99.5059],[26.3283,61.8825,98.4649],[26.3472,61.8816,100.5293],[26.3482,61.8861,111.0311],[26.3766,61.8848,101.5374],[26.3729,61.8669,91.5],[26.3824,61.8665,94.118],[26.3805,61.8575,91.5],[26.39,61.8571,91.5],[26.3881,61.8482,122.6108],[26.3787,61.8486,130.6811],[26.3712,61.8128,101.0],[26.3807,61.8124,113.6536],[26.3798,61.8079,101.0],[26.3892,61.8075,101.0],[26.3883,61.803,101.0],[26.4167,61.8017,101.0],[26.4158,61.7972,101.0],[26.4252,61.7968,101.0],[26.4243,61.7923,101.0],[26.4337,61.7919,124.6702],[26.4328,61.7874,129.4176],[26.4423,61.787,132.3511],[26.4413,61.7825,118.7154],[26.4508,61.7821,160.3701],[26.4499,61.7776,168.5968],[26.4593,61.7772,183.5011],[26.4575,61.7682,143.248],[26.4669,61.7678,131.5493],[26.4659,61.7633,120.6095],[26.4754,61.7629,129.6122],[26.4744,61.7584,120.1301],[26.4839,61.758,101.9893],[26.482,61.7491,106.7353],[26.4915,61.7486,91.5],[26.4896,61.7397,110.7325],[26.499,61.7392,109.0105],[26.4971,61.7303,91.5],[26.5066,61.7299,91.5],[26.5056,61.7254,109.91],[26.5151,61.7249,91.5],[26.5132,61.716,114.4954],[26.5226,61.7156,91.5],[26.5207,61.7066,91.5],[26.5302,61.7062,91.5],[26.5283,61.6972,91.5],[26.5377,61.6968,91.5],[26.5339,61.6789,91.5],[26.5245,61.6794,91.5],[26.5132,61.6258,91.5],[26.5038,61.6262,91.5],[26.5047,61.6307,91.5],[26.4765,61.632,91.5],[26.4774,61.6365,91.5],[26.4492,61.6378,91.5],[26.4501,61.6423,91.5],[26.4313,61.6431,91.5],[26.4322,61.6476,91.5],[26.4228,61.648,91.5],[26.4237,61.6525,91.5],[26.3861,61.6543,91.5],[26.387,61.6587,91.5],[26.3776,61.6591,91.5],[26.373,61.6368,106.0134],[26.3541,61.6377,107.3505],[26.3514,61.6243,114.6875],[26.3608,61.6238,106.2054],[26.3599,61.6194,107.1064],[26.3505,61.6198,113.6466],[26.3496,61.6153,114.3553],[26.3401,61.6158,102.5],[26.3392,61.6113,110.4722],[26.3298,61.6117,102.5],[26.3289,61.6073,102.5],[26.3195,61.6077,102.5],[26.3149,61.5853,123.153],[26.3244,61.5849,135.9145],[26.3216,61.5715,134.939],[26.3122,61.5719,132.0641],[26.3131,61.5764,126.4989],[26.2755,61.5781,112.0414],[26.2737,61.5692,117.1985],[26.2831,61.5687,128.865],[26.2813,61.5598,141.0136],[26.2907,61.5594,140.0993],[26.2889,61.5504,135.9747],[26.2983,61.55,156.2779],[26.2928,61.5232,134.315],[26.2741,61.524,137.2049],[26.2732,61.5196,130.3371],[26.2638,61.52,145.9708],[26.2602,61.5021,109.0],[26.2696,61.5017,117.1197],[26.2678,61.4928,119.0792],[26.2771,61.4923,131.2156],[26.2753,61.4834,123.6708],[26.2847,61.483,108.5],[26.2829,61.474,122.1159],[26.2923,61.4736,111.9435],[26.2896,61.4602,104.0],[26.2802,61.4606,112.7942],[26.2793,61.4562,119.2393],[26.2699,61.4566,122.973],[26.269,61.4521,126.8857],[26.2597,61.4525,129.3175],[26.2588,61.4481,128.5082],[26.2494,61.4485,131.259],[26.2477,61.4395,145.5148],[26.257,61.4391,133.2887],[26.2552,61.4302,126.8648],[26.2646,61.4298,119.0],[26.2637,61.4253,144.6746],[26.273,61.4249,128.4842],[26.2721,61.4204,131.9635],[26.2815,61.42,144.3297],[26.2806,61.4155,133.1533],[26.2899,61.4151,154.2839],[26.289,61.4106,159.9974],[26.2984,61.4102,147.8994],[26.2974,61.4057,146.7439],[26.3161,61.4048,146.3475],[26.3152,61.4004,119.4548],[26.3246,61.3999,129.1001],[26.3237,61.3955,133.2327],[26.3143,61.3959,94.5],[26.3125,61.387,119.1474],[26.3032,61.3874,94.5],[26.3023,61.3829,122.4342],[26.2929,61.3834,105.7593],[26.2893,61.3655,80.5],[26.2987,61.365,146.5524],[26.2996,61.3695,80.5],[26.3182,61.3687,123.5965],[26.3164,61.3597,117.1186],[26.3258,61.3593,130.1404],[26.3249,61.3548,110.0],[26.3342,61.3544,121.393],[26.3333,61.3499,113.3262],[26.3426,61.3495,128.4754],[26.3417,61.345,140.7189],[26.351,61.3446,121.2022],[26.3501,61.3401,135.4758],[26.3688,61.3392,130.7751],[26.3679,61.3348,137.7666],[26.3772,61.3344,113.7867],[26.3763,61.3299,102.0929],[26.3949,61.329,91.0221],[26.394,61.3245,89.5699],[26.4872,61.3202,97.2123],[26.4863,61.3157,122.0308],[26.4956,61.3153,126.661],[26.4928,61.3018,94.1666],[26.5021,61.3014,116.0175],[26.5002,61.2925,94.3374],[26.5096,61.292,97.669]]]]}}